<?xml version="1.0" encoding="UTF-8"?>
<kml xmlns="http://www.opengis.net/kml/2.2" xmlns:gx="http://www.google.com/kml/ext/2.2">
    <Document id="2721990">
        <Style id="2721997">
            <LineStyle id="2721999">
                <color>ffffffff</color>
                <colorMode>normal</colorMode>
                <width>1</width>
            </LineStyle>
            <PolyStyle id="2721998">
                <colorMode>normal</colorMode>
                <fill>0</fill>
                <outline>1</outline>
            </PolyStyle>
        </Style>
        <Style id="2722006">
            <LineStyle id="2722008">
                <color>ffffffff</color>
                <colorMode>normal</colorMode>
                <width>1</width>
            </LineStyle>
            <PolyStyle id="2722007">
                <colorMode>normal</colorMode>
                <fill>0</fill>
                <outline>1</outline>
            </PolyStyle>
        </Style>
        <Style id="2722015">
            <LineStyle id="2722017">
                <color>ffffffff</color>
                <colorMode>normal</colorMode>
                <width>1</width>
            </LineStyle>
            <PolyStyle id="2722016">
                <colorMode>normal</colorMode>
                <fill>0</fill>
                <outline>1</outline>
            </PolyStyle>
        </Style>
        <Style id="2722024">
            <LineStyle id="2722026">
                <color>ffffffff</color>
                <colorMode>normal</colorMode>
                <width>1</width>
            </LineStyle>
            <PolyStyle id="2722025">
                <colorMode>normal</colorMode>
                <fill>0</fill>
                <outline>1</outline>
            </PolyStyle>
        </Style>
        <Style id="2722033">
            <LineStyle id="2722035">
                <color>ffffffff</color>
                <colorMode>normal</colorMode>
                <width>1</width>
            </LineStyle>
            <PolyStyle id="2722034">
                <colorMode>normal</colorMode>
                <fill>0</fill>
                <outline>1</outline>
            </PolyStyle>
        </Style>
        <Style id="2722042">
            <LineStyle id="2722044">
                <color>ffffffff</color>
                <colorMode>normal</colorMode>
                <width>1</width>
            </LineStyle>
            <PolyStyle id="2722043">
                <colorMode>normal</colorMode>
                <fill>0</fill>
                <outline>1</outline>
            </PolyStyle>
        </Style>
        <Style id="2722051">
            <LineStyle id="2722053">
                <color>ffffffff</color>
                <colorMode>normal</colorMode>
                <width>1</width>
            </LineStyle>
            <PolyStyle id="2722052">
                <colorMode>normal</colorMode>
                <fill>0</fill>
                <outline>1</outline>
            </PolyStyle>
        </Style>
        <Style id="2722060">
            <LineStyle id="2722062">
                <color>ffffffff</color>
                <colorMode>normal</colorMode>
                <width>1</width>
            </LineStyle>
            <PolyStyle id="2722061">
                <colorMode>normal</colorMode>
                <fill>0</fill>
                <outline>1</outline>
            </PolyStyle>
        </Style>
        <Style id="2722069">
            <LineStyle id="2722071">
                <color>ffffffff</color>
                <colorMode>normal</colorMode>
                <width>1</width>
            </LineStyle>
            <PolyStyle id="2722070">
                <colorMode>normal</colorMode>
                <fill>0</fill>
                <outline>1</outline>
            </PolyStyle>
        </Style>
        <Style id="2722078">
            <LineStyle id="2722080">
                <color>ffffffff</color>
                <colorMode>normal</colorMode>
                <width>1</width>
            </LineStyle>
            <PolyStyle id="2722079">
                <colorMode>normal</colorMode>
                <fill>0</fill>
                <outline>1</outline>
            </PolyStyle>
        </Style>
        <Style id="2722087">
            <LineStyle id="2722089">
                <color>ffffffff</color>
                <colorMode>normal</colorMode>
                <width>1</width>
            </LineStyle>
            <PolyStyle id="2722088">
                <colorMode>normal</colorMode>
                <fill>0</fill>
                <outline>1</outline>
            </PolyStyle>
        </Style>
        <Style id="2722096">
            <LineStyle id="2722098">
                <color>ffffffff</color>
                <colorMode>normal</colorMode>
                <width>1</width>
            </LineStyle>
            <PolyStyle id="2722097">
                <colorMode>normal</colorMode>
                <fill>0</fill>
                <outline>1</outline>
            </PolyStyle>
        </Style>
        <Style id="2722105">
            <LineStyle id="2722107">
                <color>ffffffff</color>
                <colorMode>normal</colorMode>
                <width>1</width>
            </LineStyle>
            <PolyStyle id="2722106">
                <colorMode>normal</colorMode>
                <fill>0</fill>
                <outline>1</outline>
            </PolyStyle>
        </Style>
        <Style id="2722114">
            <LineStyle id="2722116">
                <color>ffffffff</color>
                <colorMode>normal</colorMode>
                <width>1</width>
            </LineStyle>
            <PolyStyle id="2722115">
                <colorMode>normal</colorMode>
                <fill>0</fill>
                <outline>1</outline>
            </PolyStyle>
        </Style>
        <Style id="2722123">
            <LineStyle id="2722125">
                <color>ffffffff</color>
                <colorMode>normal</colorMode>
                <width>1</width>
            </LineStyle>
            <PolyStyle id="2722124">
                <colorMode>normal</colorMode>
                <fill>0</fill>
                <outline>1</outline>
            </PolyStyle>
        </Style>
        <Style id="2722132">
            <LineStyle id="2722134">
                <color>ffffffff</color>
                <colorMode>normal</colorMode>
                <width>1</width>
            </LineStyle>
            <PolyStyle id="2722133">
                <colorMode>normal</colorMode>
                <fill>0</fill>
                <outline>1</outline>
            </PolyStyle>
        </Style>
        <Style id="2722141">
            <LineStyle id="2722143">
                <color>ffffffff</color>
                <colorMode>normal</colorMode>
                <width>1</width>
            </LineStyle>
            <PolyStyle id="2722142">
                <colorMode>normal</colorMode>
                <fill>0</fill>
                <outline>1</outline>
            </PolyStyle>
        </Style>
        <Style id="2722150">
            <LineStyle id="2722152">
                <color>ffffffff</color>
                <colorMode>normal</colorMode>
                <width>1</width>
            </LineStyle>
            <PolyStyle id="2722151">
                <colorMode>normal</colorMode>
                <fill>0</fill>
                <outline>1</outline>
            </PolyStyle>
        </Style>
        <Style id="2722159">
            <LineStyle id="2722161">
                <color>ffffffff</color>
                <colorMode>normal</colorMode>
                <width>1</width>
            </LineStyle>
            <PolyStyle id="2722160">
                <colorMode>normal</colorMode>
                <fill>0</fill>
                <outline>1</outline>
            </PolyStyle>
        </Style>
        <Style id="2722168">
            <LineStyle id="2722170">
                <color>ffffffff</color>
                <colorMode>normal</colorMode>
                <width>1</width>
            </LineStyle>
            <PolyStyle id="2722169">
                <colorMode>normal</colorMode>
                <fill>0</fill>
                <outline>1</outline>
            </PolyStyle>
        </Style>
        <Style id="2722177">
            <LineStyle id="2722179">
                <color>ffffffff</color>
                <colorMode>normal</colorMode>
                <width>1</width>
            </LineStyle>
            <PolyStyle id="2722178">
                <colorMode>normal</colorMode>
                <fill>0</fill>
                <outline>1</outline>
            </PolyStyle>
        </Style>
        <Style id="2722186">
            <LineStyle id="2722188">
                <color>ffffffff</color>
                <colorMode>normal</colorMode>
                <width>1</width>
            </LineStyle>
            <PolyStyle id="2722187">
                <colorMode>normal</colorMode>
                <fill>0</fill>
                <outline>1</outline>
            </PolyStyle>
        </Style>
        <Style id="2722195">
            <LineStyle id="2722197">
                <color>ffffffff</color>
                <colorMode>normal</colorMode>
                <width>1</width>
            </LineStyle>
            <PolyStyle id="2722196">
                <colorMode>normal</colorMode>
                <fill>0</fill>
                <outline>1</outline>
            </PolyStyle>
        </Style>
        <Style id="2722204">
            <LineStyle id="2722206">
                <color>ffffffff</color>
                <colorMode>normal</colorMode>
                <width>1</width>
            </LineStyle>
            <PolyStyle id="2722205">
                <colorMode>normal</colorMode>
                <fill>0</fill>
                <outline>1</outline>
            </PolyStyle>
        </Style>
        <Style id="2722213">
            <LineStyle id="2722215">
                <color>ffffffff</color>
                <colorMode>normal</colorMode>
                <width>1</width>
            </LineStyle>
            <PolyStyle id="2722214">
                <colorMode>normal</colorMode>
                <fill>0</fill>
                <outline>1</outline>
            </PolyStyle>
        </Style>
        <Style id="2722222">
            <LineStyle id="2722224">
                <color>ffffffff</color>
                <colorMode>normal</colorMode>
                <width>1</width>
            </LineStyle>
            <PolyStyle id="2722223">
                <colorMode>normal</colorMode>
                <fill>0</fill>
                <outline>1</outline>
            </PolyStyle>
        </Style>
        <Style id="2722231">
            <LineStyle id="2722233">
                <color>ffffffff</color>
                <colorMode>normal</colorMode>
                <width>1</width>
            </LineStyle>
            <PolyStyle id="2722232">
                <colorMode>normal</colorMode>
                <fill>0</fill>
                <outline>1</outline>
            </PolyStyle>
        </Style>
        <Style id="2722240">
            <LineStyle id="2722242">
                <color>ffffffff</color>
                <colorMode>normal</colorMode>
                <width>1</width>
            </LineStyle>
            <PolyStyle id="2722241">
                <colorMode>normal</colorMode>
                <fill>0</fill>
                <outline>1</outline>
            </PolyStyle>
        </Style>
        <Style id="2722249">
            <LineStyle id="2722251">
                <color>ffffffff</color>
                <colorMode>normal</colorMode>
                <width>1</width>
            </LineStyle>
            <PolyStyle id="2722250">
                <colorMode>normal</colorMode>
                <fill>0</fill>
                <outline>1</outline>
            </PolyStyle>
        </Style>
        <Style id="2722258">
            <LineStyle id="2722260">
                <color>ffffffff</color>
                <colorMode>normal</colorMode>
                <width>1</width>
            </LineStyle>
            <PolyStyle id="2722259">
                <colorMode>normal</colorMode>
                <fill>0</fill>
                <outline>1</outline>
            </PolyStyle>
        </Style>
        <Style id="2722267">
            <LineStyle id="2722269">
                <color>ffffffff</color>
                <colorMode>normal</colorMode>
                <width>1</width>
            </LineStyle>
            <PolyStyle id="2722268">
                <colorMode>normal</colorMode>
                <fill>0</fill>
                <outline>1</outline>
            </PolyStyle>
        </Style>
        <Style id="2722276">
            <LineStyle id="2722278">
                <color>ffffffff</color>
                <colorMode>normal</colorMode>
                <width>1</width>
            </LineStyle>
            <PolyStyle id="2722277">
                <colorMode>normal</colorMode>
                <fill>0</fill>
                <outline>1</outline>
            </PolyStyle>
        </Style>
        <Style id="2722285">
            <LineStyle id="2722287">
                <color>ffffffff</color>
                <colorMode>normal</colorMode>
                <width>1</width>
            </LineStyle>
            <PolyStyle id="2722286">
                <colorMode>normal</colorMode>
                <fill>0</fill>
                <outline>1</outline>
            </PolyStyle>
        </Style>
        <Style id="2722294">
            <LineStyle id="2722296">
                <color>ffffffff</color>
                <colorMode>normal</colorMode>
                <width>1</width>
            </LineStyle>
            <PolyStyle id="2722295">
                <colorMode>normal</colorMode>
                <fill>0</fill>
                <outline>1</outline>
            </PolyStyle>
        </Style>
        <Style id="2722303">
            <LineStyle id="2722305">
                <color>ffffffff</color>
                <colorMode>normal</colorMode>
                <width>1</width>
            </LineStyle>
            <PolyStyle id="2722304">
                <colorMode>normal</colorMode>
                <fill>0</fill>
                <outline>1</outline>
            </PolyStyle>
        </Style>
        <Style id="2722312">
            <LineStyle id="2722314">
                <color>ffffffff</color>
                <colorMode>normal</colorMode>
                <width>1</width>
            </LineStyle>
            <PolyStyle id="2722313">
                <colorMode>normal</colorMode>
                <fill>0</fill>
                <outline>1</outline>
            </PolyStyle>
        </Style>
        <Style id="2722321">
            <LineStyle id="2722323">
                <color>ffffffff</color>
                <colorMode>normal</colorMode>
                <width>1</width>
            </LineStyle>
            <PolyStyle id="2722322">
                <colorMode>normal</colorMode>
                <fill>0</fill>
                <outline>1</outline>
            </PolyStyle>
        </Style>
        <Style id="2722330">
            <LineStyle id="2722332">
                <color>ffffffff</color>
                <colorMode>normal</colorMode>
                <width>1</width>
            </LineStyle>
            <PolyStyle id="2722331">
                <colorMode>normal</colorMode>
                <fill>0</fill>
                <outline>1</outline>
            </PolyStyle>
        </Style>
        <Style id="2722339">
            <LineStyle id="2722341">
                <color>ffffffff</color>
                <colorMode>normal</colorMode>
                <width>1</width>
            </LineStyle>
            <PolyStyle id="2722340">
                <colorMode>normal</colorMode>
                <fill>0</fill>
                <outline>1</outline>
            </PolyStyle>
        </Style>
        <Style id="2722348">
            <LineStyle id="2722350">
                <color>ffffffff</color>
                <colorMode>normal</colorMode>
                <width>1</width>
            </LineStyle>
            <PolyStyle id="2722349">
                <colorMode>normal</colorMode>
                <fill>0</fill>
                <outline>1</outline>
            </PolyStyle>
        </Style>
        <Style id="2722357">
            <LineStyle id="2722359">
                <color>ffffffff</color>
                <colorMode>normal</colorMode>
                <width>1</width>
            </LineStyle>
            <PolyStyle id="2722358">
                <colorMode>normal</colorMode>
                <fill>0</fill>
                <outline>1</outline>
            </PolyStyle>
        </Style>
        <Style id="2722366">
            <LineStyle id="2722368">
                <color>ffffffff</color>
                <colorMode>normal</colorMode>
                <width>1</width>
            </LineStyle>
            <PolyStyle id="2722367">
                <colorMode>normal</colorMode>
                <fill>0</fill>
                <outline>1</outline>
            </PolyStyle>
        </Style>
        <Style id="2722375">
            <LineStyle id="2722377">
                <color>ffffffff</color>
                <colorMode>normal</colorMode>
                <width>1</width>
            </LineStyle>
            <PolyStyle id="2722376">
                <colorMode>normal</colorMode>
                <fill>0</fill>
                <outline>1</outline>
            </PolyStyle>
        </Style>
        <Style id="2722384">
            <LineStyle id="2722386">
                <color>ffffffff</color>
                <colorMode>normal</colorMode>
                <width>1</width>
            </LineStyle>
            <PolyStyle id="2722385">
                <colorMode>normal</colorMode>
                <fill>0</fill>
                <outline>1</outline>
            </PolyStyle>
        </Style>
        <Style id="2722393">
            <LineStyle id="2722395">
                <color>ffffffff</color>
                <colorMode>normal</colorMode>
                <width>1</width>
            </LineStyle>
            <PolyStyle id="2722394">
                <colorMode>normal</colorMode>
                <fill>0</fill>
                <outline>1</outline>
            </PolyStyle>
        </Style>
        <Style id="2722402">
            <LineStyle id="2722404">
                <color>ffffffff</color>
                <colorMode>normal</colorMode>
                <width>1</width>
            </LineStyle>
            <PolyStyle id="2722403">
                <colorMode>normal</colorMode>
                <fill>0</fill>
                <outline>1</outline>
            </PolyStyle>
        </Style>
        <Style id="2722411">
            <LineStyle id="2722413">
                <color>ffffffff</color>
                <colorMode>normal</colorMode>
                <width>1</width>
            </LineStyle>
            <PolyStyle id="2722412">
                <colorMode>normal</colorMode>
                <fill>0</fill>
                <outline>1</outline>
            </PolyStyle>
        </Style>
        <Style id="2722420">
            <LineStyle id="2722422">
                <color>ffffffff</color>
                <colorMode>normal</colorMode>
                <width>1</width>
            </LineStyle>
            <PolyStyle id="2722421">
                <colorMode>normal</colorMode>
                <fill>0</fill>
                <outline>1</outline>
            </PolyStyle>
        </Style>
        <Style id="2722429">
            <LineStyle id="2722431">
                <color>ffffffff</color>
                <colorMode>normal</colorMode>
                <width>1</width>
            </LineStyle>
            <PolyStyle id="2722430">
                <colorMode>normal</colorMode>
                <fill>0</fill>
                <outline>1</outline>
            </PolyStyle>
        </Style>
        <Style id="2722438">
            <LineStyle id="2722440">
                <color>ffffffff</color>
                <colorMode>normal</colorMode>
                <width>1</width>
            </LineStyle>
            <PolyStyle id="2722439">
                <colorMode>normal</colorMode>
                <fill>0</fill>
                <outline>1</outline>
            </PolyStyle>
        </Style>
        <Style id="2722447">
            <LineStyle id="2722449">
                <color>ffffffff</color>
                <colorMode>normal</colorMode>
                <width>1</width>
            </LineStyle>
            <PolyStyle id="2722448">
                <colorMode>normal</colorMode>
                <fill>0</fill>
                <outline>1</outline>
            </PolyStyle>
        </Style>
        <Style id="2722456">
            <LineStyle id="2722458">
                <color>ffffffff</color>
                <colorMode>normal</colorMode>
                <width>1</width>
            </LineStyle>
            <PolyStyle id="2722457">
                <colorMode>normal</colorMode>
                <fill>0</fill>
                <outline>1</outline>
            </PolyStyle>
        </Style>
        <Style id="2722465">
            <LineStyle id="2722467">
                <color>ffffffff</color>
                <colorMode>normal</colorMode>
                <width>1</width>
            </LineStyle>
            <PolyStyle id="2722466">
                <colorMode>normal</colorMode>
                <fill>0</fill>
                <outline>1</outline>
            </PolyStyle>
        </Style>
        <Style id="2722474">
            <LineStyle id="2722476">
                <color>ffffffff</color>
                <colorMode>normal</colorMode>
                <width>1</width>
            </LineStyle>
            <PolyStyle id="2722475">
                <colorMode>normal</colorMode>
                <fill>0</fill>
                <outline>1</outline>
            </PolyStyle>
        </Style>
        <Style id="2722483">
            <LineStyle id="2722485">
                <color>ffffffff</color>
                <colorMode>normal</colorMode>
                <width>1</width>
            </LineStyle>
            <PolyStyle id="2722484">
                <colorMode>normal</colorMode>
                <fill>0</fill>
                <outline>1</outline>
            </PolyStyle>
        </Style>
        <Style id="2722492">
            <LineStyle id="2722494">
                <color>ffffffff</color>
                <colorMode>normal</colorMode>
                <width>1</width>
            </LineStyle>
            <PolyStyle id="2722493">
                <colorMode>normal</colorMode>
                <fill>0</fill>
                <outline>1</outline>
            </PolyStyle>
        </Style>
        <Style id="2722501">
            <LineStyle id="2722503">
                <color>ffffffff</color>
                <colorMode>normal</colorMode>
                <width>1</width>
            </LineStyle>
            <PolyStyle id="2722502">
                <colorMode>normal</colorMode>
                <fill>0</fill>
                <outline>1</outline>
            </PolyStyle>
        </Style>
        <Style id="2722510">
            <LineStyle id="2722512">
                <color>ffffffff</color>
                <colorMode>normal</colorMode>
                <width>1</width>
            </LineStyle>
            <PolyStyle id="2722511">
                <colorMode>normal</colorMode>
                <fill>0</fill>
                <outline>1</outline>
            </PolyStyle>
        </Style>
        <Style id="2722519">
            <LineStyle id="2722521">
                <color>ffffffff</color>
                <colorMode>normal</colorMode>
                <width>1</width>
            </LineStyle>
            <PolyStyle id="2722520">
                <colorMode>normal</colorMode>
                <fill>0</fill>
                <outline>1</outline>
            </PolyStyle>
        </Style>
        <Style id="2722528">
            <LineStyle id="2722530">
                <color>ffffffff</color>
                <colorMode>normal</colorMode>
                <width>1</width>
            </LineStyle>
            <PolyStyle id="2722529">
                <colorMode>normal</colorMode>
                <fill>0</fill>
                <outline>1</outline>
            </PolyStyle>
        </Style>
        <Style id="2722537">
            <LineStyle id="2722539">
                <color>ffffffff</color>
                <colorMode>normal</colorMode>
                <width>1</width>
            </LineStyle>
            <PolyStyle id="2722538">
                <colorMode>normal</colorMode>
                <fill>0</fill>
                <outline>1</outline>
            </PolyStyle>
        </Style>
        <Style id="2722546">
            <LineStyle id="2722548">
                <color>ffffffff</color>
                <colorMode>normal</colorMode>
                <width>1</width>
            </LineStyle>
            <PolyStyle id="2722547">
                <colorMode>normal</colorMode>
                <fill>0</fill>
                <outline>1</outline>
            </PolyStyle>
        </Style>
        <Style id="2722555">
            <LineStyle id="2722557">
                <color>ffffffff</color>
                <colorMode>normal</colorMode>
                <width>1</width>
            </LineStyle>
            <PolyStyle id="2722556">
                <colorMode>normal</colorMode>
                <fill>0</fill>
                <outline>1</outline>
            </PolyStyle>
        </Style>
        <Placemark id="2721992">
            <name>Parcel_295300</name>
            <styleUrl>#2721997</styleUrl>
            <Polygon id="2721991">
                <outerBoundaryIs>
                    <LinearRing id="2721995">
                        <coordinates>-79.059912779804,34.10369865733616,0.0 -79.06014008074865,34.103428444098846,0.0 -79.06073025147347,34.10377196638321,0.0 -79.06050404947396,34.104042815572896,0.0 -79.059912779804,34.10369865733616,0.0</coordinates>
                    </LinearRing>
                </outerBoundaryIs>
            </Polygon>
        </Placemark>
        <Placemark id="2722001">
            <name>Parcel_295301</name>
            <styleUrl>#2722006</styleUrl>
            <Polygon id="2722000">
                <outerBoundaryIs>
                    <LinearRing id="2722004">
                        <coordinates>-79.06148309513867,34.10180636525467,0.0 -79.0620558227118,34.101096876786386,0.0 -79.06301368910938,34.101635811071255,0.0 -79.06585063656054,34.10323190534534,0.0 -79.0658364786406,34.10425250732485,0.0 -79.06244170493677,34.102345027685175,0.0 -79.06148309513867,34.10180636525467,0.0</coordinates>
                    </LinearRing>
                </outerBoundaryIs>
            </Polygon>
        </Placemark>
        <Placemark id="2722010">
            <name>Parcel_295302</name>
            <styleUrl>#2722015</styleUrl>
            <Polygon id="2722009">
                <outerBoundaryIs>
                    <LinearRing id="2722013">
                        <coordinates>-79.059912779804,34.10369865733616,0.0 -79.06050404947396,34.104042815572896,0.0 -79.06018947514734,34.10441947473879,0.0 -79.05990430693836,34.104254673309605,0.0 -79.06002196344484,34.104075863257876,0.0 -79.05973999237756,34.10390406439967,0.0 -79.059912779804,34.10369865733616,0.0</coordinates>
                    </LinearRing>
                </outerBoundaryIs>
            </Polygon>
        </Placemark>
        <Placemark id="2722019">
            <name>Parcel_295303</name>
            <styleUrl>#2722024</styleUrl>
            <Polygon id="2722018">
                <outerBoundaryIs>
                    <LinearRing id="2722022">
                        <coordinates>-79.06018947514734,34.10441947473879,0.0 -79.06050404947396,34.104042815572896,0.0 -79.06073025147347,34.10377196638321,0.0 -79.06014008074865,34.103428444098846,0.0 -79.06031055471678,34.10322578342042,0.0 -79.06090071616327,34.10356930027254,0.0 -79.06112691358102,34.10329844668294,0.0 -79.06135310851003,34.103027591741466,0.0 -79.06296017240159,34.10396299536556,0.0 -79.06254027928298,34.10446579088402,0.0 -79.06036437447911,34.104520549943196,0.0 -79.06018947514734,34.10441947473879,0.0</coordinates>
                    </LinearRing>
                </outerBoundaryIs>
            </Polygon>
        </Placemark>
        <Placemark id="2722028">
            <name>Parcel_295304</name>
            <styleUrl>#2722033</styleUrl>
            <Polygon id="2722027">
                <outerBoundaryIs>
                    <LinearRing id="2722031">
                        <coordinates>-79.06102466523302,34.10237425868683,0.0 -79.06148309513867,34.10180636525467,0.0 -79.06244170493677,34.102345027685175,0.0 -79.0658364786406,34.10425250732485,0.0 -79.0658286265468,34.10481848261578,0.0 -79.06584086287562,34.10508041784548,0.0 -79.06198355480335,34.10291307497257,0.0 -79.06102466523302,34.10237425868683,0.0</coordinates>
                    </LinearRing>
                </outerBoundaryIs>
            </Polygon>
        </Placemark>
        <Placemark id="2722037">
            <name>Parcel_295305</name>
            <styleUrl>#2722042</styleUrl>
            <Polygon id="2722036">
                <outerBoundaryIs>
                    <LinearRing id="2722040">
                        <coordinates>-79.05890892160319,34.10489236090848,0.0 -79.05919631348478,34.10454991883652,0.0 -79.06036437447911,34.104520549943196,0.0 -79.06254027928298,34.10446579088402,0.0 -79.06257278990282,34.10484836199411,0.0 -79.06255099276817,34.10539854785073,0.0 -79.05890892160319,34.10489236090848,0.0</coordinates>
                    </LinearRing>
                </outerBoundaryIs>
            </Polygon>
        </Placemark>
        <Placemark id="2722046">
            <name>Parcel_295306</name>
            <styleUrl>#2722051</styleUrl>
            <Polygon id="2722045">
                <outerBoundaryIs>
                    <LinearRing id="2722049">
                        <coordinates>-79.06257278990282,34.10484836199411,0.0 -79.06254027928298,34.10446579088402,0.0 -79.06296017240159,34.10396299536556,0.0 -79.06135310851003,34.103027591741466,0.0 -79.06076491365992,34.1026852187155,0.0 -79.06084554430517,34.10258898990118,0.0 -79.06102466523302,34.10237425868683,0.0 -79.06198355480335,34.10291307497257,0.0 -79.06584086287562,34.10508041784548,0.0 -79.06587620532109,34.10583692228393,0.0 -79.06587683227811,34.10585035133249,0.0 -79.06538546175851,34.105704482301256,0.0 -79.06433439023466,34.10534876617544,0.0 -79.06391679282831,34.10520501380554,0.0 -79.06257278990282,34.10484836199411,0.0</coordinates>
                    </LinearRing>
                </outerBoundaryIs>
            </Polygon>
        </Placemark>
        <Placemark id="2722055">
            <name>Parcel_295307</name>
            <styleUrl>#2722060</styleUrl>
            <Polygon id="2722054">
                <outerBoundaryIs>
                    <LinearRing id="2722058">
                        <coordinates>-79.05890892160319,34.10489236090848,0.0 -79.06255099276817,34.10539854785073,0.0 -79.0625204831874,34.10616858939581,0.0 -79.0593828302006,34.10541407982927,0.0 -79.05862152741166,34.10523480318248,0.0 -79.05890892160319,34.10489236090848,0.0</coordinates>
                    </LinearRing>
                </outerBoundaryIs>
            </Polygon>
        </Placemark>
        <Placemark id="2722064">
            <name>Parcel_295308</name>
            <styleUrl>#2722069</styleUrl>
            <Polygon id="2722063">
                <outerBoundaryIs>
                    <LinearRing id="2722067">
                        <coordinates>-79.12088010014966,34.055817280598504,0.0 -79.12111451435104,34.054823311582105,0.0 -79.12121723806086,34.054821032418516,0.0 -79.12154390069385,34.054816703545114,0.0 -79.12187060119089,34.05481793241354,0.0 -79.12192448473141,34.0548186357048,0.0 -79.12164604776883,34.055999064218454,0.0 -79.12088010014966,34.055817280598504,0.0</coordinates>
                    </LinearRing>
                </outerBoundaryIs>
            </Polygon>
        </Placemark>
        <Placemark id="2722073">
            <name>Parcel_295309</name>
            <styleUrl>#2722078</styleUrl>
            <Polygon id="2722072">
                <outerBoundaryIs>
                    <LinearRing id="2722076">
                        <coordinates>-79.12141654891279,34.05697315598511,0.0 -79.1215307865615,34.05648781818123,0.0 -79.12164604776883,34.055999064218454,0.0 -79.1221318916929,34.05611436729572,0.0 -79.12190217820527,34.05708840429703,0.0 -79.12141654891279,34.05697315598511,0.0</coordinates>
                    </LinearRing>
                </outerBoundaryIs>
            </Polygon>
        </Placemark>
        <Placemark id="2722082">
            <name>Parcel_295310</name>
            <styleUrl>#2722087</styleUrl>
            <Polygon id="2722081">
                <outerBoundaryIs>
                    <LinearRing id="2722085">
                        <coordinates>-79.12085528055539,34.05887144235837,0.0 -79.12027617776843,34.05854819563747,0.0 -79.12024069100652,34.0585283861047,0.0 -79.12076483038298,34.05630603921883,0.0 -79.1215307865615,34.05648781818123,0.0 -79.12141654891279,34.05697315598511,0.0 -79.12097573114187,34.058938674678245,0.0 -79.12085528055539,34.05887144235837,0.0</coordinates>
                    </LinearRing>
                </outerBoundaryIs>
            </Polygon>
        </Placemark>
        <Placemark id="2722091">
            <name>Parcel_295311</name>
            <styleUrl>#2722096</styleUrl>
            <Polygon id="2722090">
                <outerBoundaryIs>
                    <LinearRing id="2722094">
                        <coordinates>-79.1215068666499,34.05913759914222,0.0 -79.12097573114187,34.058938674678245,0.0 -79.12141654891279,34.05697315598511,0.0 -79.12190217820527,34.05708840429703,0.0 -79.1221318916929,34.05611436729572,0.0 -79.12164604776883,34.055999064218454,0.0 -79.12192448473141,34.0548186357048,0.0 -79.12219842149031,34.054822212946014,0.0 -79.1225219330112,34.05483288280953,0.0 -79.1225951515976,34.05483636997834,0.0 -79.12157978102022,34.05914238179512,0.0 -79.1215068666499,34.05913759914222,0.0</coordinates>
                    </LinearRing>
                </outerBoundaryIs>
            </Polygon>
        </Placemark>
        <Placemark id="2722100">
            <name>Parcel_295312</name>
            <styleUrl>#2722105</styleUrl>
            <Polygon id="2722099">
                <outerBoundaryIs>
                    <LinearRing id="2722103">
                        <coordinates>-79.12157978102022,34.05914238179512,0.0 -79.1225951515976,34.05483636997834,0.0 -79.12285041115206,34.0548485275102,0.0 -79.12328367620022,34.054872463238816,0.0 -79.12226952476517,34.05918762695833,0.0 -79.12157978102022,34.05914238179512,0.0</coordinates>
                    </LinearRing>
                </outerBoundaryIs>
            </Polygon>
        </Placemark>
        <Placemark id="2722109">
            <name>Parcel_295313</name>
            <styleUrl>#2722114</styleUrl>
            <Polygon id="2722108">
                <outerBoundaryIs>
                    <LinearRing id="2722112">
                        <coordinates>-78.76311622988597,34.02507170550556,0.0 -78.76077598625696,34.02392633701464,0.0 -78.75902428431047,34.02420367823132,0.0 -78.75889564813896,34.024085841521924,0.0 -78.75930644548977,34.02402433454527,0.0 -78.76074559540321,34.021924123011175,0.0 -78.76211497019976,34.022174412929864,0.0 -78.76335223664616,34.022418805433176,0.0 -78.7638310687568,34.02299567914699,0.0 -78.76311622988597,34.02507170550556,0.0</coordinates>
                    </LinearRing>
                </outerBoundaryIs>
            </Polygon>
        </Placemark>
        <Placemark id="2722118">
            <name>Parcel_295314</name>
            <styleUrl>#2722123</styleUrl>
            <Polygon id="2722117">
                <outerBoundaryIs>
                    <LinearRing id="2722121">
                        <coordinates>-79.14787660640212,33.820781701206826,0.0 -79.14732584542654,33.8203771524438,0.0 -79.14607393591531,33.81932694798668,0.0 -79.14882707767775,33.81732022913477,0.0 -79.14892377798347,33.817869242434305,0.0 -79.15048137378146,33.817716899726236,0.0 -79.15048941892454,33.81771611261587,0.0 -79.15049519789963,33.81779319382949,0.0 -79.15049854247002,33.81787037576072,0.0 -79.15049945270907,33.817947604297885,0.0 -79.15049792652961,33.81802482529679,0.0 -79.15049396502707,33.81810198736633,0.0 -79.15048757155395,33.818179034639485,0.0 -79.15045980446996,33.81854943638794,0.0 -79.14986733019738,33.8185492781184,0.0 -79.1498541832109,33.820026126564386,0.0 -79.14916185964333,33.81990373840452,0.0 -79.14845184301936,33.821159921241915,0.0 -79.14787660640212,33.820781701206826,0.0</coordinates>
                    </LinearRing>
                </outerBoundaryIs>
            </Polygon>
        </Placemark>
        <Placemark id="2722127">
            <name>Parcel_295315</name>
            <styleUrl>#2722132</styleUrl>
            <Polygon id="2722126">
                <outerBoundaryIs>
                    <LinearRing id="2722130">
                        <coordinates>-79.14732584542654,33.8203771524438,0.0 -79.14787660640212,33.820781701206826,0.0 -79.14745366627827,33.82117855961001,0.0 -79.14689284396786,33.820783449968665,0.0 -79.14732584542654,33.8203771524438,0.0</coordinates>
                    </LinearRing>
                </outerBoundaryIs>
            </Polygon>
        </Placemark>
        <Placemark id="2722136">
            <name>Parcel_295316</name>
            <styleUrl>#2722141</styleUrl>
            <Polygon id="2722135">
                <outerBoundaryIs>
                    <LinearRing id="2722139">
                        <coordinates>-79.14845184301936,33.821159921241915,0.0 -79.14916185964333,33.81990373840452,0.0 -79.1498541832109,33.820026126564386,0.0 -79.14985209349213,33.82026081189355,0.0 -79.14941768855279,33.82102938711212,0.0 -79.14927013948382,33.82129011000022,0.0 -79.1490917902318,33.82160349420318,0.0 -79.149034288925,33.82157765956354,0.0 -79.14866527392422,33.821330923076616,0.0 -79.14845184301936,33.821159921241915,0.0</coordinates>
                    </LinearRing>
                </outerBoundaryIs>
            </Polygon>
        </Placemark>
        <Placemark id="2722145">
            <name>Parcel_295317</name>
            <styleUrl>#2722150</styleUrl>
            <Polygon id="2722144">
                <outerBoundaryIs>
                    <LinearRing id="2722148">
                        <coordinates>-79.13615737884233,33.81816360388352,0.0 -79.14170058090895,33.81624289359793,0.0 -79.142285568006,33.818296499881725,0.0 -79.14356369862729,33.81864570734493,0.0 -79.14009839628308,33.82342801562279,0.0 -79.1381486351328,33.82239661310161,0.0 -79.1359398333313,33.82123135686144,0.0 -79.13446827124223,33.82045763140464,0.0 -79.13531799504669,33.81928171980334,0.0 -79.13566224592599,33.81880268065195,0.0 -79.13615737884233,33.81816360388352,0.0</coordinates>
                    </LinearRing>
                </outerBoundaryIs>
            </Polygon>
        </Placemark>
        <Placemark id="2722154">
            <name>Parcel_295318</name>
            <styleUrl>#2722159</styleUrl>
            <Polygon id="2722153">
                <outerBoundaryIs>
                    <LinearRing id="2722157">
                        <coordinates>-79.14399486141012,33.82459448374224,0.0 -79.14387053860443,33.824514095590764,0.0 -79.14351226242226,33.82436715599012,0.0 -79.14316222879268,33.82398654313365,0.0 -79.14299514892905,33.82399967510516,0.0 -79.1426423733441,33.824225252732916,0.0 -79.14192353994653,33.82443841991786,0.0 -79.14150590316993,33.82420648275796,0.0 -79.14036639570593,33.82356977996595,0.0 -79.14009839628308,33.82342801562279,0.0 -79.14356369862729,33.81864570734493,0.0 -79.1439504792519,33.81875137954368,0.0 -79.14607393591531,33.81932694798668,0.0 -79.14732584542654,33.8203771524438,0.0 -79.14689284396786,33.820783449968665,0.0 -79.14745366627827,33.82117855961001,0.0 -79.14787660640212,33.820781701206826,0.0 -79.14845184301936,33.821159921241915,0.0 -79.14866527392422,33.821330923076616,0.0 -79.149034288925,33.82157765956354,0.0 -79.1490917902318,33.82160349420318,0.0 -79.14823328981966,33.82311195867591,0.0 -79.14814211342018,33.823270116797254,0.0 -79.14804912094544,33.82342753609978,0.0 -79.14795432025939,33.82358420226688,0.0 -79.14785772136727,33.82374010191608,0.0 -79.14775933109205,33.823895218911375,0.0 -79.14765915942,33.82404954077186,0.0 -79.14755721641527,33.824203051409874,0.0 -79.14656442730951,33.825567146990586,0.0 -79.14651714994284,33.8255419179248,0.0 -79.14644682319899,33.82504791469691,0.0 -79.14615074397207,33.82505917382509,0.0 -79.14595998546272,33.825210832943775,0.0 -79.1457361907249,33.82517798362545,0.0 -79.1455942844853,33.82492996028336,0.0 -79.14541744102426,33.824790021158414,0.0 -79.1450881267753,33.824788942669265,0.0 -79.14493032812915,33.82483694160014,0.0 -79.14477686726953,33.8245937586227,0.0 -79.14450785246287,33.82443522725619,0.0 -79.14429782405152,33.82426461116881,0.0 -79.14416919624662,33.82437490755511,0.0 -79.14427477437789,33.824552098816945,0.0 -79.14408356612262,33.82465184034037,0.0 -79.14399486141012,33.82459448374224,0.0</coordinates>
                    </LinearRing>
                </outerBoundaryIs>
            </Polygon>
        </Placemark>
        <Placemark id="2722163">
            <name>Parcel_295319</name>
            <styleUrl>#2722168</styleUrl>
            <Polygon id="2722162">
                <outerBoundaryIs>
                    <LinearRing id="2722166">
                        <coordinates>-79.14170058090895,33.81624289359793,0.0 -79.13615737884233,33.81816360388352,0.0 -79.13742289281161,33.81638532765156,0.0 -79.13870526547488,33.81456341522606,0.0 -79.14089882020707,33.81346957469678,0.0 -79.14170058090895,33.81624289359793,0.0</coordinates>
                    </LinearRing>
                </outerBoundaryIs>
            </Polygon>
        </Placemark>
        <Placemark id="2722172">
            <name>Parcel_295320</name>
            <styleUrl>#2722177</styleUrl>
            <Polygon id="2722171">
                <outerBoundaryIs>
                    <LinearRing id="2722175">
                        <coordinates>-79.14882707767775,33.81732022913477,0.0 -79.15038519120324,33.81716556142578,0.0 -79.15042943478423,33.81733190424265,0.0 -79.15046965713587,33.817604657275645,0.0 -79.15048137378146,33.817716899726236,0.0 -79.14892377798347,33.817869242434305,0.0 -79.14882707767775,33.81732022913477,0.0</coordinates>
                    </LinearRing>
                </outerBoundaryIs>
            </Polygon>
        </Placemark>
        <Placemark id="2722181">
            <name>Parcel_295321</name>
            <styleUrl>#2722186</styleUrl>
            <Polygon id="2722180">
                <outerBoundaryIs>
                    <LinearRing id="2722184">
                        <coordinates>-79.16047717366158,33.83067576441328,0.0 -79.16084059986012,33.830142836999464,0.0 -79.16091974365878,33.82999179201345,0.0 -79.16124511063319,33.8303642067356,0.0 -79.1613273920379,33.83031413857094,0.0 -79.1619219889425,33.831141201093075,0.0 -79.16178614036075,33.831214150627204,0.0 -79.16069975223868,33.83086570262428,0.0 -79.16047717366158,33.83067576441328,0.0</coordinates>
                    </LinearRing>
                </outerBoundaryIs>
            </Polygon>
        </Placemark>
        <Placemark id="2722190">
            <name>Parcel_295322</name>
            <styleUrl>#2722195</styleUrl>
            <Polygon id="2722189">
                <outerBoundaryIs>
                    <LinearRing id="2722193">
                        <coordinates>-79.14956442371819,33.82119789693383,0.0 -79.15027354619558,33.81993670898338,0.0 -79.15083164135953,33.82003006387606,0.0 -79.15108362849249,33.82007155581748,0.0 -79.15133606750881,33.82011108246868,0.0 -79.15158893794523,33.82014863991414,0.0 -79.15184221821966,33.82018422602561,0.0 -79.15209588570806,33.8202178368556,0.0 -79.15384284126391,33.820447402813045,0.0 -79.15387940117995,33.820446826023684,0.0 -79.15391592481261,33.82044829776443,0.0 -79.15395224808849,33.82045181017753,0.0 -79.15398820706916,33.82045734909424,0.0 -79.15402363912806,33.820464889543004,0.0 -79.15405838619058,33.82047439579754,0.0 -79.15409229135877,33.820485827640105,0.0 -79.15412520018415,33.82049913136117,0.0 -79.15415696699476,33.820514247069035,0.0 -79.15418744625343,33.82053110856108,0.0 -79.15421650131496,33.820549638042664,0.0 -79.15424400211171,33.82056975330799,0.0 -79.15426982418875,33.820591362314254,0.0 -79.15429385180984,33.82061436954116,0.0 -79.15431597485131,33.82063866963126,0.0 -79.15433609624836,33.82066415291248,0.0 -79.15435412333369,33.82069070617072,0.0 -79.15436997547634,33.82071820915614,0.0 -79.1543835818442,33.82074653815738,0.0 -79.15439488036209,33.820775564182256,0.0 -79.15440382083715,33.8208051584156,0.0 -79.15446797862397,33.820924201227434,0.0 -79.15453416519769,33.821042467956325,0.0 -79.15460236702347,33.821159934948284,0.0 -79.15467256948625,33.82127657853308,0.0 -79.15474475800903,33.82139237323726,0.0 -79.15481891793755,33.82150729719374,0.0 -79.15489503573595,33.82162132674825,0.0 -79.15549414048225,33.822699075490746,0.0 -79.1555244655079,33.822774583846076,0.0 -79.15555707733077,33.82284942459309,0.0 -79.15559195643417,33.82292355054126,0.0 -79.15562907899924,33.82299691353395,0.0 -79.15566842336759,33.82306946544664,0.0 -79.155288056723,33.823158900692626,0.0 -79.14956442371819,33.82119789693383,0.0</coordinates>
                    </LinearRing>
                </outerBoundaryIs>
            </Polygon>
        </Placemark>
        <Placemark id="2722199">
            <name>Parcel_295323</name>
            <styleUrl>#2722204</styleUrl>
            <Polygon id="2722198">
                <outerBoundaryIs>
                    <LinearRing id="2722202">
                        <coordinates>-79.14792700048703,33.8240204916998,0.0 -79.1480048951892,33.82389948032736,0.0 -79.14805105795216,33.82382657881607,0.0 -79.14820319499667,33.82358290039504,0.0 -79.14824742494554,33.823509110406334,0.0 -79.14832006159735,33.82338583673273,0.0 -79.1495972724514,33.82394297156294,0.0 -79.14952103816375,33.824064460563434,0.0 -79.14947520305311,33.82413750458601,0.0 -79.14932231067012,33.8243811551746,0.0 -79.14927647522288,33.82445419911874,0.0 -79.1492002612724,33.82457565485652,0.0 -79.14792700048703,33.8240204916998,0.0</coordinates>
                    </LinearRing>
                </outerBoundaryIs>
            </Polygon>
        </Placemark>
        <Placemark id="2722208">
            <name>Parcel_295324</name>
            <styleUrl>#2722213</styleUrl>
            <Polygon id="2722207">
                <outerBoundaryIs>
                    <LinearRing id="2722211">
                        <coordinates>-79.14877346542073,33.82258680513328,0.0 -79.14928690814175,33.82168600144615,0.0 -79.14956442371819,33.82119789693383,0.0 -79.155288056723,33.823158900692626,0.0 -79.15541380059825,33.823858356907266,0.0 -79.15556272395884,33.824686733394046,0.0 -79.1556942927327,33.82541321235722,0.0 -79.14877346542073,33.82258680513328,0.0</coordinates>
                    </LinearRing>
                </outerBoundaryIs>
            </Polygon>
        </Placemark>
        <Placemark id="2722217">
            <name>Parcel_295325</name>
            <styleUrl>#2722222</styleUrl>
            <Polygon id="2722216">
                <outerBoundaryIs>
                    <LinearRing id="2722220">
                        <coordinates>-79.15854542712935,33.82923119552245,0.0 -79.15979118655183,33.828276158629855,0.0 -79.16030905929871,33.82889414786655,0.0 -79.15917806235392,33.8295534418491,0.0 -79.15854542712935,33.82923119552245,0.0</coordinates>
                    </LinearRing>
                </outerBoundaryIs>
            </Polygon>
        </Placemark>
        <Placemark id="2722226">
            <name>Parcel_295326</name>
            <styleUrl>#2722231</styleUrl>
            <Polygon id="2722225">
                <outerBoundaryIs>
                    <LinearRing id="2722229">
                        <coordinates>-79.16033396110176,33.82945808586158,0.0 -79.16061451644826,33.82925853047098,0.0 -79.16065818186688,33.82922812191498,0.0 -79.16095293279967,33.82958568779102,0.0 -79.1608551306622,33.82977210074525,0.0 -79.16059997450077,33.82977809873476,0.0 -79.16033396110176,33.82945808586158,0.0</coordinates>
                    </LinearRing>
                </outerBoundaryIs>
            </Polygon>
        </Placemark>
        <Placemark id="2722235">
            <name>Parcel_295327</name>
            <styleUrl>#2722240</styleUrl>
            <Polygon id="2722234">
                <outerBoundaryIs>
                    <LinearRing id="2722238">
                        <coordinates>-79.15917806235392,33.8295534418491,0.0 -79.16030905929871,33.82889414786655,0.0 -79.16061451644826,33.82925853047098,0.0 -79.16033396110176,33.82945808586158,0.0 -79.16003754085467,33.82966916091077,0.0 -79.15966923031367,33.82993039189023,0.0 -79.15926110260138,33.8295955830233,0.0 -79.15917806235392,33.8295534418491,0.0</coordinates>
                    </LinearRing>
                </outerBoundaryIs>
            </Polygon>
        </Placemark>
        <Placemark id="2722244">
            <name>Parcel_295328</name>
            <styleUrl>#2722249</styleUrl>
            <Polygon id="2722243">
                <outerBoundaryIs>
                    <LinearRing id="2722247">
                        <coordinates>-79.16043768057519,33.82992608824022,0.0 -79.16003754085467,33.82966916091077,0.0 -79.16033396110176,33.82945808586158,0.0 -79.16059997450077,33.82977809873476,0.0 -79.1608551306622,33.82977210074525,0.0 -79.16068995403641,33.83008790509097,0.0 -79.16043768057519,33.82992608824022,0.0</coordinates>
                    </LinearRing>
                </outerBoundaryIs>
            </Polygon>
        </Placemark>
        <Placemark id="2722253">
            <name>Parcel_295329</name>
            <styleUrl>#2722258</styleUrl>
            <Polygon id="2722252">
                <outerBoundaryIs>
                    <LinearRing id="2722256">
                        <coordinates>-79.15966923031367,33.82993039189023,0.0 -79.16003754085467,33.82966916091077,0.0 -79.16043768057519,33.82992608824022,0.0 -79.16001112814843,33.83025256468196,0.0 -79.15974365079643,33.82999263112119,0.0 -79.15966923031367,33.82993039189023,0.0</coordinates>
                    </LinearRing>
                </outerBoundaryIs>
            </Polygon>
        </Placemark>
        <Placemark id="2722262">
            <name>Parcel_295330</name>
            <styleUrl>#2722267</styleUrl>
            <Polygon id="2722261">
                <outerBoundaryIs>
                    <LinearRing id="2722265">
                        <coordinates>-79.16001112814843,33.83025256468196,0.0 -79.16043768057519,33.82992608824022,0.0 -79.16068995403641,33.83008790509097,0.0 -79.1608551306622,33.82977210074525,0.0 -79.16095293279967,33.82958568779102,0.0 -79.16105520551537,33.82971043535978,0.0 -79.16106251379829,33.82971931740465,0.0 -79.16091974365878,33.82999179201345,0.0 -79.16084059986012,33.830142836999464,0.0 -79.16047717366158,33.83067576441328,0.0 -79.16019586143567,33.83043546234766,0.0 -79.16001112814843,33.83025256468196,0.0</coordinates>
                    </LinearRing>
                </outerBoundaryIs>
            </Polygon>
        </Placemark>
        <Placemark id="2722271">
            <name>Parcel_295331</name>
            <styleUrl>#2722276</styleUrl>
            <Polygon id="2722270">
                <outerBoundaryIs>
                    <LinearRing id="2722274">
                        <coordinates>-79.15139881611562,33.827738903775945,0.0 -79.15122367803689,33.82751029303946,0.0 -79.15103713519314,33.827455911696056,0.0 -79.15083401459529,33.82758714630545,0.0 -79.15076337452882,33.82779612110014,0.0 -79.15059110315869,33.82777269384713,0.0 -79.15040370755065,33.82744838122049,0.0 -79.15012877029352,33.82740063354996,0.0 -79.15011675401858,33.827398546539285,0.0 -79.14989435289718,33.827252194723336,0.0 -79.14965320872881,33.827296792472524,0.0 -79.14949400337136,33.82752156440664,0.0 -79.14902199485432,33.8273522746759,0.0 -79.1489999743664,33.82700094571126,0.0 -79.148631393361,33.827012553763325,0.0 -79.14859827557959,33.82659018687321,0.0 -79.14820255132146,33.82632108930287,0.0 -79.14741098999909,33.82627288964001,0.0 -79.14704119408532,33.82656655357138,0.0 -79.14699819372063,33.82601802507068,0.0 -79.14717057146096,33.8258481246829,0.0 -79.14688229333518,33.82563892748581,0.0 -79.1467630189751,33.825643697178094,0.0 -79.14774494959593,33.824294516231454,0.0 -79.14792700048703,33.8240204916998,0.0 -79.1492002612724,33.82457565485652,0.0 -79.14927647522288,33.82445419911874,0.0 -79.14932231067012,33.8243811551746,0.0 -79.14947520305311,33.82413750458601,0.0 -79.14952103816375,33.824064460563434,0.0 -79.1495972724514,33.82394297156294,0.0 -79.14832006159735,33.82338583673273,0.0 -79.14877346542073,33.82258680513328,0.0 -79.1556942927327,33.82541321235722,0.0 -79.1557020005754,33.82545576980339,0.0 -79.15570201122449,33.82545582768254,0.0 -79.15580718437823,33.82602632390314,0.0 -79.1558966100557,33.82651503803284,0.0 -79.156000880416,33.82708486751431,0.0 -79.1553625931234,33.828005688425456,0.0 -79.1557094978051,33.82813210249639,0.0 -79.15587509345339,33.82864020052038,0.0 -79.15619184789227,33.82881392242275,0.0 -79.15742749839568,33.82876055260862,0.0 -79.1578547139448,33.829119988117206,0.0 -79.15854542712935,33.82923119552245,0.0 -79.15917806235392,33.8295534418491,0.0 -79.15926110260138,33.8295955830233,0.0 -79.15966923031367,33.82993039189023,0.0 -79.15841112780795,33.8319339648729,0.0 -79.15685583054567,33.83094574966495,0.0 -79.15298528212948,33.829741667368836,0.0 -79.1534501660619,33.828764188486126,0.0 -79.15304033521798,33.828422116324006,0.0 -79.15252445565581,33.82833253633423,0.0 -79.1522464071979,33.82797854766353,0.0 -79.15190534487603,33.82795237238599,0.0 -79.15162637827834,33.828035944418524,0.0 -79.15139881611562,33.827738903775945,0.0</coordinates>
                    </LinearRing>
                </outerBoundaryIs>
            </Polygon>
        </Placemark>
        <Placemark id="2722280">
            <name>Parcel_295332</name>
            <styleUrl>#2722285</styleUrl>
            <Polygon id="2722279">
                <outerBoundaryIs>
                    <LinearRing id="2722283">
                        <coordinates>-78.7303769533003,33.86266813633781,0.0 -78.7299055475999,33.8627914222182,0.0 -78.72987130570961,33.86267844232618,0.0 -78.73034271084121,33.86255515657306,0.0 -78.7303769533003,33.86266813633781,0.0</coordinates>
                    </LinearRing>
                </outerBoundaryIs>
            </Polygon>
        </Placemark>
        <Placemark id="2722289">
            <name>Parcel_295333</name>
            <styleUrl>#2722294</styleUrl>
            <Polygon id="2722288">
                <outerBoundaryIs>
                    <LinearRing id="2722292">
                        <coordinates>-78.89369415538839,34.13431724830438,0.0 -78.89430225903294,34.134124262390635,0.0 -78.89431229865961,34.13445309476976,0.0 -78.89385405088501,34.13466574331181,0.0 -78.89382406714057,34.13460039443032,0.0 -78.89369415538839,34.13431724830438,0.0</coordinates>
                    </LinearRing>
                </outerBoundaryIs>
            </Polygon>
        </Placemark>
        <Placemark id="2722298">
            <name>Parcel_295334</name>
            <styleUrl>#2722303</styleUrl>
            <Polygon id="2722297">
                <outerBoundaryIs>
                    <LinearRing id="2722301">
                        <coordinates>-78.8954927556802,34.139578171460826,0.0 -78.89464659587108,34.13917400400277,0.0 -78.89376515852292,34.13920754917337,0.0 -78.89311659402792,34.13938452073138,0.0 -78.89248611733478,34.13859229860354,0.0 -78.89238076946687,34.13798741834693,0.0 -78.89151479367594,34.13753727875851,0.0 -78.89138733133375,34.136981113694645,0.0 -78.89154014968736,34.136527406662445,0.0 -78.89142316625951,34.136166918943,0.0 -78.89140840943185,34.13610230764025,0.0 -78.89136686855225,34.13592037852613,0.0 -78.89117602625221,34.135118340436954,0.0 -78.89369415538839,34.13431724830438,0.0 -78.89382406714057,34.13460039443032,0.0 -78.89385405088501,34.13466574331181,0.0 -78.89431229865961,34.13445309476976,0.0 -78.89434157115107,34.13539178534921,0.0 -78.89437287061413,34.1366585046474,0.0 -78.8943928095839,34.137393730453695,0.0 -78.89503164865299,34.13778519154627,0.0 -78.895548236725,34.13794082386469,0.0 -78.89574239321787,34.1396500647486,0.0 -78.8954927556802,34.139578171460826,0.0</coordinates>
                    </LinearRing>
                </outerBoundaryIs>
            </Polygon>
        </Placemark>
        <Placemark id="2722307">
            <name>Parcel_295335</name>
            <styleUrl>#2722312</styleUrl>
            <Polygon id="2722306">
                <outerBoundaryIs>
                    <LinearRing id="2722310">
                        <coordinates>-78.89063655879919,34.13528995155762,0.0 -78.89117602625221,34.135118340436954,0.0 -78.89136686855225,34.13592037852613,0.0 -78.89098121366857,34.13603651160849,0.0 -78.89063655879919,34.13528995155762,0.0</coordinates>
                    </LinearRing>
                </outerBoundaryIs>
            </Polygon>
        </Placemark>
        <Placemark id="2722316">
            <name>Parcel_295336</name>
            <styleUrl>#2722321</styleUrl>
            <Polygon id="2722315">
                <outerBoundaryIs>
                    <LinearRing id="2722319">
                        <coordinates>-78.89063655879919,34.13528995155762,0.0 -78.89098121366857,34.13603651160849,0.0 -78.89136686855225,34.13592037852613,0.0 -78.89140840943185,34.13610230764025,0.0 -78.8907494497193,34.13630134540046,0.0 -78.89032786774537,34.135388146091394,0.0 -78.89063655879919,34.13528995155762,0.0</coordinates>
                    </LinearRing>
                </outerBoundaryIs>
            </Polygon>
        </Placemark>
        <Placemark id="2722325">
            <name>Parcel_295337</name>
            <styleUrl>#2722330</styleUrl>
            <Polygon id="2722324">
                <outerBoundaryIs>
                    <LinearRing id="2722328">
                        <coordinates>-78.95181219176132,33.89153367102624,0.0 -78.95311411020204,33.89081632073312,0.0 -78.95332303909144,33.89108003157002,0.0 -78.95202111946571,33.89179738493399,0.0 -78.95181219176132,33.89153367102624,0.0</coordinates>
                    </LinearRing>
                </outerBoundaryIs>
            </Polygon>
        </Placemark>
        <Placemark id="2722334">
            <name>Parcel_295338</name>
            <styleUrl>#2722339</styleUrl>
            <Polygon id="2722333">
                <outerBoundaryIs>
                    <LinearRing id="2722337">
                        <coordinates>-78.95202111946571,33.89179738493399,0.0 -78.95332303909144,33.89108003157002,0.0 -78.95353197034044,33.89134374205654,0.0 -78.9522297932905,33.892060776786614,0.0 -78.95202111946571,33.89179738493399,0.0</coordinates>
                    </LinearRing>
                </outerBoundaryIs>
            </Polygon>
        </Placemark>
        <Placemark id="2722343">
            <name>Parcel_295339</name>
            <styleUrl>#2722348</styleUrl>
            <Polygon id="2722342">
                <outerBoundaryIs>
                    <LinearRing id="2722346">
                        <coordinates>-78.9522297932905,33.892060776786614,0.0 -78.95353197034044,33.89134374205654,0.0 -78.95364468792722,33.89148601378206,0.0 -78.95374090176554,33.891607453058526,0.0 -78.95243897767202,33.89232480982379,0.0 -78.9522297932905,33.892060776786614,0.0</coordinates>
                    </LinearRing>
                </outerBoundaryIs>
            </Polygon>
        </Placemark>
        <Placemark id="2722352">
            <name>Parcel_295340</name>
            <styleUrl>#2722357</styleUrl>
            <Polygon id="2722351">
                <outerBoundaryIs>
                    <LinearRing id="2722355">
                        <coordinates>-78.95243897767202,33.89232480982379,0.0 -78.95374090176554,33.891607453058526,0.0 -78.95394983557163,33.89187116280852,0.0 -78.95264790815244,33.89258852170739,0.0 -78.95243897767202,33.89232480982379,0.0</coordinates>
                    </LinearRing>
                </outerBoundaryIs>
            </Polygon>
        </Placemark>
        <Placemark id="2722361">
            <name>Parcel_295341</name>
            <styleUrl>#2722366</styleUrl>
            <Polygon id="2722360">
                <outerBoundaryIs>
                    <LinearRing id="2722364">
                        <coordinates>-78.9514439879614,33.89173654536621,0.0 -78.95181219176132,33.89153367102624,0.0 -78.95202111946571,33.89179738493399,0.0 -78.9522297932905,33.892060776786614,0.0 -78.95243897767202,33.89232480982379,0.0 -78.95264790815244,33.89258852170739,0.0 -78.95394983557163,33.89187116280852,0.0 -78.95425439792305,33.89225556899585,0.0 -78.95388989179757,33.89252752160288,0.0 -78.95364426785804,33.892710777206446,0.0 -78.95351556015375,33.89280680299367,0.0 -78.9533986417929,33.892894032297576,0.0 -78.9531285996832,33.893095501578664,0.0 -78.95278899378248,33.893348868247934,0.0 -78.95258612902552,33.8935002172157,0.0 -78.95247498210267,33.893379969787475,0.0 -78.95236499619223,33.893219659047425,0.0 -78.9521415470605,33.89287680105911,0.0 -78.95200882294431,33.89264208051606,0.0 -78.95178918155862,33.89230153678649,0.0 -78.95163306905927,33.89203208918632,0.0 -78.95149905632618,33.89179286424292,0.0 -78.9514439879614,33.89173654536621,0.0</coordinates>
                    </LinearRing>
                </outerBoundaryIs>
            </Polygon>
        </Placemark>
        <Placemark id="2722370">
            <name>Parcel_295342</name>
            <styleUrl>#2722375</styleUrl>
            <Polygon id="2722369">
                <outerBoundaryIs>
                    <LinearRing id="2722373">
                        <coordinates>-78.94744723088384,34.01204402252888,0.0 -78.94749468233177,34.01180851369951,0.0 -78.9482920391569,34.011919652215646,0.0 -78.94833655776279,34.01169903690884,0.0 -78.9483416160294,34.01167298052603,0.0 -78.94839119259628,34.01142630970186,0.0 -78.9475938413178,34.01131517092459,0.0 -78.94766937895595,34.01094617154418,0.0 -78.95122056697745,34.011508560230105,0.0 -78.95117571404492,34.0115551267128,0.0 -78.95106172709528,34.01167346659325,0.0 -78.95088146421523,34.0119843945239,0.0 -78.95087682472115,34.01199239602095,0.0 -78.95084882118456,34.01204066830237,0.0 -78.9508487726159,34.012040752276754,0.0 -78.95074421502808,34.012059509910486,0.0 -78.95074401380728,34.012059546269974,0.0 -78.9507292697043,34.01207787963615,0.0 -78.95067818495049,34.01214194044714,0.0 -78.9507143555423,34.01217088650742,0.0 -78.95077995488204,34.01245945304939,0.0 -78.95062686017795,34.01268114571442,0.0 -78.9473923867686,34.0122652676029,0.0 -78.94740832475046,34.01221035347494,0.0 -78.94742278250898,34.01215515602046,0.0 -78.94743575396738,34.0120997030977,0.0 -78.94744723088384,34.01204402252888,0.0</coordinates>
                    </LinearRing>
                </outerBoundaryIs>
            </Polygon>
        </Placemark>
        <Placemark id="2722379">
            <name>Parcel_295343</name>
            <styleUrl>#2722384</styleUrl>
            <Polygon id="2722378">
                <outerBoundaryIs>
                    <LinearRing id="2722382">
                        <coordinates>-79.02611707453197,34.25440633459387,0.0 -79.02626669878981,34.25421265600287,0.0 -79.02739163086962,34.25493142255659,0.0 -79.02709248576542,34.25529226190748,0.0 -79.02682435044376,34.25560852218697,0.0 -79.02679535022574,34.2556427274613,0.0 -79.0267181241032,34.25573381454586,0.0 -79.02668917118764,34.255561196961175,0.0 -79.02667897642712,34.25515034959803,0.0 -79.02611707453197,34.25440633459387,0.0</coordinates>
                    </LinearRing>
                </outerBoundaryIs>
            </Polygon>
        </Placemark>
        <Placemark id="2722388">
            <name>Parcel_295344</name>
            <styleUrl>#2722393</styleUrl>
            <Polygon id="2722387">
                <outerBoundaryIs>
                    <LinearRing id="2722391">
                        <coordinates>-79.01952309945526,33.908157829563464,0.0 -79.0194091373947,33.90809720253838,0.0 -79.01875171315672,33.907737834854736,0.0 -79.0181018158119,33.907383235878214,0.0 -79.01853462107384,33.90728602426159,0.0 -79.0183998136452,33.90635011222891,0.0 -79.0205939130628,33.905665740953005,0.0 -79.02075976098715,33.90528071448205,0.0 -79.02180265225532,33.90534459398395,0.0 -79.0195799282761,33.90818806168787,0.0 -79.01952309945526,33.908157829563464,0.0</coordinates>
                    </LinearRing>
                </outerBoundaryIs>
            </Polygon>
        </Placemark>
        <Placemark id="2722397">
            <name>Parcel_295345</name>
            <styleUrl>#2722402</styleUrl>
            <Polygon id="2722396">
                <outerBoundaryIs>
                    <LinearRing id="2722400">
                        <coordinates>-79.14048555117988,33.8867597715847,0.0 -79.14077451913225,33.886603948725124,0.0 -79.14078350864634,33.886621846016496,0.0 -79.1409511147731,33.88696068395746,0.0 -79.14073579267304,33.887078279833624,0.0 -79.14048555117988,33.8867597715847,0.0</coordinates>
                    </LinearRing>
                </outerBoundaryIs>
            </Polygon>
        </Placemark>
        <Placemark id="2722406">
            <name>Parcel_295346</name>
            <styleUrl>#2722411</styleUrl>
            <Polygon id="2722405">
                <outerBoundaryIs>
                    <LinearRing id="2722409">
                        <coordinates>-79.14028353197658,33.88686870722043,0.0 -79.14048555117988,33.8867597715847,0.0 -79.14073579267304,33.887078279833624,0.0 -79.14053453157933,33.887188195865136,0.0 -79.14028353197658,33.88686870722043,0.0</coordinates>
                    </LinearRing>
                </outerBoundaryIs>
            </Polygon>
        </Placemark>
        <Placemark id="2722415">
            <name>Parcel_295347</name>
            <styleUrl>#2722420</styleUrl>
            <Polygon id="2722414">
                <outerBoundaryIs>
                    <LinearRing id="2722418">
                        <coordinates>-79.14008151334359,33.88697764254035,0.0 -79.14028353197658,33.88686870722043,0.0 -79.14053453157933,33.887188195865136,0.0 -79.14033326889125,33.88729811155074,0.0 -79.14008151334359,33.88697764254035,0.0</coordinates>
                    </LinearRing>
                </outerBoundaryIs>
            </Polygon>
        </Placemark>
        <Placemark id="2722424">
            <name>Parcel_295348</name>
            <styleUrl>#2722429</styleUrl>
            <Polygon id="2722423">
                <outerBoundaryIs>
                    <LinearRing id="2722427">
                        <coordinates>-79.13985458641989,33.887100008580695,0.0 -79.14008151334359,33.88697764254035,0.0 -79.14033326889125,33.88729811155074,0.0 -79.14031333528905,33.88730899830959,0.0 -79.14030321411668,33.88731352712576,0.0 -79.14029230527078,33.88731652175627,0.0 -79.14028093728955,33.8873178915334,0.0 -79.14026945713893,33.887317593865376,0.0 -79.14025821279931,33.887315639386394,0.0 -79.14023914177244,33.887311860185534,0.0 -79.14021966823734,33.88730999593099,0.0 -79.14020006629156,33.887310073283516,0.0 -79.14018061387894,33.887312091003835,0.0 -79.14016158734547,33.88731602167438,0.0 -79.1401432539306,33.887321808881204,0.0 -79.14012587493231,33.8873293708688,0.0 -79.14010969489705,33.88733860037783,0.0 -79.14009494482387,33.88734936649711,0.0 -79.14008183129565,33.88736151720579,0.0 -79.14007054076438,33.88737488124162,0.0 -79.13985458641989,33.887100008580695,0.0</coordinates>
                    </LinearRing>
                </outerBoundaryIs>
            </Polygon>
        </Placemark>
        <Placemark id="2722433">
            <name>Parcel_295349</name>
            <styleUrl>#2722438</styleUrl>
            <Polygon id="2722432">
                <outerBoundaryIs>
                    <LinearRing id="2722436">
                        <coordinates>-79.14082675185614,33.88719286769592,0.0 -79.14101511308515,33.887090000602484,0.0 -79.14119110459986,33.88744560713463,0.0 -79.14107497560238,33.887509028903956,0.0 -79.14082675185614,33.88719286769592,0.0</coordinates>
                    </LinearRing>
                </outerBoundaryIs>
            </Polygon>
        </Placemark>
        <Placemark id="2722442">
            <name>Parcel_295350</name>
            <styleUrl>#2722447</styleUrl>
            <Polygon id="2722441">
                <outerBoundaryIs>
                    <LinearRing id="2722445">
                        <coordinates>-79.14007279131319,33.887522490403995,0.0 -79.14006254101884,33.88750744570405,0.0 -79.14005463958604,33.88749144600454,0.0 -79.14004921131065,33.887474744794474,0.0 -79.14004634239862,33.88745760671533,0.0 -79.14004607778139,33.88744030480757,0.0 -79.1400484234727,33.88742311152732,0.0 -79.14005334112441,33.88740630046844,0.0 -79.14006075252624,33.88739013831304,0.0 -79.14007054076438,33.88737488124162,0.0 -79.14008183129565,33.88736151720579,0.0 -79.14009494482387,33.88734936649711,0.0 -79.14010969489705,33.88733860037783,0.0 -79.14012587493231,33.8873293708688,0.0 -79.1401432539306,33.887321808881204,0.0 -79.14016158734547,33.88731602167438,0.0 -79.14018061387894,33.887312091003835,0.0 -79.14020006629156,33.887310073283516,0.0 -79.14021966823734,33.88730999593099,0.0 -79.14023914177244,33.887311860185534,0.0 -79.14025821279931,33.887315639386394,0.0 -79.14026945713893,33.887317593865376,0.0 -79.14028093728955,33.8873178915334,0.0 -79.14029230527078,33.88731652175627,0.0 -79.14030321411668,33.88731352712576,0.0 -79.14031333528905,33.88730899830959,0.0 -79.14033326889125,33.88729811155074,0.0 -79.14053453157933,33.887188195865136,0.0 -79.14073579267304,33.887078279833624,0.0 -79.1409511147731,33.88696068395746,0.0 -79.14101511308515,33.887090000602484,0.0 -79.14082675185614,33.88719286769592,0.0 -79.14062548740658,33.887302782020434,0.0 -79.14042422246321,33.887412695113724,0.0 -79.14040359946077,33.887423957542445,0.0 -79.14039457602631,33.887429883609464,0.0 -79.14038692348628,33.887437027036746,0.0 -79.14038087364627,33.88744516944269,0.0 -79.14037661026788,33.8874540637665,0.0 -79.14037426244666,33.88746344048187,0.0 -79.14037079327136,33.88747953014788,0.0 -79.14036505653446,33.88749516280263,0.0 -79.14035713489486,33.88751011602164,0.0 -79.14034713994707,33.88752417953923,0.0 -79.14033521334137,33.88753715346116,0.0 -79.14032152448522,33.887548854543574,0.0 -79.14030626511895,33.88755911701329,0.0 -79.14028965358132,33.887567795337745,0.0 -79.1402719228403,33.88757476765258,0.0 -79.14025332593715,33.88757993403984,0.0 -79.14023412395876,33.88758322266043,0.0 -79.14021344264974,33.88758460596199,0.0 -79.14019271537636,33.88758380964373,0.0 -79.1401722738077,33.887580848604486,0.0 -79.14015243922206,33.88757576825115,0.0 -79.14013352889538,33.88756864910377,0.0 -79.1401158399247,33.887559604748944,0.0 -79.14009965471091,33.88754877831477,0.0 -79.1400852291061,33.88753634048892,0.0 -79.14007279131319,33.887522490403995,0.0</coordinates>
                    </LinearRing>
                </outerBoundaryIs>
            </Polygon>
        </Placemark>
        <Placemark id="2722451">
            <name>Parcel_295351</name>
            <styleUrl>#2722456</styleUrl>
            <Polygon id="2722450">
                <outerBoundaryIs>
                    <LinearRing id="2722454">
                        <coordinates>-79.13985458641989,33.887100008580695,0.0 -79.14007054076438,33.88737488124162,0.0 -79.14006075252624,33.88739013831304,0.0 -79.14005334112441,33.88740630046844,0.0 -79.1400484234727,33.88742311152732,0.0 -79.14004607778139,33.88744030480757,0.0 -79.14004634239862,33.88745760671533,0.0 -79.14004921131065,33.887474744794474,0.0 -79.14005463958604,33.88749144600454,0.0 -79.14006254101884,33.88750744570405,0.0 -79.14007279131319,33.887522490403995,0.0 -79.13993336922852,33.88759863412481,0.0 -79.13965042718452,33.88723421584484,0.0 -79.1396370136582,33.887217329786715,0.0 -79.13985458641989,33.887100008580695,0.0</coordinates>
                    </LinearRing>
                </outerBoundaryIs>
            </Polygon>
        </Placemark>
        <Placemark id="2722460">
            <name>Parcel_295352</name>
            <styleUrl>#2722465</styleUrl>
            <Polygon id="2722459">
                <outerBoundaryIs>
                    <LinearRing id="2722463">
                        <coordinates>-79.14062548740658,33.887302782020434,0.0 -79.14082675185614,33.88719286769592,0.0 -79.14107497560238,33.887509028903956,0.0 -79.1408737073907,33.887618948082924,0.0 -79.14062548740658,33.887302782020434,0.0</coordinates>
                    </LinearRing>
                </outerBoundaryIs>
            </Polygon>
        </Placemark>
        <Placemark id="2722469">
            <name>Parcel_295353</name>
            <styleUrl>#2722474</styleUrl>
            <Polygon id="2722468">
                <outerBoundaryIs>
                    <LinearRing id="2722472">
                        <coordinates>-79.14042422246321,33.887412695113724,0.0 -79.14062548740658,33.887302782020434,0.0 -79.1408737073907,33.887618948082924,0.0 -79.14067243866575,33.887728866932214,0.0 -79.14042422246321,33.887412695113724,0.0</coordinates>
                    </LinearRing>
                </outerBoundaryIs>
            </Polygon>
        </Placemark>
        <Placemark id="2722478">
            <name>Parcel_295354</name>
            <styleUrl>#2722483</styleUrl>
            <Polygon id="2722477">
                <outerBoundaryIs>
                    <LinearRing id="2722481">
                        <coordinates>-79.14023412395876,33.88758322266043,0.0 -79.14025332593715,33.88757993403984,0.0 -79.1402719228403,33.88757476765258,0.0 -79.14028965358132,33.887567795337745,0.0 -79.14030626511895,33.88755911701329,0.0 -79.14032152448522,33.887548854543574,0.0 -79.14033521334137,33.88753715346116,0.0 -79.14034713994707,33.88752417953923,0.0 -79.14035713489486,33.88751011602164,0.0 -79.14036505653446,33.88749516280263,0.0 -79.14037079327136,33.88747953014788,0.0 -79.14037426244666,33.88746344048187,0.0 -79.14037661026788,33.8874540637665,0.0 -79.14038087364627,33.88744516944269,0.0 -79.14038692348628,33.887437027036746,0.0 -79.14039457602631,33.887429883609464,0.0 -79.14040359946077,33.887423957542445,0.0 -79.14042422246321,33.887412695113724,0.0 -79.14067243866575,33.887728866932214,0.0 -79.14044566575981,33.88785271363091,0.0 -79.14023412395876,33.88758322266043,0.0</coordinates>
                    </LinearRing>
                </outerBoundaryIs>
            </Polygon>
        </Placemark>
        <Placemark id="2722487">
            <name>Parcel_295355</name>
            <styleUrl>#2722492</styleUrl>
            <Polygon id="2722486">
                <outerBoundaryIs>
                    <LinearRing id="2722490">
                        <coordinates>-79.13993336922852,33.88759863412481,0.0 -79.14007279131319,33.887522490403995,0.0 -79.1400852291061,33.88753634048892,0.0 -79.14009965471091,33.88754877831477,0.0 -79.1401158399247,33.887559604748944,0.0 -79.14013352889538,33.88756864910377,0.0 -79.14015243922206,33.88757576825115,0.0 -79.1401722738077,33.887580848604486,0.0 -79.14019271537636,33.88758380964373,0.0 -79.14021344264974,33.88758460596199,0.0 -79.14023412395876,33.88758322266043,0.0 -79.14044566575981,33.88785271363091,0.0 -79.14022465371434,33.887973412270206,0.0 -79.13993336922852,33.88759863412481,0.0</coordinates>
                    </LinearRing>
                </outerBoundaryIs>
            </Polygon>
        </Placemark>
        <Placemark id="2722496">
            <name>Parcel_295356</name>
            <styleUrl>#2722501</styleUrl>
            <Polygon id="2722495">
                <outerBoundaryIs>
                    <LinearRing id="2722499">
                        <coordinates>-78.90923184712683,34.03299004931837,0.0 -78.90932746097218,34.03283657548246,0.0 -78.90952945022197,34.03251236108862,0.0 -78.90978024552173,34.03210980315469,0.0 -78.9098108347482,34.0320607086297,0.0 -78.90998349894745,34.03227665279313,0.0 -78.9097305599256,34.032842497198835,0.0 -78.90997996110386,34.03291241528438,0.0 -78.9098964532777,34.03317208048089,0.0 -78.9094048209275,34.0330374265156,0.0 -78.90923184712683,34.03299004931837,0.0</coordinates>
                    </LinearRing>
                </outerBoundaryIs>
            </Polygon>
        </Placemark>
        <Placemark id="2722505">
            <name>Parcel_295357</name>
            <styleUrl>#2722510</styleUrl>
            <Polygon id="2722504">
                <outerBoundaryIs>
                    <LinearRing id="2722508">
                        <coordinates>-78.91039070757881,34.03377551278663,0.0 -78.91039055028263,34.03376959020636,0.0 -78.91038609290388,34.03360161780424,0.0 -78.91038463977422,34.03354686913812,0.0 -78.91038263384354,34.03351978531563,0.0 -78.91037806611703,34.03349291810404,0.0 -78.91037096613587,34.033466433946025,0.0 -78.91036137751793,34.03344049952124,0.0 -78.91034936025466,34.03341527637349,0.0 -78.91033498854557,34.033390920874446,0.0 -78.91031835400271,34.033367586081354,0.0 -78.91029955815848,34.03334541800344,0.0 -78.91027872011107,34.03332455302482,0.0 -78.91025596883514,34.033305122284695,0.0 -78.91023144651784,34.033287248125966,0.0 -78.91020756397812,34.033272335682,0.0 -78.91018244856456,34.033258899593775,0.0 -78.9101562317786,34.03324701151939,0.0 -78.91012905079818,34.033236732390165,0.0 -78.91010104839049,34.033228116016446,0.0 -78.91001387235258,34.03320424001954,0.0 -78.9098964532777,34.03317208048089,0.0 -78.90997996110386,34.03291241528438,0.0 -78.9097305599256,34.032842497198835,0.0 -78.90998349894745,34.03227665279313,0.0 -78.91012920069909,34.03245887418006,0.0 -78.91015286612854,34.03248851157843,0.0 -78.91017074732491,34.032510908696224,0.0 -78.91029984598926,34.03267259680199,0.0 -78.91064907518783,34.033109987340644,0.0 -78.91076392098961,34.03325382579395,0.0 -78.91088088661631,34.03340031796336,0.0 -78.91088635963905,34.033407175076654,0.0 -78.91089466914336,34.03341758192768,0.0 -78.91105052519946,34.033612779701926,0.0 -78.9111091062983,34.03368614500086,0.0 -78.91089876451693,34.03380258441166,0.0 -78.9104040774737,34.033776224891824,0.0 -78.9104022145117,34.033776124083126,0.0 -78.91039070757881,34.03377551278663,0.0</coordinates>
                    </LinearRing>
                </outerBoundaryIs>
            </Polygon>
        </Placemark>
        <Placemark id="2722514">
            <name>Parcel_295358</name>
            <styleUrl>#2722519</styleUrl>
            <Polygon id="2722513">
                <outerBoundaryIs>
                    <LinearRing id="2722517">
                        <coordinates>-79.23505688016446,34.02480215777373,0.0 -79.23499923506323,34.02548782753215,0.0 -79.2345885724584,34.02545452156111,0.0 -79.23464622066166,34.024768859199725,0.0 -79.23505688016446,34.02480215777373,0.0</coordinates>
                    </LinearRing>
                </outerBoundaryIs>
            </Polygon>
        </Placemark>
        <Placemark id="2722523">
            <name>Parcel_295359</name>
            <styleUrl>#2722528</styleUrl>
            <Polygon id="2722522">
                <outerBoundaryIs>
                    <LinearRing id="2722526">
                        <coordinates>-79.23499923506323,34.02548782753215,0.0 -79.23505688016446,34.02480215777373,0.0 -79.23546753998514,34.02483545498876,0.0 -79.23540989800442,34.025521131242655,0.0 -79.23499923506323,34.02548782753215,0.0</coordinates>
                    </LinearRing>
                </outerBoundaryIs>
            </Polygon>
        </Placemark>
        <Placemark id="2722532">
            <name>Parcel_295360</name>
            <styleUrl>#2722537</styleUrl>
            <Polygon id="2722531">
                <outerBoundaryIs>
                    <LinearRing id="2722535">
                        <coordinates>-79.23540989800442,34.025521131242655,0.0 -79.23546753998514,34.02483545498876,0.0 -79.23587820012362,34.02486875084484,0.0 -79.23582056232777,34.025554434511186,0.0 -79.23540989800442,34.025521131242655,0.0</coordinates>
                    </LinearRing>
                </outerBoundaryIs>
            </Polygon>
        </Placemark>
        <Placemark id="2722541">
            <name>Parcel_295361</name>
            <styleUrl>#2722546</styleUrl>
            <Polygon id="2722540">
                <outerBoundaryIs>
                    <LinearRing id="2722544">
                        <coordinates>-78.74518937179738,33.78641597833436,0.0 -78.74512819119565,33.78623500430936,0.0 -78.74508005265216,33.78623641184019,0.0 -78.74503200011017,33.78623919911687,0.0 -78.74498409088548,33.786243363576126,0.0 -78.74493638130856,33.786248899029026,0.0 -78.7450184082042,33.78620136670385,0.0 -78.74510184867555,33.78615558282943,0.0 -78.74518849600669,33.78612373581512,0.0 -78.7452760320462,33.7860936339937,0.0 -78.74536440879712,33.78606529542998,0.0 -78.74545357401479,33.786038735405654,0.0 -78.74554347761404,33.78601396924183,0.0 -78.74563406627091,33.785991012200654,0.0 -78.74572528889166,33.78596987687938,0.0 -78.74581709332656,33.78595057495396,0.0 -78.74590942526676,33.78593311806133,0.0 -78.74600223150681,33.78591751695659,0.0 -78.74605413498846,33.785908353126736,0.0 -78.74610647497842,33.78590112832512,0.0 -78.74615914853253,33.785895855107725,0.0 -78.74621205167409,33.78589254420782,0.0 -78.74626507730532,33.785891201792296,0.0 -78.74631812269429,33.78589183230374,0.0 -78.74637108205833,33.78589443291373,0.0 -78.74641400517324,33.78589794571649,0.0 -78.7464567486492,33.78590275315562,0.0 -78.74649925432593,33.78590884876039,0.0 -78.74679941218804,33.785956788509985,0.0 -78.7468465648751,33.78596524515533,0.0 -78.74689322281742,33.78597543987411,0.0 -78.74693929147546,33.785987352906325,0.0 -78.74698468398515,33.78600096012213,0.0 -78.7470293070746,33.78601623456926,0.0 -78.74707307615637,33.78603314764964,0.0 -78.74711590356853,33.78605166439571,0.0 -78.74715770491147,33.78607174899746,0.0 -78.7471983980155,33.78609336297949,0.0 -78.74774507935845,33.78639771922309,0.0 -78.74775573814664,33.78640540309523,0.0 -78.74776467298189,33.78641449151342,0.0 -78.74777162071707,33.786424719923964,0.0 -78.74777637857633,33.786435786989664,0.0 -78.74777880701805,33.786447369072995,0.0 -78.74777883492149,33.786459128448286,0.0 -78.74777646052544,33.78647071873039,0.0 -78.74777175532367,33.78648180118103,0.0 -78.74776485523898,33.78649205176368,0.0 -78.74775596362726,33.78650117021818,0.0 -78.74774534024529,33.786508888879276,0.0 -78.74773329559311,33.78651498249551,0.0 -78.74772018434194,33.78651927171752,0.0 -78.7477063878235,33.78652163179888,0.0 -78.7476441294766,33.78652884182053,0.0 -78.74758227297164,33.786538161596475,0.0 -78.74752092343523,33.78654957770752,0.0 -78.74746018080756,33.78656306852251,0.0 -78.74701138685431,33.7866707782317,0.0 -78.74642353305597,33.78681071386921,0.0 -78.7463797368212,33.786820884167504,0.0 -78.74564125608309,33.78700258120586,0.0 -78.74556338134882,33.7870253838407,0.0 -78.7454860587938,33.78704945923273,0.0 -78.7454093178264,33.78707479799726,0.0 -78.74518937179738,33.78641597833436,0.0</coordinates>
                    </LinearRing>
                </outerBoundaryIs>
            </Polygon>
        </Placemark>
        <Placemark id="2722550">
            <name>Parcel_295362</name>
            <styleUrl>#2722555</styleUrl>
            <Polygon id="2722549">
                <outerBoundaryIs>
                    <LinearRing id="2722553">
                        <coordinates>-78.7445800532958,33.78653758495355,0.0 -78.74462691706644,33.786517221302695,0.0 -78.7446748224959,33.7864986210122,0.0 -78.74472367243288,33.786481822898544,0.0 -78.74477336989115,33.78646685946771,0.0 -78.74482381795552,33.78645376052115,0.0 -78.74487491443041,33.78644255125449,0.0 -78.74492655822361,33.7864332559816,0.0 -78.74497864737548,33.786425890883024,0.0 -78.74503107668738,33.786420472080565,0.0 -78.74508374436492,33.7864170094444,0.0 -78.74513654434205,33.786415510963096,0.0 -78.74518937179738,33.78641597833436,0.0 -78.7454093178264,33.78707479799726,0.0 -78.74531962239398,33.78710672493646,0.0 -78.74523083877537,33.7871403812497,0.0 -78.74514301494449,33.78717574977385,0.0 -78.74505619786675,33.787212810621746,0.0 -78.7445800532958,33.78653758495355,0.0</coordinates>
                    </LinearRing>
                </outerBoundaryIs>
            </Polygon>
        </Placemark>
    </Document>
</kml>
