<?xml version="1.0" encoding="UTF-8"?>
<kml xmlns="http://www.opengis.net/kml/2.2" xmlns:gx="http://www.google.com/kml/ext/2.2">
    <Document id="4977">
        <NetworkLink id="4978">
            <name>Population_001</name>
            <Link id="4979">
                <href>https://raw.githubusercontent.com/robmohammedmahid-stack/Horry-County-Data/Population/KML-Output/Population/Population_001.kml</href>
                <refreshMode>onChange</refreshMode>
            </Link>
        </NetworkLink>
        <NetworkLink id="4980">
            <name>Population_002</name>
            <Link id="4981">
                <href>https://raw.githubusercontent.com/robmohammedmahid-stack/Horry-County-Data/Population/KML-Output/Population/Population_002.kml</href>
                <refreshMode>onChange</refreshMode>
            </Link>
        </NetworkLink>
        <NetworkLink id="4982">
            <name>Population_003</name>
            <Link id="4983">
                <href>https://raw.githubusercontent.com/robmohammedmahid-stack/Horry-County-Data/Population/KML-Output/Population/Population_003.kml</href>
                <refreshMode>onChange</refreshMode>
            </Link>
        </NetworkLink>
        <NetworkLink id="4984">
            <name>Population_004</name>
            <Link id="4985">
                <href>https://raw.githubusercontent.com/robmohammedmahid-stack/Horry-County-Data/Population/KML-Output/Population/Population_004.kml</href>
                <refreshMode>onChange</refreshMode>
            </Link>
        </NetworkLink>
        <NetworkLink id="4986">
            <name>Population_005</name>
            <Link id="4987">
                <href>https://raw.githubusercontent.com/robmohammedmahid-stack/Horry-County-Data/Population/KML-Output/Population/Population_005.kml</href>
                <refreshMode>onChange</refreshMode>
            </Link>
        </NetworkLink>
        <NetworkLink id="4988">
            <name>Population_006</name>
            <Link id="4989">
                <href>https://raw.githubusercontent.com/robmohammedmahid-stack/Horry-County-Data/Population/KML-Output/Population/Population_006.kml</href>
                <refreshMode>onChange</refreshMode>
            </Link>
        </NetworkLink>
        <NetworkLink id="4990">
            <name>Population_007</name>
            <Link id="4991">
                <href>https://raw.githubusercontent.com/robmohammedmahid-stack/Horry-County-Data/Population/KML-Output/Population/Population_007.kml</href>
                <refreshMode>onChange</refreshMode>
            </Link>
        </NetworkLink>
        <NetworkLink id="4992">
            <name>Population_008</name>
            <Link id="4993">
                <href>https://raw.githubusercontent.com/robmohammedmahid-stack/Horry-County-Data/Population/KML-Output/Population/Population_008.kml</href>
                <refreshMode>onChange</refreshMode>
            </Link>
        </NetworkLink>
        <NetworkLink id="4994">
            <name>Population_009</name>
            <Link id="4995">
                <href>https://raw.githubusercontent.com/robmohammedmahid-stack/Horry-County-Data/Population/KML-Output/Population/Population_009.kml</href>
                <refreshMode>onChange</refreshMode>
            </Link>
        </NetworkLink>
        <NetworkLink id="4996">
            <name>Population_010</name>
            <Link id="4997">
                <href>https://raw.githubusercontent.com/robmohammedmahid-stack/Horry-County-Data/Population/KML-Output/Population/Population_010.kml</href>
                <refreshMode>onChange</refreshMode>
            </Link>
        </NetworkLink>
        <NetworkLink id="4998">
            <name>Population_011</name>
            <Link id="4999">
                <href>https://raw.githubusercontent.com/robmohammedmahid-stack/Horry-County-Data/Population/KML-Output/Population/Population_011.kml</href>
                <refreshMode>onChange</refreshMode>
            </Link>
        </NetworkLink>
        <NetworkLink id="5000">
            <name>Population_012</name>
            <Link id="5001">
                <href>https://raw.githubusercontent.com/robmohammedmahid-stack/Horry-County-Data/Population/KML-Output/Population/Population_012.kml</href>
                <refreshMode>onChange</refreshMode>
            </Link>
        </NetworkLink>
        <NetworkLink id="5002">
            <name>Population_013</name>
            <Link id="5003">
                <href>https://raw.githubusercontent.com/robmohammedmahid-stack/Horry-County-Data/Population/KML-Output/Population/Population_013.kml</href>
                <refreshMode>onChange</refreshMode>
            </Link>
        </NetworkLink>
        <NetworkLink id="5004">
            <name>Population_014</name>
            <Link id="5005">
                <href>https://raw.githubusercontent.com/robmohammedmahid-stack/Horry-County-Data/Population/KML-Output/Population/Population_014.kml</href>
                <refreshMode>onChange</refreshMode>
            </Link>
        </NetworkLink>
        <NetworkLink id="5006">
            <name>Population_015</name>
            <Link id="5007">
                <href>https://raw.githubusercontent.com/robmohammedmahid-stack/Horry-County-Data/Population/KML-Output/Population/Population_015.kml</href>
                <refreshMode>onChange</refreshMode>
            </Link>
        </NetworkLink>
        <NetworkLink id="5008">
            <name>Population_016</name>
            <Link id="5009">
                <href>https://raw.githubusercontent.com/robmohammedmahid-stack/Horry-County-Data/Population/KML-Output/Population/Population_016.kml</href>
                <refreshMode>onChange</refreshMode>
            </Link>
        </NetworkLink>
        <NetworkLink id="5010">
            <name>Population_017</name>
            <Link id="5011">
                <href>https://raw.githubusercontent.com/robmohammedmahid-stack/Horry-County-Data/Population/KML-Output/Population/Population_017.kml</href>
                <refreshMode>onChange</refreshMode>
            </Link>
        </NetworkLink>
        <NetworkLink id="5012">
            <name>Population_018</name>
            <Link id="5013">
                <href>https://raw.githubusercontent.com/robmohammedmahid-stack/Horry-County-Data/Population/KML-Output/Population/Population_018.kml</href>
                <refreshMode>onChange</refreshMode>
            </Link>
        </NetworkLink>
        <NetworkLink id="5014">
            <name>Population_019</name>
            <Link id="5015">
                <href>https://raw.githubusercontent.com/robmohammedmahid-stack/Horry-County-Data/Population/KML-Output/Population/Population_019.kml</href>
                <refreshMode>onChange</refreshMode>
            </Link>
        </NetworkLink>
        <NetworkLink id="5016">
            <name>Population_020</name>
            <Link id="5017">
                <href>https://raw.githubusercontent.com/robmohammedmahid-stack/Horry-County-Data/Population/KML-Output/Population/Population_020.kml</href>
                <refreshMode>onChange</refreshMode>
            </Link>
        </NetworkLink>
        <NetworkLink id="5018">
            <name>Population_021</name>
            <Link id="5019">
                <href>https://raw.githubusercontent.com/robmohammedmahid-stack/Horry-County-Data/Population/KML-Output/Population/Population_021.kml</href>
                <refreshMode>onChange</refreshMode>
            </Link>
        </NetworkLink>
        <NetworkLink id="5020">
            <name>Population_022</name>
            <Link id="5021">
                <href>https://raw.githubusercontent.com/robmohammedmahid-stack/Horry-County-Data/Population/KML-Output/Population/Population_022.kml</href>
                <refreshMode>onChange</refreshMode>
            </Link>
        </NetworkLink>
    </Document>
</kml>
