<?xml version="1.0" encoding="UTF-8"?>
<kml xmlns="http://www.opengis.net/kml/2.2" xmlns:gx="http://www.google.com/kml/ext/2.2">
    <Document id="2185">
        <Style id="2192">
            <LineStyle id="2194">
                <colorMode>normal</colorMode>
                <width>1</width>
            </LineStyle>
            <PolyStyle id="2193">
                <color>800000ff</color>
                <colorMode>normal</colorMode>
                <fill>1</fill>
                <outline>1</outline>
            </PolyStyle>
        </Style>
        <Style id="2201">
            <LineStyle id="2203">
                <colorMode>normal</colorMode>
                <width>1</width>
            </LineStyle>
            <PolyStyle id="2202">
                <color>800000ff</color>
                <colorMode>normal</colorMode>
                <fill>1</fill>
                <outline>1</outline>
            </PolyStyle>
        </Style>
        <Style id="2210">
            <LineStyle id="2212">
                <colorMode>normal</colorMode>
                <width>1</width>
            </LineStyle>
            <PolyStyle id="2211">
                <color>800000ff</color>
                <colorMode>normal</colorMode>
                <fill>1</fill>
                <outline>1</outline>
            </PolyStyle>
        </Style>
        <Style id="2219">
            <LineStyle id="2221">
                <colorMode>normal</colorMode>
                <width>1</width>
            </LineStyle>
            <PolyStyle id="2220">
                <color>800000ff</color>
                <colorMode>normal</colorMode>
                <fill>1</fill>
                <outline>1</outline>
            </PolyStyle>
        </Style>
        <Style id="2228">
            <LineStyle id="2230">
                <colorMode>normal</colorMode>
                <width>1</width>
            </LineStyle>
            <PolyStyle id="2229">
                <color>800000ff</color>
                <colorMode>normal</colorMode>
                <fill>1</fill>
                <outline>1</outline>
            </PolyStyle>
        </Style>
        <Style id="2237">
            <LineStyle id="2239">
                <colorMode>normal</colorMode>
                <width>1</width>
            </LineStyle>
            <PolyStyle id="2238">
                <color>800000ff</color>
                <colorMode>normal</colorMode>
                <fill>1</fill>
                <outline>1</outline>
            </PolyStyle>
        </Style>
        <Style id="2246">
            <LineStyle id="2248">
                <colorMode>normal</colorMode>
                <width>1</width>
            </LineStyle>
            <PolyStyle id="2247">
                <color>800000ff</color>
                <colorMode>normal</colorMode>
                <fill>1</fill>
                <outline>1</outline>
            </PolyStyle>
        </Style>
        <Style id="2255">
            <LineStyle id="2257">
                <colorMode>normal</colorMode>
                <width>1</width>
            </LineStyle>
            <PolyStyle id="2256">
                <color>800000ff</color>
                <colorMode>normal</colorMode>
                <fill>1</fill>
                <outline>1</outline>
            </PolyStyle>
        </Style>
        <Style id="2264">
            <LineStyle id="2266">
                <colorMode>normal</colorMode>
                <width>1</width>
            </LineStyle>
            <PolyStyle id="2265">
                <color>800000ff</color>
                <colorMode>normal</colorMode>
                <fill>1</fill>
                <outline>1</outline>
            </PolyStyle>
        </Style>
        <Style id="2273">
            <LineStyle id="2275">
                <colorMode>normal</colorMode>
                <width>1</width>
            </LineStyle>
            <PolyStyle id="2274">
                <color>800000ff</color>
                <colorMode>normal</colorMode>
                <fill>1</fill>
                <outline>1</outline>
            </PolyStyle>
        </Style>
        <Style id="2282">
            <LineStyle id="2284">
                <colorMode>normal</colorMode>
                <width>1</width>
            </LineStyle>
            <PolyStyle id="2283">
                <color>800000ff</color>
                <colorMode>normal</colorMode>
                <fill>1</fill>
                <outline>1</outline>
            </PolyStyle>
        </Style>
        <Style id="2291">
            <LineStyle id="2293">
                <colorMode>normal</colorMode>
                <width>1</width>
            </LineStyle>
            <PolyStyle id="2292">
                <color>800000ff</color>
                <colorMode>normal</colorMode>
                <fill>1</fill>
                <outline>1</outline>
            </PolyStyle>
        </Style>
        <Style id="2300">
            <LineStyle id="2302">
                <colorMode>normal</colorMode>
                <width>1</width>
            </LineStyle>
            <PolyStyle id="2301">
                <color>800000ff</color>
                <colorMode>normal</colorMode>
                <fill>1</fill>
                <outline>1</outline>
            </PolyStyle>
        </Style>
        <Style id="2309">
            <LineStyle id="2311">
                <colorMode>normal</colorMode>
                <width>1</width>
            </LineStyle>
            <PolyStyle id="2310">
                <color>800000ff</color>
                <colorMode>normal</colorMode>
                <fill>1</fill>
                <outline>1</outline>
            </PolyStyle>
        </Style>
        <Style id="2318">
            <LineStyle id="2320">
                <colorMode>normal</colorMode>
                <width>1</width>
            </LineStyle>
            <PolyStyle id="2319">
                <color>800000ff</color>
                <colorMode>normal</colorMode>
                <fill>1</fill>
                <outline>1</outline>
            </PolyStyle>
        </Style>
        <Style id="2327">
            <LineStyle id="2329">
                <colorMode>normal</colorMode>
                <width>1</width>
            </LineStyle>
            <PolyStyle id="2328">
                <color>800000ff</color>
                <colorMode>normal</colorMode>
                <fill>1</fill>
                <outline>1</outline>
            </PolyStyle>
        </Style>
        <Style id="2336">
            <LineStyle id="2338">
                <colorMode>normal</colorMode>
                <width>1</width>
            </LineStyle>
            <PolyStyle id="2337">
                <color>800000ff</color>
                <colorMode>normal</colorMode>
                <fill>1</fill>
                <outline>1</outline>
            </PolyStyle>
        </Style>
        <Style id="2345">
            <LineStyle id="2347">
                <colorMode>normal</colorMode>
                <width>1</width>
            </LineStyle>
            <PolyStyle id="2346">
                <color>800000ff</color>
                <colorMode>normal</colorMode>
                <fill>1</fill>
                <outline>1</outline>
            </PolyStyle>
        </Style>
        <Style id="2354">
            <LineStyle id="2356">
                <colorMode>normal</colorMode>
                <width>1</width>
            </LineStyle>
            <PolyStyle id="2355">
                <color>800000ff</color>
                <colorMode>normal</colorMode>
                <fill>1</fill>
                <outline>1</outline>
            </PolyStyle>
        </Style>
        <Style id="2363">
            <LineStyle id="2365">
                <colorMode>normal</colorMode>
                <width>1</width>
            </LineStyle>
            <PolyStyle id="2364">
                <color>800000ff</color>
                <colorMode>normal</colorMode>
                <fill>1</fill>
                <outline>1</outline>
            </PolyStyle>
        </Style>
        <Placemark id="2187">
            <name>Population_240</name>
            <styleUrl>#2192</styleUrl>
            <Polygon id="2186">
                <outerBoundaryIs>
                    <LinearRing id="2190">
                        <coordinates>-79.10177915901984,33.881204191949976,0.0 -79.10179166777831,33.88119525839379,0.0 -79.10174986962863,33.88124325399754,0.0 -79.10175139366288,33.881241220658396,0.0 -79.10177915901984,33.881204191949976,0.0</coordinates>
                    </LinearRing>
                </outerBoundaryIs>
            </Polygon>
        </Placemark>
        <Placemark id="2196">
            <name>Population_241</name>
            <styleUrl>#2201</styleUrl>
            <Polygon id="2195">
                <outerBoundaryIs>
                    <LinearRing id="2199">
                        <coordinates>-78.66951247439104,33.873992544603155,0.0 -78.66939534953306,33.87393630033411,0.0 -78.66943880761065,33.8739404550354,0.0 -78.66951247439104,33.873992544603155,0.0</coordinates>
                    </LinearRing>
                </outerBoundaryIs>
            </Polygon>
        </Placemark>
        <Placemark id="2205">
            <name>Population_242</name>
            <styleUrl>#2210</styleUrl>
            <Polygon id="2204">
                <outerBoundaryIs>
                    <LinearRing id="2208">
                        <coordinates>-78.64439940839246,33.874214447933305,0.0 -78.64453150500299,33.87406665075497,0.0 -78.64451016315645,33.87412198705651,0.0 -78.64441479287223,33.87420623988598,0.0 -78.64439940839246,33.874214447933305,0.0</coordinates>
                    </LinearRing>
                </outerBoundaryIs>
            </Polygon>
        </Placemark>
        <Placemark id="2214">
            <name>Population_243</name>
            <styleUrl>#2219</styleUrl>
            <Polygon id="2213">
                <outerBoundaryIs>
                    <LinearRing id="2217">
                        <coordinates>-78.64432819142154,33.87429412887563,0.0 -78.64435340550068,33.87426591796232,0.0 -78.64435414785228,33.8742698983848,0.0 -78.64435033058659,33.874289460850704,0.0 -78.64434193873069,33.87431134765804,0.0 -78.64433119763022,33.874334939577864,0.0 -78.64431938722461,33.874359288241514,0.0 -78.64430673712954,33.8743833151951,0.0 -78.64429266855473,33.874406252007994,0.0 -78.64427614422583,33.87442780835496,0.0 -78.64425613010077,33.87444793019622,0.0 -78.64423210354111,33.87446636229335,0.0 -78.64420436587247,33.87448248468334,0.0 -78.64417385118439,33.87449562278603,0.0 -78.6441414384736,33.87450569062745,0.0 -78.64410739920594,33.87451370501573,0.0 -78.64407149270167,33.87452169720286,0.0 -78.64404708376387,33.874528282782244,0.0 -78.64393899105761,33.87450791948841,0.0 -78.64398936564986,33.874459632114664,0.0 -78.64432819142154,33.87429412887563,0.0</coordinates>
                    </LinearRing>
                </outerBoundaryIs>
            </Polygon>
        </Placemark>
        <Placemark id="2223">
            <name>Population_244</name>
            <styleUrl>#2228</styleUrl>
            <Polygon id="2222">
                <outerBoundaryIs>
                    <LinearRing id="2226">
                        <coordinates>-78.64340214693541,33.87530182507601,0.0 -78.64347533655803,33.8749478846211,0.0 -78.64360497195015,33.8748621774285,0.0 -78.6436217282956,33.87494064856663,0.0 -78.64361643138463,33.874946872088856,0.0 -78.64359457313029,33.87497083820168,0.0 -78.64357393197251,33.874990795553835,0.0 -78.64355485099262,33.87500503853473,0.0 -78.64353694680997,33.87501347595971,0.0 -78.64351989144593,33.87501773619032,0.0 -78.64350407219315,33.875020637885875,0.0 -78.64349084082426,33.875025264300874,0.0 -78.64348199759156,33.87503419154455,0.0 -78.64347859314029,33.875049228532156,0.0 -78.64347962783005,33.87507146783507,0.0 -78.64348185389268,33.87510112952175,0.0 -78.64348119185982,33.87513573813541,0.0 -78.64348422787386,33.875144987329605,0.0 -78.64349081978719,33.87516152201984,0.0 -78.64348996336173,33.87516915948056,0.0 -78.64349461415199,33.87517904275265,0.0 -78.64349437223811,33.87518394834299,0.0 -78.64349343754647,33.87518676695431,0.0 -78.64349557884233,33.875186768251474,0.0 -78.6434954617602,33.87518729165547,0.0 -78.64345799801798,33.875187278136494,0.0 -78.64340345550565,33.87529826437345,0.0 -78.64340214693541,33.87530182507601,0.0</coordinates>
                    </LinearRing>
                </outerBoundaryIs>
            </Polygon>
        </Placemark>
        <Placemark id="2232">
            <name>Population_245</name>
            <styleUrl>#2237</styleUrl>
            <Polygon id="2231">
                <outerBoundaryIs>
                    <LinearRing id="2235">
                        <coordinates>-78.75840891597329,33.87745679077075,0.0 -78.75841773315317,33.877434164820095,0.0 -78.75841735485605,33.87744015478768,0.0 -78.75841717812656,33.87744186920834,0.0 -78.75841686130765,33.877443608128885,0.0 -78.75841640778619,33.87744532472537,0.0 -78.75841581772714,33.87744701268921,0.0 -78.75841509451345,33.87744866667213,0.0 -78.75841424164587,33.87745027681972,0.0 -78.7584132614032,33.877451838665195,0.0 -78.7584121593765,33.87745334509715,0.0 -78.75841094228439,33.87745478722139,0.0 -78.75840961127807,33.87745616235389,0.0 -78.75840891597329,33.87745679077075,0.0</coordinates>
                    </LinearRing>
                </outerBoundaryIs>
            </Polygon>
        </Placemark>
        <Placemark id="2241">
            <name>Population_246</name>
            <styleUrl>#2246</styleUrl>
            <Polygon id="2240">
                <outerBoundaryIs>
                    <LinearRing id="2244">
                        <coordinates>-78.65792586441287,33.87581145237518,0.0 -78.65831742341724,33.87538234421866,0.0 -78.65871386977673,33.87534027987466,0.0 -78.65870533454357,33.87534914648222,0.0 -78.65864785808779,33.87541741485862,0.0 -78.65859874044189,33.87544845720971,0.0 -78.65852983422518,33.87548419678537,0.0 -78.65845688233141,33.875496227871004,0.0 -78.65840574177055,33.8755154159157,0.0 -78.65838630469696,33.875539410944114,0.0 -78.65832742973981,33.87553048176557,0.0 -78.65831907183927,33.87556770595352,0.0 -78.65830569980987,33.87562726538526,0.0 -78.65822236811505,33.87566466630377,0.0 -78.65821031708653,33.87569748075404,0.0 -78.65819576110509,33.875741463764015,0.0 -78.658169283712,33.87577594060304,0.0 -78.65811898077281,33.87579140632011,0.0 -78.65810525825547,33.87583166703647,0.0 -78.65806937622646,33.87584547024406,0.0 -78.65806352633334,33.875871527713095,0.0 -78.65803300873273,33.87588229616452,0.0 -78.65798939026814,33.87586798119887,0.0 -78.65793887000292,33.87582182760987,0.0 -78.65792586441287,33.87581145237518,0.0</coordinates>
                    </LinearRing>
                </outerBoundaryIs>
            </Polygon>
        </Placemark>
        <Placemark id="2250">
            <name>Population_247</name>
            <styleUrl>#2255</styleUrl>
            <Polygon id="2249">
                <outerBoundaryIs>
                    <LinearRing id="2253">
                        <coordinates>-78.75552042478098,33.8778538667193,0.0 -78.75549567334231,33.87775794759934,0.0 -78.7554963387651,33.877758791042865,0.0 -78.75549832911447,33.87776204258234,0.0 -78.75551573030916,33.87779450877007,0.0 -78.75551690030258,33.87779693027217,0.0 -78.75551746592079,33.87779832370421,0.0 -78.75554839305558,33.87788017336734,0.0 -78.75552042478098,33.8778538667193,0.0</coordinates>
                    </LinearRing>
                </outerBoundaryIs>
            </Polygon>
        </Placemark>
        <Placemark id="2259">
            <name>Population_248</name>
            <styleUrl>#2264</styleUrl>
            <Polygon id="2258">
                <outerBoundaryIs>
                    <LinearRing id="2262">
                        <coordinates>-78.75842251093547,33.877568723359644,0.0 -78.75842417634176,33.87756869776637,0.0 -78.75842949588404,33.877569112858176,0.0 -78.75843105460115,33.877569363932,0.0 -78.75843259548435,33.87756967689487,0.0 -78.7584341163962,33.87757005080624,0.0 -78.75843561301484,33.87757048558745,0.0 -78.75843708214592,33.87757097937708,0.0 -78.75843852057159,33.87757153121494,0.0 -78.75843992401704,33.87757213921989,0.0 -78.75844129032134,33.87757280335266,0.0 -78.75844261737066,33.877573521771474,0.0 -78.75844389769591,33.877574290733804,0.0 -78.75844513343449,33.87757511118018,0.0 -78.75844631711733,33.877575979368125,0.0 -78.75844744984846,33.87757689441609,0.0 -78.75859056844877,33.877698689412135,0.0 -78.75859245422694,33.877700446775876,0.0 -78.75905765078927,33.878182899917924,0.0 -78.75905875636647,33.87818398577935,0.0 -78.75923776637576,33.87835071113045,0.0 -78.75923882881193,33.878351752024784,0.0 -78.75923982415961,33.87835283678091,0.0 -78.75924075361714,33.87835396091242,0.0 -78.75924161290968,33.87835512253827,0.0 -78.75924239780953,33.87835631797494,0.0 -78.75924310946787,33.87835754453843,0.0 -78.75924374363343,33.87835879944645,0.0 -78.75924430037692,33.87836007999539,0.0 -78.75924477659824,33.87836138071893,0.0 -78.75924517342501,33.87836269983429,0.0 -78.75932837412178,33.8786731654172,0.0 -78.7593286797214,33.8786744594299,0.0 -78.75932884728508,33.8786753686332,0.0 -78.75933057853159,33.87868597193631,0.0 -78.75926537157866,33.87869032359022,0.0 -78.75926427761355,33.87868362609243,0.0 -78.75918318471385,33.87838102962109,0.0 -78.7590115860152,33.87822100482869,0.0 -78.7590086745744,33.878218411917715,0.0 -78.75900778582785,33.87821755000278,0.0 -78.759005358707,33.8782149559856,0.0 -78.75854246099526,33.87773504565325,0.0 -78.75840484435712,33.87761793290197,0.0 -78.75840045383276,33.877614195017195,0.0 -78.75839932679497,33.87761318630118,0.0 -78.75839826473172,33.87761213188201,0.0 -78.75839726973322,33.87761103450269,0.0 -78.75839634388971,33.877609896906186,0.0 -78.75839549037191,33.877608721855125,0.0 -78.75839470908554,33.87760751295443,0.0 -78.75839400538584,33.87760627210479,0.0 -78.7583933802354,33.877605003832024,0.0 -78.75839283250664,33.87760370991885,0.0 -78.75839236637998,33.877602395851284,0.0 -78.7583919828888,33.877601063451394,0.0 -78.75839168299565,33.87759971724495,0.0 -78.75839146444528,33.87759836079745,0.0 -78.75839133259298,33.8775969960097,0.0 -78.75839128515986,33.87759562734844,0.0 -78.75839132202806,33.87759425931974,0.0 -78.7583914442309,33.87759289374575,0.0 -78.75839165057002,33.87759153511285,0.0 -78.75839194203158,33.87759018704559,0.0 -78.75839231636034,33.87758885310951,0.0 -78.758392771301,33.877587536870145,0.0 -78.75839330894381,33.87758624107049,0.0 -78.75839392592944,33.877584970157606,0.0 -78.7583946211538,33.87758372501309,0.0 -78.75839539226735,33.87758251280733,0.0 -78.75839623710911,33.87758133350099,0.0 -78.7583971545043,33.87758019067928,0.0 -78.75839814114072,33.87757908698687,0.0 -78.75839919579644,33.877578027811396,0.0 -78.75840031412595,33.8775770139754,0.0 -78.75840149389758,33.877576048143254,0.0 -78.75840273290318,33.87757513207801,0.0 -78.75840402670296,33.87757427020711,0.0 -78.75840537205544,33.877573462471574,0.0 -78.7584067656249,33.877572712417276,0.0 -78.75840820409915,33.877572022688874,0.0 -78.7584096820522,33.87757139408927,0.0 -78.75841119946051,33.87757082751966,0.0 -78.7584127487135,33.87757032464486,0.0 -78.75841432755591,33.877569889030376,0.0 -78.75841593063251,33.877569518775495,0.0 -78.758417555688,33.877569217445725,0.0 -78.75841919628665,33.877568983120646,0.0 -78.75842084911628,33.87756881844497,0.0 -78.75842251093547,33.877568723359644,0.0</coordinates>
                    </LinearRing>
                </outerBoundaryIs>
            </Polygon>
        </Placemark>
        <Placemark id="2268">
            <name>Population_249</name>
            <styleUrl>#2273</styleUrl>
            <Polygon id="2267">
                <outerBoundaryIs>
                    <LinearRing id="2271">
                        <coordinates>-78.66779159996912,33.87838693923996,0.0 -78.66808232045415,33.8781368648315,0.0 -78.66808662631229,33.87817363347694,0.0 -78.66806639823137,33.87823300297809,0.0 -78.66807042163003,33.87830739739673,0.0 -78.66804105183382,33.878376728971425,0.0 -78.66784542456715,33.87838680797259,0.0 -78.66779159996912,33.87838693923996,0.0</coordinates>
                    </LinearRing>
                </outerBoundaryIs>
            </Polygon>
        </Placemark>
        <Placemark id="2277">
            <name>Population_250</name>
            <styleUrl>#2282</styleUrl>
            <Polygon id="2276">
                <outerBoundaryIs>
                    <LinearRing id="2280">
                        <coordinates>-79.1684242799046,33.88671835902284,0.0 -79.1685036256492,33.88667094265109,0.0 -79.16853287578736,33.88700177793534,0.0 -79.16860207827695,33.887123272989534,0.0 -79.16831013202003,33.887246198858534,0.0 -79.16833912502528,33.8871458649607,0.0 -79.16834167568899,33.88702661174471,0.0 -79.16835852311839,33.88690757022232,0.0 -79.16838941661175,33.88680066658541,0.0 -79.1684242799046,33.88671835902284,0.0</coordinates>
                    </LinearRing>
                </outerBoundaryIs>
            </Polygon>
        </Placemark>
        <Placemark id="2286">
            <name>Population_251</name>
            <styleUrl>#2291</styleUrl>
            <Polygon id="2285">
                <outerBoundaryIs>
                    <LinearRing id="2289">
                        <coordinates>-78.66796235287296,33.8786843456419,0.0 -78.66789082979011,33.878633774362925,0.0 -78.66784057809778,33.87858075218885,0.0 -78.66782073313314,33.878515311554374,0.0 -78.66786767690013,33.87845999226159,0.0 -78.66797453554422,33.87847618916068,0.0 -78.66814941112749,33.87849702148684,0.0 -78.66829848106389,33.878417452348316,0.0 -78.66826826259401,33.87836746669649,0.0 -78.6682215094731,33.87836038017937,0.0 -78.66817054581114,33.8783413025597,0.0 -78.66814402179142,33.87827484921997,0.0 -78.66815387659874,33.87823093642097,0.0 -78.66820010689719,33.87820956589326,0.0 -78.66828621574791,33.87825667228556,0.0 -78.66832382496149,33.87827372354078,0.0 -78.6684173289791,33.87828789643582,0.0 -78.66844702900866,33.87830942506652,0.0 -78.66847899851793,33.87838238116587,0.0 -78.66851939910713,33.87847931598882,0.0 -78.6685605115668,33.87854230546892,0.0 -78.66864662093003,33.878589412530374,0.0 -78.66871568161051,33.878650961841466,0.0 -78.66881903958969,33.87862122067429,0.0 -78.66875841099065,33.878583651958486,0.0 -78.66875490557362,33.878537715430674,0.0 -78.66874841767057,33.87847429944603,0.0 -78.6687456250961,33.87839441579871,0.0 -78.66876163777846,33.878323055920085,0.0 -78.66885215508964,33.878319749852025,0.0 -78.66889942799001,33.878355293143294,0.0 -78.66895778561606,33.878341436090096,0.0 -78.66897133418736,33.87828105641857,0.0 -78.66905270880663,33.87828771323459,0.0 -78.6690519971759,33.878321660381395,0.0 -78.66906217947968,33.878368608665646,0.0 -78.66907904169348,33.87841657147034,0.0 -78.66910083059845,33.8784425764646,0.0 -78.66915127478174,33.87843319489331,0.0 -78.66919523504501,33.87836039740697,0.0 -78.66921001483658,33.87829452846894,0.0 -78.66925131838244,33.878295112649106,0.0 -78.66927732125984,33.87833310872949,0.0 -78.66934884496992,33.87838367922901,0.0 -78.66936025987428,33.87842513918173,0.0 -78.66939048004754,33.8784751264155,0.0 -78.6694411158175,33.87840333965172,0.0 -78.66944727371877,33.878375894391056,0.0 -78.66956644942087,33.87833720031237,0.0 -78.66955290125392,33.87839758006618,0.0 -78.6694913716352,33.87845636307475,0.0 -78.66941875422059,33.87856454726784,0.0 -78.66940151180098,33.878641393803065,0.0 -78.66944314596415,33.878732840955415,0.0 -78.6694503396179,33.87875165063815,0.0 -78.66928052368397,33.878824507292755,0.0 -78.66855819980992,33.87908464054987,0.0 -78.6684750765376,33.879219762369225,0.0 -78.66843890102558,33.8791765848586,0.0 -78.66841782406442,33.87911663262256,0.0 -78.66839305062548,33.87907314800922,0.0 -78.66835738767664,33.87901666047425,0.0 -78.6682972785252,33.87900754943511,0.0 -78.66825545409439,33.87897850699553,0.0 -78.66819482335507,33.878940937962966,0.0 -78.66812278047699,33.878861908902344,0.0 -78.66805741661202,33.878783892558666,0.0 -78.66796235287296,33.8786843456419,0.0</coordinates>
                    </LinearRing>
                </outerBoundaryIs>
            </Polygon>
        </Placemark>
        <Placemark id="2295">
            <name>Population_252</name>
            <styleUrl>#2300</styleUrl>
            <Polygon id="2294">
                <outerBoundaryIs>
                    <LinearRing id="2298">
                        <coordinates>-79.05227849195033,33.88706752789196,0.0 -79.05230162345646,33.886937490189304,0.0 -79.05259181290788,33.88696682249601,0.0 -79.05263386253496,33.8871999436589,0.0 -79.05255954853388,33.887194763294744,0.0 -79.05240265261477,33.88715720056075,0.0 -79.05227849195033,33.88706752789196,0.0</coordinates>
                    </LinearRing>
                </outerBoundaryIs>
            </Polygon>
        </Placemark>
        <Placemark id="2304">
            <name>Population_253</name>
            <styleUrl>#2309</styleUrl>
            <Polygon id="2303">
                <outerBoundaryIs>
                    <LinearRing id="2307">
                        <coordinates>-78.9766022376273,33.88721401853069,0.0 -78.97674210333663,33.88710441866919,0.0 -78.97672722434237,33.88717829711956,0.0 -78.9766022376273,33.88721401853069,0.0</coordinates>
                    </LinearRing>
                </outerBoundaryIs>
            </Polygon>
        </Placemark>
        <Placemark id="2313">
            <name>Population_254</name>
            <styleUrl>#2318</styleUrl>
            <Polygon id="2312">
                <outerBoundaryIs>
                    <LinearRing id="2316">
                        <coordinates>-78.64685520926948,33.88222080859744,0.0 -78.64686384768525,33.88218235910167,0.0 -78.64685341541595,33.88212113457133,0.0 -78.64686637525351,33.882063457663854,0.0 -78.64694825006775,33.88207588292471,0.0 -78.64701843051154,33.88208653301536,0.0 -78.64707817420404,33.88203595936686,0.0 -78.64713665591933,33.882044834194836,0.0 -78.64713419943321,33.88216049207723,0.0 -78.64706701185614,33.88219331039893,0.0 -78.64703191997623,33.88218798488892,0.0 -78.64695958044557,33.88218694538681,0.0 -78.64685520926948,33.88222080859744,0.0</coordinates>
                    </LinearRing>
                </outerBoundaryIs>
            </Polygon>
        </Placemark>
        <Placemark id="2322">
            <name>Population_255</name>
            <styleUrl>#2327</styleUrl>
            <Polygon id="2321">
                <outerBoundaryIs>
                    <LinearRing id="2325">
                        <coordinates>-78.64517667274353,33.88398495077499,0.0 -78.64520056287564,33.883977200147235,0.0 -78.64517435727227,33.88399151356175,0.0 -78.64517667274353,33.88398495077499,0.0</coordinates>
                    </LinearRing>
                </outerBoundaryIs>
            </Polygon>
        </Placemark>
        <Placemark id="2331">
            <name>Population_256</name>
            <styleUrl>#2336</styleUrl>
            <Polygon id="2330">
                <outerBoundaryIs>
                    <LinearRing id="2334">
                        <coordinates>-78.6982012812402,33.88725269983282,0.0 -78.69825901293034,33.88719928339628,0.0 -78.69830963875084,33.88722221769289,0.0 -78.69856649407183,33.88724316541452,0.0 -78.69891931745069,33.88722489692817,0.0 -78.69924107006837,33.88714081210922,0.0 -78.69923241496953,33.88715722600143,0.0 -78.69915398367645,33.887210856660744,0.0 -78.69909786087948,33.88722419992774,0.0 -78.698978680244,33.88722254385728,0.0 -78.69893304020283,33.88724838747855,0.0 -78.69886576195805,33.887281872917356,0.0 -78.69874827652586,33.887302304904324,0.0 -78.69850045469948,33.887341226992525,0.0 -78.6983620026819,33.88733665493993,0.0 -78.69825870616906,33.88729373705401,0.0 -78.6982012812402,33.88725269983282,0.0</coordinates>
                    </LinearRing>
                </outerBoundaryIs>
            </Polygon>
        </Placemark>
        <Placemark id="2340">
            <name>Population_257</name>
            <styleUrl>#2345</styleUrl>
            <Polygon id="2339">
                <outerBoundaryIs>
                    <LinearRing id="2343">
                        <coordinates>-78.93214578067482,33.89232006123205,0.0 -78.93215467793073,33.89228048062297,0.0 -78.93215741457264,33.892338384029934,0.0 -78.93214578067482,33.89232006123205,0.0</coordinates>
                    </LinearRing>
                </outerBoundaryIs>
            </Polygon>
        </Placemark>
        <Placemark id="2349">
            <name>Population_258</name>
            <styleUrl>#2354</styleUrl>
            <Polygon id="2348">
                <outerBoundaryIs>
                    <LinearRing id="2352">
                        <coordinates>-78.95313478294314,33.894560245284445,0.0 -78.95312266198744,33.89454187660917,0.0 -78.9531295364701,33.8945498472787,0.0 -78.95313478294314,33.894560245284445,0.0</coordinates>
                    </LinearRing>
                </outerBoundaryIs>
            </Polygon>
        </Placemark>
        <Placemark id="2358">
            <name>Population_259</name>
            <styleUrl>#2363</styleUrl>
            <Polygon id="2357">
                <outerBoundaryIs>
                    <LinearRing id="2361">
                        <coordinates>-79.04243697585221,33.89642574694597,0.0 -79.04238890389578,33.896408817011675,0.0 -79.04222579141218,33.896416289839436,0.0 -79.04206336898879,33.896393578872974,0.0 -79.04195872031298,33.8963648945293,0.0 -79.0419573220117,33.896346693891765,0.0 -79.04188882175923,33.89621438661213,0.0 -79.04186444215652,33.89619061772395,0.0 -79.04189581296085,33.89608482965251,0.0 -79.04226601094528,33.896141605696705,0.0 -79.04286657572209,33.89619043145113,0.0 -79.04291411722846,33.896243868288856,0.0 -79.04286010729548,33.89627754083688,0.0 -79.04270199144042,33.89631081489417,0.0 -79.04253012655496,33.896320011950976,0.0 -79.04237201267573,33.896353285611276,0.0 -79.04243697585221,33.89642574694597,0.0</coordinates>
                    </LinearRing>
                </outerBoundaryIs>
            </Polygon>
        </Placemark>
    </Document>
</kml>
