<?xml version="1.0" encoding="UTF-8"?>
<kml xmlns="http://www.opengis.net/kml/2.2" xmlns:gx="http://www.google.com/kml/ext/2.2">
    <Document id="1457">
        <Style id="1464">
            <LineStyle id="1466">
                <colorMode>normal</colorMode>
                <width>1</width>
            </LineStyle>
            <PolyStyle id="1465">
                <color>800000ff</color>
                <colorMode>normal</colorMode>
                <fill>1</fill>
                <outline>1</outline>
            </PolyStyle>
        </Style>
        <Style id="1473">
            <LineStyle id="1475">
                <colorMode>normal</colorMode>
                <width>1</width>
            </LineStyle>
            <PolyStyle id="1474">
                <color>800000ff</color>
                <colorMode>normal</colorMode>
                <fill>1</fill>
                <outline>1</outline>
            </PolyStyle>
        </Style>
        <Style id="1482">
            <LineStyle id="1484">
                <colorMode>normal</colorMode>
                <width>1</width>
            </LineStyle>
            <PolyStyle id="1483">
                <color>800000ff</color>
                <colorMode>normal</colorMode>
                <fill>1</fill>
                <outline>1</outline>
            </PolyStyle>
        </Style>
        <Style id="1491">
            <LineStyle id="1493">
                <colorMode>normal</colorMode>
                <width>1</width>
            </LineStyle>
            <PolyStyle id="1492">
                <color>800000ff</color>
                <colorMode>normal</colorMode>
                <fill>1</fill>
                <outline>1</outline>
            </PolyStyle>
        </Style>
        <Style id="1500">
            <LineStyle id="1502">
                <colorMode>normal</colorMode>
                <width>1</width>
            </LineStyle>
            <PolyStyle id="1501">
                <color>800000ff</color>
                <colorMode>normal</colorMode>
                <fill>1</fill>
                <outline>1</outline>
            </PolyStyle>
        </Style>
        <Style id="1509">
            <LineStyle id="1511">
                <colorMode>normal</colorMode>
                <width>1</width>
            </LineStyle>
            <PolyStyle id="1510">
                <color>800000ff</color>
                <colorMode>normal</colorMode>
                <fill>1</fill>
                <outline>1</outline>
            </PolyStyle>
        </Style>
        <Style id="1518">
            <LineStyle id="1520">
                <colorMode>normal</colorMode>
                <width>1</width>
            </LineStyle>
            <PolyStyle id="1519">
                <color>800000ff</color>
                <colorMode>normal</colorMode>
                <fill>1</fill>
                <outline>1</outline>
            </PolyStyle>
        </Style>
        <Style id="1527">
            <LineStyle id="1529">
                <colorMode>normal</colorMode>
                <width>1</width>
            </LineStyle>
            <PolyStyle id="1528">
                <color>800000ff</color>
                <colorMode>normal</colorMode>
                <fill>1</fill>
                <outline>1</outline>
            </PolyStyle>
        </Style>
        <Style id="1536">
            <LineStyle id="1538">
                <colorMode>normal</colorMode>
                <width>1</width>
            </LineStyle>
            <PolyStyle id="1537">
                <color>800000ff</color>
                <colorMode>normal</colorMode>
                <fill>1</fill>
                <outline>1</outline>
            </PolyStyle>
        </Style>
        <Style id="1545">
            <LineStyle id="1547">
                <colorMode>normal</colorMode>
                <width>1</width>
            </LineStyle>
            <PolyStyle id="1546">
                <color>800000ff</color>
                <colorMode>normal</colorMode>
                <fill>1</fill>
                <outline>1</outline>
            </PolyStyle>
        </Style>
        <Style id="1554">
            <LineStyle id="1556">
                <colorMode>normal</colorMode>
                <width>1</width>
            </LineStyle>
            <PolyStyle id="1555">
                <color>800000ff</color>
                <colorMode>normal</colorMode>
                <fill>1</fill>
                <outline>1</outline>
            </PolyStyle>
        </Style>
        <Style id="1563">
            <LineStyle id="1565">
                <colorMode>normal</colorMode>
                <width>1</width>
            </LineStyle>
            <PolyStyle id="1564">
                <color>800000ff</color>
                <colorMode>normal</colorMode>
                <fill>1</fill>
                <outline>1</outline>
            </PolyStyle>
        </Style>
        <Style id="1572">
            <LineStyle id="1574">
                <colorMode>normal</colorMode>
                <width>1</width>
            </LineStyle>
            <PolyStyle id="1573">
                <color>800000ff</color>
                <colorMode>normal</colorMode>
                <fill>1</fill>
                <outline>1</outline>
            </PolyStyle>
        </Style>
        <Style id="1581">
            <LineStyle id="1583">
                <colorMode>normal</colorMode>
                <width>1</width>
            </LineStyle>
            <PolyStyle id="1582">
                <color>800000ff</color>
                <colorMode>normal</colorMode>
                <fill>1</fill>
                <outline>1</outline>
            </PolyStyle>
        </Style>
        <Style id="1590">
            <LineStyle id="1592">
                <colorMode>normal</colorMode>
                <width>1</width>
            </LineStyle>
            <PolyStyle id="1591">
                <color>800000ff</color>
                <colorMode>normal</colorMode>
                <fill>1</fill>
                <outline>1</outline>
            </PolyStyle>
        </Style>
        <Style id="1599">
            <LineStyle id="1601">
                <colorMode>normal</colorMode>
                <width>1</width>
            </LineStyle>
            <PolyStyle id="1600">
                <color>800000ff</color>
                <colorMode>normal</colorMode>
                <fill>1</fill>
                <outline>1</outline>
            </PolyStyle>
        </Style>
        <Style id="1608">
            <LineStyle id="1610">
                <colorMode>normal</colorMode>
                <width>1</width>
            </LineStyle>
            <PolyStyle id="1609">
                <color>800000ff</color>
                <colorMode>normal</colorMode>
                <fill>1</fill>
                <outline>1</outline>
            </PolyStyle>
        </Style>
        <Style id="1617">
            <LineStyle id="1619">
                <colorMode>normal</colorMode>
                <width>1</width>
            </LineStyle>
            <PolyStyle id="1618">
                <color>800000ff</color>
                <colorMode>normal</colorMode>
                <fill>1</fill>
                <outline>1</outline>
            </PolyStyle>
        </Style>
        <Style id="1626">
            <LineStyle id="1628">
                <colorMode>normal</colorMode>
                <width>1</width>
            </LineStyle>
            <PolyStyle id="1627">
                <color>800000ff</color>
                <colorMode>normal</colorMode>
                <fill>1</fill>
                <outline>1</outline>
            </PolyStyle>
        </Style>
        <Style id="1635">
            <LineStyle id="1637">
                <colorMode>normal</colorMode>
                <width>1</width>
            </LineStyle>
            <PolyStyle id="1636">
                <color>800000ff</color>
                <colorMode>normal</colorMode>
                <fill>1</fill>
                <outline>1</outline>
            </PolyStyle>
        </Style>
        <Placemark id="1459">
            <name>Population_160</name>
            <styleUrl>#1464</styleUrl>
            <Polygon id="1458">
                <outerBoundaryIs>
                    <LinearRing id="1462">
                        <coordinates>-78.84295649881048,33.837006854715625,0.0 -78.84287387370333,33.836926922609806,0.0 -78.84286135326289,33.83691202876871,0.0 -78.84270559777244,33.83667286178272,0.0 -78.84313760979558,33.836680422942194,0.0 -78.8431353448146,33.836770550437805,0.0 -78.84324334795878,33.8367724404978,0.0 -78.84332701268342,33.836917947471704,0.0 -78.84367083177598,33.83696025484345,0.0 -78.8437788351969,33.83696214444367,0.0 -78.84383331082721,33.837268510750356,0.0 -78.84371305802912,33.837250462620815,0.0 -78.84357742387891,33.837230104765794,0.0 -78.84345627778325,33.837211920835266,0.0 -78.84340026134271,33.83717676820544,0.0 -78.84295649881048,33.837006854715625,0.0</coordinates>
                    </LinearRing>
                </outerBoundaryIs>
            </Polygon>
        </Placemark>
        <Placemark id="1468">
            <name>Population_161</name>
            <styleUrl>#1473</styleUrl>
            <Polygon id="1467">
                <outerBoundaryIs>
                    <LinearRing id="1471">
                        <coordinates>-78.64421809477734,33.83413998235612,0.0 -78.64426143297574,33.834140081366264,0.0 -78.6442705690341,33.83414618057774,0.0 -78.64429178858006,33.834147631172264,0.0 -78.64429956883505,33.83415384421737,0.0 -78.64429797390011,33.83416806300406,0.0 -78.64428726488529,33.83419655881318,0.0 -78.64426591370136,33.8342340703053,0.0 -78.64427235157706,33.834291748565136,0.0 -78.64428154841904,33.83431795245906,0.0 -78.64431158180932,33.83434732082468,0.0 -78.64433667663246,33.834379483589494,0.0 -78.64432975057835,33.834410325607934,0.0 -78.64429064333508,33.834430964611684,0.0 -78.64426124758765,33.83443713243331,0.0 -78.6442263721744,33.83443892270294,0.0 -78.64418761832034,33.83441000162441,0.0 -78.64416938489988,33.83436647788784,0.0 -78.64415733468267,33.834343384142926,0.0 -78.64415150601755,33.83427339412193,0.0 -78.6441735322011,33.83420409075145,0.0 -78.64419187298836,33.83416080723416,0.0 -78.64421809477734,33.83413998235612,0.0</coordinates>
                    </LinearRing>
                </outerBoundaryIs>
            </Polygon>
        </Placemark>
        <Placemark id="1477">
            <name>Population_162</name>
            <styleUrl>#1482</styleUrl>
            <Polygon id="1476">
                <outerBoundaryIs>
                    <LinearRing id="1480">
                        <coordinates>-78.88964083482084,33.839600254458,0.0 -78.8896763602905,33.83935866032149,0.0 -78.88967650853752,33.83959013620411,0.0 -78.88964083482084,33.839600254458,0.0</coordinates>
                    </LinearRing>
                </outerBoundaryIs>
            </Polygon>
        </Placemark>
        <Placemark id="1486">
            <name>Population_163</name>
            <styleUrl>#1491</styleUrl>
            <Polygon id="1485">
                <outerBoundaryIs>
                    <LinearRing id="1489">
                        <coordinates>-78.69193616405397,33.83644440710902,0.0 -78.6919877878502,33.83629714498921,0.0 -78.69201916277571,33.83636437789785,0.0 -78.69210698385741,33.83644038228253,0.0 -78.69218981018791,33.8365392460198,0.0 -78.69193616405397,33.83644440710902,0.0</coordinates>
                    </LinearRing>
                </outerBoundaryIs>
            </Polygon>
        </Placemark>
        <Placemark id="1495">
            <name>Population_164</name>
            <styleUrl>#1500</styleUrl>
            <Polygon id="1494">
                <outerBoundaryIs>
                    <LinearRing id="1498">
                        <coordinates>-79.21428543588132,33.84572431022664,0.0 -79.21315818954838,33.84528486318415,0.0 -79.21218314256286,33.84562922716076,0.0 -79.21172218847359,33.84559158195332,0.0 -79.21118006835464,33.845047695098174,0.0 -79.2109948667236,33.84430816279983,0.0 -79.21035889200559,33.8438346350412,0.0 -79.21001593749054,33.84335957072113,0.0 -79.20964104434489,33.84290169233733,0.0 -79.20960483283842,33.842892018111314,0.0 -79.20961908163753,33.842888283555936,0.0 -79.20965168116385,33.84287974143007,0.0 -79.20968977326592,33.84286676763942,0.0 -79.20973336328082,33.84284936496147,0.0 -79.2097714574623,33.84283639388046,0.0 -79.20979865527897,33.84282777055117,0.0 -79.20982045025892,33.842819069644946,0.0 -79.20985304871712,33.84281052474409,0.0 -79.20989645057571,33.84280213944584,0.0 -79.2099344496903,33.84279367205895,0.0 -79.20996704809117,33.84278512893019,0.0 -79.20999964650473,33.84277658489109,0.0 -79.21003224599251,33.842768040858836,0.0 -79.2100594426645,33.8427594183561,0.0 -79.21008123758365,33.84275071830371,0.0 -79.21010303145577,33.84274201642867,0.0 -79.21012520241679,33.8427152859939,0.0 -79.2101315442183,33.8426702907543,0.0 -79.21012139990597,33.842638582306265,0.0 -79.21010566584498,33.842615811051886,0.0 -79.21008452795017,33.84259295951687,0.0 -79.2100415951548,33.84257880983238,0.0 -79.20997677564105,33.842577867572004,0.0 -79.20993337384705,33.84258625560718,0.0 -79.20991157785753,33.8425949565203,0.0 -79.20988438228665,33.84260357990897,0.0 -79.20985178391076,33.84261212482103,0.0 -79.20982458730504,33.842620745476005,0.0 -79.20979729553251,33.842633876181,0.0 -79.20975370569748,33.8426512761817,0.0 -79.2097048091765,33.84266409305796,0.0 -79.20967220970013,33.84267263700395,0.0 -79.20965041366392,33.84268133786917,0.0 -79.20961781631806,33.842689882733204,0.0 -79.20957441445648,33.84269826973735,0.0 -79.20954181605474,33.84270681276217,0.0 -79.20952002213943,33.84271551453643,0.0 -79.20948202200096,33.842723979075295,0.0 -79.2094278155791,33.842732209068004,0.0 -79.20935740613055,33.8427402036387,0.0 -79.20927079041157,33.84274796271234,0.0 -79.2092057805242,33.84275603474306,0.0 -79.20916237965686,33.84276442251676,0.0 -79.20914198074759,33.84276836433394,0.0 -79.208850788529,33.84269056943919,0.0 -79.20834450789495,33.84234768383087,0.0 -79.20821571763457,33.84139801121364,0.0 -79.20800088806222,33.840950721980015,0.0 -79.20791367980144,33.84069282691307,0.0 -79.20792163087042,33.840690306711366,0.0 -79.20803065489672,33.84068012220277,0.0 -79.20813214723111,33.84064460625286,0.0 -79.20823162581007,33.84060905914057,0.0 -79.20834040514697,33.84061064129672,0.0 -79.20843206039248,33.84061197355481,0.0 -79.20844328047534,33.840605411413605,0.0 -79.20848819376099,33.84057747975613,0.0 -79.20851918106808,33.84054093869192,0.0 -79.20851935867744,33.840532533387474,0.0 -79.20851009280614,33.84049372550362,0.0 -79.20849280286068,33.84045312013646,0.0 -79.20847346738847,33.84041416589144,0.0 -79.20839066567902,33.84042305019827,0.0 -79.20828542483848,33.840445061426834,0.0 -79.20818789110037,33.840483998571,0.0 -79.20809417522247,33.84053307897885,0.0 -79.20799271703146,33.840566913639194,0.0 -79.20788379844589,33.840572055279786,0.0 -79.20787361523425,33.840574346443866,0.0 -79.2078360209562,33.84046317085842,0.0 -79.20760937170893,33.8401480647545,0.0 -79.2076134949716,33.84014756923799,0.0 -79.20773954016342,33.84010594060705,0.0 -79.2077790246061,33.83999146629452,0.0 -79.20771422861895,33.839885737561005,0.0 -79.20759172495485,33.839843695914276,0.0 -79.20746568012719,33.839885322602925,0.0 -79.20743515350617,33.839905850574205,0.0 -79.20727102491853,33.83967766348874,0.0 -79.20712330918705,33.83924081722147,0.0 -79.20588735659663,33.8386656101143,0.0 -79.2054645532714,33.83840608442204,0.0 -79.2050311585715,33.83865314481795,0.0 -79.20486422471767,33.83869244746955,0.0 -79.20495088494437,33.838186182387986,0.0 -79.20523709518011,33.83759579985896,0.0 -79.20493704068598,33.8375602084903,0.0 -79.20480059398608,33.83769741942932,0.0 -79.20433031408602,33.837371756059554,0.0 -79.20425113796826,33.83675250510721,0.0 -79.20464244817042,33.836665275733644,0.0 -79.20501497976691,33.83655196726857,0.0 -79.2056148963416,33.83666946059195,0.0 -79.20619635926529,33.83686575123339,0.0 -79.20787781175221,33.8369729056782,0.0 -79.20846306004368,33.8371216627917,0.0 -79.20831424336677,33.83744245326616,0.0 -79.20883230394973,33.83864435902434,0.0 -79.20957290300184,33.83976073553407,0.0 -79.20980913187016,33.83993663573609,0.0 -79.2098075297452,33.84001344672036,0.0 -79.20979771791936,33.84002332442662,0.0 -79.20978141923399,33.84002759643901,0.0 -79.20975962389241,33.84003629734926,0.0 -79.20973764266967,33.84005401302532,0.0 -79.20972115377579,33.84006729973643,0.0 -79.20970476215714,33.840076078221614,0.0 -79.20967747227547,33.84008920894657,0.0 -79.20965008839966,33.840106845231205,0.0 -79.20963360162406,33.84012013286256,0.0 -79.20961720998667,33.840128911335405,0.0 -79.2095954145848,33.84013761311658,0.0 -79.20957361921623,33.840146313090784,0.0 -79.20955182704672,33.84015501491101,0.0 -79.20953003273111,33.84016371579438,0.0 -79.2095082384112,33.840172416673724,0.0 -79.20948644302551,33.84018111663189,0.0 -79.20947108888394,33.8401872481991,0.0 -79.20946464975857,33.840189818420384,0.0 -79.20944285434551,33.840198519272,0.0 -79.2094210600273,33.84020721923383,0.0 -79.2094046672345,33.8402159994643,0.0 -79.20938836959405,33.84022027053697,0.0 -79.20937207083414,33.84022454339468,0.0 -79.2093610785588,33.84023340027132,0.0 -79.20934478089431,33.840237672239525,0.0 -79.20932848106763,33.84024194417412,0.0 -79.20930668777024,33.840250645933565,0.0 -79.20927408920618,33.840259188904376,0.0 -79.20922519400239,33.84027200563693,0.0 -79.20914928984985,33.84028442993236,0.0 -79.209095084974,33.840292658929286,0.0 -79.2090732905614,33.8403013606305,0.0 -79.20904618756683,33.84030547555786,0.0 -79.20902448938294,33.840309669012804,0.0 -79.20900809550807,33.8403184464683,0.0 -79.20897559309348,33.84032248292395,0.0 -79.20894308959589,33.84032651935524,0.0 -79.20891589142636,33.840335142506234,0.0 -79.20888329493752,33.84034368630412,0.0 -79.2088615005108,33.84035238706521,0.0 -79.20885022702996,33.84037476691147,0.0 -79.20885478308904,33.840415411722354,0.0 -79.20887572988315,33.84044727634726,0.0 -79.20889165243032,33.84046103392636,0.0 -79.20890245559279,33.84046119091097,0.0 -79.20891344686355,33.840452334062334,0.0 -79.20895135200949,33.840448375229094,0.0 -79.20902157470088,33.84044939651074,0.0 -79.20907028080534,33.840445596385415,0.0 -79.20909207525554,33.84043689468613,0.0 -79.20912457987032,33.84043285823244,0.0 -79.2091570823218,33.84042882173868,0.0 -79.20918427832027,33.840420199404825,0.0 -79.20921687697287,33.84041165555878,0.0 -79.20923867032032,33.840402953817055,0.0 -79.20925497018187,33.84039868189558,0.0 -79.20927126788123,33.840394409940515,0.0 -79.20928766066538,33.84038563243401,0.0 -79.20930939345266,33.8403799362236,0.0 -79.20934192723071,33.840374396923615,0.0 -79.20938539277162,33.840363005380766,0.0 -79.20941264929029,33.840351376549044,0.0 -79.20942894913433,33.84034710460393,0.0 -79.20944524789653,33.8403428326409,0.0 -79.20947784435478,33.84033428779106,0.0 -79.20953202572062,33.84032718546758,0.0 -79.20957000129394,33.84031984681627,0.0 -79.20960252827389,33.840314683376384,0.0 -79.2096350552315,33.84030952082925,0.0 -79.20965144692134,33.84030074145387,0.0 -79.20966692792751,33.84029774978637,0.0 -79.2096731483372,33.840296547033056,0.0 -79.20970025020618,33.84029243285251,0.0 -79.20971664296673,33.84028365348378,0.0 -79.20974914535957,33.84027961592954,0.0 -79.2097978535091,33.84027581554373,0.0 -79.20982504941935,33.8402671921631,0.0 -79.20985215235356,33.84026307796426,0.0 -79.20989005628651,33.8402591197238,0.0 -79.2099118516924,33.8402504178907,0.0 -79.20992276448739,33.840245317389254,0.0 -79.2099552825014,33.840240529753515,0.0 -79.2099567980465,33.8402401955733,0.0 -79.20999603335761,33.840350226631784,0.0 -79.2104722133607,33.84079432959487,0.0 -79.21092187320704,33.84093321656036,0.0 -79.21178860671331,33.84082019971048,0.0 -79.21200581677638,33.840830541326106,0.0 -79.21254635032706,33.840820510396334,0.0 -79.21330205587434,33.84085648706049,0.0 -79.21400908818083,33.84084335793997,0.0 -79.21438285960222,33.84094809539741,0.0 -79.21451734686887,33.84099940620328,0.0 -79.21453651412388,33.84101630126283,0.0 -79.2146369329463,33.84108652043561,0.0 -79.2147593701577,33.84114412016619,0.0 -79.21488680834078,33.84117867409836,0.0 -79.21499990294707,33.84123490198983,0.0 -79.21508764816167,33.841319113641546,0.0 -79.21510460057193,33.84133568166981,0.0 -79.21506556823515,33.841335115529056,0.0 -79.21499506546846,33.84134762164433,0.0 -79.21492987170565,33.84136471154226,0.0 -79.21487557386783,33.8413774522762,0.0 -79.21482667769085,33.84139027031874,0.0 -79.21478308941802,33.84140767305702,0.0 -79.21475579876667,33.84142080399836,0.0 -79.21471230418985,33.841433701133,0.0 -79.21464710921235,33.84145079176299,0.0 -79.21460361356272,33.84146368703958,0.0 -79.21458182045961,33.841472388836216,0.0 -79.21456002735223,33.841481090628854,0.0 -79.21453273662641,33.84149422242026,0.0 -79.21449455097044,33.84151170421708,0.0 -79.21445645799521,33.84152467860613,0.0 -79.21443466380103,33.84153337945855,0.0 -79.21442348427851,33.84155125245736,0.0 -79.21442823057997,33.84158288238295,0.0 -79.21444927457283,33.841610240569764,0.0 -79.21447059778335,33.84162407477988,0.0 -79.21449201905942,33.84163340347227,0.0 -79.21452964213465,33.841642965957554,0.0 -79.2145891553805,33.84163931930623,0.0 -79.21464354717057,33.841622072227075,0.0 -79.21468163800344,33.841609097749576,0.0 -79.21470883604368,33.84160047422333,0.0 -79.21473062918685,33.84159177150355,0.0 -79.2147632278059,33.84158322618819,0.0 -79.21480662757692,33.841574838205965,0.0 -79.21485002950077,33.84156645023946,0.0 -79.21489343037398,33.841558060438786,0.0 -79.21493142847272,33.84154959327834,0.0 -79.21496402599647,33.84154104699151,0.0 -79.21499662457565,33.84153250161295,0.0 -79.21502921988893,33.841523957080085,0.0 -79.21506722120198,33.84151548992372,0.0 -79.21511062201273,33.84150710094644,0.0 -79.21514862115069,33.84149863373316,0.0 -79.21518121755552,33.841490087371824,0.0 -79.21520841549363,33.84148146463378,0.0 -79.21523020962101,33.84147276273998,0.0 -79.21524659992035,33.841463982594846,0.0 -79.21524713760405,33.84146291459538,0.0 -79.21528182294792,33.8414902744915,0.0 -79.21538991653192,33.84156954412235,0.0 -79.21547766356832,33.8416537546296,0.0 -79.21557808499891,33.841723973093075,0.0 -79.21564462813772,33.84179500856485,0.0 -79.21555994331935,33.84196973520576,0.0 -79.21558542340057,33.84199431061093,0.0 -79.21551406966508,33.84206331091524,0.0 -79.21541166322372,33.8421354640553,0.0 -79.21532627001022,33.84221804057574,0.0 -79.21522219486904,33.842297874822464,0.0 -79.21510443851399,33.842351924666914,0.0 -79.21503605819512,33.842444924467,0.0 -79.21501271714335,33.84255245890285,0.0 -79.21503608279731,33.84266684761843,0.0 -79.2150220836717,33.842775753636786,0.0 -79.21499874245576,33.84288328986394,0.0 -79.21497540121277,33.84299082428004,0.0 -79.2149520599052,33.84309835868806,0.0 -79.21492871853307,33.84320589308796,0.0 -79.21490537817671,33.843313427495424,0.0 -79.21489137660028,33.84342233254651,0.0 -79.2148680350456,33.843529866924214,0.0 -79.21486337650656,33.84364014538629,0.0 -79.21486805688488,33.84375179179605,0.0 -79.2148634005188,33.843862068482316,0.0 -79.2148400587653,33.843969603743886,0.0 -79.21481504962836,33.84408481847569,0.0 -79.21485876269277,33.844194268172096,0.0 -79.21497186334273,33.84425049532085,0.0 -79.21509763880442,33.84429273225708,0.0 -79.21520740509209,33.84436432176944,0.0 -79.21532050620443,33.84442054861131,0.0 -79.21544628209978,33.84446278520415,0.0 -79.21554713609626,33.844477585881116,0.0 -79.21557706003865,33.844481976891835,0.0 -79.21559262966257,33.84448426189837,0.0 -79.21565578731555,33.8444301245838,0.0 -79.21571649370492,33.84432807436609,0.0 -79.21580188660799,33.84424549672512,0.0 -79.21592565177848,33.84420818040725,0.0 -79.21594162784439,33.84419902266511,0.0 -79.21603573639767,33.8441450779592,0.0 -79.21608876831019,33.84403397382913,0.0 -79.2161027652676,33.84392506855947,0.0 -79.21581652325767,33.84386721088394,0.0 -79.21556632067954,33.84390974918333,0.0 -79.21541619880833,33.843935271911974,0.0 -79.21530809907853,33.84385600218908,0.0 -79.21528939514032,33.84363133509291,0.0 -79.2152830436695,33.843527369922604,0.0 -79.2152503375907,33.843411609709776,0.0 -79.21525499666855,33.843301332129826,0.0 -79.21528000386115,33.843186117252635,0.0 -79.21528556744519,33.84316048718652,0.0 -79.21530334480826,33.84307858186996,0.0 -79.21535150598896,33.84278940523891,0.0 -79.215398692671,33.842506070410764,0.0 -79.21545439506941,33.842427062321164,0.0 -79.21557381965387,33.842365330857895,0.0 -79.21567622731008,33.84229317850721,0.0 -79.21579565155405,33.84223144681646,0.0 -79.21591340515599,33.84217739716118,0.0 -79.21603116187293,33.84212334653356,0.0 -79.21615492280708,33.84208602805239,0.0 -79.21626500549567,33.84202292800542,0.0 -79.2163920994453,33.84197024664329,0.0 -79.21652787421505,33.84196639506635,0.0 -79.21666698326311,33.84194718070835,0.0 -79.21679241294525,33.841902182086926,0.0 -79.21687179785465,33.84180287042269,0.0 -79.21688579332677,33.841693964982646,0.0 -79.21685806723991,33.84163178962064,0.0 -79.21643566515482,33.84164733980985,0.0 -79.2164272235062,33.84164674513957,0.0 -79.21634386625757,33.84163174214866,0.0 -79.2163093268556,33.84164106956874,0.0 -79.2161855655707,33.84167838731335,0.0 -79.21605645888062,33.84165151599234,0.0 -79.21592735341389,33.841624641849755,0.0 -79.2158269317967,33.84155442366438,0.0 -79.21578568996038,33.841514845008675,0.0 -79.21576038606862,33.84150924406924,0.0 -79.21575764201468,33.84150852893753,0.0 -79.21575336632347,33.841506946696114,0.0 -79.2154437639107,33.84136954599588,0.0 -79.21544288619282,33.84136914102763,0.0 -79.21544140077685,33.84136839000713,0.0 -79.2152955468036,33.84128996687433,0.0 -79.21534113098554,33.84125031697345,0.0 -79.21547599114224,33.84132282863325,0.0 -79.21572218090843,33.841432085723866,0.0 -79.21569380321428,33.84136844616171,0.0 -79.21560605841678,33.84128423493707,0.0 -79.21557168431198,33.84117615606676,0.0 -79.21552115614762,33.84109372618425,0.0 -79.21561815481438,33.84100935349631,0.0 -79.21643448255793,33.840806617569896,0.0 -79.21650138708402,33.83982742596856,0.0 -79.21612579251422,33.83782234128831,0.0 -79.21646263927445,33.83781607822167,0.0 -79.21795265919629,33.838070794980354,0.0 -79.217950787582,33.838160942797394,0.0 -79.21788900266509,33.8381993324139,0.0 -79.21770135545208,33.838563784295644,0.0 -79.21782029694101,33.839241154560646,0.0 -79.21764685130178,33.840078135720184,0.0 -79.21822621935998,33.840509470992735,0.0 -79.21836930126663,33.840571420760554,0.0 -79.2185484449465,33.84060430339975,0.0 -79.21854657377914,33.840694451208954,0.0 -79.21865460627095,33.84069601256246,0.0 -79.21941083394664,33.84070693938834,0.0 -79.2196268990717,33.84071006048724,0.0 -79.22005902942158,33.84071630154989,0.0 -79.22005715983246,33.84080644943159,0.0 -79.21969482067067,33.84085621227298,0.0 -79.2195646752025,33.841298651934224,0.0 -79.2194202160365,33.84150617751064,0.0 -79.21833886435965,33.84165467682422,0.0 -79.21784206522562,33.84161412902791,0.0 -79.21784040760114,33.84161516461458,0.0 -79.21774768512886,33.84160801845116,0.0 -79.21754512564861,33.84161376685022,0.0 -79.21752527441771,33.841643764985996,0.0 -79.21779000215803,33.841646657963096,0.0 -79.21770552656584,33.84169943946417,0.0 -79.21748999002465,33.84169708367082,0.0 -79.21748093738168,33.84171076482961,0.0 -79.2175282340098,33.84182412225775,0.0 -79.2176461944375,33.841876905817465,0.0 -79.21784030690536,33.84197633497414,0.0 -79.21785902332508,33.84198323795287,0.0 -79.21800007560843,33.84203525222297,0.0 -79.21816481598232,33.84207124926507,0.0 -79.21830417454812,33.84209169825679,0.0 -79.21856895268972,33.84213055023305,0.0 -79.21870830822769,33.84215099872685,0.0 -79.21872776474676,33.84215385350182,0.0 -79.21932630266947,33.842370599450916,0.0 -79.21958931164315,33.84249807729485,0.0 -79.21951339260835,33.84314582829264,0.0 -79.21875899203141,33.843494380292505,0.0 -79.21817666497304,33.84382641003989,0.0 -79.21776733138066,33.844587172247685,0.0 -79.21797251408363,33.84544305816143,0.0 -79.21793998286155,33.84572056507298,0.0 -79.21769604565507,33.84588987030687,0.0 -79.21723311457728,33.845852085420425,0.0 -79.21710483424692,33.845264778283465,0.0 -79.21716986557185,33.84517136552498,0.0 -79.21720251039099,33.84516434511185,0.0 -79.2172648815984,33.84505461366713,0.0 -79.21732558552503,33.84495256170178,0.0 -79.21733019812491,33.844941057190724,0.0 -79.21744160447719,33.8447810293121,0.0 -79.2174267003635,33.84476282929715,0.0 -79.21743765283291,33.84474708628178,0.0 -79.21752304563192,33.84466450833034,0.0 -79.2175321167118,33.844647874222375,0.0 -79.21742761949606,33.84457124913906,0.0 -79.21729583439658,33.84451228227125,0.0 -79.21718440108386,33.844448376810995,0.0 -79.21705862209176,33.84440614283569,0.0 -79.21702931436938,33.84440184225574,0.0 -79.21691850381315,33.844385581294674,0.0 -79.21677838344813,33.84436501956517,0.0 -79.2167723368957,33.844366842885826,0.0 -79.21663243166928,33.844322203833784,0.0 -79.21659512704372,33.84442964382954,0.0 -79.2165368598943,33.84445638877659,0.0 -79.2164514642521,33.84453896509049,0.0 -79.21643107299973,33.84458002145027,0.0 -79.2164001018305,33.84464238899956,0.0 -79.21637676176962,33.844749922791735,0.0 -79.21636276281467,33.844858828054235,0.0 -79.21645051409034,33.84494303616241,0.0 -79.21656028345032,33.845014624541285,0.0 -79.21661765501469,33.845037699008735,0.0 -79.21675722299564,33.84525520634463,0.0 -79.21655370615055,33.845396454625316,0.0 -79.21634967392505,33.845587265056395,0.0 -79.21605726073736,33.84579020939742,0.0 -79.21567815294806,33.84592483047259,0.0 -79.21541214606437,33.84604366630992,0.0 -79.2148495138729,33.84599773241797,0.0 -79.21428543588132,33.84572431022664,0.0</coordinates>
                    </LinearRing>
                </outerBoundaryIs>
            </Polygon>
        </Placemark>
        <Placemark id="1504">
            <name>Population_165</name>
            <styleUrl>#1509</styleUrl>
            <Polygon id="1503">
                <outerBoundaryIs>
                    <LinearRing id="1507">
                        <coordinates>-78.97404042443158,33.841175855371745,0.0 -78.97586212793843,33.839600345237486,0.0 -78.97579897881333,33.83928318465949,0.0 -78.97581527657641,33.83928022875029,0.0 -78.97582225928613,33.839240047352405,0.0 -78.97584154914888,33.83918999338301,0.0 -78.97581221277487,33.83917464254188,0.0 -78.97581242391617,33.83916573631009,0.0 -78.97579751487622,33.83916410373271,0.0 -78.97579522975842,33.83915905184789,0.0 -78.97578403347237,33.83914276269584,0.0 -78.97577097658534,33.83914254825128,0.0 -78.97563124113306,33.83844073940944,0.0 -78.97503581145442,33.837904256115635,0.0 -78.97502607385124,33.837890089119824,0.0 -78.97502426827168,33.837886927850036,0.0 -78.97501830156507,33.83788847993008,0.0 -78.97472324587477,33.8376226302786,0.0 -78.97266250858209,33.83629587115676,0.0 -78.97269079753853,33.836255452489745,0.0 -78.97265283407202,33.83573220007627,0.0 -78.97212414621896,33.83540203062187,0.0 -78.97210242084047,33.83535914721028,0.0 -78.97220641275912,33.83526930763395,0.0 -78.97240702172316,33.83524875160509,0.0 -78.97259390421326,33.835204109580296,0.0 -78.97285363994713,33.83510102343361,0.0 -78.97304136232722,33.835020608758064,0.0 -78.9732296528676,33.83491634594759,0.0 -78.97341822234273,33.83480015793051,0.0 -78.97344933430217,33.83469331123533,0.0 -78.97319157245616,33.834712930098725,0.0 -78.97299096804876,33.83473349021701,0.0 -78.97283350882384,33.83474282831589,0.0 -78.97276262805623,33.83471780535657,0.0 -78.97260798519078,33.83460790358579,0.0 -78.97258250721625,33.83447626730796,0.0 -78.9725273224524,33.834391857640476,0.0 -78.97248586620525,33.83433153276138,0.0 -78.97229898563474,33.83437617289328,0.0 -78.97222528843231,33.83447039190078,0.0 -78.97209415413482,33.834575592663086,0.0 -78.97197730590004,33.834681029238425,0.0 -78.971701876321,33.83484350003135,0.0 -78.97155645329073,33.83494846505473,0.0 -78.97156707868952,33.83510371334906,0.0 -78.97159255849215,33.835235348925906,0.0 -78.9715620064625,33.835318348938536,0.0 -78.97144628377384,33.835376088243486,0.0 -78.97144177702792,33.83556687324405,0.0 -78.97143980442938,33.83565033907284,0.0 -78.97136758681607,33.83575026076444,0.0 -78.97113729838526,33.83601027329907,0.0 -78.97099311136014,33.83670728587391,0.0 -78.97001066481303,33.83684017859987,0.0 -78.96901114630343,33.83645003019852,0.0 -78.96887401905835,33.836103358439274,0.0 -78.9696561036928,33.83512698345807,0.0 -78.96987144446025,33.83470878853064,0.0 -78.96971613422704,33.83459259097165,0.0 -78.96971826616402,33.83450245614168,0.0 -78.96977727419046,33.83446169655241,0.0 -78.96988380327808,33.83418623449738,0.0 -78.970006081862,33.833924445396384,0.0 -78.97011700155039,33.83346818436271,0.0 -78.97041348084242,33.83349298692675,0.0 -78.9708149128023,33.833215687073995,0.0 -78.97110510073946,33.832801077065284,0.0 -78.97109879792026,33.8327883359933,0.0 -78.97117946568017,33.83275265351109,0.0 -78.97119544589641,33.83268134319874,0.0 -78.97109768291895,33.83258430440691,0.0 -78.97099704440285,33.83258264872415,0.0 -78.97090652742459,33.83239967532396,0.0 -78.97078762791277,33.83225371376901,0.0 -78.97080636401334,33.83220971898957,0.0 -78.97076575347205,33.83211361900769,0.0 -78.97065313542662,33.83204019249814,0.0 -78.9705990848921,33.832022255068466,0.0 -78.97054089772357,33.83195082288169,0.0 -78.9705422132678,33.83189522137476,0.0 -78.97048731614335,33.83179888698294,0.0 -78.97048315351927,33.831794754482985,0.0 -78.97044388716932,33.83125335033665,0.0 -78.97071231056513,33.831134097946155,0.0 -78.97135008750608,33.830985230490924,0.0 -78.97156329373486,33.83068059757016,0.0 -78.97164780565656,33.830441508389654,0.0 -78.97168530204362,33.83046327298048,0.0 -78.97184027308589,33.830501301247125,0.0 -78.97206690687065,33.83050502912715,0.0 -78.97210110017065,33.8302572525275,0.0 -78.97234866928198,33.829374401626644,0.0 -78.97235453424497,33.829126159806435,0.0 -78.97235676660593,33.82903159098769,0.0 -78.97234455744325,33.828948610419964,0.0 -78.97229152781858,33.82879400443957,0.0 -78.97215155944654,33.828720748887974,0.0 -78.97172691385646,33.82870193566134,0.0 -78.97162839522876,33.82879673521669,0.0 -78.97147416688983,33.828783834928906,0.0 -78.97099141089728,33.82880822364268,0.0 -78.97131623233001,33.82843893763401,0.0 -78.97138540214037,33.828371886677054,0.0 -78.97139451059417,33.828377174464755,0.0 -78.97149366132606,33.8283788061421,0.0 -78.97163614092689,33.82834567240798,0.0 -78.97182055397549,33.82833688097561,0.0 -78.97189165510774,33.82832622681353,0.0 -78.97189472778258,33.828196194411944,0.0 -78.97189696055025,33.82810162650721,0.0 -78.97190059165843,33.827947951677245,0.0 -78.97190241526962,33.82787070411956,0.0 -78.97195110904713,33.82782350140784,0.0 -78.97178347782874,33.82711533470976,0.0 -78.97185155022369,33.827024744525175,0.0 -78.97189711415587,33.8268954120976,0.0 -78.97201377673434,33.826755422640275,0.0 -78.97207378140344,33.82661450189689,0.0 -78.97209157494902,33.826461061809546,0.0 -78.97211007486024,33.8263910686335,0.0 -78.97261220410547,33.82634461544829,0.0 -78.97267754934673,33.826708994539224,0.0 -78.973383475255,33.826963785679574,0.0 -78.97354250284157,33.82730721247314,0.0 -78.9741007968606,33.827360960237435,0.0 -78.97429552776839,33.82779953339973,0.0 -78.97412139625864,33.82848262110619,0.0 -78.9740731481849,33.828532717457584,0.0 -78.97389902112883,33.828657503034165,0.0 -78.9736864188775,33.82902483293547,0.0 -78.9733596253332,33.829259020813,0.0 -78.97368643794505,33.830068996648535,0.0 -78.97354267581674,33.830279779148945,0.0 -78.9734188811999,33.83049366428149,0.0 -78.97343871528113,33.83090898732587,0.0 -78.97307602514194,33.831440748485704,0.0 -78.97308851656281,33.831702320822046,0.0 -78.97378056250608,33.831774031648166,0.0 -78.97367615372862,33.83213203794876,0.0 -78.97504868921169,33.832647316537994,0.0 -78.9759313294831,33.8325610539434,0.0 -78.97621028188053,33.832043543954235,0.0 -78.97634136747672,33.831492629567435,0.0 -78.97649257638473,33.831511987286724,0.0 -78.97670504743424,33.83151547508689,0.0 -78.97688918966682,33.83151849846315,0.0 -78.97704499989338,33.83152105478505,0.0 -78.97712875896399,33.83151910301646,0.0 -78.97762333228658,33.83278386124127,0.0 -78.97807108335807,33.833106868189056,0.0 -78.97808472949471,33.83321817894861,0.0 -78.97807428650538,33.83323207779301,0.0 -78.97808594942855,33.833228131201274,0.0 -78.9781045363291,33.83337973528068,0.0 -78.97808424157749,33.83338944912859,0.0 -78.97806404856978,33.833395393726796,0.0 -78.97806362223047,33.833413539785674,0.0 -78.97809774523489,33.83342125723921,0.0 -78.97810965098301,33.83342145253682,0.0 -78.97811056648214,33.833428916509575,0.0 -78.97815055505855,33.83347550963743,0.0 -78.97814471586945,33.83351152789838,0.0 -78.97817290351531,33.833517052418046,0.0 -78.97818640024049,33.83351727380545,0.0 -78.97838024769702,33.83374313030384,0.0 -78.97779506790424,33.83377691195499,0.0 -78.97797822998263,33.833993491988394,0.0 -78.97841127851326,33.834253640658076,0.0 -78.97847127473057,33.83446598436236,0.0 -78.97830522030476,33.834505810290004,0.0 -78.9781995370095,33.83460069679724,0.0 -78.97787925745551,33.83449882280166,0.0 -78.97773100395057,33.83445793836239,0.0 -78.97770534944108,33.83443752492981,0.0 -78.9773968989993,33.834181960365925,0.0 -78.97719713842422,33.83416675361746,0.0 -78.97694078266476,33.834126760441414,0.0 -78.97664212706556,33.834062213354755,0.0 -78.97668302402141,33.834146386720754,0.0 -78.97699315935273,33.83433040816253,0.0 -78.97721869065694,33.83446532601629,0.0 -78.97731562202445,33.834598134072095,0.0 -78.97727078714625,33.83468089943542,0.0 -78.97722520192758,33.834747494884745,0.0 -78.97708418784529,33.834713622878,0.0 -78.9769270119793,33.83471104407458,0.0 -78.97674238101011,33.834660299089066,0.0 -78.97658745398493,33.83456232525111,0.0 -78.9763899395002,33.83445172253599,0.0 -78.97601168457209,33.83473180275158,0.0 -78.97601861432902,33.83476399996025,0.0 -78.97601084108574,33.83476757469991,0.0 -78.97568107269996,33.83480987534738,0.0 -78.9756362393952,33.83489264010453,0.0 -78.97547681233569,33.834985452154925,0.0 -78.97540311584653,33.8350796713253,0.0 -78.97533110999746,33.83510234663553,0.0 -78.9752170798194,33.83508854396223,0.0 -78.97513134569164,33.83508713553771,0.0 -78.97501590793303,33.83513295434012,0.0 -78.97485760833352,33.835178069703076,0.0 -78.97474329681208,33.83517619056337,0.0 -78.97454184532363,33.83523252325564,0.0 -78.97445470628774,33.83529073604614,0.0 -78.97449532022344,33.83538683313427,0.0 -78.97456479843814,33.83547147684278,0.0 -78.97466256643936,33.83556851306998,0.0 -78.97470346311752,33.83565268794799,0.0 -78.97477265934177,33.835749254603755,0.0 -78.97481833932906,33.83586087735305,0.0 -78.97481271328758,33.83586920048182,0.0 -78.97496595252728,33.83603872038013,0.0 -78.9762180965258,33.83567756584575,0.0 -78.97657813216456,33.83556418911512,0.0 -78.97670673310789,33.83556630022898,0.0 -78.97671933434607,33.835638078685385,0.0 -78.97675939204066,33.83575802585089,0.0 -78.97684203308471,33.8358905987903,0.0 -78.97684034778757,33.83596214362911,0.0 -78.97683894246511,33.836021764462885,0.0 -78.97702638569616,33.835953267704106,0.0 -78.97722755647901,33.83590885494712,0.0 -78.97739902446473,33.83591166794465,0.0 -78.97755732747143,33.83586655117776,0.0 -78.97773047887853,33.835797818816715,0.0 -78.97784479146,33.83579969431595,0.0 -78.97796387943906,33.8355988590848,0.0 -78.97790897271578,33.83550252858086,0.0 -78.97787088094692,33.83529911378029,0.0 -78.97781737694487,33.83514316232818,0.0 -78.97777162045199,33.83506288609187,0.0 -78.97793393373502,33.83504964390675,0.0 -78.97816227605742,33.835065319248926,0.0 -78.9783063517081,33.83515481751317,0.0 -78.97839423714105,33.835314008037585,0.0 -78.9776152670327,33.8360484101404,0.0 -78.97763412849083,33.836442951388754,0.0 -78.97792341559405,33.83690879962943,0.0 -78.97749581487705,33.837398826431475,0.0 -78.97736611635028,33.837933461567005,0.0 -78.97748382642564,33.837998679977986,0.0 -78.9774705300625,33.83803963163699,0.0 -78.97740560143747,33.83806540346703,0.0 -78.97735642918593,33.83810485114324,0.0 -78.97733909330616,33.83815824127845,0.0 -78.97740275545553,33.83818612243322,0.0 -78.97746641872769,33.83821400357422,0.0 -78.97754678885302,33.8382153233181,0.0 -78.97762715902606,33.83821664120697,0.0 -78.97770752916186,33.83821796084617,0.0 -78.9777878982652,33.83821927861262,0.0 -78.97786826841147,33.83822059814715,0.0 -78.97788484860041,33.838220870171746,0.0 -78.97800609644959,33.8382880478261,0.0 -78.97805594480893,33.838336486227526,0.0 -78.97775552178236,33.83839559434894,0.0 -78.97746549421953,33.83859259175799,0.0 -78.97758021545113,33.839062749946706,0.0 -78.97787207874354,33.8392380747793,0.0 -78.97792244650726,33.83941633689059,0.0 -78.97787131486346,33.839463936441675,0.0 -78.97753726708756,33.83954191848989,0.0 -78.97721897116878,33.83963357183858,0.0 -78.97659164475021,33.83970283501088,0.0 -78.97657461841347,33.839694341893995,0.0 -78.9765031712356,33.83969316798603,0.0 -78.97634570406244,33.83970251206746,0.0 -78.97634429605934,33.83976213190996,0.0 -78.97641237254369,33.83990639638017,0.0 -78.97642977781759,33.83991815899452,0.0 -78.9763294288621,33.84009631487403,0.0 -78.97635013251322,33.84038150009399,0.0 -78.97684408313592,33.84178479214,0.0 -78.97694668701091,33.84219922962567,0.0 -78.97691532676484,33.84246044138327,0.0 -78.97494675638022,33.84229129861241,0.0 -78.97466239112778,33.842004656214726,0.0 -78.97469648258061,33.841720763595234,0.0 -78.9743089974392,33.841430909123744,0.0 -78.9742762504716,33.84128032266066,0.0 -78.97404042443158,33.841175855371745,0.0</coordinates>
                    </LinearRing>
                </outerBoundaryIs>
            </Polygon>
        </Placemark>
        <Placemark id="1513">
            <name>Population_166</name>
            <styleUrl>#1518</styleUrl>
            <Polygon id="1512">
                <outerBoundaryIs>
                    <LinearRing id="1516">
                        <coordinates>-78.81018934332542,33.839456503510895,0.0 -78.81022007322488,33.83943610930613,0.0 -78.810215473673,33.8396163602726,0.0 -78.81010823507258,33.83961445474919,0.0 -78.8101429250203,33.83954689729392,0.0 -78.81018934332542,33.839456503510895,0.0</coordinates>
                    </LinearRing>
                </outerBoundaryIs>
            </Polygon>
        </Placemark>
        <Placemark id="1522">
            <name>Population_167</name>
            <styleUrl>#1527</styleUrl>
            <Polygon id="1521">
                <outerBoundaryIs>
                    <LinearRing id="1525">
                        <coordinates>-78.81009203908609,33.83964599477178,0.0 -78.81010742891253,33.839616024646816,0.0 -78.81010516941727,33.83970456661679,0.0 -78.81010286950254,33.839794692089896,0.0 -78.81004452759406,33.83979365536773,0.0 -78.81006651403617,33.83976076747208,0.0 -78.81009203908609,33.83964599477178,0.0</coordinates>
                    </LinearRing>
                </outerBoundaryIs>
            </Polygon>
        </Placemark>
        <Placemark id="1531">
            <name>Population_168</name>
            <styleUrl>#1536</styleUrl>
            <Polygon id="1530">
                <outerBoundaryIs>
                    <LinearRing id="1534">
                        <coordinates>-78.80992031603044,33.839964140942676,0.0 -78.80999291413542,33.83986921366665,0.0 -78.80999256489697,33.839882898317185,0.0 -78.80991720352552,33.8399781344467,0.0 -78.80992031603044,33.839964140942676,0.0</coordinates>
                    </LinearRing>
                </outerBoundaryIs>
            </Polygon>
        </Placemark>
        <Placemark id="1540">
            <name>Population_169</name>
            <styleUrl>#1545</styleUrl>
            <Polygon id="1539">
                <outerBoundaryIs>
                    <LinearRing id="1543">
                        <coordinates>-78.65867501735836,33.839046507037956,0.0 -78.65870976472321,33.839042503093296,0.0 -78.65873826042649,33.83905378466966,0.0 -78.65875978913878,33.839070968468555,0.0 -78.6587716263771,33.839093640278,0.0 -78.65878023063102,33.83911814047554,0.0 -78.6587731837402,33.83914954372018,0.0 -78.65876793934805,33.83916034475985,0.0 -78.65872874484073,33.839159035691054,0.0 -78.6587036910595,33.83915755257399,0.0 -78.65868560421703,33.83915016993169,0.0 -78.65867821619679,33.83913281298786,0.0 -78.65866785296923,33.83913124020887,0.0 -78.6586675994819,33.83911728541292,0.0 -78.65865677067366,33.839090127321484,0.0 -78.65864749878621,33.8390777025505,0.0 -78.65864917054297,33.83906114076171,0.0 -78.65867501735836,33.839046507037956,0.0</coordinates>
                    </LinearRing>
                </outerBoundaryIs>
            </Polygon>
        </Placemark>
        <Placemark id="1549">
            <name>Population_170</name>
            <styleUrl>#1554</styleUrl>
            <Polygon id="1548">
                <outerBoundaryIs>
                    <LinearRing id="1552">
                        <coordinates>-79.10490380477951,33.8485386279266,0.0 -79.10492841627953,33.848533382323566,0.0 -79.10451748677303,33.84874594120488,0.0 -79.10380517116255,33.84871140137303,0.0 -79.10383296908662,33.848702864126615,0.0 -79.10387525449414,33.848689614633784,0.0 -79.10391693118774,33.84867676784929,0.0 -79.10395730186725,33.848664823422226,0.0 -79.10399716607586,33.84865398572226,0.0 -79.10403959309564,33.84864420458292,0.0 -79.10408942815333,33.848635268694,0.0 -79.10415132806915,33.84862693408119,0.0 -79.10422710533517,33.84861899956949,0.0 -79.10431393971054,33.848611298215225,0.0 -79.1044049417248,33.84860367713507,0.0 -79.10449220023611,33.84859600111452,0.0 -79.10457034051848,33.84858818569414,0.0 -79.10463817634341,33.84858021264761,0.0 -79.10469778529482,33.848572111238255,0.0 -79.10475237712822,33.848563929938145,0.0 -79.10480448349412,33.84855569055353,0.0 -79.10485510631467,33.84854733996389,0.0 -79.10486119428853,33.84854625142139,0.0 -79.10490380477951,33.8485386279266,0.0</coordinates>
                    </LinearRing>
                </outerBoundaryIs>
            </Polygon>
        </Placemark>
        <Placemark id="1558">
            <name>Population_171</name>
            <styleUrl>#1563</styleUrl>
            <Polygon id="1557">
                <outerBoundaryIs>
                    <LinearRing id="1561">
                        <coordinates>-78.9789836308554,33.84673017024597,0.0 -78.97880121809614,33.846584033763044,0.0 -78.97877786239846,33.846591388189445,0.0 -78.97877320085082,33.84655971707287,0.0 -78.97877544595607,33.846464323391714,0.0 -78.97887660472018,33.84641826722462,0.0 -78.97901951484803,33.846420610924326,0.0 -78.97916017710124,33.84651834720861,0.0 -78.97928514377216,33.84667547072297,0.0 -78.97936779949988,33.84680804319458,0.0 -78.97937872025662,33.846951366221255,0.0 -78.97935701431201,33.84701297333487,0.0 -78.9792635491176,33.84698526353496,0.0 -78.9792080704123,33.846912782288705,0.0 -78.97913745965845,33.846875838642404,0.0 -78.97906684682744,33.84683889402087,0.0 -78.9789836308554,33.84673017024597,0.0</coordinates>
                    </LinearRing>
                </outerBoundaryIs>
            </Polygon>
        </Placemark>
        <Placemark id="1567">
            <name>Population_172</name>
            <styleUrl>#1572</styleUrl>
            <Polygon id="1566">
                <outerBoundaryIs>
                    <LinearRing id="1570">
                        <coordinates>-79.19846526695693,33.8511841200098,0.0 -79.19845465182728,33.851174946499114,0.0 -79.19844375272693,33.851179295888436,0.0 -79.19843257073101,33.85119716819331,0.0 -79.1984107714599,33.85120586604952,0.0 -79.19838385496419,33.85120096474682,0.0 -79.19837333559606,33.85118728301075,0.0 -79.19838442397187,33.85117392076477,0.0 -79.19840622219458,33.85116522109429,0.0 -79.19840100925903,33.851156128355804,0.0 -79.1983687841693,33.85114663892451,0.0 -79.19834196235144,33.851137230280386,0.0 -79.1983205427987,33.85112789880523,0.0 -79.19830722870454,33.85111868762827,0.0 -79.19829931256821,33.85110955266085,0.0 -79.1982859963183,33.85110034145016,0.0 -79.19827268009023,33.851091129336645,0.0 -79.19825666167554,33.851081877715934,0.0 -79.19822993671414,33.851067961747276,0.0 -79.19819790206734,33.851049458524855,0.0 -79.19817117496505,33.85103554251244,0.0 -79.19815785879749,33.851026328584204,0.0 -79.19814994478966,33.85101719634383,0.0 -79.1981470248168,33.85101517612835,0.0 -79.19844654320491,33.851111209068165,0.0 -79.19849231847367,33.85123961828494,0.0 -79.19849114339449,33.8512386019759,0.0 -79.19847782712255,33.85122938988334,0.0 -79.19847000769317,33.8512157512304,0.0 -79.19847038525094,33.851197720078964,0.0 -79.19846526695693,33.8511841200098,0.0</coordinates>
                    </LinearRing>
                </outerBoundaryIs>
            </Polygon>
        </Placemark>
        <Placemark id="1576">
            <name>Population_173</name>
            <styleUrl>#1581</styleUrl>
            <Polygon id="1575">
                <outerBoundaryIs>
                    <LinearRing id="1579">
                        <coordinates>-78.86136573121269,33.84469300096754,0.0 -78.8613776010872,33.84458446953002,0.0 -78.86132829893717,33.8444767979546,0.0 -78.8612908028076,33.84437089295361,0.0 -78.8611856819364,33.8442949635288,0.0 -78.86107841091939,33.844228741093865,0.0 -78.86094857304442,33.84420927541842,0.0 -78.86081873523575,33.84418980960832,0.0 -78.86068889641328,33.844170343644834,0.0 -78.86056551735138,33.84412176101662,0.0 -78.86047435357081,33.844037895119925,0.0 -78.86039714178185,33.84394609230691,0.0 -78.86034784446993,33.84383841954551,0.0 -78.86032430370152,33.843724579285805,0.0 -78.86021918449234,33.84364864909255,0.0 -78.86019564715205,33.843534809771164,0.0 -78.86021932067553,33.84342804871563,0.0 -78.86015606679054,33.843328309930044,0.0 -78.86002512302932,33.8433688476666,0.0 -78.85988667758355,33.84338820269527,0.0 -78.8597578862572,33.843419032226535,0.0 -78.85966217381794,33.843489377642705,0.0 -78.85965858847564,33.84344419198807,0.0 -78.85818568196422,33.84297395486223,0.0 -78.85776422137096,33.84195459133982,0.0 -78.85777202288517,33.841875305704505,0.0 -78.85772041989021,33.8418486496629,0.0 -78.85765051892935,33.841679580709354,0.0 -78.85729337914796,33.84130218053263,0.0 -78.85635923687052,33.841557279697625,0.0 -78.85579799983768,33.84115963505555,0.0 -78.85555792836563,33.8412251924161,0.0 -78.85485388579059,33.84070021378338,0.0 -78.85439720023366,33.840576753064845,0.0 -78.85440853947068,33.840473166969055,0.0 -78.85443090488108,33.8403123082825,0.0 -78.8543548144415,33.8402352096232,0.0 -78.85429509222095,33.84020435599986,0.0 -78.85426770675437,33.840200248157814,0.0 -78.85426314503192,33.84018579966637,0.0 -78.85364080836933,33.840109810412166,0.0 -78.85380063633596,33.83970785434483,0.0 -78.85409346859527,33.839601817790815,0.0 -78.85411935715265,33.83962239571946,0.0 -78.85418658340063,33.839714954455935,0.0 -78.85429906326965,33.839773064559466,0.0 -78.85443031730419,33.839803059926155,0.0 -78.85456599805778,33.839813102441035,0.0 -78.85469839562762,33.83978141140173,0.0 -78.85485284803248,33.83976334157767,0.0 -78.85494556404426,33.83968446295838,0.0 -78.8549820408601,33.839576529121594,0.0 -78.85501851969222,33.839468597108855,0.0 -78.85503072751222,33.83935702458544,0.0 -78.85493701913393,33.83927080308453,0.0 -78.85485544741664,33.83918640315453,0.0 -78.85477387050297,33.839102001279095,0.0 -78.85466139217772,33.839043893446295,0.0 -78.85455112790044,33.83897580646228,0.0 -78.85442651126831,33.838915878526926,0.0 -78.85431846013736,33.83883781407969,0.0 -78.85420819422254,33.838769727671135,0.0 -78.85409571565242,33.838711619331896,0.0 -78.85408890271157,33.83870950890822,0.0 -78.85394716976312,33.83853975347932,0.0 -78.85385241544205,33.83825100610798,0.0 -78.85467139654116,33.83783612054664,0.0 -78.85517598656091,33.83859533815241,0.0 -78.85609384020648,33.83890825567583,0.0 -78.85635855390943,33.83952068054552,0.0 -78.856948288577,33.83975908022631,0.0 -78.85715585179283,33.83985792870545,0.0 -78.85745247620132,33.83994818136964,0.0 -78.85760435319379,33.8392057429788,0.0 -78.8573385918362,33.838776560466314,0.0 -78.85751970299833,33.83851174317068,0.0 -78.85776947381197,33.83788349450138,0.0 -78.85855194062388,33.837718176180175,0.0 -78.85914946217225,33.83790889193764,0.0 -78.85994939613173,33.83800788033487,0.0 -78.86034439299011,33.83765406848613,0.0 -78.86067845468163,33.83741522965196,0.0 -78.86080786560063,33.836399768528864,0.0 -78.86100419136888,33.83611267328029,0.0 -78.86115492889408,33.835480377153495,0.0 -78.86090312292764,33.83507374980902,0.0 -78.85905129423932,33.834920376585124,0.0 -78.85886112745915,33.834554719612,0.0 -78.85872239055425,33.833615581551065,0.0 -78.85899811712184,33.832822854040245,0.0 -78.85880953369752,33.83251829766915,0.0 -78.85723393826694,33.832645889733314,0.0 -78.85625374890849,33.83271394084011,0.0 -78.85571745104937,33.832799851265364,0.0 -78.85508485225043,33.8328870409851,0.0 -78.85439046464344,33.833096225852245,0.0 -78.85438858194041,33.833095642154795,0.0 -78.85424848977114,33.83310555626342,0.0 -78.85417139981863,33.83316221796075,0.0 -78.85397820132039,33.83322041784278,0.0 -78.85335122298419,33.833384762485856,0.0 -78.85327435862708,33.833160540731186,0.0 -78.85331788607716,33.83310632468398,0.0 -78.85350591634543,33.833010426104906,0.0 -78.85345627999585,33.83249734400778,0.0 -78.85328562868703,33.83270989996854,0.0 -78.85317762993877,33.83270801890249,0.0 -78.85318439219405,33.83243763444657,0.0 -78.85307639379538,33.8324357533051,0.0 -78.85304714160337,33.83184089983622,0.0 -78.8529886836686,33.83162271873747,0.0 -78.8532851879217,33.831793760650655,0.0 -78.85368227229361,33.83157502834245,0.0 -78.85360515840588,33.831129279042976,0.0 -78.85343419554965,33.83108947377958,0.0 -78.85343644923803,33.8309993455902,0.0 -78.85362151572397,33.83066740524315,0.0 -78.85357652360663,33.82969689334272,0.0 -78.8542665067512,33.82980751658452,0.0 -78.8552276782769,33.83053714278729,0.0 -78.85579079022186,33.83082402297243,0.0 -78.85605073693233,33.83107725109705,0.0 -78.85646240642025,33.83120866549237,0.0 -78.85674460761498,33.8307225124982,0.0 -78.85717989505025,33.830411295212855,0.0 -78.85731386880991,33.829212332019395,0.0 -78.85814887469205,33.8297423198251,0.0 -78.85870154529813,33.82987620110651,0.0 -78.85897351151928,33.82992347287586,0.0 -78.8590394814952,33.8299901327264,0.0 -78.86029287683682,33.830480773423474,0.0 -78.86047646675766,33.83031024071853,0.0 -78.86080494731142,33.83013560683394,0.0 -78.86099205706466,33.830339138868666,0.0 -78.861286922856,33.83054473787835,0.0 -78.86145539758765,33.83072799630554,0.0 -78.86140156422115,33.830275457725854,0.0 -78.86120138096165,33.829641577313225,0.0 -78.8611424085498,33.829600457366446,0.0 -78.86121627615024,33.829108353553124,0.0 -78.86164822313467,33.82987119389727,0.0 -78.86160397840803,33.83032993410205,0.0 -78.86178275054,33.8312329291548,0.0 -78.86198961650331,33.83163067728646,0.0 -78.86222051609437,33.83174063645174,0.0 -78.86404150366461,33.831874426122596,0.0 -78.86416722447538,33.83281209965493,0.0 -78.86404804708936,33.834048074074495,0.0 -78.86437143230589,33.834435333198854,0.0 -78.86444101717794,33.83455629325799,0.0 -78.86458295117603,33.83461933338843,0.0 -78.86468198433991,33.8349817197506,0.0 -78.86456203025955,33.8349010829254,0.0 -78.86419176289145,33.834483108668046,0.0 -78.86390090880496,33.83458765066419,0.0 -78.8638558321389,33.834810150611474,0.0 -78.86398370090492,33.83509906732257,0.0 -78.8641407038415,33.835610425577244,0.0 -78.86480685135139,33.83570440541312,0.0 -78.8648890211437,33.83534597707678,0.0 -78.86496379293631,33.835400035760095,0.0 -78.86522331184572,33.83619905140523,0.0 -78.86584906573626,33.83632672681349,0.0 -78.86618830351335,33.836303793792254,0.0 -78.86642318117414,33.836473599926016,0.0 -78.86674048919122,33.83713213634728,0.0 -78.8668158948867,33.83804345858746,0.0 -78.86692353215503,33.838490438693356,0.0 -78.86690018043024,33.8386489522978,0.0 -78.8670900743036,33.83884797204933,0.0 -78.86733227997037,33.8388728164318,0.0 -78.86758031060337,33.837719657468426,0.0 -78.8675032445931,33.83687483337766,0.0 -78.86735016542866,33.83594224471665,0.0 -78.86771138910206,33.83544034827496,0.0 -78.86771784352794,33.83539652572601,0.0 -78.8677640541402,33.83535894800505,0.0 -78.8677883776195,33.83524919287995,0.0 -78.86780056803977,33.83513761655158,0.0 -78.8677884933303,33.83502240686202,0.0 -78.8677820315653,33.83496074839803,0.0 -78.86781514227107,33.83473595602073,0.0 -78.8677306848326,33.834042656052006,0.0 -78.86780129628497,33.83409559060699,0.0 -78.86839345055436,33.83471885561757,0.0 -78.86852013529399,33.83523332727854,0.0 -78.86926201051993,33.83578946340265,0.0 -78.8692032440422,33.836273878929816,0.0 -78.86986788808709,33.83616903351587,0.0 -78.87012280947667,33.83545051644974,0.0 -78.87003333425086,33.83502587872899,0.0 -78.86966129095114,33.83461704710102,0.0 -78.8698252759529,33.83466242975808,0.0 -78.87035537049437,33.83485726202242,0.0 -78.87054672137168,33.83485105822042,0.0 -78.87079059037782,33.83494961304582,0.0 -78.87156824647089,33.8353198578362,0.0 -78.87207108649223,33.835353592683106,0.0 -78.87197862184297,33.83497013107928,0.0 -78.8716120388352,33.834380245999384,0.0 -78.87188301053514,33.8344552315568,0.0 -78.87320985375447,33.83490738998222,0.0 -78.87370456007892,33.835389119151955,0.0 -78.8745200233007,33.83600786657875,0.0 -78.8745188027415,33.83605715381784,0.0 -78.87457300065935,33.83617737242145,0.0 -78.87468642048297,33.83621511501455,0.0 -78.87477096930692,33.836264287076766,0.0 -78.87497041340303,33.83629158262765,0.0 -78.87502050388666,33.836292445366944,0.0 -78.87515003852548,33.836334301121624,0.0 -78.8755060635703,33.83638815183988,0.0 -78.87576996294776,33.836381696434074,0.0 -78.87577724325617,33.836404754307495,0.0 -78.8764359763594,33.836356463555724,0.0 -78.87645314936493,33.83608048593195,0.0 -78.87670401922249,33.83601021129252,0.0 -78.87687064409667,33.836063367475504,0.0 -78.87686479421289,33.83629985104098,0.0 -78.87691051810114,33.83630063869221,0.0 -78.87706324707385,33.83629054682604,0.0 -78.87723090100512,33.83629343361976,0.0 -78.87745952266141,33.83629737106431,0.0 -78.87764242042816,33.83630052162379,0.0 -78.87777662195285,33.836289682428244,0.0 -78.87801274164708,33.83634683702399,0.0 -78.87851297594165,33.8358985920153,0.0 -78.87917688845722,33.8358069606582,0.0 -78.87947739369055,33.83505053562869,0.0 -78.87997146804413,33.834837370681164,0.0 -78.88051659206477,33.83463982494109,0.0 -78.8802091041084,33.83412518598092,0.0 -78.87955504092714,33.83419903121397,0.0 -78.87849461937937,33.83433753556776,0.0 -78.87769306643723,33.83389247630179,0.0 -78.87746422790296,33.83366965481223,0.0 -78.87766425949236,33.833630467972554,0.0 -78.87756332877396,33.833214739162756,0.0 -78.87734263385094,33.832749584359455,0.0 -78.87699922896826,33.83263297068145,0.0 -78.87693313665821,33.83329983604481,0.0 -78.87680177659563,33.83319397663269,0.0 -78.87667919992336,33.83215838897386,0.0 -78.876045362743,33.83197882448442,0.0 -78.87541931701301,33.83164390191083,0.0 -78.87534687445773,33.829808673476236,0.0 -78.87563841429956,33.8288592985657,0.0 -78.87575086220393,33.82892953874062,0.0 -78.8758223833845,33.82926822490389,0.0 -78.8756775855037,33.82981964116769,0.0 -78.87610970752138,33.82982162273229,0.0 -78.87664115654174,33.82945522935023,0.0 -78.8770972796583,33.82920745969082,0.0 -78.87712817920213,33.82917300487911,0.0 -78.87717515353518,33.82921626858661,0.0 -78.87732965825184,33.82932628702195,0.0 -78.87755441953297,33.82948522834754,0.0 -78.87777859000235,33.82966801575459,0.0 -78.87793162165147,33.82983764792131,0.0 -78.87808406225672,33.83003112908742,0.0 -78.87823709725403,33.830200762753286,0.0 -78.87851842230607,33.83038453180032,0.0 -78.87880180976728,33.83048483833344,0.0 -78.87906973045625,33.83063258959451,0.0 -78.87929508646127,33.83076768053003,0.0 -78.87944871420234,33.83091346719502,0.0 -78.87964461272068,33.83108383570294,0.0 -78.8798556847601,33.83121867992538,0.0 -78.87992354737382,33.831289561518986,0.0 -78.87999502282412,33.83136421743481,0.0 -78.88006351632075,33.831484682385515,0.0 -78.8800614223239,33.83156947555071,0.0 -78.87994008838088,33.831689756558745,0.0 -78.87987159647753,33.83173187984573,0.0 -78.87956920288904,33.831822105548135,0.0 -78.87936476089715,33.83199751587944,0.0 -78.87914720801433,33.8321249869526,0.0 -78.8790445455269,33.83223057623123,0.0 -78.87912467110239,33.832458595855535,0.0 -78.879475120055,33.83279734100356,0.0 -78.87952367719672,33.83279817548791,0.0 -78.87961953015703,33.83274719794831,0.0 -78.87967762719889,33.832716299555756,0.0 -78.8797577892829,33.83285163302795,0.0 -78.88067340437584,33.832730921638806,0.0 -78.88081877558413,33.83267512211539,0.0 -78.88086578541659,33.83271600464757,0.0 -78.88097544806163,33.83274420287201,0.0 -78.88105463163532,33.832755035435724,0.0 -78.8810473137267,33.83274216347578,0.0 -78.8810928260043,33.83263558822377,0.0 -78.88122376812875,33.83254241166328,0.0 -78.88143261621236,33.83251343381265,0.0 -78.88177881293657,33.83297453058732,0.0 -78.88272938134138,33.83278854309928,0.0 -78.88364209220458,33.833614683260805,0.0 -78.88361140607189,33.833624040578464,0.0 -78.88340931851701,33.83370406961459,0.0 -78.88317953857872,33.833747837707,0.0 -78.88260361286173,33.83391687279562,0.0 -78.88260096572664,33.8340241832096,0.0 -78.88274296202594,33.83406240842306,0.0 -78.88273913965789,33.83421741378462,0.0 -78.88270674076904,33.83437192824329,0.0 -78.88270409373966,33.83447923775523,0.0 -78.8828026394148,33.8345405740516,0.0 -78.88414964067904,33.833824137522704,0.0 -78.8846999251545,33.83353536987164,0.0 -78.88487166561004,33.833388005138225,0.0 -78.8853737191034,33.83328976236272,0.0 -78.88547206558665,33.8335615861066,0.0 -78.88532393371534,33.83370173573655,0.0 -78.88572741452246,33.83415001438151,0.0 -78.8864486605105,33.835045094431855,0.0 -78.88731320954847,33.836061501034955,0.0 -78.88738837560471,33.836503928043584,0.0 -78.8878176722215,33.83668691086996,0.0 -78.88802134963126,33.83682997520952,0.0 -78.88849322930761,33.837381753602756,0.0 -78.88902182246001,33.83797530637315,0.0 -78.88932297169804,33.83851724864906,0.0 -78.88944834451084,33.83865060748407,0.0 -78.88966036671452,33.838963638430805,0.0 -78.88948565363226,33.838975482029554,0.0 -78.88921142379733,33.83883810774065,0.0 -78.88862342792379,33.83923049677421,0.0 -78.8882613632321,33.83935422302008,0.0 -78.8879066211639,33.83917651185048,0.0 -78.88762083236794,33.83887711307732,0.0 -78.88697089865265,33.83874510586634,0.0 -78.88566049230292,33.838679606536004,0.0 -78.88522845822422,33.83867219397993,0.0 -78.88484706516219,33.83821854444947,0.0 -78.88481775266179,33.83803444029355,0.0 -78.88476794500397,33.837735373568,0.0 -78.88471490721393,33.83756746393576,0.0 -78.88467653625854,33.83749299379838,0.0 -78.8846590361987,33.83738185435439,0.0 -78.88467341270052,33.83726317484372,0.0 -78.88461740693045,33.837087119841506,0.0 -78.8835342170202,33.83739811388066,0.0 -78.88350177027048,33.83745558612321,0.0 -78.88345928726959,33.837474337365826,0.0 -78.88323819574117,33.83774489456959,0.0 -78.88323231515415,33.837983363724064,0.0 -78.88324724728025,33.83802230046108,0.0 -78.88303445069822,33.838893781912795,0.0 -78.88315053002589,33.83907611536349,0.0 -78.88308159890441,33.8391676610521,0.0 -78.8830655456498,33.83923895706102,0.0 -78.88306319160024,33.83933434412347,0.0 -78.8830045668258,33.83939297874197,0.0 -78.88298939584719,33.83942850491963,0.0 -78.88295905283674,33.83949955454489,0.0 -78.88295611250982,33.83961878907716,0.0 -78.88308382846715,33.83965676785949,0.0 -78.88318296733007,33.839694256577545,0.0 -78.88326576117085,33.83981496275771,0.0 -78.8833205628813,33.83991133237963,0.0 -78.88331909024797,33.83997094960966,0.0 -78.8833021558004,33.84007801547964,0.0 -78.88327779619587,33.840109098188975,0.0 -78.8831662648446,33.840081646078914,0.0 -78.88302337501335,33.840079191693626,0.0 -78.88285279145828,33.84004047553327,0.0 -78.88272507507669,33.84000249559433,0.0 -78.8824669925652,33.84003384739702,0.0 -78.88241000172123,33.84060543569039,0.0 -78.88239852773754,33.84107045113091,0.0 -78.88243492008068,33.84133350127365,0.0 -78.88244626873966,33.841452983068784,0.0 -78.88255545905794,33.84152610357824,0.0 -78.88229753715261,33.84225334054067,0.0 -78.88115286277082,33.84244974108926,0.0 -78.88087702956915,33.84270602001433,0.0 -78.88014254346139,33.843641108393044,0.0 -78.87980912643683,33.84371865438061,0.0 -78.87981135350621,33.84362852482554,0.0 -78.87978122976739,33.84329925991165,0.0 -78.87950530327208,33.84316681219008,0.0 -78.879318727692,33.8428683506276,0.0 -78.8790207037582,33.84304849154541,0.0 -78.87891646825942,33.843310697310194,0.0 -78.87884590890248,33.84334140768828,0.0 -78.87870623681025,33.84283482460214,0.0 -78.87864325057106,33.842796912239905,0.0 -78.87864547878715,33.84270678273949,0.0 -78.87878493386502,33.842664099246875,0.0 -78.87864770699336,33.842616653237606,0.0 -78.87865216337603,33.8424363942295,0.0 -78.87865661971908,33.84225613521559,0.0 -78.87854860717488,33.84225427591111,0.0 -78.8785508354448,33.84216414640827,0.0 -78.87865884787576,33.84216600570648,0.0 -78.87866107602251,33.8420758761959,0.0 -78.8786323371016,33.841215433396755,0.0 -78.8785887145176,33.84063194463832,0.0 -78.87873366232081,33.84057385851486,0.0 -78.87880919125966,33.840455403841986,0.0 -78.87950637173587,33.84040815848745,0.0 -78.87983590517734,33.840180954932435,0.0 -78.87985007744356,33.840064016517054,0.0 -78.87965788572845,33.83906905231617,0.0 -78.87945814308672,33.838406692845716,0.0 -78.87962548645324,33.838026221244355,0.0 -78.88011869689146,33.83791150288589,0.0 -78.88017210579382,33.83777381625491,0.0 -78.880477423334,33.83785432059686,0.0 -78.8808897522489,33.83869471077451,0.0 -78.88147416684082,33.838848799537004,0.0 -78.88173947953574,33.83883083050775,0.0 -78.88167021550231,33.83811868174278,0.0 -78.88217183790933,33.83778529623177,0.0 -78.88228525765997,33.8373232739706,0.0 -78.88179722964514,33.83678633519822,0.0 -78.88083071418038,33.8364166243727,0.0 -78.88027461528328,33.836013133756715,0.0 -78.88011407204696,33.835928545084144,0.0 -78.87945168744795,33.836318735857645,0.0 -78.87867406311318,33.836171821633414,0.0 -78.87785500159339,33.836668582227894,0.0 -78.87700162355324,33.83699609689793,0.0 -78.87644834070986,33.83722201144737,0.0 -78.87623425953704,33.83757167248157,0.0 -78.87617808334849,33.83761488670239,0.0 -78.87504212830083,33.83775957317351,0.0 -78.8739007852542,33.83812797787859,0.0 -78.87330901570964,33.838376353769945,0.0 -78.87372371704161,33.83927102979763,0.0 -78.87408104540562,33.83955898654702,0.0 -78.87431101974894,33.83977488555054,0.0 -78.8741805418524,33.839970744455606,0.0 -78.87417029562664,33.83996334527652,0.0 -78.87406301702977,33.83989713389136,0.0 -78.87393533714297,33.83986797657932,0.0 -78.87380655430658,33.8398988220974,0.0 -78.87379470215102,33.84000735545965,0.0 -78.87377104766404,33.84011411898497,0.0 -78.87364226762156,33.840144965270824,0.0 -78.87350813255654,33.84014492582437,0.0 -78.87338685174039,33.84019695180396,0.0 -78.87331159589796,33.84022923347382,0.0 -78.87308809890162,33.84021797557901,0.0 -78.87292595168731,33.84022053849919,0.0 -78.87281736370367,33.84021506839891,0.0 -78.87276769295127,33.84018441061463,0.0 -78.87256169149434,33.84012346294542,0.0 -78.8725638414457,33.840113757432796,0.0 -78.87248662065397,33.84002196270051,0.0 -78.87243935995832,33.84012518869763,0.0 -78.87242750601058,33.84023372275806,0.0 -78.87242717881361,33.84023672149889,0.0 -78.87218175974536,33.8403397218745,0.0 -78.87215835361542,33.84049303571899,0.0 -78.87209582013509,33.84046481102176,0.0 -78.8719874415304,33.84045860081695,0.0 -78.87190802200892,33.84048681167927,0.0 -78.8718156966609,33.84057325897279,0.0 -78.87179418954702,33.8406703183161,0.0 -78.87181774615038,33.840784156108846,0.0 -78.87194217642303,33.840883024091504,0.0 -78.87206016531046,33.840926959653146,0.0 -78.87205634363197,33.84094420406687,0.0 -78.87208618291653,33.84096575361572,0.0 -78.87203522328245,33.841299541160474,0.0 -78.87176882061122,33.841699406261554,0.0 -78.87173791644467,33.84169477534804,0.0 -78.87161448013862,33.84175650489734,0.0 -78.87151249856127,33.84183147631097,0.0 -78.87148884058428,33.84193824104231,0.0 -78.871465182586,33.84204500396252,0.0 -78.87144152449935,33.8421517677755,0.0 -78.87141786636906,33.842258530678635,0.0 -78.87142962018034,33.84237060115073,0.0 -78.87145047061799,33.8424034676367,0.0 -78.87134608967155,33.842636409117446,0.0 -78.8708083530038,33.84283692278122,0.0 -78.86992449354457,33.84266660657528,0.0 -78.86965392535475,33.84216136301501,0.0 -78.86919545936139,33.84164048304194,0.0 -78.86923483144238,33.84109659347296,0.0 -78.87030017402758,33.84090420605004,0.0 -78.87060420648056,33.840776611944,0.0 -78.87076963007596,33.83994433044009,0.0 -78.87010592856068,33.83945042419989,0.0 -78.8694851359649,33.839620029418505,0.0 -78.86915484034938,33.839701049584896,0.0 -78.86883260809607,33.83978908267021,0.0 -78.86850231130131,33.83987010103592,0.0 -78.86818007782821,33.839958132361645,0.0 -78.86747828148226,33.840130269094004,0.0 -78.86629059460063,33.84067797632494,0.0 -78.86533878443433,33.840968427644725,0.0 -78.8647522145197,33.84147517336217,0.0 -78.86455747515936,33.84223977241113,0.0 -78.8644364593348,33.84259490839065,0.0 -78.86432350627265,33.84295705831223,0.0 -78.86422695537485,33.84317248141524,0.0 -78.86415929883727,33.84315040982759,0.0 -78.86402226200667,33.84310797239074,0.0 -78.8638981086374,33.84306746769514,0.0 -78.86375637018679,33.84304622079331,0.0 -78.86362281971704,33.843048095767045,0.0 -78.86362510051326,33.843157913354716,0.0 -78.8637574428996,33.84322154037223,0.0 -78.86380044541723,33.84324375107516,0.0 -78.86386039362114,33.84325264471024,0.0 -78.86386394001856,33.84325334366696,0.0 -78.86418389757448,33.84333217116425,0.0 -78.86417376403797,33.84338572997262,0.0 -78.8639028765743,33.84331899329136,0.0 -78.86394830428156,33.84338151930368,0.0 -78.8640372919174,33.8434605426522,0.0 -78.8641415156735,33.84353090251918,0.0 -78.86414601763026,33.84353237092818,0.0 -78.86408504599362,33.8438546008033,0.0 -78.86393575685973,33.84429268799234,0.0 -78.86343600550211,33.84478387619878,0.0 -78.86343362124352,33.84477235022827,0.0 -78.86342187992884,33.844660279462374,0.0 -78.86329634518489,33.844621404750136,0.0 -78.86319220522184,33.84470607598739,0.0 -78.8631331203566,33.84480752951858,0.0 -78.86302147751968,33.84487101909878,0.0 -78.86290983557815,33.84493450949079,0.0 -78.86282929924428,33.845022717640575,0.0 -78.86286679864271,33.84512862136478,0.0 -78.86290214697637,33.84524422856619,0.0 -78.86293964544505,33.84535013315443,0.0 -78.86300290299465,33.845449867940495,0.0 -78.86306616172202,33.845549604519555,0.0 -78.86312728822041,33.84562227909947,0.0 -78.86310366163366,33.845655507282146,0.0 -78.86306323891196,33.845724918746846,0.0 -78.86304457813223,33.84575695986313,0.0 -78.86299730160447,33.84586018337043,0.0 -78.86292641605058,33.84595986681541,0.0 -78.86281477044324,33.846023356114486,0.0 -78.86268062684357,33.84602330452203,0.0 -78.862577653986,33.84593767089587,0.0 -78.86248648416279,33.84585380632309,0.0 -78.862411423108,33.84575230033017,0.0 -78.8623621180118,33.845644627290035,0.0 -78.86236213526415,33.845619819817294,0.0 -78.8623621861623,33.845534328426716,0.0 -78.86232468616585,33.84542842455389,0.0 -78.86228933966039,33.84531281633464,0.0 -78.8622400381602,33.845205144211675,0.0 -78.8621628266785,33.84511334246405,0.0 -78.86203298716568,33.84509387787295,0.0 -78.86190314771916,33.845074413147174,0.0 -78.86177546179317,33.84504524396045,0.0 -78.8616456246535,33.84502577900567,0.0 -78.86153834807813,33.844959555953196,0.0 -78.8614310738311,33.84489333285056,0.0 -78.86135386240316,33.84480153151843,0.0 -78.86136573121269,33.84469300096754,0.0</coordinates>
                    </LinearRing>
                </outerBoundaryIs>
            </Polygon>
        </Placemark>
        <Placemark id="1585">
            <name>Population_174</name>
            <styleUrl>#1590</styleUrl>
            <Polygon id="1584">
                <outerBoundaryIs>
                    <LinearRing id="1588">
                        <coordinates>-78.71639217007781,33.84564118169643,0.0 -78.7164553838794,33.84562365495082,0.0 -78.71653822938207,33.84563618209683,0.0 -78.7166430494915,33.84566828436423,0.0 -78.71669857337639,33.84571459993154,0.0 -78.71671402952227,33.84579277726913,0.0 -78.71666575849544,33.84586131906503,0.0 -78.71664935207554,33.84593467909616,0.0 -78.71667872572972,33.84600954383306,0.0 -78.71670692584031,33.846089648792876,0.0 -78.7167581326253,33.84624365655196,0.0 -78.71677524089291,33.846343564278634,0.0 -78.71659188200115,33.846228214413465,0.0 -78.7163253082853,33.84568245313093,0.0 -78.71634338576013,33.845682560041126,0.0 -78.71639217007781,33.84564118169643,0.0</coordinates>
                    </LinearRing>
                </outerBoundaryIs>
            </Polygon>
        </Placemark>
        <Placemark id="1594">
            <name>Population_175</name>
            <styleUrl>#1599</styleUrl>
            <Polygon id="1593">
                <outerBoundaryIs>
                    <LinearRing id="1597">
                        <coordinates>-78.71463263148632,33.846350201430404,0.0 -78.71471848262098,33.84631984674509,0.0 -78.71489523406068,33.846324908102474,0.0 -78.71489792762874,33.84632479936492,0.0 -78.71477913726687,33.84644819847413,0.0 -78.71469269661719,33.846435126488615,0.0 -78.71463131350225,33.84641500942122,0.0 -78.71463263148632,33.846350201430404,0.0</coordinates>
                    </LinearRing>
                </outerBoundaryIs>
            </Polygon>
        </Placemark>
        <Placemark id="1603">
            <name>Population_176</name>
            <styleUrl>#1608</styleUrl>
            <Polygon id="1602">
                <outerBoundaryIs>
                    <LinearRing id="1606">
                        <coordinates>-78.71715229328683,33.846454938593546,0.0 -78.71725374397272,33.84644319246289,0.0 -78.71731044005865,33.8464842684097,0.0 -78.71738391325185,33.84653871538602,0.0 -78.71738337152932,33.84654774429985,0.0 -78.71705627579198,33.84651378873364,0.0 -78.71715229328683,33.846454938593546,0.0</coordinates>
                    </LinearRing>
                </outerBoundaryIs>
            </Polygon>
        </Placemark>
        <Placemark id="1612">
            <name>Population_177</name>
            <styleUrl>#1617</styleUrl>
            <Polygon id="1611">
                <outerBoundaryIs>
                    <LinearRing id="1615">
                        <coordinates>-78.85139718138663,33.84873232190564,0.0 -78.85140415184759,33.848721785685385,0.0 -78.85148616478014,33.8487101973232,0.0 -78.85147150389415,33.84873235906279,0.0 -78.85148399616992,33.84873236498147,0.0 -78.85157660206312,33.84869741860454,0.0 -78.85171584707662,33.848677743566384,0.0 -78.85172145314334,33.84866666868602,0.0 -78.85176317639005,33.848660839112306,0.0 -78.85188566964719,33.84861735623818,0.0 -78.85200816170547,33.848573873218285,0.0 -78.85205023909232,33.84857698799209,0.0 -78.8520426538234,33.84859792604097,0.0 -78.85184980427017,33.84886574030502,0.0 -78.85179504394894,33.84909437384264,0.0 -78.85151028972929,33.84896895140691,0.0 -78.85137540634818,33.848732311911895,0.0 -78.85139718138663,33.84873232190564,0.0</coordinates>
                    </LinearRing>
                </outerBoundaryIs>
            </Polygon>
        </Placemark>
        <Placemark id="1621">
            <name>Population_178</name>
            <styleUrl>#1626</styleUrl>
            <Polygon id="1620">
                <outerBoundaryIs>
                    <LinearRing id="1624">
                        <coordinates>-78.7120277125636,33.847391282324104,0.0 -78.7118327252541,33.84711388782974,0.0 -78.71186451953653,33.84712430790854,0.0 -78.71196968521171,33.84724976279026,0.0 -78.7120277125636,33.847391282324104,0.0</coordinates>
                    </LinearRing>
                </outerBoundaryIs>
            </Polygon>
        </Placemark>
        <Placemark id="1630">
            <name>Population_179</name>
            <styleUrl>#1635</styleUrl>
            <Polygon id="1629">
                <outerBoundaryIs>
                    <LinearRing id="1633">
                        <coordinates>-78.85430010814378,33.84981241191447,0.0 -78.85399935011333,33.84964104404639,0.0 -78.85393739341708,33.84985304097466,0.0 -78.85382955809989,33.84977827981008,0.0 -78.85383658460519,33.84971409313069,0.0 -78.85386093190735,33.849604342763456,0.0 -78.85386101296079,33.84949095349243,0.0 -78.8538489550934,33.84937574061171,0.0 -78.85383689826239,33.84926053045171,0.0 -78.85376966328865,33.84916797314667,0.0 -78.85364717116035,33.84921145791632,0.0 -78.85353459713544,33.84926673878128,0.0 -78.85342202618715,33.849322020494995,0.0 -78.85329182226643,33.849343730432246,0.0 -78.85315833993951,33.84932371053769,0.0 -78.853022645509,33.849313666828294,0.0 -78.85288694785541,33.849303623815445,0.0 -78.85275346784728,33.84928360442699,0.0 -78.852733483536,33.84928060707723,0.0 -78.8526189737769,33.848757461470704,0.0 -78.85280531798945,33.84855067045854,0.0 -78.85281576781418,33.84855067581721,0.0 -78.8529514631656,33.84856071974545,0.0 -78.85308494425384,33.84858073981848,0.0 -78.85322063650528,33.84859078159419,0.0 -78.85335411987941,33.848610801417315,0.0 -78.85348981434159,33.848620844739685,0.0 -78.85362329352051,33.848640864199965,0.0 -78.85375898918088,33.84865090634634,0.0 -78.85383179773491,33.84866182594181,0.0 -78.85386259350959,33.848296542127265,0.0 -78.85357494444435,33.84815951188711,0.0 -78.85326417033959,33.84806774151761,0.0 -78.85314271551348,33.848049361228014,0.0 -78.85313734382532,33.8479939482509,0.0 -78.85327860755658,33.84801532545255,0.0 -78.85328373596946,33.84801646253708,0.0 -78.85359995714813,33.84810984434595,0.0 -78.85360513451913,33.84811183254698,0.0 -78.85386762422058,33.84823687591905,0.0 -78.85400087721868,33.8466562466077,0.0 -78.85398874399534,33.846654426727,0.0 -78.85386190707784,33.846604475165954,0.0 -78.85378032448463,33.84652007429344,0.0 -78.85364020813134,33.84652998589629,0.0 -78.8535574021961,33.84662066115195,0.0 -78.8534646728353,33.84669953642485,0.0 -78.85334989320937,33.846764796369065,0.0 -78.85321748220406,33.84679648274562,0.0 -78.85309499112091,33.84683996706478,0.0 -78.85300226216341,33.846918842881294,0.0 -78.85296578147779,33.847026773127666,0.0 -78.85290502982706,33.84713106420698,0.0 -78.85288345586106,33.84719488556597,0.0 -78.85237412970011,33.84707987604479,0.0 -78.85224559266328,33.84788419951078,0.0 -78.85221050912259,33.84794442473632,0.0 -78.85218615921332,33.84805417562348,0.0 -78.85215015930847,33.84813273929002,0.0 -78.85220912938864,33.84811236684726,0.0 -78.85220169609777,33.84815887717114,0.0 -78.85219577440563,33.84817522496251,0.0 -78.8520842961355,33.848213737190356,0.0 -78.85183992576029,33.8483763994171,0.0 -78.85176713406452,33.84835576523648,0.0 -78.85195113264025,33.84823328874991,0.0 -78.85189476860167,33.84823727532817,0.0 -78.85175464611511,33.848247183708025,0.0 -78.85162223225119,33.84827887005311,0.0 -78.85158400203963,33.84830385158014,0.0 -78.85101711367291,33.848143152225866,0.0 -78.8509458159661,33.845945883532714,0.0 -78.85012161480593,33.84595875488118,0.0 -78.8481325707597,33.84655259385723,0.0 -78.8475430141921,33.84671919446411,0.0 -78.84729183619017,33.84600565246633,0.0 -78.84703272268578,33.84567692719488,0.0 -78.8464845897375,33.84539499799492,0.0 -78.84647016542631,33.84452336560303,0.0 -78.84631296497396,33.84436986978779,0.0 -78.84576879581986,33.84523056458899,0.0 -78.84572396437248,33.84556203755889,0.0 -78.84494832147831,33.845883674359605,0.0 -78.84468814395898,33.846206485493504,0.0 -78.84491456593466,33.8467183104721,0.0 -78.84545766508111,33.847357077746736,0.0 -78.84506535086727,33.84784397792555,0.0 -78.84501475473786,33.847984147717746,0.0 -78.84481987677417,33.847911807742676,0.0 -78.84441696278367,33.84797980540036,0.0 -78.8438694451387,33.84826383375094,0.0 -78.84367635513775,33.84848702035508,0.0 -78.84380164616927,33.848954763905695,0.0 -78.84327103808091,33.84890600482533,0.0 -78.84292810588848,33.848472406052814,0.0 -78.842054724831,33.84863526442899,0.0 -78.84138204853289,33.84887557398439,0.0 -78.84067772160063,33.848936889313286,0.0 -78.84066291568405,33.84890163427456,0.0 -78.84112791039723,33.84873900649653,0.0 -78.84112685487922,33.84868763703149,0.0 -78.84120799214149,33.84865884447063,0.0 -78.84126941808631,33.848606608476494,0.0 -78.84132319047984,33.848532738967805,0.0 -78.8411949818349,33.848493009625905,0.0 -78.84109633678494,33.84848844746079,0.0 -78.84090995556036,33.84854241268469,0.0 -78.84076414221755,33.848581981918215,0.0 -78.8405974662583,33.84865939091018,0.0 -78.84056760297493,33.84867469187606,0.0 -78.8405251246033,33.848573547495484,0.0 -78.84014944461325,33.848079300893545,0.0 -78.84041233681512,33.84802475265239,0.0 -78.8403037310214,33.84742308226029,0.0 -78.8400618498553,33.84726626320223,0.0 -78.84038996584765,33.846777486195435,0.0 -78.84049225379032,33.846727270481765,0.0 -78.84055442964011,33.84662712602087,0.0 -78.84056506716148,33.84651924373297,0.0 -78.84056370589762,33.846518672565054,0.0 -78.84078948511882,33.84618233335235,0.0 -78.84068599217763,33.84595741079004,0.0 -78.84047523675297,33.845787472283085,0.0 -78.84042446589953,33.84573978048556,0.0 -78.84059349262374,33.84564671560394,0.0 -78.84070077396292,33.845102155695535,0.0 -78.8403346010417,33.845016869902686,0.0 -78.84027459049003,33.84480321169342,0.0 -78.8400511236805,33.84450327512709,0.0 -78.83947917153694,33.84421741829704,0.0 -78.83938517761753,33.844098557822925,0.0 -78.83947238880305,33.84404275148011,0.0 -78.83936225048639,33.84315140274902,0.0 -78.8395025819281,33.84234814088469,0.0 -78.83939238006565,33.842255248396555,0.0 -78.83922699844037,33.842833973531405,0.0 -78.83909064909,33.84292122313178,0.0 -78.83904841789206,33.84269007805959,0.0 -78.83884420838115,33.8422173448041,0.0 -78.83896592073174,33.84163700503366,0.0 -78.83928620889506,33.840983066658225,0.0 -78.83944523093301,33.84042658031363,0.0 -78.83949438825108,33.84038663161063,0.0 -78.83959703907591,33.840319564279355,0.0 -78.83973050347073,33.84033960002967,0.0 -78.839840759092,33.8404076999134,0.0 -78.83997422261452,33.84042773538803,0.0 -78.84008111780277,33.840375253517394,0.0 -78.84070711118056,33.84045139593555,0.0 -78.84123024098642,33.84011662295845,0.0 -78.84150933141738,33.83936234354585,0.0 -78.84177131300265,33.83945168423738,0.0 -78.84225463868391,33.83933942720452,0.0 -78.84228923572132,33.83905500125803,0.0 -78.84226487795797,33.83871207151528,0.0 -78.84248535012273,33.838507373058015,0.0 -78.84282339891179,33.83827446312612,0.0 -78.8427313190897,33.83777508386095,0.0 -78.84204943622132,33.837808810509344,0.0 -78.84215878494048,33.836933790516845,0.0 -78.84237479151041,33.83693757226904,0.0 -78.84243276023275,33.836979500425,0.0 -78.84262383611318,33.837179860449766,0.0 -78.84262428182157,33.837180182935015,0.0 -78.84264636199117,33.83723030652385,0.0 -78.84260222717752,33.837338935518595,0.0 -78.8424797433162,33.837394643503174,0.0 -78.84238101593172,33.83747861447315,0.0 -78.84250788478465,33.83744826260519,0.0 -78.84264882541743,33.83744472015781,0.0 -78.84276593001533,33.83750346074255,0.0 -78.84286981053867,33.83757668052586,0.0 -78.84294900754409,33.837670893721345,0.0 -78.84305288840446,33.83774411426373,0.0 -78.84312240089882,33.83783687207688,0.0 -78.84321305570835,33.83792457178746,0.0 -78.84327111123768,33.83802384196395,0.0 -78.84324635407275,33.83813538275577,0.0 -78.84320222161435,33.83824401290125,0.0 -78.84313079035212,33.838340314612104,0.0 -78.84316769937486,33.838444644613716,0.0 -78.84328834184863,33.838487449195775,0.0 -78.84342136513244,33.83847448464415,0.0 -78.84352624379095,33.83840790101621,0.0 -78.84364696262867,33.83836015985799,0.0 -78.84378259962894,33.83838051862356,0.0 -78.84392176950573,33.83838494159461,0.0 -78.8440504105102,33.83834662043379,0.0 -78.84416320550903,33.83828945834007,0.0 -78.84424255688239,33.83820257814974,0.0 -78.8443283343198,33.838148118993765,0.0 -78.84463502642659,33.83817963688942,0.0 -78.84474536137775,33.83787508288377,0.0 -78.8447704753501,33.83785372145128,0.0 -78.84487712123808,33.83777916880292,0.0 -78.84498199469289,33.837712584695836,0.0 -78.84507894991971,33.83763657753283,0.0 -78.84502089359006,33.83753730724871,0.0 -78.84491524326819,33.837472057024385,0.0 -78.84479460131554,33.83742925315194,0.0 -78.84467395948874,33.83738644916574,0.0 -78.84453832483796,33.837366092351886,0.0 -78.84440268809955,33.83734573535335,0.0 -78.84426705467375,33.837325378264595,0.0 -78.84418712570985,33.83731338191987,0.0 -78.84463560985454,33.83726606716395,0.0 -78.84529973374373,33.83735986813542,0.0 -78.84551294715283,33.83693371451355,0.0 -78.84473906833024,33.83641329636627,0.0 -78.84466323331068,33.83616610955133,0.0 -78.84483719952502,33.836203527973666,0.0 -78.84524890086108,33.83651191015899,0.0 -78.8458206499826,33.83667155716667,0.0 -78.84612673951662,33.83643498911259,0.0 -78.84617526912355,33.83619254264134,0.0 -78.84617753086445,33.83610241495672,0.0 -78.84649528227293,33.836258241031985,0.0 -78.84693644038146,33.836554902120454,0.0 -78.84694488308936,33.836564435116706,0.0 -78.846896956829,33.836616913737494,0.0 -78.84682553323468,33.83671321696569,0.0 -78.84671273766217,33.83677038248673,0.0 -78.84659202694684,33.83681812779153,0.0 -78.84653998013309,33.836917338262325,0.0 -78.84651522760456,33.837028879006795,0.0 -78.84650016206612,33.83714187298772,0.0 -78.8466058143572,33.83720712190598,0.0 -78.84673883426395,33.83719415365341,0.0 -78.84687008428175,33.83718915216755,0.0 -78.84700310301123,33.837176185410605,0.0 -78.84713788834502,33.83715524973251,0.0 -78.84725068527908,33.837098082951755,0.0 -78.84731241955288,33.83700032535637,0.0 -78.84732497342323,33.836969418001495,0.0 -78.84755896126723,33.83702822091018,0.0 -78.84755218012774,33.83729860416492,0.0 -78.8475453988978,33.8375689874066,0.0 -78.84749994835197,33.83762153293219,0.0 -78.84712717934521,33.83877068412107,0.0 -78.84706590049733,33.83945412330673,0.0 -78.84693626727444,33.83952551441629,0.0 -78.84686344719832,33.83974326550385,0.0 -78.84685780385104,33.83975220977561,0.0 -78.84684677700115,33.83976103384307,0.0 -78.84683575017162,33.83976985700817,0.0 -78.84683552403582,33.83977886977523,0.0 -78.84684598663243,33.83979257764562,0.0 -78.84684590800532,33.83979571138473,0.0 -78.84684084158636,33.8398108602203,0.0 -78.8466698578956,33.84012255625486,0.0 -78.84645357397427,33.84055347652222,0.0 -78.84636295613929,33.84061269090132,0.0 -78.8463394445164,33.84071864120634,0.0 -78.84631593174828,33.84082459148404,0.0 -78.84631469031024,33.84083018359611,0.0 -78.84628757952693,33.84088419872634,0.0 -78.84524157193172,33.84114736473272,0.0 -78.845559453264,33.841917127491804,0.0 -78.84626760107135,33.84221925203661,0.0 -78.84649836120073,33.84282277080575,0.0 -78.84673927028267,33.84372946140896,0.0 -78.84700489149452,33.84373862959889,0.0 -78.84734687950588,33.84355996415937,0.0 -78.84767106385787,33.84303087764511,0.0 -78.8480968766064,33.842857148137874,0.0 -78.84892898531034,33.8426477821149,0.0 -78.84910167263094,33.84250395083956,0.0 -78.8491342832934,33.84258310522386,0.0 -78.84913654342822,33.84269292052564,0.0 -78.8491259184728,33.842800804073796,0.0 -78.84912818070207,33.842910621212184,0.0 -78.84911755569388,33.84301850475462,0.0 -78.84909404666384,33.84312445385129,0.0 -78.8490963066774,33.84323427094594,0.0 -78.84909856565396,33.843344086217535,0.0 -78.8491008278236,33.84345390334661,0.0 -78.84910308895624,33.84356371865264,0.0 -78.84912040488751,33.84363396356222,0.0 -78.84913111500909,33.84367740188572,0.0 -78.84913337725055,33.843787217208074,0.0 -78.84913563836464,33.84389703431251,0.0 -78.84913789844171,33.84400684959388,0.0 -78.8491401606092,33.844116667615175,0.0 -78.84915530380032,33.844228415515026,0.0 -78.84915756600266,33.84433823263212,0.0 -78.84915982392761,33.84444804786964,0.0 -78.84916208504568,33.84455786496461,0.0 -78.84917723150649,33.844669614717574,0.0 -78.84915372198283,33.84477556378447,0.0 -78.84919698928329,33.84488058465429,0.0 -78.84921213370819,33.84499233256127,0.0 -78.84920150840084,33.84510021607111,0.0 -78.84917799875912,33.84520616513234,0.0 -78.84916737336742,33.845314048633035,0.0 -78.84916963447859,33.84542386481351,0.0 -78.84917189450753,33.845533680973475,0.0 -78.84917415671727,33.845643496268245,0.0 -78.84916352907553,33.845751379721506,0.0 -78.84914001808362,33.84585732873743,0.0 -78.8491165080841,33.845963278665025,0.0 -78.84912582385287,33.84604130961689,0.0 -78.84933556206737,33.84599614291808,0.0 -78.84934844653482,33.84599807554849,0.0 -78.84946798586773,33.84593937463535,0.0 -78.84960389251493,33.845926921026766,0.0 -78.84972343153974,33.845868221656964,0.0 -78.84985933593714,33.84585576592029,0.0 -78.84998941128656,33.8458095940104,0.0 -78.85011129991251,33.84574029912688,0.0 -78.85023902175,33.84570472110526,0.0 -78.8503702269443,33.845713455963,0.0 -78.85049794756863,33.845677877648164,0.0 -78.85061983566376,33.845608580434174,0.0 -78.85065623132651,33.84550456448898,0.0 -78.85067974038536,33.84539861329876,0.0 -78.85069035953238,33.84529073132251,0.0 -78.85071386847605,33.84518478011845,0.0 -78.85073737622928,33.84507883068966,0.0 -78.85076088393991,33.844972880351165,0.0 -78.8508230488612,33.844872730200954,0.0 -78.85094258565292,33.84481402774635,0.0 -78.85101763240512,33.84471580990178,0.0 -78.85104113964792,33.84460985948663,0.0 -78.85105176147447,33.84450197569885,0.0 -78.8511373443906,33.84441628629233,0.0 -78.85117373675479,33.84431226738984,0.0 -78.85119724364536,33.84420631782792,0.0 -78.85122075049334,33.84410036735628,0.0 -78.85123137197328,33.84399248443473,0.0 -78.85125019925962,33.843953477263284,0.0 -78.85128064820213,33.84389039880594,0.0 -78.85128371896612,33.84387655938155,0.0 -78.85224766127044,33.84405109614916,0.0 -78.85339136063648,33.84465742549132,0.0 -78.85497205271955,33.844236503466696,0.0 -78.85511496451635,33.84443682612552,0.0 -78.85512419851968,33.84445358935018,0.0 -78.85508573153238,33.844478729315355,0.0 -78.85511425860312,33.84453306022572,0.0 -78.85513861544582,33.84457944513819,0.0 -78.85523454351228,33.84465568849598,0.0 -78.85528742990692,33.84475640249828,0.0 -78.85532596942144,33.84486527579736,0.0 -78.85535237379767,33.844972331112615,0.0 -78.85537656543178,33.84508936099267,0.0 -78.85538862190565,33.845204571094484,0.0 -78.85542716169756,33.845313445268616,0.0 -78.85541495207595,33.84542501589668,0.0 -78.85540274239202,33.845536587421705,0.0 -78.85549645885608,33.84562280788826,0.0 -78.85562993399704,33.84564282501994,0.0 -78.85577554558017,33.845664661767884,0.0 -78.85590902302803,33.84568467863964,0.0 -78.8560491367962,33.84567476437192,0.0 -78.8561826154202,33.84569478096902,0.0 -78.85631830475687,33.84570481919197,0.0 -78.85641044124333,33.84571163540408,0.0 -78.85685054404112,33.84593006890915,0.0 -78.85742111876696,33.84658541386264,0.0 -78.85742065063482,33.84749341234222,0.0 -78.8569159175495,33.8481703073182,0.0 -78.85565320342653,33.84865458373385,0.0 -78.85530915346145,33.849059624517395,0.0 -78.85541780675395,33.84921226076627,0.0 -78.85562520440935,33.84938560275031,0.0 -78.85567698518507,33.84943248913851,0.0 -78.85553118084583,33.849489828266584,0.0 -78.85535067210499,33.849516977533916,0.0 -78.85513463203591,33.84951321729,0.0 -78.85512787157265,33.84978360134225,0.0 -78.85523589194203,33.84978548153056,0.0 -78.85531270289906,33.84994744867362,0.0 -78.85479704895172,33.850048344191954,0.0 -78.85412112113711,33.84994038829143,0.0 -78.85404541378949,33.84985492220947,0.0 -78.85430010814378,33.84981241191447,0.0</coordinates>
                    </LinearRing>
                </outerBoundaryIs>
            </Polygon>
        </Placemark>
    </Document>
</kml>
