<?xml version="1.0" encoding="UTF-8"?>
<kml xmlns="http://www.opengis.net/kml/2.2" xmlns:gx="http://www.google.com/kml/ext/2.2">
    <Document id="911">
        <Style id="918">
            <LineStyle id="920">
                <colorMode>normal</colorMode>
                <width>1</width>
            </LineStyle>
            <PolyStyle id="919">
                <color>800000ff</color>
                <colorMode>normal</colorMode>
                <fill>1</fill>
                <outline>1</outline>
            </PolyStyle>
        </Style>
        <Style id="927">
            <LineStyle id="929">
                <colorMode>normal</colorMode>
                <width>1</width>
            </LineStyle>
            <PolyStyle id="928">
                <color>800000ff</color>
                <colorMode>normal</colorMode>
                <fill>1</fill>
                <outline>1</outline>
            </PolyStyle>
        </Style>
        <Style id="936">
            <LineStyle id="938">
                <colorMode>normal</colorMode>
                <width>1</width>
            </LineStyle>
            <PolyStyle id="937">
                <color>800000ff</color>
                <colorMode>normal</colorMode>
                <fill>1</fill>
                <outline>1</outline>
            </PolyStyle>
        </Style>
        <Style id="945">
            <LineStyle id="947">
                <colorMode>normal</colorMode>
                <width>1</width>
            </LineStyle>
            <PolyStyle id="946">
                <color>800000ff</color>
                <colorMode>normal</colorMode>
                <fill>1</fill>
                <outline>1</outline>
            </PolyStyle>
        </Style>
        <Style id="954">
            <LineStyle id="956">
                <colorMode>normal</colorMode>
                <width>1</width>
            </LineStyle>
            <PolyStyle id="955">
                <color>800000ff</color>
                <colorMode>normal</colorMode>
                <fill>1</fill>
                <outline>1</outline>
            </PolyStyle>
        </Style>
        <Style id="963">
            <LineStyle id="965">
                <colorMode>normal</colorMode>
                <width>1</width>
            </LineStyle>
            <PolyStyle id="964">
                <color>800000ff</color>
                <colorMode>normal</colorMode>
                <fill>1</fill>
                <outline>1</outline>
            </PolyStyle>
        </Style>
        <Style id="972">
            <LineStyle id="974">
                <colorMode>normal</colorMode>
                <width>1</width>
            </LineStyle>
            <PolyStyle id="973">
                <color>800000ff</color>
                <colorMode>normal</colorMode>
                <fill>1</fill>
                <outline>1</outline>
            </PolyStyle>
        </Style>
        <Style id="981">
            <LineStyle id="983">
                <colorMode>normal</colorMode>
                <width>1</width>
            </LineStyle>
            <PolyStyle id="982">
                <color>800000ff</color>
                <colorMode>normal</colorMode>
                <fill>1</fill>
                <outline>1</outline>
            </PolyStyle>
        </Style>
        <Style id="990">
            <LineStyle id="992">
                <colorMode>normal</colorMode>
                <width>1</width>
            </LineStyle>
            <PolyStyle id="991">
                <color>800000ff</color>
                <colorMode>normal</colorMode>
                <fill>1</fill>
                <outline>1</outline>
            </PolyStyle>
        </Style>
        <Style id="999">
            <LineStyle id="1001">
                <colorMode>normal</colorMode>
                <width>1</width>
            </LineStyle>
            <PolyStyle id="1000">
                <color>800000ff</color>
                <colorMode>normal</colorMode>
                <fill>1</fill>
                <outline>1</outline>
            </PolyStyle>
        </Style>
        <Style id="1008">
            <LineStyle id="1010">
                <colorMode>normal</colorMode>
                <width>1</width>
            </LineStyle>
            <PolyStyle id="1009">
                <color>800000ff</color>
                <colorMode>normal</colorMode>
                <fill>1</fill>
                <outline>1</outline>
            </PolyStyle>
        </Style>
        <Style id="1017">
            <LineStyle id="1019">
                <colorMode>normal</colorMode>
                <width>1</width>
            </LineStyle>
            <PolyStyle id="1018">
                <color>800000ff</color>
                <colorMode>normal</colorMode>
                <fill>1</fill>
                <outline>1</outline>
            </PolyStyle>
        </Style>
        <Style id="1026">
            <LineStyle id="1028">
                <colorMode>normal</colorMode>
                <width>1</width>
            </LineStyle>
            <PolyStyle id="1027">
                <color>800000ff</color>
                <colorMode>normal</colorMode>
                <fill>1</fill>
                <outline>1</outline>
            </PolyStyle>
        </Style>
        <Style id="1035">
            <LineStyle id="1037">
                <colorMode>normal</colorMode>
                <width>1</width>
            </LineStyle>
            <PolyStyle id="1036">
                <color>800000ff</color>
                <colorMode>normal</colorMode>
                <fill>1</fill>
                <outline>1</outline>
            </PolyStyle>
        </Style>
        <Style id="1044">
            <LineStyle id="1046">
                <colorMode>normal</colorMode>
                <width>1</width>
            </LineStyle>
            <PolyStyle id="1045">
                <color>800000ff</color>
                <colorMode>normal</colorMode>
                <fill>1</fill>
                <outline>1</outline>
            </PolyStyle>
        </Style>
        <Style id="1053">
            <LineStyle id="1055">
                <colorMode>normal</colorMode>
                <width>1</width>
            </LineStyle>
            <PolyStyle id="1054">
                <color>800000ff</color>
                <colorMode>normal</colorMode>
                <fill>1</fill>
                <outline>1</outline>
            </PolyStyle>
        </Style>
        <Style id="1062">
            <LineStyle id="1064">
                <colorMode>normal</colorMode>
                <width>1</width>
            </LineStyle>
            <PolyStyle id="1063">
                <color>800000ff</color>
                <colorMode>normal</colorMode>
                <fill>1</fill>
                <outline>1</outline>
            </PolyStyle>
        </Style>
        <Style id="1071">
            <LineStyle id="1073">
                <colorMode>normal</colorMode>
                <width>1</width>
            </LineStyle>
            <PolyStyle id="1072">
                <color>800000ff</color>
                <colorMode>normal</colorMode>
                <fill>1</fill>
                <outline>1</outline>
            </PolyStyle>
        </Style>
        <Style id="1080">
            <LineStyle id="1082">
                <colorMode>normal</colorMode>
                <width>1</width>
            </LineStyle>
            <PolyStyle id="1081">
                <color>800000ff</color>
                <colorMode>normal</colorMode>
                <fill>1</fill>
                <outline>1</outline>
            </PolyStyle>
        </Style>
        <Style id="1089">
            <LineStyle id="1091">
                <colorMode>normal</colorMode>
                <width>1</width>
            </LineStyle>
            <PolyStyle id="1090">
                <color>800000ff</color>
                <colorMode>normal</colorMode>
                <fill>1</fill>
                <outline>1</outline>
            </PolyStyle>
        </Style>
        <Placemark id="913">
            <name>Population_100</name>
            <styleUrl>#918</styleUrl>
            <Polygon id="912">
                <outerBoundaryIs>
                    <LinearRing id="916">
                        <coordinates>-78.77204733640664,33.8060233575841,0.0 -78.77219845029394,33.80581901044028,0.0 -78.77211915015027,33.805634992556,0.0 -78.77223970140241,33.80562654562069,0.0 -78.77237663698972,33.805626706979766,0.0 -78.77251578345056,33.805616955616955,0.0 -78.77265492770633,33.80560720495795,0.0 -78.7727810185037,33.80554426210897,0.0 -78.77281735482727,33.805437053009115,0.0 -78.77281737814066,33.80542352764313,0.0 -78.77285228419808,33.80540516471732,0.0 -78.77284994819996,33.805495288425085,0.0 -78.77317382448287,33.80550113827059,0.0 -78.77338974205672,33.80550503769569,0.0 -78.77338740661325,33.80559516143496,0.0 -78.77322523377786,33.80563825243578,0.0 -78.77307095303223,33.80563283494467,0.0 -78.77243704426064,33.805963639241845,0.0 -78.7723782596388,33.8059547751259,0.0 -78.7722413246079,33.80595461376698,0.0 -78.77211964925,33.8059977317036,0.0 -78.77204733640664,33.8060233575841,0.0</coordinates>
                    </LinearRing>
                </outerBoundaryIs>
            </Polygon>
        </Placemark>
        <Placemark id="922">
            <name>Population_101</name>
            <styleUrl>#927</styleUrl>
            <Polygon id="921">
                <outerBoundaryIs>
                    <LinearRing id="925">
                        <coordinates>-78.7545351118464,33.80605086065929,0.0 -78.7545572136235,33.806051157684124,0.0 -78.75458183406448,33.806067825933475,0.0 -78.7545351118464,33.80605086065929,0.0</coordinates>
                    </LinearRing>
                </outerBoundaryIs>
            </Polygon>
        </Placemark>
        <Placemark id="931">
            <name>Population_102</name>
            <styleUrl>#936</styleUrl>
            <Polygon id="930">
                <outerBoundaryIs>
                    <LinearRing id="934">
                        <coordinates>-78.75463709899928,33.80618496911927,0.0 -78.75462109641727,33.80609440853414,0.0 -78.75462871456533,33.8060995658812,0.0 -78.75464064449207,33.8061690744,0.0 -78.75463709899928,33.80618496911927,0.0</coordinates>
                    </LinearRing>
                </outerBoundaryIs>
            </Polygon>
        </Placemark>
        <Placemark id="940">
            <name>Population_103</name>
            <styleUrl>#945</styleUrl>
            <Polygon id="939">
                <outerBoundaryIs>
                    <LinearRing id="943">
                        <coordinates>-78.7546800550757,33.80642805756099,0.0 -78.75464985169432,33.806257133566966,0.0 -78.7546549283451,33.80626902958002,0.0 -78.75469827004773,33.80632071187263,0.0 -78.75472553751256,33.80636244290462,0.0 -78.75473319889619,33.80640707276868,0.0 -78.7546800550757,33.80642805756099,0.0</coordinates>
                    </LinearRing>
                </outerBoundaryIs>
            </Polygon>
        </Placemark>
        <Placemark id="949">
            <name>Population_104</name>
            <styleUrl>#954</styleUrl>
            <Polygon id="948">
                <outerBoundaryIs>
                    <LinearRing id="952">
                        <coordinates>-78.74416623693592,33.806553289432095,0.0 -78.74413871750816,33.80645404960387,0.0 -78.74424555114216,33.8065173986511,0.0 -78.74424774359751,33.806525302973824,0.0 -78.74446666561757,33.80667131383943,0.0 -78.7444674677514,33.806671863193436,0.0 -78.74447088954591,33.80667453607487,0.0 -78.74462228910252,33.806806335723714,0.0 -78.7446235371037,33.80680746938866,0.0 -78.74462472562456,33.80680864704815,0.0 -78.74462585262424,33.80680986415659,0.0 -78.74462691380803,33.80681111973376,0.0 -78.74462790919964,33.806812412878436,0.0 -78.74462883675814,33.80681373904506,0.0 -78.74462969545128,33.80681509641138,0.0 -78.74469168003955,33.80691855246221,0.0 -78.74481818743988,33.80700886325465,0.0 -78.7448358544917,33.80701496148874,0.0 -78.74488846281467,33.80711077304977,0.0 -78.74477809109545,33.8070726719034,0.0 -78.74477290647482,33.80707053662929,0.0 -78.74476656469834,33.8070668104121,0.0 -78.74462800876144,33.80696789830862,0.0 -78.74462658289306,33.80696683352217,0.0 -78.74462521664711,33.806965719333846,0.0 -78.74462391110319,33.80696455576337,0.0 -78.74462266832582,33.80696334645517,0.0 -78.74462149263334,33.80696209148824,0.0 -78.744620386043,33.80696079630935,0.0 -78.74461934958704,33.8069594627407,0.0 -78.74461838648055,33.8069580917428,0.0 -78.74461749660529,33.8069566878217,0.0 -78.74455452906352,33.80685159078002,0.0 -78.74440962374743,33.806725444199294,0.0 -78.7441812584645,33.80657313643446,0.0 -78.74417978732801,33.806572109585844,0.0 -78.74417837266981,33.80657102967144,0.0 -78.74417701763402,33.80656990035537,0.0 -78.74417572437977,33.806568721677145,0.0 -78.74417449497157,33.80656749728115,0.0 -78.74417333476002,33.80656622906857,0.0 -78.7441722426182,33.80656491882213,0.0 -78.74417122272246,33.806563572028125,0.0 -78.74417027617604,33.80656218780509,0.0 -78.74416940499611,33.806560771599884,0.0 -78.74416861134185,33.806559323451964,0.0 -78.7441678961272,33.80655784968965,0.0 -78.74416726151131,33.80655635035243,0.0 -78.74416670737585,33.80655482994643,0.0 -78.74416623693592,33.806553289432095,0.0</coordinates>
                    </LinearRing>
                </outerBoundaryIs>
            </Polygon>
        </Placemark>
        <Placemark id="958">
            <name>Population_105</name>
            <styleUrl>#963</styleUrl>
            <Polygon id="957">
                <outerBoundaryIs>
                    <LinearRing id="961">
                        <coordinates>-79.10025299849667,33.81358389600403,0.0 -79.10025467793585,33.81358386507109,0.0 -79.10025619825274,33.81358389751268,0.0 -79.10025771509419,33.813583989414845,0.0 -79.10025922526036,33.813584138924796,0.0 -79.10026072443156,33.813584345976,0.0 -79.10026221152795,33.813584610551786,0.0 -79.10026368224976,33.813584931684204,0.0 -79.10026513119747,33.81358530929009,0.0 -79.10026655841094,33.813585741566555,0.0 -79.10026795959044,33.813586227545635,0.0 -79.10026933147631,33.813586768078835,0.0 -79.1010920082325,33.81392989919011,0.0 -79.10102451107957,33.81396195402812,0.0 -79.10023980917394,33.81363466122633,0.0 -79.10023833180789,33.81363400544972,0.0 -79.10023689795379,33.813633287222466,0.0 -79.10023550969179,33.81363251018352,0.0 -79.10023417242138,33.813631674416115,0.0 -79.10023288930262,33.81363078357583,0.0 -79.10023166245546,33.813629839498795,0.0 -79.10023049721963,33.81362884497248,0.0 -79.1002293946153,33.813627802717804,0.0 -79.10022835998217,33.81362671552219,0.0 -79.10022739436032,33.81362558520517,0.0 -79.10022650198965,33.81362441543896,0.0 -79.10022568171051,33.81362320981259,0.0 -79.10022493886268,33.81362197111357,0.0 -79.10022427446624,33.81362070206279,0.0 -79.10022369058137,33.813619407200626,0.0 -79.10022318714825,33.81361808923137,0.0 -79.10022276840678,33.81361675182725,0.0 -79.10022243211742,33.81361539856066,0.0 -79.1002221814601,33.81361403218581,0.0 -79.10022201741504,33.81361265722646,0.0 -79.10022193880268,33.81361127817304,0.0 -79.10022194668296,33.81360989594364,0.0 -79.10022204091638,33.81360851684824,0.0 -79.10022222250309,33.8136071445091,0.0 -79.10022248818342,33.81360577977776,0.0 -79.10022283889772,33.81360442898083,0.0 -79.10022327350632,33.81360309480591,0.0 -79.10022379192945,33.8136017808587,0.0 -79.10022439086757,33.81360048979353,0.0 -79.10022507018114,33.81359922792038,0.0 -79.10022582773027,33.81359799430451,0.0 -79.10022666123554,33.81359679432124,0.0 -79.10022756843746,33.81359563244433,0.0 -79.10022854607632,33.81359450952533,0.0 -79.1002295951324,33.81359343008795,0.0 -79.10023070800645,33.8135923958186,0.0 -79.1002318856986,33.813591410339555,0.0 -79.1002331216497,33.813590477156716,0.0 -79.1002344147798,33.81358959625342,0.0 -79.10023576284937,33.81358877120208,0.0 -79.1002371593191,33.81358800460711,0.0 -79.10023860198933,33.81358729823812,0.0 -79.10024008650055,33.81358665383134,0.0 -79.100241610673,33.81358607225495,0.0 -79.10024316794744,33.813585557014804,0.0 -79.1002447561641,33.813585108077596,0.0 -79.10024636990347,33.81358472626158,0.0 -79.10024800588594,33.81358441331965,0.0 -79.10024965869205,33.81358417007008,0.0 -79.10025132506208,33.81358399736435,0.0 -79.10025299849667,33.81358389600403,0.0</coordinates>
                    </LinearRing>
                </outerBoundaryIs>
            </Polygon>
        </Placemark>
        <Placemark id="967">
            <name>Population_106</name>
            <styleUrl>#972</styleUrl>
            <Polygon id="966">
                <outerBoundaryIs>
                    <LinearRing id="970">
                        <coordinates>-78.79174995510964,33.809099944262286,0.0 -78.79157710836947,33.80839517417618,0.0 -78.79135842487688,33.80805082233233,0.0 -78.7908235890115,33.8079826322042,0.0 -78.7905099490607,33.80792679659577,0.0 -78.79076615722933,33.80749772030268,0.0 -78.79125771487034,33.80722814324907,0.0 -78.79143712465759,33.80722542327156,0.0 -78.79178365751707,33.80724311104622,0.0 -78.79449410702235,33.80718823074879,0.0 -78.7948483045901,33.806882518258064,0.0 -78.79508207602042,33.80675386409741,0.0 -78.79525318989695,33.80622176652633,0.0 -78.79530327864533,33.805988990496296,0.0 -78.79553538639746,33.80536197561317,0.0 -78.79592328833212,33.805586070798014,0.0 -78.7964388408657,33.80533328365577,0.0 -78.7965139624784,33.805108968393746,0.0 -78.797018270698,33.80508768936582,0.0 -78.79716403308528,33.805030417662195,0.0 -78.79720881179999,33.80533237188494,0.0 -78.79755410788671,33.80542896734624,0.0 -78.79785120145299,33.805091331052125,0.0 -78.79767334214061,33.8046230593323,0.0 -78.7973915040903,33.80458364897654,0.0 -78.79753774320372,33.8041888236072,0.0 -78.79846143161986,33.804109191226665,0.0 -78.79849035495253,33.80415489820685,0.0 -78.79847744949741,33.80427212049031,0.0 -78.7984645418388,33.80438934273041,0.0 -78.79845163413583,33.804506564965685,0.0 -78.79855464241028,33.80457624093196,0.0 -78.79868904524449,33.80456397765743,0.0 -78.79868687882045,33.80445531898197,0.0 -78.79867197439604,33.804344742267325,0.0 -78.79869762190286,33.80422943806732,0.0 -78.79881586662187,33.80417140707396,0.0 -78.79893411651399,33.804113378760384,0.0 -78.79905236303492,33.80405534936737,0.0 -78.79916462750369,33.8040241142675,0.0 -78.7992278948219,33.80411063394183,0.0 -78.79962328421624,33.804023482717945,0.0 -78.79966727253904,33.803740583005684,0.0 -78.79975017998116,33.8037595827341,0.0 -78.7998705934505,33.80381021123944,0.0 -78.79997360322086,33.80387988605881,0.0 -78.80005920825674,33.80396860631583,0.0 -78.80014481344458,33.80405732742047,0.0 -78.8002280875181,33.80415653021882,0.0 -78.80034383710188,33.80422812265011,0.0 -78.80048398560513,33.80424922234402,0.0 -78.80062646653406,33.80425983924287,0.0 -78.80076428394737,33.80429142037979,0.0 -78.80080266881917,33.804178034390034,0.0 -78.80085146149123,33.80407704707643,0.0 -78.80084929552181,33.803968389281344,0.0 -78.80082164604171,33.803855894820735,0.0 -78.80077892533514,33.80375196245724,0.0 -78.80071072229622,33.80364419612018,0.0 -78.8007085521893,33.80353553734481,0.0 -78.80073419668231,33.80342023258813,0.0 -78.80075984220055,33.80330492693936,0.0 -78.80078548653871,33.803189622162506,0.0 -78.80092796467189,33.80320023952778,0.0 -78.8010681117169,33.80322133759821,0.0 -78.801171119678,33.80329101139484,0.0 -78.80128920121024,33.80335212027795,0.0 -78.80142934966975,33.803373218871045,0.0 -78.80156141817666,33.80337143503062,0.0 -78.80169814890209,33.80334868567741,0.0 -78.80181639154534,33.803290653489796,0.0 -78.80192422612645,33.80322021987176,0.0 -78.80205054751168,33.80318506968403,0.0 -78.80217686664095,33.803149919324014,0.0 -78.8023078520197,33.803093804407034,0.0 -78.80240527362378,33.80301097168611,0.0 -78.80252351642964,33.802952938798725,0.0 -78.80264983828498,33.80291778798906,0.0 -78.80276000265432,33.8028368726822,0.0 -78.802821533311,33.80273780301471,0.0 -78.80285991365828,33.802624414399915,0.0 -78.80293418836428,33.80252726237605,0.0 -78.80304434979917,33.802446346741135,0.0 -78.80305927945143,33.802422310131576,0.0 -78.80354009471411,33.80239262640253,0.0 -78.80356335313691,33.80229144813346,0.0 -78.8036294884031,33.80236109514635,0.0 -78.80374756949904,33.80242220168202,0.0 -78.80391319726843,33.80244713250645,0.0 -78.80411720261469,33.802358674912256,0.0 -78.80399353226895,33.802145063167664,0.0 -78.80400281842485,33.802131165254345,0.0 -78.8040865514312,33.80209006804561,0.0 -78.80410385074583,33.801945003100265,0.0 -78.80406470214974,33.801765779498886,0.0 -78.804019802831,33.801553190980734,0.0 -78.80396984719489,33.801397989144014,0.0 -78.80419841839831,33.8014335305713,0.0 -78.80425379324426,33.801566745201754,0.0 -78.80431826606159,33.80186894540332,0.0 -78.8043296045465,33.80205481582969,0.0 -78.80435383897849,33.802123463869215,0.0 -78.80451946855847,33.802148393902435,0.0 -78.80458917230474,33.80208654444983,0.0 -78.8049277565675,33.80259175682589,0.0 -78.80497985668252,33.80301489792596,0.0 -78.80494253103714,33.803139697687705,0.0 -78.80490394609551,33.80318618328835,0.0 -78.80486447600964,33.803298859803355,0.0 -78.80483895531523,33.803413637569385,0.0 -78.80481343461322,33.803528412621674,0.0 -78.80478791268588,33.803643190348545,0.0 -78.80477634141015,33.80376006575847,0.0 -78.80479522527766,33.80386966412407,0.0 -78.80481410700334,33.80397926334974,0.0 -78.8048469416893,33.8040909611995,0.0 -78.8048740194455,33.80411844187115,0.0 -78.80488316836704,33.80419274789644,0.0 -78.80463401698135,33.80435214845452,0.0 -78.80457696375332,33.804180799679834,0.0 -78.80434621228052,33.80403479377967,0.0 -78.804155582736,33.80421173235049,0.0 -78.80397840172813,33.80433376781564,0.0 -78.80334360421568,33.80492296096526,0.0 -78.80260863660583,33.80525946606221,0.0 -78.80204528702318,33.80553922938667,0.0 -78.80207459442612,33.80595464162652,0.0 -78.80119637961978,33.80645769257124,0.0 -78.80075583546515,33.806612461559475,0.0 -78.80071188984006,33.80661997571933,0.0 -78.80037668783936,33.806511975413834,0.0 -78.8002107089885,33.80652530641778,0.0 -78.80009281582043,33.806584192519054,0.0 -78.79995650850711,33.80662115054159,0.0 -78.79977403710019,33.80670863445178,0.0 -78.79964789333616,33.80680459902703,0.0 -78.79948795098024,33.80689547356834,0.0 -78.79946755418243,33.80693768345639,0.0 -78.79868199375021,33.80718224547566,0.0 -78.7984041313377,33.80721656252829,0.0 -78.79829616856787,33.807214634669315,0.0 -78.79829385908658,33.807304759903204,0.0 -78.79796997049964,33.80729897574032,0.0 -78.79753811919417,33.807291262201645,0.0 -78.79753580891143,33.80738138738839,0.0 -78.79742784599772,33.80737945876121,0.0 -78.7972119202011,33.807375601223654,0.0 -78.7967998590197,33.80731467438183,0.0 -78.79654653957235,33.807327117701334,0.0 -78.7957233801566,33.807562893471186,0.0 -78.79505210904259,33.80767763657975,0.0 -78.79482887138627,33.80889806296998,0.0 -78.79365638632383,33.80897675112293,0.0 -78.79336066473645,33.80904745094371,0.0 -78.79322844394069,33.80901841052074,0.0 -78.79303388870277,33.80895079276162,0.0 -78.79283013195466,33.80887220534556,0.0 -78.792691912333,33.808813070350155,0.0 -78.7924461054266,33.80876646977137,0.0 -78.79226583547974,33.80873931807191,0.0 -78.79216030836147,33.808742584116494,0.0 -78.79212635264814,33.80884284601029,0.0 -78.79210366228328,33.80894480639109,0.0 -78.79214238468504,33.80908475447249,0.0 -78.79236550542561,33.80923331437428,0.0 -78.79241809431576,33.809272792190086,0.0 -78.79233744339884,33.80929207280435,0.0 -78.79174995510964,33.809099944262286,0.0</coordinates>
                    </LinearRing>
                </outerBoundaryIs>
            </Polygon>
        </Placemark>
        <Placemark id="976">
            <name>Population_107</name>
            <styleUrl>#981</styleUrl>
            <Polygon id="975">
                <outerBoundaryIs>
                    <LinearRing id="979">
                        <coordinates>-78.7457393390076,33.80865175678774,0.0 -78.74573197075584,33.8086301726597,0.0 -78.74573937205027,33.808635184122096,0.0 -78.74577921765864,33.80864120175348,0.0 -78.7457393390076,33.80865175678774,0.0</coordinates>
                    </LinearRing>
                </outerBoundaryIs>
            </Polygon>
        </Placemark>
        <Placemark id="985">
            <name>Population_108</name>
            <styleUrl>#990</styleUrl>
            <Polygon id="984">
                <outerBoundaryIs>
                    <LinearRing id="988">
                        <coordinates>-79.09124813927221,33.81446066083397,0.0 -79.09134278809708,33.81443550524555,0.0 -79.09137198096623,33.81444575441574,0.0 -79.09137350539189,33.814446331674084,0.0 -79.09137499273834,33.814446973282806,0.0 -79.09137643660617,33.81444767553592,0.0 -79.09137783589547,33.814448439318134,0.0 -79.09137918420683,33.814449260923496,0.0 -79.09138048050039,33.814450138532436,0.0 -79.09138171943667,33.81445106935712,0.0 -79.09138289997576,33.81445205157798,0.0 -79.09138401677815,33.81445308240724,0.0 -79.09138506668427,33.81445415818903,0.0 -79.09138604863415,33.81445527800524,0.0 -79.0913869594882,33.81445643729864,0.0 -79.09138779712666,33.814457634232916,0.0 -79.09138855840988,33.8144588642509,0.0 -79.09138924227798,33.81446012643442,0.0 -79.0913898456514,33.814461413522,0.0 -79.09139036851015,33.81446272641505,0.0 -79.09139080775464,33.814464058753515,0.0 -79.09139116344494,33.814465407833126,0.0 -79.09139143566115,33.81446677004824,0.0 -79.09139162124366,33.814468141743,0.0 -79.09139171917258,33.81446952019646,0.0 -79.09139173386774,33.81447090096842,0.0 -79.09139166000966,33.81447228036961,0.0 -79.09139150091818,33.81447365484447,0.0 -79.0913912566734,33.81447502078739,0.0 -79.09139092735545,33.81447637459268,0.0 -79.09139051304443,33.81447771265467,0.0 -79.09139001598025,33.81447903140112,0.0 -79.09138943840289,33.814480327259794,0.0 -79.09138877929247,33.814481597509705,0.0 -79.09138804092902,33.814482836775824,0.0 -79.09138722763218,33.814484045124985,0.0 -79.09138633954217,33.81448521624727,0.0 -79.09138537883882,33.814486349274695,0.0 -79.09138434888206,33.814487438848914,0.0 -79.09138325293166,33.814488484118655,0.0 -79.09138209214768,33.814489481494945,0.0 -79.0913808708898,33.81449042924184,0.0 -79.09137959249793,33.81449132290239,0.0 -79.09137825913191,33.81449216251003,0.0 -79.09137687629145,33.81449294364127,0.0 -79.09137544507652,33.814493665411376,0.0 -79.09137397092677,33.814494326101126,0.0 -79.09137245822193,33.81449492307312,0.0 -79.09137091022178,33.8144954554761,0.0 -79.09136933020616,33.814495921557366,0.0 -79.09136772251476,33.814496320482355,0.0 -79.09136609364712,33.81449665145001,0.0 -79.09136444472321,33.81449691267415,0.0 -79.09136278440239,33.81449710338712,0.0 -79.09136111158476,33.81449722447363,0.0 -79.09135943496975,33.81449727336315,0.0 -79.09135775557714,33.81449725277663,0.0 -79.09135608102649,33.8144971601269,0.0 -79.09135441451748,33.81449699726687,0.0 -79.09135276036982,33.814496764263446,0.0 -79.09135112398306,33.81449646120023,0.0 -79.09134950639711,33.81449608989674,0.0 -79.0913479162513,33.814495650486734,0.0 -79.09134635460549,33.814495143888344,0.0 -79.0912596710621,33.81446470956829,0.0 -79.09124813927221,33.81446066083397,0.0</coordinates>
                    </LinearRing>
                </outerBoundaryIs>
            </Polygon>
        </Placemark>
        <Placemark id="994">
            <name>Population_109</name>
            <styleUrl>#999</styleUrl>
            <Polygon id="993">
                <outerBoundaryIs>
                    <LinearRing id="997">
                        <coordinates>-78.7453513164051,33.80950835041906,0.0 -78.74533735225563,33.80946637650937,0.0 -78.74567048397105,33.809815078035676,0.0 -78.74557675053813,33.809925100404804,0.0 -78.74554341435064,33.80991821892744,0.0 -78.74554292175685,33.80991682137566,0.0 -78.7455239113765,33.80982416712044,0.0 -78.74540813637181,33.80967609054279,0.0 -78.7453513164051,33.80950835041906,0.0</coordinates>
                    </LinearRing>
                </outerBoundaryIs>
            </Polygon>
        </Placemark>
        <Placemark id="1003">
            <name>Population_110</name>
            <styleUrl>#1008</styleUrl>
            <Polygon id="1002">
                <outerBoundaryIs>
                    <LinearRing id="1006">
                        <coordinates>-78.94533234358477,33.813214586382294,0.0 -78.9452192052724,33.81316498669151,0.0 -78.9450315025914,33.81324535906295,0.0 -78.94500407297956,33.81319718588388,0.0 -78.94532342701986,33.81179491866804,0.0 -78.94543941418141,33.81172527928963,0.0 -78.94562454684873,33.81175222305798,0.0 -78.94581195954017,33.81168377160498,0.0 -78.9458754930498,33.81163920421844,0.0 -78.94621798638852,33.81179786375503,0.0 -78.94648539601404,33.81190870638796,0.0 -78.94708371977545,33.811898882430114,0.0 -78.94719336814555,33.81200170450663,0.0 -78.94717979201197,33.812191749265935,0.0 -78.94664446066436,33.81258951853286,0.0 -78.94652234022901,33.812794800195284,0.0 -78.94625284078448,33.81320015615294,0.0 -78.94536032291087,33.813419766715455,0.0 -78.94530035057936,33.8133571985079,0.0 -78.94533234358477,33.813214586382294,0.0</coordinates>
                    </LinearRing>
                </outerBoundaryIs>
            </Polygon>
        </Placemark>
        <Placemark id="1012">
            <name>Population_111</name>
            <styleUrl>#1017</styleUrl>
            <Polygon id="1011">
                <outerBoundaryIs>
                    <LinearRing id="1015">
                        <coordinates>-79.04343928342246,33.81719361492527,0.0 -79.04344271059615,33.81719041862228,0.0 -79.0435091916518,33.817259865263544,0.0 -79.04351670357707,33.81728322532802,0.0 -79.04347935474473,33.817280865272835,0.0 -79.04343325544737,33.81727613098391,0.0 -79.04339247740978,33.8172690888701,0.0 -79.04336173840187,33.81726006899433,0.0 -79.04334394894408,33.817250344791915,0.0 -79.04333968861346,33.8172415052749,0.0 -79.04334713112017,33.8172344285884,0.0 -79.04336268369073,33.81722867267935,0.0 -79.04338226824756,33.817222810331245,0.0 -79.04340263300502,33.81721537333937,0.0 -79.0434219172378,33.81720562162123,0.0 -79.04343928342246,33.81719361492527,0.0</coordinates>
                    </LinearRing>
                </outerBoundaryIs>
            </Polygon>
        </Placemark>
        <Placemark id="1021">
            <name>Population_112</name>
            <styleUrl>#1026</styleUrl>
            <Polygon id="1020">
                <outerBoundaryIs>
                    <LinearRing id="1024">
                        <coordinates>-79.02137114532846,33.81686881524235,0.0 -79.02137282534567,33.81686880884079,0.0 -79.02137450590311,33.81686887278147,0.0 -79.0213761783201,33.816869008728496,0.0 -79.02137784047831,33.81686921484444,0.0 -79.02137948697828,33.81686949104267,0.0 -79.02138111460106,33.81686983636981,0.0 -79.02138271904775,33.81687024985513,0.0 -79.02138429383902,33.81687073139467,0.0 -79.02138583793644,33.816871279168346,0.0 -79.02138734490212,33.816871891269386,0.0 -79.02138881043724,33.81687256672714,0.0 -79.02139023352419,33.81687330282009,0.0 -79.02139160878419,33.816874098560255,0.0 -79.02139293195994,33.81687495117413,0.0 -79.02139419985326,33.816875858806974,0.0 -79.02139540928671,33.81687681870269,0.0 -79.02139655706216,33.81687782900648,0.0 -79.02145069660254,33.81692800349202,0.0 -79.0215722843433,33.816968636331325,0.0 -79.02170543339578,33.81698939055523,0.0 -79.0218140621251,33.81706097841153,0.0 -79.02155693617411,33.81702089857109,0.0 -79.02155172188776,33.81701971120065,0.0 -79.0215507266704,33.81701939405826,0.0 -79.02141906158232,33.81697539388567,0.0 -79.02141753584121,33.816974846406964,0.0 -79.02141604505132,33.81697423546755,0.0 -79.02141459562979,33.81697356387554,0.0 -79.02141318975718,33.81697283076426,0.0 -79.02141182948951,33.81697204067519,0.0 -79.0214105213062,33.81697119371237,0.0 -79.02140926728399,33.81697029351597,0.0 -79.02140807062108,33.81696934194076,0.0 -79.02140693451565,33.81696834084148,0.0 -79.02134773378319,33.81691347555635,0.0 -79.02134664976354,33.816912417582806,0.0 -79.02134563479524,33.81691131653354,0.0 -79.02134468993744,33.81691017332725,0.0 -79.02134381834679,33.81690899162142,0.0 -79.021343019961,33.816907774120246,0.0 -79.02134230117643,33.81690652453319,0.0 -79.02134165867031,33.81690524641378,0.0 -79.02134109993966,33.81690394258749,0.0 -79.02134062274165,33.81690261662519,0.0 -79.02134022697241,33.81690127303374,0.0 -79.02133991906987,33.81689991371991,0.0 -79.02133969458981,33.81689854402263,0.0 -79.02133955673041,33.816897165796675,0.0 -79.02133950538784,33.81689578354895,0.0 -79.02133954047908,33.81689440088495,0.0 -79.02133966190026,33.816893022311575,0.0 -79.0213398695891,33.816891650532966,0.0 -79.02134016238263,33.816890289137326,0.0 -79.02134054127772,33.81688894174747,0.0 -79.02134100293082,33.816887612818334,0.0 -79.02134154624127,33.81688630323392,0.0 -79.02134217212286,33.816885020222664,0.0 -79.02134287837424,33.81688376555259,0.0 -79.02134366061351,33.81688254185857,0.0 -79.0213445187576,33.81688135274606,0.0 -79.02134545054294,33.81688020268734,0.0 -79.02134645270898,33.816879092531764,0.0 -79.02134752299214,33.816878026751596,0.0 -79.02134865813193,33.81687700619621,0.0 -79.021349855844,33.81687603623918,0.0 -79.02135111390619,33.81687511955004,0.0 -79.02135242583914,33.81687425602475,0.0 -79.02135379155975,33.81687344926886,0.0 -79.021355205627,33.81687270099846,0.0 -79.02135666471816,33.81687201476711,0.0 -79.02135816451357,33.816871390505405,0.0 -79.02135970171128,33.81687083086557,0.0 -79.02136127089096,33.81687033666228,0.0 -79.02136286985133,33.81686990966362,0.0 -79.0213644931721,33.81686955068436,0.0 -79.02136613649212,33.816869261457896,0.0 -79.02136779549183,33.81686904191493,0.0 -79.02136946691068,33.81686889290484,0.0 -79.02137114532846,33.81686881524235,0.0</coordinates>
                    </LinearRing>
                </outerBoundaryIs>
            </Polygon>
        </Placemark>
        <Placemark id="1030">
            <name>Population_113</name>
            <styleUrl>#1035</styleUrl>
            <Polygon id="1029">
                <outerBoundaryIs>
                    <LinearRing id="1033">
                        <coordinates>-78.70667653951855,33.81325565160736,0.0 -78.70668051357947,33.81323788654198,0.0 -78.70668257444113,33.81328405290021,0.0 -78.70667777627595,33.81328332618077,0.0 -78.70667653951855,33.81325565160736,0.0</coordinates>
                    </LinearRing>
                </outerBoundaryIs>
            </Polygon>
        </Placemark>
        <Placemark id="1039">
            <name>Population_114</name>
            <styleUrl>#1044</styleUrl>
            <Polygon id="1038">
                <outerBoundaryIs>
                    <LinearRing id="1042">
                        <coordinates>-79.14938347979415,33.820738951319846,0.0 -79.1494029026831,33.819837504856004,0.0 -79.14929490057723,33.819835883700925,0.0 -79.14938472245156,33.819552734507425,0.0 -79.1492104710434,33.819188236037036,0.0 -79.1492976118802,33.81888909938754,0.0 -79.14925245340001,33.818705563449114,0.0 -79.14932209275543,33.818573858490055,0.0 -79.14985223995134,33.81834118346544,0.0 -79.1500311006553,33.81816356743199,0.0 -79.14961038864672,33.817633079038956,0.0 -79.14951081807808,33.817431367179545,0.0 -79.14986471482767,33.81716738207325,0.0 -79.1500602862731,33.81680839570431,0.0 -79.1497974740514,33.8163751723353,0.0 -79.14940474786103,33.81564694257575,0.0 -79.14880661589152,33.8148256244389,0.0 -79.1480262547512,33.813726663462674,0.0 -79.14723333859796,33.81263782136872,0.0 -79.1467261875042,33.811853063549115,0.0 -79.14641654248807,33.8111522390674,0.0 -79.14689611506421,33.81059233832212,0.0 -79.14766102480087,33.81043326824456,0.0 -79.14786222434017,33.81069764152637,0.0 -79.1476474208996,33.81106428112531,0.0 -79.14752383274869,33.81114098847774,0.0 -79.14737941039526,33.8112914947868,0.0 -79.14705304968628,33.81139730911492,0.0 -79.14714759142068,33.81146982917238,0.0 -79.14729991575476,33.81145337172945,0.0 -79.14774375173629,33.8116067715157,0.0 -79.14792759315394,33.811791511997946,0.0 -79.14863659389296,33.81198137360882,0.0 -79.14865339441386,33.81220656283297,0.0 -79.14862457941939,33.812450792692495,0.0 -79.14892061220263,33.81274826445667,0.0 -79.14954984838589,33.812647977451014,0.0 -79.14999709484788,33.81223008395241,0.0 -79.15037908371288,33.812319281324164,0.0 -79.15077141495686,33.812446268525996,0.0 -79.15233874432411,33.812364758459346,0.0 -79.15290798164084,33.81258597844647,0.0 -79.1529681230818,33.81331262107126,0.0 -79.15332537224829,33.81347732925387,0.0 -79.15475140140174,33.81345151641443,0.0 -79.1549891348323,33.81364210470179,0.0 -79.15499765413104,33.81396987397709,0.0 -79.15493759375013,33.81484018040108,0.0 -79.1549296021403,33.81487687524338,0.0 -79.15493332611345,33.81490201827175,0.0 -79.15492815044203,33.81497701065974,0.0 -79.15494601133501,33.814987668677816,0.0 -79.15494685677726,33.81499337311043,0.0 -79.15497890935788,33.815041924486756,0.0 -79.15502128518655,33.815091996461646,0.0 -79.15510973665691,33.81517515645343,0.0 -79.15512006094248,33.815176677969184,0.0 -79.15522623524367,33.81522738523253,0.0 -79.15523655845806,33.815228906722645,0.0 -79.15536045438043,33.815247162993074,0.0 -79.15538759995563,33.81525116344,0.0 -79.15574978963046,33.815467278349495,0.0 -79.15632674505575,33.81519634938459,0.0 -79.1566393586781,33.81449250456994,0.0 -79.1563610109676,33.81300055272842,0.0 -79.15642024713414,33.81303192715733,0.0 -79.15646264417569,33.81304098330652,0.0 -79.15655317969777,33.813060318493605,0.0 -79.15670390930309,33.81305611902793,0.0 -79.15684055583166,33.81306744964282,0.0 -79.1569753449575,33.813087310762455,0.0 -79.1571071945055,33.81307152438262,0.0 -79.15724198481261,33.813091384327606,0.0 -79.157376774109,33.813111244111084,0.0 -79.15752193279059,33.81313263204536,0.0 -79.15765672223067,33.81315249152691,0.0 -79.15772571025603,33.81313577784471,0.0 -79.15806411554004,33.81333769608903,0.0 -79.15828065438117,33.813244418216854,0.0 -79.15838251511293,33.81325942514978,0.0 -79.15851622194195,33.81323511108954,0.0 -79.15860922766984,33.81315197989853,0.0 -79.15864373702543,33.81304262535409,0.0 -79.15865305702279,33.81299981552347,0.0 -79.1588690133875,33.812812110211944,0.0 -79.1590068778223,33.81290090532526,0.0 -79.15911182865854,33.81299891343754,0.0 -79.15911400458471,33.813020329805966,0.0 -79.15912254125183,33.81310436333928,0.0 -79.15916061485859,33.81322441061625,0.0 -79.15920239973315,33.813327399147965,0.0 -79.15933533275245,33.81335578661081,0.0 -79.1594701230547,33.81337564413431,0.0 -79.15964638888097,33.81340161216139,0.0 -79.15979711915482,33.81339740712534,0.0 -79.15992896876902,33.813381619529245,0.0 -79.16006375927992,33.81340147640942,0.0 -79.16018075417088,33.81345392254718,0.0 -79.16023717526926,33.813479216009824,0.0 -79.16029775132982,33.81350637041338,0.0 -79.16041288939448,33.813567347054985,0.0 -79.16041711744553,33.813568769959815,0.0 -79.16049134837415,33.813628273254,0.0 -79.16060555829532,33.81391667930914,0.0 -79.16071257279052,33.81443463422299,0.0 -79.16161776880494,33.81447811301274,0.0 -79.16186229923626,33.814473670924706,0.0 -79.16221199076958,33.814571852145484,0.0 -79.16242186480244,33.8146685916798,0.0 -79.16293688425391,33.81488093788345,0.0 -79.16337772173698,33.81543666296331,0.0 -79.16317707172566,33.81646338495504,0.0 -79.16253297545884,33.816735696476734,0.0 -79.16145426431294,33.8159468294982,0.0 -79.16124429735068,33.81599889128793,0.0 -79.16117009477901,33.81598796111497,0.0 -79.16103681854588,33.8160165667706,0.0 -79.16091131521442,33.816054354321146,0.0 -79.16090825222065,33.8160552753004,0.0 -79.16089675843519,33.81607632723244,0.0 -79.16089330562748,33.816085918946754,0.0 -79.16055318718522,33.81617025019029,0.0 -79.16017847803262,33.816300136064534,0.0 -79.1600507357954,33.81628131771543,0.0 -79.15991477146547,33.816277367064856,0.0 -79.15977711055052,33.8162812054265,0.0 -79.15964453840122,33.81626167613936,0.0 -79.15951196523886,33.81624214669545,0.0 -79.15938108770257,33.81621482793959,0.0 -79.1592586903199,33.816148560528724,0.0 -79.15918095417186,33.81605671463448,0.0 -79.15910321928705,33.81596486781011,0.0 -79.15905728274795,33.81586162971335,0.0 -79.15897007771206,33.815768387992094,0.0 -79.15883849792071,33.81578920030689,0.0 -79.15882504042018,33.81580220173336,0.0 -79.15880258873653,33.815823895987116,0.0 -79.1587958207695,33.815788853382564,0.0 -79.15872021310801,33.815789017416144,0.0 -79.1585839788659,33.81580843439166,0.0 -79.15847993894329,33.81581778620224,0.0 -79.15846991699748,33.81584428475065,0.0 -79.15841703926439,33.81583966168459,0.0 -79.15839087426073,33.815904801254376,0.0 -79.15837435713729,33.815945924593144,0.0 -79.15836955243059,33.81605776872026,0.0 -79.15846014731216,33.81613543071928,0.0 -79.1585730767692,33.816200304092206,0.0 -79.15855880072529,33.816310752453575,0.0 -79.15844107082845,33.81635772235454,0.0 -79.15832333862768,33.81640469300762,0.0 -79.15819783254051,33.8164424795208,0.0 -79.1580861792498,33.81650642312765,0.0 -79.15804694862204,33.816508163553465,0.0 -79.15791841182397,33.816513863868984,0.0 -79.15757623133189,33.81658482827536,0.0 -79.15726268997798,33.81662995386614,0.0 -79.15717428259832,33.816565018392936,0.0 -79.15713951336406,33.8164553827692,0.0 -79.15702828374182,33.81638271902722,0.0 -79.1568896333391,33.81634621175049,0.0 -79.15675875769362,33.81631889024919,0.0 -79.15661162737214,33.81632132918529,0.0 -79.1565500050385,33.816424802301945,0.0 -79.15656583148129,33.816531646223524,0.0 -79.1565704959345,33.816644885219624,0.0 -79.15660526127907,33.816754520029065,0.0 -79.15661670911528,33.816836600724265,0.0 -79.15662038228085,33.816909496383126,0.0 -79.15662334989594,33.8170305244811,0.0 -79.15663256730846,33.81709274978099,0.0 -79.15653879982287,33.81716270433038,0.0 -79.15684443030183,33.81783160784645,0.0 -79.15692292468106,33.817960975277394,0.0 -79.15696735181564,33.81805397573929,0.0 -79.15698318006332,33.81816081962402,0.0 -79.15701794970128,33.818270454378,0.0 -79.15702261259531,33.818383692416056,0.0 -79.15703844093383,33.81849053719405,0.0 -79.15711377456829,33.818638305954465,0.0 -79.15712124449755,33.81867026525168,0.0 -79.15685000882159,33.81890599236543,0.0 -79.15611646679412,33.81912652690209,0.0 -79.15546845719336,33.81911683400645,0.0 -79.15517930609587,33.81891636507441,0.0 -79.15481470412195,33.81804550713014,0.0 -79.15467189247099,33.817279469380445,0.0 -79.15434515844122,33.81689575000001,0.0 -79.15303823664495,33.817081269216295,0.0 -79.15199127494678,33.81731392843348,0.0 -79.1514485206366,33.81793444208869,0.0 -79.15067771303926,33.818634075147166,0.0 -79.15081294172718,33.81969710237702,0.0 -79.15078803249986,33.81977434139336,0.0 -79.15086756946745,33.819836611763435,0.0 -79.15097557943228,33.81982858666419,0.0 -79.15101133899583,33.81983554513296,0.0 -79.15103509717682,33.81985201820006,0.0 -79.1511289971121,33.81995357522466,0.0 -79.15084062039728,33.81997954339349,0.0 -79.15047710083641,33.8201241453274,0.0 -79.15033235511987,33.82018255985402,0.0 -79.15025721303209,33.820301194163335,0.0 -79.14965840336471,33.82070134436625,0.0 -79.1494914830406,33.820740572435255,0.0 -79.14938347979415,33.820738951319846,0.0</coordinates>
                    </LinearRing>
                </outerBoundaryIs>
            </Polygon>
        </Placemark>
        <Placemark id="1048">
            <name>Population_115</name>
            <styleUrl>#1053</styleUrl>
            <Polygon id="1047">
                <outerBoundaryIs>
                    <LinearRing id="1051">
                        <coordinates>-78.70668860631166,33.81351708275733,0.0 -78.70669250364277,33.81350644014076,0.0 -78.70669385297252,33.81353665493045,0.0 -78.70669182306621,33.81353589585517,0.0 -78.70668860631166,33.81351708275733,0.0</coordinates>
                    </LinearRing>
                </outerBoundaryIs>
            </Polygon>
        </Placemark>
        <Placemark id="1057">
            <name>Population_116</name>
            <styleUrl>#1062</styleUrl>
            <Polygon id="1056">
                <outerBoundaryIs>
                    <LinearRing id="1060">
                        <coordinates>-79.0655043238293,33.820835440856506,0.0 -79.06603425301225,33.8203203354446,0.0 -79.06585430096776,33.82064061994045,0.0 -79.06553622754583,33.82100051008974,0.0 -79.06527525388611,33.82118115229724,0.0 -79.06515875126998,33.821208445034856,0.0 -79.06551008822046,33.82084553229655,0.0 -79.0655043238293,33.820835440856506,0.0</coordinates>
                    </LinearRing>
                </outerBoundaryIs>
            </Polygon>
        </Placemark>
        <Placemark id="1066">
            <name>Population_117</name>
            <styleUrl>#1071</styleUrl>
            <Polygon id="1065">
                <outerBoundaryIs>
                    <LinearRing id="1069">
                        <coordinates>-78.70352521498859,33.816839689752534,0.0 -78.70419660980443,33.81646656075727,0.0 -78.70483272138416,33.816336975227586,0.0 -78.70525052976211,33.81639800890699,0.0 -78.70525017478732,33.81640155116039,0.0 -78.70525385301858,33.81644953647099,0.0 -78.70523649073066,33.816462718057934,0.0 -78.70521106053562,33.81649048678683,0.0 -78.70518648322829,33.81651443219725,0.0 -78.7050921976219,33.81652782636059,0.0 -78.7050579567071,33.81653054752955,0.0 -78.70500597993271,33.81652663332169,0.0 -78.70495020948177,33.816518190747665,0.0 -78.70489994400293,33.81650662817313,0.0 -78.7048581188583,33.81650029716112,0.0 -78.70482558808581,33.81649537262825,0.0 -78.70475673285897,33.81648099608849,0.0 -78.7046915566054,33.816514606647615,0.0 -78.70467894963969,33.816521753648665,0.0 -78.7045105438363,33.81650423939158,0.0 -78.70442356950176,33.816623905897146,0.0 -78.70440088787596,33.81663264960813,0.0 -78.70435601140737,33.81666142651708,0.0 -78.70431920295698,33.81667561723136,0.0 -78.70430771449027,33.816705496465644,0.0 -78.70430343898894,33.81672461188588,0.0 -78.70429911091666,33.81674395624538,0.0 -78.70417781537371,33.81677981330042,0.0 -78.70417650729907,33.81677653762057,0.0 -78.70413174242965,33.81676185651139,0.0 -78.70405054234459,33.81678118292939,0.0 -78.70400822991583,33.81679849169951,0.0 -78.70398370702202,33.81683719503436,0.0 -78.70379398745341,33.81689327959628,0.0 -78.7037057212177,33.816958430809585,0.0 -78.70367391184773,33.81696130688268,0.0 -78.70362107876593,33.81696121261725,0.0 -78.7035977291239,33.81700115494057,0.0 -78.7035908870425,33.817031736476366,0.0 -78.70359969008814,33.817036692687644,0.0 -78.70358179082987,33.81704990460236,0.0 -78.70363195007988,33.81705724335346,0.0 -78.70364739750316,33.81707981607432,0.0 -78.70363419416981,33.8171173407665,0.0 -78.70361634852533,33.81715416045179,0.0 -78.70355961060353,33.81719300021231,0.0 -78.70347792585052,33.81723596635333,0.0 -78.70341910446214,33.817262632044944,0.0 -78.70338144261625,33.8172806457567,0.0 -78.70333998820816,33.81729413108498,0.0 -78.70330440542202,33.817324315988195,0.0 -78.70322010752807,33.8173404148566,0.0 -78.70317686091188,33.81715085325385,0.0 -78.70352521498859,33.816839689752534,0.0</coordinates>
                    </LinearRing>
                </outerBoundaryIs>
            </Polygon>
        </Placemark>
        <Placemark id="1075">
            <name>Population_118</name>
            <styleUrl>#1080</styleUrl>
            <Polygon id="1074">
                <outerBoundaryIs>
                    <LinearRing id="1078">
                        <coordinates>-78.70167762133221,33.8173151634152,0.0 -78.70168130929386,33.817289003449204,0.0 -78.70184251359211,33.817491099245466,0.0 -78.70180005207895,33.81755298517539,0.0 -78.70179873640367,33.817546928671106,0.0 -78.70178992555284,33.81752188092934,0.0 -78.70178833026458,33.817486067776706,0.0 -78.7017600754094,33.817462028923686,0.0 -78.7017182490432,33.81745569591555,0.0 -78.70169892021498,33.8174132460626,0.0 -78.7016981780573,33.817373608727735,0.0 -78.70167762133221,33.8173151634152,0.0</coordinates>
                    </LinearRing>
                </outerBoundaryIs>
            </Polygon>
        </Placemark>
        <Placemark id="1084">
            <name>Population_119</name>
            <styleUrl>#1089</styleUrl>
            <Polygon id="1083">
                <outerBoundaryIs>
                    <LinearRing id="1087">
                        <coordinates>-78.88540584311784,33.821097478705305,0.0 -78.88540358001649,33.8210962433524,0.0 -78.88549583986263,33.82110570028215,0.0 -78.88549133712377,33.82110789258391,0.0 -78.88540584311784,33.821097478705305,0.0</coordinates>
                    </LinearRing>
                </outerBoundaryIs>
            </Polygon>
        </Placemark>
    </Document>
</kml>
