<?xml version="1.0" encoding="UTF-8"?>
<kml xmlns="http://www.opengis.net/kml/2.2" xmlns:gx="http://www.google.com/kml/ext/2.2">
    <Document id="1093">
        <Style id="1100">
            <LineStyle id="1102">
                <colorMode>normal</colorMode>
                <width>1</width>
            </LineStyle>
            <PolyStyle id="1101">
                <color>800000ff</color>
                <colorMode>normal</colorMode>
                <fill>1</fill>
                <outline>1</outline>
            </PolyStyle>
        </Style>
        <Style id="1109">
            <LineStyle id="1111">
                <colorMode>normal</colorMode>
                <width>1</width>
            </LineStyle>
            <PolyStyle id="1110">
                <color>800000ff</color>
                <colorMode>normal</colorMode>
                <fill>1</fill>
                <outline>1</outline>
            </PolyStyle>
        </Style>
        <Style id="1118">
            <LineStyle id="1120">
                <colorMode>normal</colorMode>
                <width>1</width>
            </LineStyle>
            <PolyStyle id="1119">
                <color>800000ff</color>
                <colorMode>normal</colorMode>
                <fill>1</fill>
                <outline>1</outline>
            </PolyStyle>
        </Style>
        <Style id="1127">
            <LineStyle id="1129">
                <colorMode>normal</colorMode>
                <width>1</width>
            </LineStyle>
            <PolyStyle id="1128">
                <color>800000ff</color>
                <colorMode>normal</colorMode>
                <fill>1</fill>
                <outline>1</outline>
            </PolyStyle>
        </Style>
        <Style id="1136">
            <LineStyle id="1138">
                <colorMode>normal</colorMode>
                <width>1</width>
            </LineStyle>
            <PolyStyle id="1137">
                <color>800000ff</color>
                <colorMode>normal</colorMode>
                <fill>1</fill>
                <outline>1</outline>
            </PolyStyle>
        </Style>
        <Style id="1145">
            <LineStyle id="1147">
                <colorMode>normal</colorMode>
                <width>1</width>
            </LineStyle>
            <PolyStyle id="1146">
                <color>800000ff</color>
                <colorMode>normal</colorMode>
                <fill>1</fill>
                <outline>1</outline>
            </PolyStyle>
        </Style>
        <Style id="1154">
            <LineStyle id="1156">
                <colorMode>normal</colorMode>
                <width>1</width>
            </LineStyle>
            <PolyStyle id="1155">
                <color>800000ff</color>
                <colorMode>normal</colorMode>
                <fill>1</fill>
                <outline>1</outline>
            </PolyStyle>
        </Style>
        <Style id="1163">
            <LineStyle id="1165">
                <colorMode>normal</colorMode>
                <width>1</width>
            </LineStyle>
            <PolyStyle id="1164">
                <color>800000ff</color>
                <colorMode>normal</colorMode>
                <fill>1</fill>
                <outline>1</outline>
            </PolyStyle>
        </Style>
        <Style id="1172">
            <LineStyle id="1174">
                <colorMode>normal</colorMode>
                <width>1</width>
            </LineStyle>
            <PolyStyle id="1173">
                <color>800000ff</color>
                <colorMode>normal</colorMode>
                <fill>1</fill>
                <outline>1</outline>
            </PolyStyle>
        </Style>
        <Style id="1181">
            <LineStyle id="1183">
                <colorMode>normal</colorMode>
                <width>1</width>
            </LineStyle>
            <PolyStyle id="1182">
                <color>800000ff</color>
                <colorMode>normal</colorMode>
                <fill>1</fill>
                <outline>1</outline>
            </PolyStyle>
        </Style>
        <Style id="1190">
            <LineStyle id="1192">
                <colorMode>normal</colorMode>
                <width>1</width>
            </LineStyle>
            <PolyStyle id="1191">
                <color>800000ff</color>
                <colorMode>normal</colorMode>
                <fill>1</fill>
                <outline>1</outline>
            </PolyStyle>
        </Style>
        <Style id="1199">
            <LineStyle id="1201">
                <colorMode>normal</colorMode>
                <width>1</width>
            </LineStyle>
            <PolyStyle id="1200">
                <color>800000ff</color>
                <colorMode>normal</colorMode>
                <fill>1</fill>
                <outline>1</outline>
            </PolyStyle>
        </Style>
        <Style id="1208">
            <LineStyle id="1210">
                <colorMode>normal</colorMode>
                <width>1</width>
            </LineStyle>
            <PolyStyle id="1209">
                <color>800000ff</color>
                <colorMode>normal</colorMode>
                <fill>1</fill>
                <outline>1</outline>
            </PolyStyle>
        </Style>
        <Style id="1217">
            <LineStyle id="1219">
                <colorMode>normal</colorMode>
                <width>1</width>
            </LineStyle>
            <PolyStyle id="1218">
                <color>800000ff</color>
                <colorMode>normal</colorMode>
                <fill>1</fill>
                <outline>1</outline>
            </PolyStyle>
        </Style>
        <Style id="1226">
            <LineStyle id="1228">
                <colorMode>normal</colorMode>
                <width>1</width>
            </LineStyle>
            <PolyStyle id="1227">
                <color>800000ff</color>
                <colorMode>normal</colorMode>
                <fill>1</fill>
                <outline>1</outline>
            </PolyStyle>
        </Style>
        <Style id="1235">
            <LineStyle id="1237">
                <colorMode>normal</colorMode>
                <width>1</width>
            </LineStyle>
            <PolyStyle id="1236">
                <color>800000ff</color>
                <colorMode>normal</colorMode>
                <fill>1</fill>
                <outline>1</outline>
            </PolyStyle>
        </Style>
        <Style id="1244">
            <LineStyle id="1246">
                <colorMode>normal</colorMode>
                <width>1</width>
            </LineStyle>
            <PolyStyle id="1245">
                <color>800000ff</color>
                <colorMode>normal</colorMode>
                <fill>1</fill>
                <outline>1</outline>
            </PolyStyle>
        </Style>
        <Style id="1253">
            <LineStyle id="1255">
                <colorMode>normal</colorMode>
                <width>1</width>
            </LineStyle>
            <PolyStyle id="1254">
                <color>800000ff</color>
                <colorMode>normal</colorMode>
                <fill>1</fill>
                <outline>1</outline>
            </PolyStyle>
        </Style>
        <Style id="1262">
            <LineStyle id="1264">
                <colorMode>normal</colorMode>
                <width>1</width>
            </LineStyle>
            <PolyStyle id="1263">
                <color>800000ff</color>
                <colorMode>normal</colorMode>
                <fill>1</fill>
                <outline>1</outline>
            </PolyStyle>
        </Style>
        <Style id="1271">
            <LineStyle id="1273">
                <colorMode>normal</colorMode>
                <width>1</width>
            </LineStyle>
            <PolyStyle id="1272">
                <color>800000ff</color>
                <colorMode>normal</colorMode>
                <fill>1</fill>
                <outline>1</outline>
            </PolyStyle>
        </Style>
        <Placemark id="1095">
            <name>Population_120</name>
            <styleUrl>#1100</styleUrl>
            <Polygon id="1094">
                <outerBoundaryIs>
                    <LinearRing id="1098">
                        <coordinates>-79.08690535449368,33.82483793249489,0.0 -79.08690725029857,33.82483789879389,0.0 -79.08690918979856,33.82483794061411,0.0 -79.08691112451213,33.824838051792874,0.0 -79.08691305005883,33.82483823496733,0.0 -79.0869149653988,33.82483848831792,0.0 -79.08691686407185,33.82483881084267,0.0 -79.0869187438978,33.82483920340948,0.0 -79.08692060059667,33.824839664148485,0.0 -79.0869224309283,33.82484019300936,0.0 -79.08692422955272,33.82484078720412,0.0 -79.08692599536982,33.82484144761739,0.0 -79.0869277230396,33.82484217146112,0.0 -79.08692941040199,33.824842958701815,0.0 -79.086931052117,33.82484380655144,0.0 -79.08693264820471,33.82484471410857,0.0 -79.08693419224512,33.8248456785684,0.0 -79.0869356820982,33.824846698996005,0.0 -79.08693711672407,33.8248477735718,0.0 -79.08693849080282,33.824848898606334,0.0 -79.08693980327453,33.82485007318141,0.0 -79.08694104985913,33.82485129542719,0.0 -79.08694222957702,33.82485256081986,0.0 -79.08694334026808,33.82485386932587,0.0 -79.08694437769248,33.82485521727254,0.0 -79.0869453419305,33.824856601054236,0.0 -79.08694622870217,33.82485801880107,0.0 -79.08694703914774,33.82485946782557,0.0 -79.08694777008735,33.82486094537321,0.0 -79.0869484215812,33.82486244873976,0.0 -79.0869489883295,33.82486397333436,0.0 -79.08694947467248,33.82486551832261,0.0 -79.08694987531034,33.82486707911369,0.0 -79.08695019140345,33.824868652118646,0.0 -79.0869504218918,33.82487023641935,0.0 -79.08695372059915,33.82489816263463,0.0 -79.08697031317425,33.82497452120071,0.0 -79.08697970016344,33.82501771972766,0.0 -79.08698015541918,33.82502046623283,0.0 -79.08698493162106,33.825061025998814,0.0 -79.08689749016463,33.825061158722185,0.0 -79.08689367976841,33.82502880070276,0.0 -79.08686769804166,33.82490924897082,0.0 -79.08686724686915,33.824906513349326,0.0 -79.08686377903157,33.82487715978206,0.0 -79.08686363798775,33.82487558588653,0.0 -79.08686358238803,33.82487400790666,0.0 -79.08686360999198,33.82487242941452,0.0 -79.08686372179932,33.824870854032575,0.0 -79.08686391992998,33.824869283597145,0.0 -79.08686419996333,33.82486772254826,0.0 -79.08686456509935,33.82486617273905,0.0 -79.08686501201757,33.82486463772484,0.0 -79.0868655417378,33.824863120226674,0.0 -79.0868661520196,33.82486162381665,0.0 -79.08686684174276,33.82486015028087,0.0 -79.08686760970673,33.824858705010996,0.0 -79.08686845485155,33.82485728708891,0.0 -79.08686937489664,33.824855901889535,0.0 -79.08687036872179,33.824854551198946,0.0 -79.08687143300651,33.82485323857252,0.0 -79.08687256773074,33.824851964911666,0.0 -79.08687376955392,33.824850734673134,0.0 -79.08687503521581,33.82484954870808,0.0 -79.08687636467629,33.824848408819356,0.0 -79.08687775243469,33.82484731943016,0.0 -79.08687919955099,33.82484628145871,0.0 -79.08688069948467,33.82484529750868,0.0 -79.08688225007563,33.82484436754653,0.0 -79.08688384906338,33.824843496045794,0.0 -79.08688549430791,33.824842682071555,0.0 -79.08688718138863,33.82484193006384,0.0 -79.08688888218421,33.824841241389684,0.0 -79.08689061725566,33.82484061456472,0.0 -79.08689238554305,33.82484004867076,0.0 -79.08689418152564,33.82483954903249,0.0 -79.08689600200347,33.82483911379679,0.0 -79.0868978437364,33.824838742913386,0.0 -79.08689970340399,33.82483843993766,0.0 -79.08690157780624,33.8248382030165,0.0 -79.08690346258285,33.82483803388566,0.0 -79.08690535449368,33.82483793249489,0.0</coordinates>
                    </LinearRing>
                </outerBoundaryIs>
            </Polygon>
        </Placemark>
        <Placemark id="1104">
            <name>Population_121</name>
            <styleUrl>#1109</styleUrl>
            <Polygon id="1103">
                <outerBoundaryIs>
                    <LinearRing id="1107">
                        <coordinates>-78.68335706928016,33.818402786970054,0.0 -78.68339944752945,33.81828410219076,0.0 -78.68342404086646,33.81836928750377,0.0 -78.6834283683941,33.81837560995481,0.0 -78.6834326013906,33.818381792678906,0.0 -78.68343351412345,33.81838319654791,0.0 -78.68343434932372,33.81838463141873,0.0 -78.68343510699148,33.81838609729142,0.0 -78.68343578405778,33.81838758779681,0.0 -78.68343637946727,33.818389102013484,0.0 -78.68343689329286,33.81839063723783,0.0 -78.68343732352106,33.818392188022266,0.0 -78.68343766907218,33.81839375434648,0.0 -78.68343792898806,33.818395331684265,0.0 -78.68343810444563,33.818396916451206,0.0 -78.68343819225443,33.81839850678407,0.0 -78.68343819577508,33.81840009823786,0.0 -78.68343811181714,33.81840168894932,0.0 -78.68343794268581,33.818403273551965,0.0 -78.68343768732574,33.81840485112431,0.0 -78.6834373479935,33.818406418102235,0.0 -78.68343692370664,33.81840797086073,0.0 -78.68343641559346,33.818409507617716,0.0 -78.68343582490384,33.81841102208525,0.0 -78.68343515377276,33.818412515205054,0.0 -78.68343440126647,33.81841398154978,0.0 -78.68343356959288,33.818415419357656,0.0 -78.68343266208832,33.818416825084824,0.0 -78.68343167990538,33.81841819604803,0.0 -78.68343062311698,33.818419529543746,0.0 -78.68342949609048,33.81842082385077,0.0 -78.68342830108247,33.81842207540498,0.0 -78.68342703819019,33.818423280601614,0.0 -78.68342571173237,33.81842443952188,0.0 -78.68342432396564,33.81842554860161,0.0 -78.68342287709793,33.81842660607902,0.0 -78.68342137446557,33.818427608410275,0.0 -78.68341982036296,33.81842855657772,0.0 -78.68341821493598,33.81842944517426,0.0 -78.6834165646384,33.81843027522283,0.0 -78.68341486956747,33.8184310431187,0.0 -78.68341313512161,33.81843174896331,0.0 -78.68341136353312,33.818432390093754,0.0 -78.68340956020039,33.818432966611425,0.0 -78.68340772735576,33.81843347585338,0.0 -78.68340586823824,33.818433917880526,0.0 -78.68340398721521,33.81843429097162,0.0 -78.68340208755004,33.81843459428633,0.0 -78.6834001745925,33.81843482972856,0.0 -78.68339824954386,33.818434992812634,0.0 -78.68339631775389,33.818435085442346,0.0 -78.68339438351704,33.818435108600106,0.0 -78.6833924490656,33.8184350596229,0.0 -78.68339051972505,33.81843494131573,0.0 -78.6833885977277,33.81843475101568,0.0 -78.68338668947874,33.818434491547976,0.0 -78.68338479608214,33.818434162031764,0.0 -78.68338292291203,33.81843376346968,0.0 -78.68338107315881,33.818433297724916,0.0 -78.68337925008588,33.81843276395721,0.0 -78.68337745798763,33.818432163148884,0.0 -78.68337570003023,33.81843149806437,0.0 -78.68337397942838,33.8184307696657,0.0 -78.68337230047652,33.818429978935214,0.0 -78.6833706652854,33.81842912771588,0.0 -78.68337006317958,33.81842878279501,0.0 -78.68335706928016,33.818402786970054,0.0</coordinates>
                    </LinearRing>
                </outerBoundaryIs>
            </Polygon>
        </Placemark>
        <Placemark id="1113">
            <name>Population_122</name>
            <styleUrl>#1118</styleUrl>
            <Polygon id="1112">
                <outerBoundaryIs>
                    <LinearRing id="1116">
                        <coordinates>-78.98571112838164,33.82368394447243,0.0 -78.98577548241852,33.82368499597509,0.0 -78.98594664397935,33.823699721125344,0.0 -78.9860455377052,33.823749052269456,0.0 -78.9860592652742,33.823773133827885,0.0 -78.98614107800053,33.82382395318801,0.0 -78.98572118289879,33.82369336475316,0.0 -78.98571112838164,33.82368394447243,0.0</coordinates>
                    </LinearRing>
                </outerBoundaryIs>
            </Polygon>
        </Placemark>
        <Placemark id="1122">
            <name>Population_123</name>
            <styleUrl>#1127</styleUrl>
            <Polygon id="1121">
                <outerBoundaryIs>
                    <LinearRing id="1125">
                        <coordinates>-78.98627936619926,33.82386696112868,0.0 -78.98618529635957,33.823837705165495,0.0 -78.98627189280461,33.8238481809836,0.0 -78.98632783427252,33.82388064451417,0.0 -78.98627936619926,33.82386696112868,0.0</coordinates>
                    </LinearRing>
                </outerBoundaryIs>
            </Polygon>
        </Placemark>
        <Placemark id="1131">
            <name>Population_124</name>
            <styleUrl>#1136</styleUrl>
            <Polygon id="1130">
                <outerBoundaryIs>
                    <LinearRing id="1134">
                        <coordinates>-78.94290780512215,33.822889455898164,0.0 -78.94296879103683,33.822036504112184,0.0 -78.94248144248384,33.8215157682095,0.0 -78.9426588873257,33.82075548689674,0.0 -78.94277882567967,33.82008656386181,0.0 -78.94253559768943,33.819009222003515,0.0 -78.94203815485783,33.818803024047156,0.0 -78.94163195768014,33.81819898668426,0.0 -78.94165481252176,33.817879380866586,0.0 -78.94240411815841,33.81714151934266,0.0 -78.94189452658021,33.816414589992135,0.0 -78.94150087047387,33.815829185950214,0.0 -78.94135447367086,33.815495811055676,0.0 -78.94135758367888,33.81549500276805,0.0 -78.94137967793537,33.81536813249167,0.0 -78.94147720071591,33.815274330764886,0.0 -78.94161243433389,33.81519706358041,0.0 -78.94169052644365,33.81511884318122,0.0 -78.94174957244589,33.81504030386393,0.0 -78.94173281217753,33.81494459396964,0.0 -78.94163757801986,33.81494300494061,0.0 -78.94152405664995,33.81490930048256,0.0 -78.94150263479554,33.814871674821894,0.0 -78.94108387769388,33.814988944162046,0.0 -78.94104482594503,33.81492424364235,0.0 -78.94147366768894,33.81480414917822,0.0 -78.94150920054929,33.81473409637979,0.0 -78.94151186853216,33.81462280672363,0.0 -78.94151339248253,33.81455921210803,0.0 -78.94134196987015,33.81455635077295,0.0 -78.94114921512609,33.814648561249264,0.0 -78.94084331812644,33.81469116765779,0.0 -78.94051799812706,33.81474935296112,0.0 -78.94029019782701,33.81471373746512,0.0 -78.94000449430858,33.81470896410446,0.0 -78.93987345540933,33.814611345415074,0.0 -78.93974088941323,33.81457732020375,0.0 -78.93968108039105,33.81468765579613,0.0 -78.93967841111058,33.81479894534088,0.0 -78.9396006978082,33.81486126575909,0.0 -78.93942927587953,33.8148584017614,0.0 -78.93933518505771,33.814809115044866,0.0 -78.93914586060762,33.81475823461085,0.0 -78.93893596139166,33.81477063085953,0.0 -78.93893481912774,33.81481832767965,0.0 -78.93904681128393,33.81491562895862,0.0 -78.93919880375572,33.81493407463339,0.0 -78.93923537322357,33.8149983050119,0.0 -78.93909899252515,33.815123265389104,0.0 -78.93918186629861,33.815209737360156,0.0 -78.9390479557287,33.815259777417936,0.0 -78.93878572689424,33.81590587204093,0.0 -78.9386365780517,33.81601667095779,0.0 -78.93822747135724,33.81616954276425,0.0 -78.938121357764,33.81626137490917,0.0 -78.93795008425481,33.8163886087288,0.0 -78.93778442203339,33.81679675640542,0.0 -78.9375131752008,33.81711205639464,0.0 -78.93770568957486,33.817740500314756,0.0 -78.93734024106291,33.817503158698955,0.0 -78.93713845246054,33.81742122229412,0.0 -78.93705993978521,33.81763952710241,0.0 -78.93676178091941,33.81758789294492,0.0 -78.93646212239717,33.81744540889197,0.0 -78.93648280778831,33.817438617307836,0.0 -78.93650495148175,33.81740916619991,0.0 -78.9364776676921,33.81735502985418,0.0 -78.93647138712363,33.817319138279245,0.0 -78.93642924828718,33.81728861211754,0.0 -78.93636581984748,33.81725176487439,0.0 -78.93627425378803,33.81719655246786,0.0 -78.93618968565258,33.81714742094867,0.0 -78.93614811679817,33.81709304630135,0.0 -78.93607740648093,33.81706204172105,0.0 -78.93606434863402,33.81705351941478,0.0 -78.9359687423713,33.81715026934083,0.0 -78.935960259704,33.81717936656966,0.0 -78.93599468092293,33.81723362251644,0.0 -78.93606242043475,33.817251010516664,0.0 -78.93609661346491,33.817287117819035,0.0 -78.93535601391449,33.81703513532066,0.0 -78.93456905200918,33.81696236341977,0.0 -78.93462730112765,33.81692847435956,0.0 -78.93480816339243,33.81683607425931,0.0 -78.9349888829923,33.8167496371038,0.0 -78.93504074523655,33.81667296817988,0.0 -78.9350720378541,33.81656017007138,0.0 -78.93507837382134,33.81653194405563,0.0 -78.93507985482314,33.81652596988862,0.0 -78.93509447055985,33.81651879644706,0.0 -78.93508568976196,33.81649935221848,0.0 -78.93508804298371,33.81648886615458,0.0 -78.93508108009276,33.81648129342339,0.0 -78.93508118650864,33.81647682190021,0.0 -78.9350489960842,33.81644416979919,0.0 -78.93504633398774,33.816440452610244,0.0 -78.93504332042085,33.81643841389937,0.0 -78.9350393352645,33.81643437067902,0.0 -78.93499033984519,33.816391799781925,0.0 -78.93487691619565,33.81635411347946,0.0 -78.93480563252173,33.816346955610754,0.0 -78.93474834735107,33.81635196071268,0.0 -78.93470391494292,33.81641682366374,0.0 -78.93469399548687,33.816584060633694,0.0 -78.93468058769567,33.81661737183546,0.0 -78.93459631833795,33.81673113170263,0.0 -78.93452417420043,33.81675974478635,0.0 -78.93440831399926,33.816823411831315,0.0 -78.93437845201755,33.81687659025814,0.0 -78.93439859116587,33.816930606435164,0.0 -78.93444015539443,33.816950443982584,0.0 -78.93406356883412,33.8169156179048,0.0 -78.93376542474388,33.81699931116953,0.0 -78.93363225938809,33.81698593614617,0.0 -78.93358258168817,33.81705063680794,0.0 -78.9334524611936,33.8170871627715,0.0 -78.93335383103492,33.816967031396295,0.0 -78.93336307805633,33.81694912457432,0.0 -78.93361394763909,33.816581572045536,0.0 -78.93416387240627,33.8161877253534,0.0 -78.9346004859395,33.81570619247077,0.0 -78.93504118736104,33.814803787429796,0.0 -78.93534868900333,33.81435323080814,0.0 -78.93669477261417,33.81338911893418,0.0 -78.93668012434303,33.81307961221772,0.0 -78.93669732522021,33.81289956105275,0.0 -78.93669573595936,33.81286597426554,0.0 -78.93671170687824,33.81285316785961,0.0 -78.93671691896192,33.812854833049386,0.0 -78.93682276873507,33.81291028319274,0.0 -78.93691461818158,33.812953571354115,0.0 -78.93701461175789,33.812955243625964,0.0 -78.93707175247826,33.812956199714364,0.0 -78.93716446001385,33.81296371557039,0.0 -78.93729916365467,33.813007720444006,0.0 -78.93748386433332,33.81305255976093,0.0 -78.93757600057488,33.81308392280705,0.0 -78.93763927912603,33.81312673160271,0.0 -78.93768827627706,33.813169302384594,0.0 -78.93777355607985,33.81318862207126,0.0 -78.93781698044316,33.813165491337365,0.0 -78.93782569870811,33.81310002890345,0.0 -78.93784098521161,33.81305853338246,0.0 -78.93788412756591,33.81304732733558,0.0 -78.93792026910016,33.813030038567724,0.0 -78.9379212698109,33.812988304103584,0.0 -78.93790727245546,33.81297614146811,0.0 -78.93785756078195,33.8129633814942,0.0 -78.93767142771381,33.812978162316995,0.0 -78.9375498623759,33.81298209263686,0.0 -78.93744958463414,33.812992343670224,0.0 -78.9373853010116,33.8129912682603,0.0 -78.93732173423157,33.81296038304248,0.0 -78.93723602637375,33.8129589491277,0.0 -78.93720074369119,33.812940466483475,0.0 -78.93716560421686,33.812916020609826,0.0 -78.9371014660196,33.81290898187057,0.0 -78.93703789938722,33.81287809741338,0.0 -78.93694547831022,33.81285865773181,0.0 -78.93677534831872,33.81280213112315,0.0 -78.93669143278458,33.812775059172154,0.0 -78.93668729528919,33.812687635508794,0.0 -78.93667100304866,33.81268418257834,0.0 -78.93667179198273,33.8126512902201,0.0 -78.93663665275933,33.81262684510596,0.0 -78.93660836999042,33.812614443254375,0.0 -78.93656623116227,33.812583917166165,0.0 -78.9365445867448,33.81258355402256,0.0 -78.93654140763977,33.81257195100363,0.0 -78.93658123070516,33.81255434463006,0.0 -78.93658223310632,33.812512611117334,0.0 -78.93654766892678,33.8124643185526,0.0 -78.93651952837926,33.81244595344684,0.0 -78.93650467099282,33.81246956273998,0.0 -78.93647524262806,33.81250485668709,0.0 -78.93646676254805,33.81253688904391,0.0 -78.9364521071403,33.812545162974594,0.0 -78.93638208305562,33.812537228257206,0.0 -78.93632879499613,33.81250703124943,0.0 -78.93628582200537,33.81249729591664,0.0 -78.93623993090385,33.812496526871435,0.0 -78.93623259679352,33.81249258903672,0.0 -78.93623340337942,33.812459058579215,0.0 -78.9362196928021,33.812434972033756,0.0 -78.93617697918346,33.81242829143988,0.0 -78.9360915573024,33.8124149330028,0.0 -78.93605584756828,33.81241433522494,0.0 -78.93599199629989,33.81239537399981,0.0 -78.93594785026022,33.812448313768435,0.0 -78.93591070590772,33.812507334547746,0.0 -78.93590198163865,33.812521197225756,0.0 -78.93568937959665,33.8124761372903,0.0 -78.93478926352942,33.812048104233185,0.0 -78.93394346755831,33.81153355841474,0.0 -78.93333607857228,33.81136577711765,0.0 -78.93320858466451,33.8112673498536,0.0 -78.93321465683023,33.81126109559547,0.0 -78.93321553303677,33.81122467370687,0.0 -78.93322588561023,33.81104421797994,0.0 -78.93322636931386,33.811024156169495,0.0 -78.93322946014834,33.811022299994384,0.0 -78.93325340568921,33.811024609369056,0.0 -78.93325511314391,33.81100356448531,0.0 -78.93326026239382,33.8109994371803,0.0 -78.93326111320359,33.8109640698466,0.0 -78.93326168472565,33.810940222390215,0.0 -78.93325454528953,33.810940102716,0.0 -78.93325144933465,33.81093979203384,0.0 -78.93324362105169,33.81093162130295,0.0 -78.93320757184904,33.810931017923416,0.0 -78.93318486759976,33.81093310437039,0.0 -78.9331832662933,33.81093294317519,0.0 -78.93306184841327,33.81093090688291,0.0 -78.93296228669567,33.810911345463914,0.0 -78.93288372380992,33.81091002744516,0.0 -78.9328187246213,33.81093876123412,0.0 -78.93280645564077,33.81095689870378,0.0 -78.93236396065889,33.810615280377526,0.0 -78.93248431872117,33.80935605698648,0.0 -78.93273726086026,33.80862663600133,0.0 -78.9328529339951,33.808373625622956,0.0 -78.93302153272141,33.80831206655609,0.0 -78.93318123847385,33.80820738610901,0.0 -78.93325495103582,33.80811319079717,0.0 -78.93332981276835,33.807971301506086,0.0 -78.93333248611259,33.807860156496794,0.0 -78.93313017819769,33.80787341793526,0.0 -78.93312852807829,33.807873492166294,0.0 -78.93312687533113,33.80787349602105,0.0 -78.93312522528984,33.80787343229399,0.0 -78.93312358123694,33.80787329923681,0.0 -78.93312194634663,33.80787309960775,0.0 -78.93312032718399,33.80787282991012,0.0 -78.93311872687981,33.807872494704824,0.0 -78.93311714763695,33.807872092225445,0.0 -78.93311559694845,33.807871625302674,0.0 -78.93306435473764,33.80785497494284,0.0 -78.93302611284003,33.807905835989786,0.0 -78.93314783294699,33.80724706648414,0.0 -78.93348392932248,33.80712505314649,0.0 -78.93380484004648,33.8069863699436,0.0 -78.933852987526,33.807060103150434,0.0 -78.93400449459082,33.80713948247822,0.0 -78.93412594687295,33.807192745421005,0.0 -78.93427868765637,33.80722091797576,0.0 -78.93446271248335,33.80722400175289,0.0 -78.93466269135402,33.80720173712544,0.0 -78.93475531756607,33.8071776741289,0.0 -78.93487800542775,33.80717972991329,0.0 -78.93503135855114,33.80718229823263,0.0 -78.93513809371493,33.80720969925635,0.0 -78.93526046757658,33.807224555282495,0.0 -78.93545983111177,33.8072278935186,0.0 -78.9355671772943,33.80722969174133,0.0 -78.93575089800471,33.80724557438436,0.0 -78.9359180512161,33.80731240655127,0.0 -78.93611526146435,33.807405356977114,0.0 -78.93623671557776,33.807458616098145,0.0 -78.93645110445038,33.80747501191219,0.0 -78.93674155880647,33.80751829287581,0.0 -78.9368946096542,33.807533660616336,0.0 -78.93720132079105,33.80753879305313,0.0 -78.93730866963924,33.80754058981097,0.0 -78.9373126648144,33.80737416570076,0.0 -78.93734548674334,33.807285066345564,0.0 -78.9373951826641,33.807132212600216,0.0 -78.93741481800016,33.80695324511358,0.0 -78.9374494866526,33.806787334072695,0.0 -78.93745335683164,33.80674823003497,0.0 -78.93739560850625,33.80674521899764,0.0 -78.93739216584343,33.80667251085552,0.0 -78.93739937393315,33.80667367108665,0.0 -78.93746042441757,33.80667685457796,0.0 -78.93746973850467,33.806582762396204,0.0 -78.93751973776743,33.80641710685632,0.0 -78.93761574551179,33.80625222353636,0.0 -78.93763507506291,33.80608605495016,0.0 -78.93748325569584,33.80601948161358,0.0 -78.93732990440958,33.806016916419644,0.0 -78.93712931627876,33.806064788840445,0.0 -78.93696032030202,33.806074768239874,0.0 -78.93678302774022,33.806108633371586,0.0 -78.93674972341563,33.80609519176325,0.0 -78.93668459098866,33.80605734786014,0.0 -78.93667500372844,33.806065035793885,0.0 -78.9365846407672,33.806028565819354,0.0 -78.93615023110169,33.80604289295743,0.0 -78.93592828805693,33.80602811772466,0.0 -78.93505247754584,33.80555561253318,0.0 -78.93497892517387,33.80534163648097,0.0 -78.9352534540097,33.8050281046431,0.0 -78.9360846039335,33.804278113218686,0.0 -78.93630888080698,33.804400256029986,0.0 -78.93630408723844,33.80440254906849,0.0 -78.93613211161994,33.80442352871889,0.0 -78.93614524933085,33.8044714636627,0.0 -78.93628722466721,33.804509625497545,0.0 -78.93628493380675,33.80460501726208,0.0 -78.93644233695161,33.80459572207341,0.0 -78.93652889754358,33.80456138502411,0.0 -78.93653845192546,33.80452528139568,0.0 -78.9366761164755,33.80460025272832,0.0 -78.9380393806507,33.804527321083704,0.0 -78.93845991936308,33.80431784808139,0.0 -78.93861470044511,33.804370507824736,0.0 -78.93981238246329,33.804470719214144,0.0 -78.94090692498422,33.80461804708941,0.0 -78.94115482816294,33.804543213189014,0.0 -78.94131004563192,33.80465944381793,0.0 -78.94120734940525,33.80477286781496,0.0 -78.940779986109,33.8048725448656,0.0 -78.94075530034439,33.80507755993284,0.0 -78.94077704426454,33.80537884459121,0.0 -78.94036875403377,33.80556016810409,0.0 -78.94014650130933,33.80557134614559,0.0 -78.93875544991789,33.80540792724326,0.0 -78.93813401019005,33.805976040532364,0.0 -78.93810673014858,33.8059793687814,0.0 -78.93809299612911,33.80601353432783,0.0 -78.93793502347675,33.80615794935084,0.0 -78.93770593092117,33.80664815187551,0.0 -78.93781876945472,33.80692524395918,0.0 -78.93781627497286,33.80702918223066,0.0 -78.93781369942357,33.807136497799945,0.0 -78.9377802681078,33.807338727416514,0.0 -78.93777683289537,33.80748181331105,0.0 -78.93777168159677,33.80769644442644,0.0 -78.93776881868736,33.80781568281177,0.0 -78.93773567416277,33.80800598955144,0.0 -78.93787765496133,33.808044150662106,0.0 -78.9381059134095,33.80805989553218,0.0 -78.93843330159119,33.808113085761384,0.0 -78.93858985502541,33.80813956027023,0.0 -78.93870155349282,33.80824878539533,0.0 -78.93872783168672,33.80834465481137,0.0 -78.93872268153706,33.80855928510598,0.0 -78.9386192611371,33.80870070128881,0.0 -78.93854526660495,33.8088068228367,0.0 -78.93845641246855,33.80893655296015,0.0 -78.93845326423184,33.80906771692846,0.0 -78.93843697964363,33.80915094530757,0.0 -78.93843354526814,33.80929403212059,0.0 -78.93843039697573,33.80942519517806,0.0 -78.93855724131207,33.80949888897813,0.0 -78.93869836784624,33.80957281961749,0.0 -78.9388834889756,33.80959977139388,0.0 -78.93907090055673,33.80953133288095,0.0 -78.93907490811775,33.809364397636976,0.0 -78.93907662318122,33.80929285327442,0.0 -78.93900748796328,33.80919626666807,0.0 -78.93899606634827,33.80907679037363,0.0 -78.93896921449313,33.80900477030415,0.0 -78.93887008357905,33.808967325815594,0.0 -78.93881494886588,33.808882904386486,0.0 -78.93881752443606,33.80877558789661,0.0 -78.93882038277667,33.80865634849555,0.0 -78.93885095512354,33.808573358891735,0.0 -78.93886752521038,33.808478206674444,0.0 -78.93899837293505,33.808384963779005,0.0 -78.9390777248323,33.80832983764175,0.0 -78.93995163855912,33.80822012383413,0.0 -78.94052860178049,33.80808556454755,0.0 -78.94078119854174,33.807973388732954,0.0 -78.94085159742106,33.807974564419276,0.0 -78.94100872192546,33.80797718740767,0.0 -78.94115070541345,33.80801534481845,0.0 -78.94122126647967,33.80805230954216,0.0 -78.94121726870537,33.80821924423619,0.0 -78.94132811145687,33.80836424020145,0.0 -78.94139724875657,33.808460824689355,0.0 -78.94142324224369,33.80856861557977,0.0 -78.9415666584816,33.8085471528201,0.0 -78.9416969289902,33.8084777553583,0.0 -78.94184262787074,33.808360901098084,0.0 -78.94190211419102,33.80831318978336,0.0 -78.9428340485521,33.808677315282765,0.0 -78.9428914758648,33.80868378366543,0.0 -78.94297124567224,33.80870879305747,0.0 -78.94314037421886,33.80880704562721,0.0 -78.94332549762149,33.80883399076081,0.0 -78.94369546052721,33.80889980401695,0.0 -78.94373129607074,33.80879276876244,0.0 -78.94388699497443,33.80889204791681,0.0 -78.94385104046464,33.80906652998629,0.0 -78.94427233748908,33.809137755652635,0.0 -78.94444073276948,33.80924512934805,0.0 -78.94476853901602,33.80942422648985,0.0 -78.94481735311304,33.809473478422596,0.0 -78.94466344293464,33.80950650561251,0.0 -78.94466241457754,33.80950605475392,0.0 -78.94462755840792,33.80946968625058,0.0 -78.94451885788123,33.809533484386805,0.0 -78.94451591367252,33.809538163805236,0.0 -78.94444432488615,33.809553525510644,0.0 -78.94445762725807,33.80963579541374,0.0 -78.94445186753033,33.80964568929561,0.0 -78.9444504421934,33.80970531009946,0.0 -78.94444887314528,33.809770892332224,0.0 -78.94442616151309,33.80982419173202,0.0 -78.94443802079958,33.80992578348928,0.0 -78.94452087437607,33.81004645207378,0.0 -78.94452579030101,33.810057335456584,0.0 -78.94455807797542,33.810257014436075,0.0 -78.94458794325571,33.81027706470394,0.0 -78.94460030283696,33.81031020883714,0.0 -78.9446983002848,33.8103953432012,0.0 -78.94486071825446,33.810475587450945,0.0 -78.94503684936248,33.810579917150875,0.0 -78.94504190871301,33.81058182741043,0.0 -78.94506743451804,33.810598963993,0.0 -78.94511325600385,33.8106506167543,0.0 -78.94506020632726,33.810696536107095,0.0 -78.94473008389093,33.810777766106234,0.0 -78.94463740841434,33.81083223196007,0.0 -78.94454744609965,33.810779971215666,0.0 -78.94443345334302,33.81076614407244,0.0 -78.94430603553378,33.810716303735646,0.0 -78.94430774630878,33.81064476005463,0.0 -78.94428060315087,33.81058466384931,0.0 -78.94422432295617,33.810547938932025,0.0 -78.94422717288568,33.81042870004295,0.0 -78.94415774982743,33.81034404176006,0.0 -78.94406060904255,33.81022313380719,0.0 -78.94403375367536,33.810151113798426,0.0 -78.94399347019598,33.810043082415014,0.0 -78.94399489688311,33.80998346435356,0.0 -78.9439971775135,33.80988807127177,0.0 -78.9439566066393,33.80979196543776,0.0 -78.94381490420021,33.80974188732197,0.0 -78.94367263224737,33.809715656648535,0.0 -78.94348722031218,33.8097006366377,0.0 -78.94325781533755,33.809732595805805,0.0 -78.94318496618027,33.8097910242361,0.0 -78.94298269856375,33.809883079216405,0.0 -78.9429378508015,33.80996583264068,0.0 -78.94290556987966,33.8101203669947,0.0 -78.94291471513314,33.81033523702911,0.0 -78.9430252789707,33.81049215543241,0.0 -78.94319212730949,33.81068579831749,0.0 -78.94331526375905,33.81091449748843,0.0 -78.94339640391668,33.81110671220657,0.0 -78.94358067608364,33.81116942939726,0.0 -78.94379551723823,33.811149154478414,0.0 -78.94401121220534,33.811093107773495,0.0 -78.94419805173338,33.811048508112314,0.0 -78.9444400358714,33.81108832828091,0.0 -78.94458031450796,33.811198025639094,0.0 -78.94486315479003,33.811322027736864,0.0 -78.94498772378184,33.81149110644865,0.0 -78.94502743762189,33.81162298423036,0.0 -78.94489863779978,33.812825638984926,0.0 -78.94479236804479,33.81308629925722,0.0 -78.94473237526877,33.8132045864833,0.0 -78.94458695578155,33.81330952010545,0.0 -78.94447125215441,33.81336723478758,0.0 -78.94438183203944,33.813520818649906,0.0 -78.944378694505,33.81365198124313,0.0 -78.9444335511885,33.8137483260137,0.0 -78.94448926395457,33.813808898495054,0.0 -78.94454155519959,33.81401255916244,0.0 -78.9446106971783,33.814109142015255,0.0 -78.94466669779,33.81415778887032,0.0 -78.94469241464382,33.81427750574287,0.0 -78.9446904165032,33.81436097315235,0.0 -78.94461613872306,33.81447902214085,0.0 -78.94454185859428,33.814597070137495,0.0 -78.94527753400016,33.814311115617066,0.0 -78.9453803827358,33.81419354233722,0.0 -78.94548237562692,33.814111741247714,0.0 -78.94565924485876,33.813990222724264,0.0 -78.945695341992,33.814024072457705,0.0 -78.94649010354908,33.81414337177926,0.0 -78.94671614784738,33.81424808240877,0.0 -78.94665184200473,33.81514815485855,0.0 -78.9467968835707,33.81565088508981,0.0 -78.94674589375184,33.81636456849629,0.0 -78.94673190458845,33.81639586875773,0.0 -78.94668793851665,33.8164042689097,0.0 -78.94664308511163,33.81648702351663,0.0 -78.94665975490773,33.81653700268133,0.0 -78.94655480770417,33.816592911041916,0.0 -78.94633795653748,33.81669665773534,0.0 -78.9462108129047,33.81663489613045,0.0 -78.94590882052847,33.81671336660012,0.0 -78.94580739514917,33.8167713194228,0.0 -78.94571683495218,33.816972599336346,0.0 -78.9455431254565,33.817065133989665,0.0 -78.94536263180237,33.817131051762665,0.0 -78.94534116749224,33.817130694946265,0.0 -78.94509229539501,33.81712654613987,0.0 -78.94488734319407,33.81712312986249,0.0 -78.9446238315753,33.81711873697759,0.0 -78.94443351686242,33.817115564877014,0.0 -78.94418523096581,33.8170869754215,0.0 -78.94382041365138,33.81703199521155,0.0 -78.94362980778246,33.81704104040957,0.0 -78.94355543862665,33.81708869710897,0.0 -78.9435677388834,33.817186694826496,0.0 -78.94371296575378,33.81723801523386,0.0 -78.94396183474012,33.81724216588009,0.0 -78.9441811353478,33.81725804636088,0.0 -78.9442672182786,33.817332827558225,0.0 -78.94441332210951,33.81734748798598,0.0 -78.94442474387803,33.81748214477652,0.0 -78.94450994888516,33.81759358406,0.0 -78.94461125696938,33.817644169375804,0.0 -78.94477199893427,33.81765907343338,0.0 -78.94496290065406,33.81763780802996,0.0 -78.94504869124835,33.81772480722115,0.0 -78.94507592529234,33.817810831243186,0.0 -78.94516288551706,33.81784895266568,0.0 -78.94522085974998,33.81787436752762,0.0 -78.94532450601878,33.81782719776138,0.0 -78.94541585083931,33.81768202941476,0.0 -78.94549197219767,33.8175610549935,0.0 -78.94551751429805,33.81754431234148,0.0 -78.94555500177897,33.817563946609425,0.0 -78.94554361790753,33.817583853916574,0.0 -78.94595418386224,33.81826397645533,0.0 -78.94605043721673,33.81828481599488,0.0 -78.94612689528982,33.81835123375091,0.0 -78.9462966163733,33.818425632397364,0.0 -78.94645205096899,33.81849979554947,0.0 -78.94666548479407,33.81853913708881,0.0 -78.94682291312823,33.818529830473665,0.0 -78.94687250364751,33.8184703472729,0.0 -78.9469517440848,33.81848909488565,0.0 -78.94687066755334,33.81962384536604,0.0 -78.94712684062362,33.81994824251516,0.0 -78.94731127239861,33.82029202226017,0.0 -78.94764877234252,33.82067494725771,0.0 -78.94737061236351,33.82168379404198,0.0 -78.94654198934244,33.82188766829829,0.0 -78.9446453790661,33.82197271839822,0.0 -78.94463827558107,33.82197886584779,0.0 -78.94453000710585,33.82188481901264,0.0 -78.94428495957945,33.82193163187915,0.0 -78.94413043153295,33.822018127141526,0.0 -78.94407069156343,33.82196623194458,0.0 -78.94394968810903,33.82192603969568,0.0 -78.94373481409504,33.821986079422445,0.0 -78.94362600263543,33.82207333568087,0.0 -78.94380857331336,33.82208910571614,0.0 -78.9439902294333,33.822143033509384,0.0 -78.94410940616825,33.82225954272319,0.0 -78.94418286590552,33.82237528763409,0.0 -78.94424108161054,33.82249078009807,0.0 -78.94429465575848,33.82254771386758,0.0 -78.94430190846167,33.8226142699345,0.0 -78.94430102770771,33.8226509272048,0.0 -78.94438623624121,33.82276236665357,0.0 -78.94450307033975,33.82277653908107,0.0 -78.94464947376744,33.82277897921565,0.0 -78.94466351944807,33.822769772642225,0.0 -78.94476064427216,33.823044783331916,0.0 -78.94495999168375,33.823551694645786,0.0 -78.94400526744435,33.82454889937933,0.0 -78.94336976149214,33.82435100922482,0.0 -78.9432700130817,33.82396767101223,0.0 -78.94331405450393,33.82386843125338,0.0 -78.94322378676891,33.82379001872503,0.0 -78.94314915976139,33.82350322115387,0.0 -78.94290780512215,33.822889455898164,0.0</coordinates>
                    </LinearRing>
                </outerBoundaryIs>
            </Polygon>
        </Placemark>
        <Placemark id="1140">
            <name>Population_125</name>
            <styleUrl>#1145</styleUrl>
            <Polygon id="1139">
                <outerBoundaryIs>
                    <LinearRing id="1143">
                        <coordinates>-79.109100370281,33.82597900856477,0.0 -79.10935883884487,33.82558885392674,0.0 -79.10946911948841,33.825300156719564,0.0 -79.10925395565786,33.824945160797945,0.0 -79.10861217895456,33.824764684678904,0.0 -79.10862788402777,33.82453893420388,0.0 -79.10862394288715,33.82438405851866,0.0 -79.10735106357038,33.82440661440759,0.0 -79.10714290625444,33.8242120535796,0.0 -79.1073147336872,33.823825802022554,0.0 -79.10731690651234,33.82382417890412,0.0 -79.10746396317073,33.82377658439128,0.0 -79.10750608993588,33.823671988451665,0.0 -79.10754748339104,33.82360061537354,0.0 -79.10758936375115,33.82350709426354,0.0 -79.10759180416254,33.82339634796089,0.0 -79.10758177289968,33.82337358491917,0.0 -79.10754755881015,33.82329596546819,0.0 -79.1075507335055,33.823151997199034,0.0 -79.10750070892709,33.82301275071031,0.0 -79.1074361917016,33.82292867315525,0.0 -79.10735792363273,33.82286654266326,0.0 -79.10729931341487,33.82281578986105,0.0 -79.10726711760772,33.822770981888475,0.0 -79.10724880018998,33.82269869216553,0.0 -79.107252095156,33.822549188226944,0.0 -79.10724912275197,33.82238296738729,0.0 -79.10720439117792,33.8223047346048,0.0 -79.10713890057143,33.822264954743886,0.0 -79.10709909299223,33.82226434355009,0.0 -79.10701114100344,33.822340540941404,0.0 -79.10696269707886,33.822388144216944,0.0 -79.10695008804879,33.82240053423794,0.0 -79.10688093785899,33.82252687143673,0.0 -79.1068187871728,33.82263669991076,0.0 -79.10675036471282,33.82272981226208,0.0 -79.10668084984725,33.8228727626017,0.0 -79.10659867154232,33.82298782179624,0.0 -79.10647620208402,33.823124419389714,0.0 -79.10647419501596,33.82314797419116,0.0 -79.1058979157248,33.82309293693539,0.0 -79.10580059200721,33.82306418867814,0.0 -79.10562858502782,33.82303938845755,0.0 -79.10558165602954,33.82306082462409,0.0 -79.1055794028195,33.82306251590976,0.0 -79.10472106311879,33.82298053226037,0.0 -79.10421605011945,33.8225084709574,0.0 -79.10403667887384,33.82217549498573,0.0 -79.10403661291669,33.822174812264414,0.0 -79.10403114131948,33.822118360148266,0.0 -79.10400217331998,33.822111439339,0.0 -79.10392599807803,33.821970028249275,0.0 -79.10359307053615,33.82170288227392,0.0 -79.10324487619182,33.821709039960304,0.0 -79.10264489521967,33.82222990604275,0.0 -79.10113604122083,33.82410332713573,0.0 -79.10105833428057,33.82418474563068,0.0 -79.10105738486736,33.824184293668495,0.0 -79.10098270154948,33.82420636457202,0.0 -79.09992690066495,33.82539760275671,0.0 -79.09994145323996,33.82542967065886,0.0 -79.09985227409341,33.82553286497341,0.0 -79.0991586130777,33.82614994310857,0.0 -79.09878501273168,33.82603414596028,0.0 -79.09877996368434,33.82602922491573,0.0 -79.09867680771887,33.82595770052203,0.0 -79.09860467537291,33.825904139035906,0.0 -79.09847010921777,33.82583213181462,0.0 -79.09833573685086,33.82575138429219,0.0 -79.09820116900889,33.82567937675824,0.0 -79.09809782037442,33.82561659206752,0.0 -79.09797353166839,33.82555348421682,0.0 -79.09783916019869,33.82547273708201,0.0 -79.09768346163956,33.8254091433938,0.0 -79.0975791446793,33.82539005004928,0.0 -79.09756190802106,33.8253897840549,0.0 -79.09749977804145,33.82535267140544,0.0 -79.09709417590162,33.82497349216272,0.0 -79.09716987312058,33.82474936947422,0.0 -79.09717446792331,33.82474567388084,0.0 -79.0972493091378,33.824676897386496,0.0 -79.09736680465826,33.824573812877006,0.0 -79.09745230806796,33.824496459461386,0.0 -79.0975477613176,33.82434422590332,0.0 -79.0975812410495,33.82434984182065,0.0 -79.09765569335607,33.82429854174927,0.0 -79.09772025849215,33.82422086503509,0.0 -79.0977330502371,33.82411616357884,0.0 -79.09773517949516,33.82402004074267,0.0 -79.0977036707601,33.82392111207821,0.0 -79.09785049381766,33.8237612821316,0.0 -79.09785615755418,33.82375966164713,0.0 -79.09797306938489,33.82368279063648,0.0 -79.09807912617555,33.823623237442305,0.0 -79.0981547408512,33.82351950600082,0.0 -79.09817780827719,33.82342370343979,0.0 -79.09820730127504,33.82337286093778,0.0 -79.0987240795672,33.82281028801276,0.0 -79.09894203021221,33.822539693343195,0.0 -79.09927805851211,33.822187620740266,0.0 -79.09956213912065,33.821834915012936,0.0 -79.09984394315023,33.820840314396136,0.0 -79.10002097856682,33.820442422106865,0.0 -79.10025312353939,33.81986752450786,0.0 -79.09933369326109,33.818764774696966,0.0 -79.09977426806003,33.81859945837598,0.0 -79.1005757172705,33.8180405702523,0.0 -79.10131602932067,33.81808984760857,0.0 -79.10128971193883,33.81815682039795,0.0 -79.10128797239402,33.81823546583808,0.0 -79.10135932655977,33.81832398007435,0.0 -79.10144095696451,33.81842139477519,0.0 -79.10153363844861,33.81849275371139,0.0 -79.10165714529195,33.81859081218785,0.0 -79.10179325141956,33.818592907770515,0.0 -79.10196076324686,33.81859548759215,0.0 -79.10211664839575,33.81865033637058,0.0 -79.10212441235265,33.81877283672537,0.0 -79.10212228948595,33.818868960806554,0.0 -79.10216107744958,33.81900942234195,0.0 -79.102084123314,33.81917432717703,0.0 -79.10198719239035,33.81929521672355,0.0 -79.10190111789589,33.819398789707755,0.0 -79.10185731023306,33.819485531550754,0.0 -79.10185499175513,33.819590393056224,0.0 -79.10194748166633,33.81967049191172,0.0 -79.10210278837026,33.81975155590627,0.0 -79.1022286156989,33.81974475145301,0.0 -79.10230286922693,33.819702187609685,0.0 -79.10237770085008,33.81963340583528,0.0 -79.10245349976377,33.819520933004846,0.0 -79.10252968134452,33.819390982390416,0.0 -79.10259404202829,33.81932204022308,0.0 -79.1026585977788,33.81924436056298,0.0 -79.10275533256177,33.81913220790845,0.0 -79.10283132352917,33.819010996414136,0.0 -79.10283402572638,33.81888865713951,0.0 -79.10291117224321,33.818715013395625,0.0 -79.10297669222243,33.81859364067495,0.0 -79.10302069234329,33.818498159991805,0.0 -79.10306089602467,33.818472779911566,0.0 -79.10322671190703,33.81862778635512,0.0 -79.1031951988028,33.81865819116992,0.0 -79.10310970748547,33.8187355508371,0.0 -79.10302344186996,33.818847864874876,0.0 -79.10300018727388,33.818952404309464,0.0 -79.10299825618775,33.8190397909133,0.0 -79.10296376011854,33.81917912371452,0.0 -79.10296125105727,33.819292725503004,0.0 -79.10301166903916,33.81938091667476,0.0 -79.1031045436908,33.81944353697648,0.0 -79.10321746412689,33.8194791684713,0.0 -79.10321000090845,33.819586359401264,0.0 -79.10321424636908,33.81975358543085,0.0 -79.1031912441148,33.81978579026994,0.0 -79.10318970132538,33.81985569831933,0.0 -79.10317768689264,33.81992544616197,0.0 -79.10307086717857,33.82001995943842,0.0 -79.10304818908526,33.820098283650104,0.0 -79.1030260931885,33.82015039273483,0.0 -79.10310907815982,33.820186635893265,0.0 -79.10322327976608,33.82023210152679,0.0 -79.10334913225051,33.820266554934854,0.0 -79.10335861456865,33.82026914990498,0.0 -79.10344102308582,33.820331608056804,0.0 -79.10354882711752,33.82037868916621,0.0 -79.1035671614544,33.820394567492535,0.0 -79.10363052767424,33.82041073811986,0.0 -79.10375658937926,33.82047346263867,0.0 -79.10382905686645,33.82048977314814,0.0 -79.10391079107399,33.82049862816345,0.0 -79.10401966004794,33.820515499289684,0.0 -79.1041029033071,33.82045599386131,0.0 -79.10417738062037,33.82038115673873,0.0 -79.1041977624692,33.82028269474824,0.0 -79.10419835058612,33.82025605048316,0.0 -79.10514305778442,33.82009193832029,0.0 -79.10632426571675,33.8201492057915,0.0 -79.10702533973031,33.82036646726857,0.0 -79.10728331502114,33.820528403790824,0.0 -79.1072635583636,33.82060821285391,0.0 -79.107261477155,33.82070270110684,0.0 -79.10725913456129,33.82080900070892,0.0 -79.10727853901231,33.82089200434942,0.0 -79.10729086833575,33.82097490027096,0.0 -79.1073392263081,33.82102881043645,0.0 -79.10739504986064,33.82106511439898,0.0 -79.10750092117914,33.82107855406723,0.0 -79.10758582841156,33.82107985649153,0.0 -79.10769851684113,33.8211052168967,0.0 -79.1078384672908,33.82117825526371,0.0 -79.107900974976,33.821232382379584,0.0 -79.10793518312103,33.82128607606054,0.0 -79.10794777224585,33.821357160547585,0.0 -79.10797107402807,33.821408500146454,0.0 -79.10797477305478,33.82141664993793,0.0 -79.10797321295334,33.82148751637715,0.0 -79.10799300959445,33.82155280333656,0.0 -79.10807622500987,33.82163087888454,0.0 -79.1081371731646,33.8217558732368,0.0 -79.10814976252728,33.82182695680475,0.0 -79.10812645434935,33.82192112024008,0.0 -79.1080819193443,33.82201495792724,0.0 -79.10800200696883,33.822108252681325,0.0 -79.10797882865367,33.822196509940994,0.0 -79.10796337604148,33.82225534870553,0.0 -79.10799037711323,33.82231483809431,0.0 -79.1079306482157,33.82245570218421,0.0 -79.10792175250381,33.822538272293855,0.0 -79.10791324603575,33.82260312488152,0.0 -79.10793252024372,33.82269203455006,0.0 -79.10802307433723,33.82275840650525,0.0 -79.10807876705145,33.8228006144961,0.0 -79.1081486136781,33.82284303876012,0.0 -79.10831239592261,33.82279829232,0.0 -79.10841288629638,33.822734851072596,0.0 -79.10848500218607,33.822703730632355,0.0 -79.10850274861576,33.82271717898285,0.0 -79.10850537677426,33.822718327531234,0.0 -79.10856845839712,33.82274587473098,0.0 -79.10858516001882,33.82274613096687,0.0 -79.1087421033863,33.82289142225192,0.0 -79.10876316195942,33.82294266687814,0.0 -79.10879237566078,33.82297859358105,0.0 -79.10886005476216,33.82306182263397,0.0 -79.10892561476501,33.82309743577326,0.0 -79.10899946519164,33.82313317604254,0.0 -79.1090401552529,33.823168408550806,0.0 -79.10904623148183,33.8231729698203,0.0 -79.10919276498083,33.82330862280076,0.0 -79.10921059686346,33.823337142069754,0.0 -79.10925006730089,33.82342772922265,0.0 -79.1093150184234,33.82349101862971,0.0 -79.10934065466961,33.82350768800928,0.0 -79.109430844327,33.82387495335148,0.0 -79.10928721452792,33.824367141051894,0.0 -79.10954216189862,33.824687767096385,0.0 -79.10975369253717,33.82473654708908,0.0 -79.10974575562643,33.82509711723015,0.0 -79.10985376190406,33.82509877324317,0.0 -79.1098964507385,33.825293644067905,0.0 -79.11011333920173,33.82544294476759,0.0 -79.11035222530815,33.82534664093314,0.0 -79.11042742718787,33.82522803309241,0.0 -79.11049981629775,33.825198849907274,0.0 -79.11060782275032,33.82520050526425,0.0 -79.11060980609436,33.82511036268773,0.0 -79.11108262960451,33.825219391924726,0.0 -79.1111888136668,33.82535292388946,0.0 -79.11125189629497,33.82539072063713,0.0 -79.11132618097112,33.82597299562491,0.0 -79.1118299393978,33.8258454591878,0.0 -79.11205112818863,33.8256234079732,0.0 -79.1121119868878,33.82558424094256,0.0 -79.11228469594435,33.825550055410005,0.0 -79.11262038256514,33.82537484913235,0.0 -79.11304308871196,33.825454980458034,0.0 -79.11330006478671,33.82560242932089,0.0 -79.11324536475196,33.82684107702046,0.0 -79.11291804562335,33.82710626404417,0.0 -79.11272634894293,33.827126588683136,0.0 -79.11169532943342,33.827152533188524,0.0 -79.11126764211068,33.82739589835334,0.0 -79.11081973454446,33.827499809841974,0.0 -79.10982143327539,33.826496049360024,0.0 -79.10928594396488,33.82635248723364,0.0 -79.109100370281,33.82597900856477,0.0</coordinates>
                    </LinearRing>
                </outerBoundaryIs>
            </Polygon>
        </Placemark>
        <Placemark id="1149">
            <name>Population_126</name>
            <styleUrl>#1154</styleUrl>
            <Polygon id="1148">
                <outerBoundaryIs>
                    <LinearRing id="1152">
                        <coordinates>-78.95714718598613,33.82542777139474,0.0 -78.95716250751988,33.82542044021785,0.0 -78.95717346437716,33.82543476582622,0.0 -78.9571451108145,33.82543066662179,0.0 -78.95714718598613,33.82542777139474,0.0</coordinates>
                    </LinearRing>
                </outerBoundaryIs>
            </Polygon>
        </Placemark>
        <Placemark id="1158">
            <name>Population_127</name>
            <styleUrl>#1163</styleUrl>
            <Polygon id="1157">
                <outerBoundaryIs>
                    <LinearRing id="1161">
                        <coordinates>-78.95881114810618,33.82552602835187,0.0 -78.95866414989354,33.825327507290936,0.0 -78.95871950281266,33.825353908598466,0.0 -78.95881781252943,33.8254271087866,0.0 -78.95881767530192,33.82543292697691,0.0 -78.9588155448817,33.825522501575904,0.0 -78.95881114810618,33.82552602835187,0.0</coordinates>
                    </LinearRing>
                </outerBoundaryIs>
            </Polygon>
        </Placemark>
        <Placemark id="1167">
            <name>Population_128</name>
            <styleUrl>#1172</styleUrl>
            <Polygon id="1166">
                <outerBoundaryIs>
                    <LinearRing id="1170">
                        <coordinates>-78.95765167877792,33.82548669619896,0.0 -78.95765548957203,33.82545389063815,0.0 -78.95768244309119,33.82546697900245,0.0 -78.95769060847248,33.82547725477918,0.0 -78.95768857019209,33.82548114339644,0.0 -78.95768942316957,33.825482346867915,0.0 -78.95768775158413,33.82550911042646,0.0 -78.95764303545647,33.825502646504226,0.0 -78.95765167877792,33.82548669619896,0.0</coordinates>
                    </LinearRing>
                </outerBoundaryIs>
            </Polygon>
        </Placemark>
        <Placemark id="1176">
            <name>Population_129</name>
            <styleUrl>#1181</styleUrl>
            <Polygon id="1175">
                <outerBoundaryIs>
                    <LinearRing id="1179">
                        <coordinates>-78.70082198094784,33.82114289065119,0.0 -78.70082998162971,33.82111936101374,0.0 -78.70083019022995,33.82111842900233,0.0 -78.7008321390776,33.82112193756798,0.0 -78.70085573565564,33.82111426203197,0.0 -78.7008783525495,33.82111093936894,0.0 -78.70088768389404,33.82113034719827,0.0 -78.70088947339157,33.82115994084113,0.0 -78.70088901349577,33.82117328464922,0.0 -78.70086903793829,33.82117700731767,0.0 -78.70084954731358,33.82117855525591,0.0 -78.70083367981147,33.82117615306268,0.0 -78.70082288925518,33.82116327293425,0.0 -78.70081857327845,33.82115811980523,0.0 -78.70082198094784,33.82114289065119,0.0</coordinates>
                    </LinearRing>
                </outerBoundaryIs>
            </Polygon>
        </Placemark>
        <Placemark id="1185">
            <name>Population_130</name>
            <styleUrl>#1190</styleUrl>
            <Polygon id="1184">
                <outerBoundaryIs>
                    <LinearRing id="1188">
                        <coordinates>-78.99092047828317,33.8262715249496,0.0 -78.99100724524855,33.826257160102635,0.0 -78.99109343232017,33.82626757992814,0.0 -78.99114987089764,33.8262797727839,0.0 -78.99116540219079,33.826285253066054,0.0 -78.99097833527927,33.826396347729805,0.0 -78.99097438179186,33.826391879370505,0.0 -78.99094277259385,33.826357550276846,0.0 -78.99090867216067,33.82631416352296,0.0 -78.99092047828317,33.8262715249496,0.0</coordinates>
                    </LinearRing>
                </outerBoundaryIs>
            </Polygon>
        </Placemark>
        <Placemark id="1194">
            <name>Population_131</name>
            <styleUrl>#1199</styleUrl>
            <Polygon id="1193">
                <outerBoundaryIs>
                    <LinearRing id="1197">
                        <coordinates>-78.9312709003797,33.82539087488467,0.0 -78.93128180847575,33.82538654858045,0.0 -78.93130757494761,33.82542025704338,0.0 -78.93126583104863,33.82543980490549,0.0 -78.93126722335275,33.825431387529136,0.0 -78.9312709003797,33.82539087488467,0.0</coordinates>
                    </LinearRing>
                </outerBoundaryIs>
            </Polygon>
        </Placemark>
        <Placemark id="1203">
            <name>Population_132</name>
            <styleUrl>#1208</styleUrl>
            <Polygon id="1202">
                <outerBoundaryIs>
                    <LinearRing id="1206">
                        <coordinates>-78.99071373494832,33.82621856151658,0.0 -78.99075693387715,33.82621926563333,0.0 -78.99078600435469,33.82624679150839,0.0 -78.99080135748602,33.82628310904694,0.0 -78.99081666433908,33.82632168189531,0.0 -78.99083191633807,33.82636250720862,0.0 -78.99083392871859,33.8263918454204,0.0 -78.99082244322467,33.82642096363442,0.0 -78.99082217057632,33.82643261553107,0.0 -78.9906642366379,33.82632176276818,0.0 -78.99066906062289,33.82628095178327,0.0 -78.99068631414941,33.826236149567684,0.0 -78.99071373494832,33.82621856151658,0.0</coordinates>
                    </LinearRing>
                </outerBoundaryIs>
            </Polygon>
        </Placemark>
        <Placemark id="1212">
            <name>Population_133</name>
            <styleUrl>#1217</styleUrl>
            <Polygon id="1211">
                <outerBoundaryIs>
                    <LinearRing id="1215">
                        <coordinates>-78.99089269615757,33.82641985348461,0.0 -78.99093059952807,33.82641596361104,0.0 -78.99093751835237,33.82642058760314,0.0 -78.99089744863677,33.82644438337779,0.0 -78.99089269615757,33.82641985348461,0.0</coordinates>
                    </LinearRing>
                </outerBoundaryIs>
            </Polygon>
        </Placemark>
        <Placemark id="1221">
            <name>Population_134</name>
            <styleUrl>#1226</styleUrl>
            <Polygon id="1220">
                <outerBoundaryIs>
                    <LinearRing id="1224">
                        <coordinates>-78.90618974676596,33.824779175923275,0.0 -78.90625425430314,33.82475889981516,0.0 -78.90617664612239,33.82512591080458,0.0 -78.90615220280728,33.82506028742284,0.0 -78.90615563661507,33.82491947159699,0.0 -78.90618974676596,33.824779175923275,0.0</coordinates>
                    </LinearRing>
                </outerBoundaryIs>
            </Polygon>
        </Placemark>
        <Placemark id="1230">
            <name>Population_135</name>
            <styleUrl>#1235</styleUrl>
            <Polygon id="1229">
                <outerBoundaryIs>
                    <LinearRing id="1233">
                        <coordinates>-78.90585306876993,33.826018918906925,0.0 -78.90585809571503,33.826013075717135,0.0 -78.90585247380083,33.826034099515226,0.0 -78.90585306876993,33.826018918906925,0.0</coordinates>
                    </LinearRing>
                </outerBoundaryIs>
            </Polygon>
        </Placemark>
        <Placemark id="1239">
            <name>Population_136</name>
            <styleUrl>#1244</styleUrl>
            <Polygon id="1238">
                <outerBoundaryIs>
                    <LinearRing id="1242">
                        <coordinates>-78.92652655576023,33.82652654095152,0.0 -78.9259321688212,33.82625110885287,0.0 -78.92501830747261,33.82650128441025,0.0 -78.92484326406925,33.8264925408033,0.0 -78.92470168364899,33.82620845736425,0.0 -78.92515481814358,33.82568192898584,0.0 -78.92514073507553,33.82507772306708,0.0 -78.92530153400533,33.824882885191265,0.0 -78.92591341487646,33.825073520089795,0.0 -78.92650098180471,33.8252008257067,0.0 -78.92679847660327,33.825075780266005,0.0 -78.92678776822055,33.82461675644264,0.0 -78.92647079831777,33.82436154392954,0.0 -78.92628337825982,33.82418574439002,0.0 -78.92624305220835,33.82412576086389,0.0 -78.92632578534219,33.82406775549602,0.0 -78.92632892431189,33.82393772758494,0.0 -78.92627512919208,33.82381856671025,0.0 -78.92621990465858,33.82375851108626,0.0 -78.9261788402,33.823698692751854,0.0 -78.9261100247039,33.823614755269745,0.0 -78.92597067888856,33.82351780634566,0.0 -78.92595879972538,33.8234230028204,0.0 -78.9258882715365,33.82340999140564,0.0 -78.9258457787981,33.82340927644803,0.0 -78.92572637597043,33.82339958585943,0.0 -78.92552716534895,33.82317346901515,0.0 -78.92519501652453,33.82272456438617,0.0 -78.92163567949302,33.82253477963606,0.0 -78.92103747366902,33.822348377043895,0.0 -78.9209285308921,33.821143565512735,0.0 -78.92028558807391,33.82045626517336,0.0 -78.91922773493194,33.82009172280108,0.0 -78.91826878660565,33.81971142011774,0.0 -78.91768432682137,33.819510000684005,0.0 -78.91724509726686,33.81930641013035,0.0 -78.91645487580539,33.81877908679035,0.0 -78.91568950267106,33.81834798319645,0.0 -78.91529984993342,33.81740702592869,0.0 -78.91507105223285,33.81691390349086,0.0 -78.91472235300913,33.81647202270198,0.0 -78.91470415798878,33.816357979391995,0.0 -78.9147079223063,33.816202969533414,0.0 -78.91468224712416,33.81608324979453,0.0 -78.91464228492981,33.815963287487676,0.0 -78.9145591796799,33.81585452384987,0.0 -78.91438833645716,33.81582777693981,0.0 -78.91429788550555,33.815826246768054,0.0 -78.91425940826066,33.81576638635845,0.0 -78.91403606829311,33.815483355294916,0.0 -78.9138471825291,33.81494789087351,0.0 -78.91373938034567,33.81476916597972,0.0 -78.91365586141343,33.813929740095645,0.0 -78.91396239882052,33.813244528181805,0.0 -78.9144523609381,33.812605999585415,0.0 -78.91444421443498,33.81225463987653,0.0 -78.91446435765813,33.81197416086346,0.0 -78.91523288599653,33.81168714330524,0.0 -78.91543369446427,33.811414797086286,0.0 -78.91545468981838,33.81151632445579,0.0 -78.91550832986228,33.811624588434825,0.0 -78.91564492458348,33.81162689772114,0.0 -78.91578168200762,33.811622501027536,0.0 -78.91579118211197,33.81156227178651,0.0 -78.91583249589858,33.81151600289532,0.0 -78.91583509826104,33.8114086879779,0.0 -78.91583737516007,33.81131478832253,0.0 -78.91582260893735,33.81126085925946,0.0 -78.9158162015607,33.81119365253124,0.0 -78.91582250757891,33.81115367626789,0.0 -78.91582768378755,33.81115092073539,0.0 -78.91610510044417,33.81125374719089,0.0 -78.91654030721232,33.81112613617105,0.0 -78.916803839478,33.810987079567774,0.0 -78.91673559350923,33.811229586815855,0.0 -78.9167453588581,33.81143693695745,0.0 -78.91670210492036,33.8118885898495,0.0 -78.91718457182627,33.81204236246009,0.0 -78.91806874789658,33.811891577605174,0.0 -78.91809950893892,33.81189617628172,0.0 -78.91816591751405,33.81190610353553,0.0 -78.9182323282878,33.811916029889275,0.0 -78.91829873689738,33.811925957072646,0.0 -78.91836212920302,33.811949540804854,0.0 -78.91842250516605,33.81198678379544,0.0 -78.91849646704785,33.812040165563126,0.0 -78.91856287579091,33.81205009260876,0.0 -78.91862928457306,33.81206001871784,0.0 -78.91869267921336,33.8120836032245,0.0 -78.91875305433989,33.81212084604311,0.0 -78.9187938131664,33.81216926509346,0.0 -78.91883457100202,33.81221768231084,0.0 -78.91892513449716,33.8122735459902,0.0 -78.9189855098816,33.81231078780139,0.0 -78.91905192214242,33.812320714647775,0.0 -78.91911531385986,33.812344298893066,0.0 -78.91919530895409,33.81237036525166,0.0 -78.9192677526938,33.81235297514385,0.0 -78.91933416181035,33.81236290088458,0.0 -78.9194171742937,33.81237530870513,0.0 -78.91948358342718,33.81238523526789,0.0 -78.9195530141738,33.81238150346515,0.0 -78.91963904071659,33.81238025358097,0.0 -78.91970846711621,33.81237652251868,0.0 -78.91976732355367,33.812342992512434,0.0 -78.91976278803871,33.812285878590025,0.0 -78.91972203071255,33.81223746167739,0.0 -78.91970088862357,33.812177867428154,0.0 -78.91966314975261,33.81211579030561,0.0 -78.91964201204952,33.81205619612074,0.0 -78.91960125383768,33.81200777825361,0.0 -78.91954087731784,33.8119705358208,0.0 -78.91955294304516,33.81191590485191,0.0 -78.91948653423984,33.81190597924052,0.0 -78.91941710716095,33.811909709272506,0.0 -78.91935069838004,33.811899783588686,0.0 -78.91928428639888,33.811889856913645,0.0 -78.91921787873221,33.81187993117762,0.0 -78.91915448621805,33.811856347878425,0.0 -78.91909410892698,33.81181910521897,0.0 -78.91903373384856,33.811781862568154,0.0 -78.91897034040312,33.81175827825898,0.0 -78.91890639978962,33.81174872131199,0.0 -78.91897077304378,33.81173774232608,0.0 -78.9191837236592,33.81142582558547,0.0 -78.91854546193292,33.810396292307644,0.0 -78.91801721356339,33.80908448248783,0.0 -78.91789714577016,33.80834302194056,0.0 -78.91757908339727,33.80809595395761,0.0 -78.91779402100187,33.80789043467831,0.0 -78.91791012775873,33.80780729819247,0.0 -78.9181266727624,33.80753537509903,0.0 -78.91840285308726,33.80740731972106,0.0 -78.9184599598408,33.80771836298768,0.0 -78.919048499359,33.80750838712887,0.0 -78.91960668900562,33.80761993384653,0.0 -78.92090442372292,33.80724676448161,0.0 -78.92170938755329,33.80774390189368,0.0 -78.92288153416847,33.80791327660773,0.0 -78.92315619834427,33.80811901773631,0.0 -78.92343265089826,33.808552987905415,0.0 -78.92367836783633,33.809287626935145,0.0 -78.92367738318657,33.80932837137439,0.0 -78.92371897499834,33.80940903207472,0.0 -78.92377032220637,33.80956254519071,0.0 -78.92383624100012,33.80964356680421,0.0 -78.9238410158989,33.80965320244463,0.0 -78.92386554888876,33.8098206162497,0.0 -78.92394866081864,33.80992937483665,0.0 -78.92406242064546,33.80992156638862,0.0 -78.92438212808635,33.81031451983857,0.0 -78.9246068041727,33.81122462575913,0.0 -78.92480699408091,33.81142668513374,0.0 -78.92510712710119,33.81157793861905,0.0 -78.92512208574686,33.81209626963859,0.0 -78.92527982356725,33.812234966957455,0.0 -78.9253034912804,33.81239276650776,0.0 -78.92527300945385,33.81247149433012,0.0 -78.92514432306754,33.812469327877466,0.0 -78.92480598901459,33.81240452595477,0.0 -78.9253674638404,33.813785298983376,0.0 -78.92557924658682,33.813812505783766,0.0 -78.92569392709648,33.81375532662454,0.0 -78.92589326561006,33.81371139366672,0.0 -78.92609203226154,33.813691094948645,0.0 -78.92621858843485,33.813728689095505,0.0 -78.92625849067032,33.81383575458703,0.0 -78.9264677067386,33.81396931283594,0.0 -78.92662172244593,33.8140428337786,0.0 -78.92683464601048,33.81402277104969,0.0 -78.92704671402977,33.814038158048376,0.0 -78.92737232255296,33.81404363226407,0.0 -78.92771066524979,33.814108430144515,0.0 -78.92778002337988,33.814168703692275,0.0 -78.92789128352912,33.81425332654381,0.0 -78.92803256668299,33.81426752217353,0.0 -78.92821632412033,33.81428243229513,0.0 -78.92831656242154,33.814236828279036,0.0 -78.92834269106072,33.814209921676365,0.0 -78.9288545706591,33.814489668147885,0.0 -78.92939464699272,33.815034721540414,0.0 -78.9300237012125,33.81550582463948,0.0 -78.93006775956403,33.81611732903144,0.0 -78.9300369141271,33.816127032741285,0.0 -78.93001476861009,33.81615648352317,0.0 -78.93000469179572,33.81617248890669,0.0 -78.92999514655136,33.8161746396807,0.0 -78.92999072428022,33.816181662657556,0.0 -78.92997311580068,33.816201389104954,0.0 -78.92994913918038,33.81620098652692,0.0 -78.92994335562811,33.8161972123128,0.0 -78.92994263106596,33.81618657639727,0.0 -78.92992228746766,33.816177654301804,0.0 -78.92990543798484,33.81616593160316,0.0 -78.92988146249873,33.81616552722781,0.0 -78.92986056657648,33.81617947811715,0.0 -78.92985112181971,33.816199063903866,0.0 -78.92982313450706,33.816205370180846,0.0 -78.92976859974992,33.81622699677491,0.0 -78.92974865886306,33.816235923216475,0.0 -78.92974252493792,33.816243279922126,0.0 -78.92970443284112,33.816259801289696,0.0 -78.92968997499727,33.816291019481376,0.0 -78.92967243535982,33.816307885967205,0.0 -78.9296687481461,33.816309420045364,0.0 -78.92966949365838,33.81631053533537,0.0 -78.92964589295953,33.81634114643471,0.0 -78.92969243265955,33.81635699165464,0.0 -78.92969503380168,33.81636546887084,0.0 -78.92973867229944,33.81637842952981,0.0 -78.92974092315097,33.81639910978842,0.0 -78.9297524962024,33.81641201439266,0.0 -78.92975188145257,33.81642362599288,0.0 -78.92981215982131,33.8164818406975,0.0 -78.92981752572796,33.81648452226634,0.0 -78.92982203354605,33.816489549157296,0.0 -78.92982588795809,33.81648869775886,0.0 -78.92983586087246,33.81649368026129,0.0 -78.9298566190673,33.816485447407345,0.0 -78.92986057364524,33.81648227763319,0.0 -78.92986220489051,33.81648245560671,0.0 -78.92986392353181,33.816479590029836,0.0 -78.92987059565674,33.816474241409345,0.0 -78.92990306094897,33.816474786537626,0.0 -78.92970510837702,33.81675741560244,0.0 -78.92968765763753,33.81677462351854,0.0 -78.92968679173589,33.81678356729866,0.0 -78.92968452956694,33.81678679704627,0.0 -78.92968608564863,33.81679085554884,0.0 -78.92966357601834,33.81702332175209,0.0 -78.92959283669596,33.817331628214944,0.0 -78.92944146634402,33.81760838274433,0.0 -78.92948157464924,33.81782041949426,0.0 -78.92974913914418,33.817975884231934,0.0 -78.93013459030153,33.818118230672326,0.0 -78.93050378182537,33.81818481955331,0.0 -78.9307111835496,33.8181452216379,0.0 -78.93077579200963,33.81827291370063,0.0 -78.93071529223087,33.818414826517916,0.0 -78.9305861860772,33.818518340558064,0.0 -78.9302207592215,33.81867072722468,0.0 -78.93002564086811,33.81888636154642,0.0 -78.93012072037655,33.819069124286216,0.0 -78.93053656848456,33.81907610560437,0.0 -78.93087719036811,33.81920260024593,0.0 -78.93108148107693,33.81935700201452,0.0 -78.93131361955656,33.819481674852724,0.0 -78.93156765535716,33.81944819430118,0.0 -78.93168917068343,33.81927397366406,0.0 -78.93226569763262,33.81918619157845,0.0 -78.93264965682006,33.818826824695336,0.0 -78.93287749032251,33.81876059341018,0.0 -78.93303389878234,33.818649987501345,0.0 -78.9330284878419,33.81849892351551,0.0 -78.93299172772569,33.81844428041058,0.0 -78.9331392963073,33.81753212871691,0.0 -78.93319486911297,33.81758229376173,0.0 -78.9331635803955,33.81762827767984,0.0 -78.9331729031495,33.81782940527866,0.0 -78.93331896915456,33.81823379385529,0.0 -78.93348880456492,33.81882772898265,0.0 -78.93364931494598,33.81922053899755,0.0 -78.93382654471166,33.819507231881715,0.0 -78.93402134404383,33.81965235729907,0.0 -78.93403379674893,33.81972349771817,0.0 -78.93427306045817,33.81978661584842,0.0 -78.93447297575894,33.819719034686706,0.0 -78.93465589283723,33.81976938679157,0.0 -78.93476716492131,33.81985400295174,0.0 -78.93502201075398,33.81985827194118,0.0 -78.93530460084169,33.819886648382386,0.0 -78.93561579189902,33.81990368190896,0.0 -78.93563364177759,33.81975029608388,0.0 -78.93564924624928,33.81973917890655,0.0 -78.93624367881533,33.81970931339798,0.0 -78.93738076131055,33.819857400039176,0.0 -78.93743776981323,33.81990008515814,0.0 -78.93735920550981,33.82045292048693,0.0 -78.93754939456318,33.82082873305823,0.0 -78.9381034891642,33.82087523635173,0.0 -78.9382353908802,33.82059305157072,0.0 -78.93829302314305,33.82027506893609,0.0 -78.93840101217368,33.82027687487266,0.0 -78.93840820212043,33.82033117883664,0.0 -78.93835764499207,33.820336808435485,0.0 -78.93834264134942,33.82036637926804,0.0 -78.93834864092082,33.82041419547225,0.0 -78.9383686391043,33.82047417339353,0.0 -78.9383964942615,33.82050446005931,0.0 -78.93839995085561,33.82050686407301,0.0 -78.93840998973155,33.82053537671974,0.0 -78.9384094372184,33.82055843823621,0.0 -78.93837248759941,33.820611417949515,0.0 -78.93837035382253,33.820621639040915,0.0 -78.93835091722349,33.82061702102922,0.0 -78.9383009148867,33.82061618390915,0.0 -78.9382576288035,33.820633353219506,0.0 -78.93823548262195,33.82066280548456,0.0 -78.93827748164816,33.820699294333465,0.0 -78.93836334149273,33.82069476551442,0.0 -78.93836905738006,33.820694861102794,0.0 -78.93837852305556,33.82069945844134,0.0 -78.93842498091024,33.82069700909263,0.0 -78.93845116950793,33.82071409682572,0.0 -78.93851320343802,33.82070323631898,0.0 -78.93861277897699,33.820722793714346,0.0 -78.93873378184865,33.82074271020518,0.0 -78.93880042271348,33.82075672408542,0.0 -78.9388036112631,33.82075949420296,0.0 -78.93881445340432,33.820759676381975,0.0 -78.93882621177269,33.820762149756085,0.0 -78.93884080506561,33.82076011606813,0.0 -78.9388775895884,33.82076073107925,0.0 -78.93894484016103,33.82076185543273,0.0 -78.93898801608216,33.82075413560088,0.0 -78.93901921905325,33.820759410989886,0.0 -78.9390693613592,33.82075428454826,0.0 -78.9390723334222,33.82075576702671,0.0 -78.9390796171732,33.820752878936325,0.0 -78.93913005699396,33.820753722153675,0.0 -78.9391497613034,33.82077370398586,0.0 -78.93924727923431,33.82077533504986,0.0 -78.93925406267569,33.820781231010606,0.0 -78.93929366358927,33.82078189297667,0.0 -78.93930292785781,33.82079123971133,0.0 -78.9398266144449,33.82093244233185,0.0 -78.94074532020551,33.82138061803827,0.0 -78.94048284183592,33.82175543834838,0.0 -78.94030729107001,33.8222090037087,0.0 -78.94007661076091,33.82270253129216,0.0 -78.93957515762828,33.82295315017303,0.0 -78.93919706135763,33.82316753602045,0.0 -78.93924515558652,33.823834048306765,0.0 -78.93905395542023,33.82437438504088,0.0 -78.93816798767658,33.824471948764106,0.0 -78.93845782486046,33.82482802763594,0.0 -78.93854706420043,33.825276341826815,0.0 -78.9375706801271,33.82544437389129,0.0 -78.93741154020492,33.82549014932225,0.0 -78.93697133388447,33.82509208269533,0.0 -78.93658706194631,33.82525851382182,0.0 -78.93647743399285,33.82515592710553,0.0 -78.93630828337169,33.82505766743785,0.0 -78.93632572338336,33.82492674405985,0.0 -78.9364008839748,33.82477292813285,0.0 -78.93648689119507,33.824762439377196,0.0 -78.93664691008476,33.82464583196087,0.0 -78.93665006292817,33.82451466847366,0.0 -78.93651092017987,33.824357267942254,0.0 -78.93642749126955,33.824260440636074,0.0 -78.93640092194384,33.82417649543029,0.0 -78.93633092331382,33.824115681104836,0.0 -78.93622948395671,33.82417362542825,0.0 -78.93614318962298,33.82419603861546,0.0 -78.93608346210493,33.824302396070316,0.0 -78.93602689139655,33.82427759190517,0.0 -78.93591316928853,33.82425183078247,0.0 -78.93591116510672,33.82433529764955,0.0 -78.93590829673934,33.82445453555482,0.0 -78.93604743842904,33.82461193943295,0.0 -78.93617286726256,33.82474525386849,0.0 -78.93619943650876,33.82482919911443,0.0 -78.93619656952478,33.8249484388526,0.0 -78.93619370254561,33.82506767768689,0.0 -78.93613283019931,33.82522172998453,0.0 -78.93604596261589,33.82526799138627,0.0 -78.93586023257285,33.825264881529954,0.0 -78.93576079700333,33.82523935856544,0.0 -78.93566136253347,33.825213837343554,0.0 -78.93553249478843,33.825223607716985,0.0 -78.9354587668122,33.825317802752316,0.0 -78.93546989985917,33.82544920451406,0.0 -78.93550989308864,33.82556916021444,0.0 -78.93544987809564,33.82568744279383,0.0 -78.93538033090269,33.825791200812276,0.0 -78.93539882550812,33.82580497645839,0.0 -78.93545320371528,33.825790108475076,0.0 -78.9355134140582,33.82575730337576,0.0 -78.93556228407859,33.82574685156004,0.0 -78.935602671984,33.82575203550422,0.0 -78.93563744552574,33.82576614414959,0.0 -78.93567216708702,33.825782505246345,0.0 -78.9357151476249,33.825792241939254,0.0 -78.93576088444318,33.82579976873649,0.0 -78.93580672736455,33.825802792433976,0.0 -78.93583362017998,33.82580774942172,0.0 -78.93585224533976,33.825819333367605,0.0 -78.93587433428668,33.8258271404094,0.0 -78.93586069324532,33.82583374682824,0.0 -78.93579530728742,33.82589915902596,0.0 -78.93570924828168,33.825925142904474,0.0 -78.93564893279913,33.825962453901674,0.0 -78.93559417525435,33.82599309614978,0.0 -78.93551809256873,33.826012110964676,0.0 -78.93543406843376,33.826024227321916,0.0 -78.93533665739093,33.82603161364205,0.0 -78.93527973948171,33.82603967723392,0.0 -78.93524728755648,33.826041387905356,0.0 -78.93517190920039,33.82603110927475,0.0 -78.93508837161633,33.82602294635146,0.0 -78.93505365329857,33.82600658604692,0.0 -78.93505959500307,33.82598414325134,0.0 -78.93507649994922,33.82595512140543,0.0 -78.93509362056099,33.82591708623828,0.0 -78.93511047021266,33.825890317693485,0.0 -78.93514087354264,33.82586152104582,0.0 -78.9351457630034,33.825856820367186,0.0 -78.93518234734455,33.82582163956225,0.0 -78.9351886151782,33.825785677726024,0.0 -78.93514595662097,33.82576241994502,0.0 -78.93509735965442,33.825761605003855,0.0 -78.93506733673422,33.82577462928589,0.0 -78.93504001158196,33.82578769694866,0.0 -78.93502029946336,33.825821180231486,0.0 -78.93501482138463,33.82585147912906,0.0 -78.93501095340098,33.825872870121145,0.0 -78.9349778490698,33.82590162058676,0.0 -78.93491855972901,33.82589611889031,0.0 -78.93486224235029,33.82587939579127,0.0 -78.93482736046707,33.825869795382474,0.0 -78.93480063359797,33.82585807555286,0.0 -78.93473886010055,33.82584351612364,0.0 -78.93465516015307,33.825842112888296,0.0 -78.93460640268881,33.82584805866279,0.0 -78.93459009491708,33.82585229388955,0.0 -78.9345763222486,33.825863335189815,0.0 -78.93455169689379,33.82587644797773,0.0 -78.93451136326009,33.82586900856243,0.0 -78.93445790739861,33.825845571431614,0.0 -78.93440401901087,33.825840159988324,0.0 -78.93435504038155,33.82585511888659,0.0 -78.93431162635797,33.82586340651305,0.0 -78.9342848995239,33.82585168837696,0.0 -78.93426664757791,33.82582433082581,0.0 -78.93426257955524,33.82582079744869,0.0 -78.93424019395813,33.82580134699862,0.0 -78.93421616382732,33.82578967313768,0.0 -78.93420293542955,33.82577818029121,0.0 -78.93416529958768,33.82577078687604,0.0 -78.9341033116205,33.825765238662875,0.0 -78.93407701425261,33.82573549382174,0.0 -78.93409959142518,33.825695295113896,0.0 -78.93413534054865,33.825668843444,0.0 -78.9341387994307,33.82563734215764,0.0 -78.93410186952818,33.825600655534394,0.0 -78.93405381374305,33.825577307831395,0.0 -78.93401326233094,33.8255788824375,0.0 -78.93399128156794,33.825594293668814,0.0 -78.93397470164892,33.825609795414856,0.0 -78.93394727011946,33.825627369514656,0.0 -78.93391724600788,33.82564039349382,0.0 -78.93390396347553,33.825631153039524,0.0 -78.933915577396,33.82559753421241,0.0 -78.93393782710763,33.82557085634121,0.0 -78.93396239826288,33.82555999609785,0.0 -78.93398691299119,33.82555139093943,0.0 -78.93399004555727,33.82553340868095,0.0 -78.9339581902181,33.825510332459494,0.0 -78.93391267066804,33.82549378990763,0.0 -78.93386990739826,33.82547503930482,0.0 -78.93383016827786,33.82544281398248,0.0 -78.93382050633255,33.82539531315837,0.0 -78.93383784533103,33.82534826490335,0.0 -78.93383860330276,33.825316720158995,0.0 -78.9338282386905,33.825298510774005,0.0 -78.93385539903156,33.825292203314504,0.0 -78.93390245922234,33.82529985035773,0.0 -78.93390154753128,33.8252960723126,0.0 -78.93376097525507,33.825198287287144,0.0 -78.93372140916216,33.82519762408417,0.0 -78.93371840222733,33.825185646087846,0.0 -78.93367668795011,33.82513723017561,0.0 -78.93356239269276,33.82513531516016,0.0 -78.93352068064586,33.8250869010378,0.0 -78.93330752601433,33.82503561272038,0.0 -78.93315037110061,33.82503297785761,0.0 -78.9329800766439,33.8249824084958,0.0 -78.93296464406521,33.82502986369562,0.0 -78.93296380468577,33.825064687422504,0.0 -78.93296263153823,33.82511333120759,0.0 -78.93296208001074,33.82513624208762,0.0 -78.93296205854702,33.8251371785865,0.0 -78.93323236082679,33.82518942565484,0.0 -78.93326007420144,33.82522567577762,0.0 -78.93315776832065,33.82531939024739,0.0 -78.93300003989589,33.82534060345446,0.0 -78.93299848836287,33.825405100766986,0.0 -78.9328906670428,33.82540738014691,0.0 -78.93262485366992,33.82511864041663,0.0 -78.93220057229321,33.825002073932836,0.0 -78.93160555344834,33.82528071777975,0.0 -78.93160580430722,33.82527927387092,0.0 -78.93162795036685,33.825257104053904,0.0 -78.93164723049158,33.825241647937084,0.0 -78.93167450058404,33.825230834340836,0.0 -78.93170754928833,33.82520433717452,0.0 -78.93173001666057,33.82516864644016,0.0 -78.93174433013648,33.825135073125736,0.0 -78.9317560511615,33.825096949654046,0.0 -78.93175664283231,33.825096516850074,0.0 -78.93163326127647,33.82504470031982,0.0 -78.93152237998092,33.82497574756414,0.0 -78.93144234765126,33.82496098652122,0.0 -78.93138084732308,33.82493401911946,0.0 -78.93155188819802,33.82530584826348,0.0 -78.93149445850163,33.82533274238389,0.0 -78.93118639694083,33.82466304972825,0.0 -78.93109003256592,33.82449145261245,0.0 -78.93099625552756,33.824402738235776,0.0 -78.93084986330959,33.82430703528799,0.0 -78.93079943426432,33.824285983694736,0.0 -78.93079894939889,33.82430610493695,0.0 -78.93079733119848,33.82437316819643,0.0 -78.93079571616735,33.824440234213505,0.0 -78.9307783538034,33.82449361691368,0.0 -78.9307609881981,33.82454699865446,0.0 -78.93075937314974,33.824614063766774,0.0 -78.93075775485622,33.8246811288239,0.0 -78.93077221148438,33.824748463713405,0.0 -78.9308030609293,33.82480265387958,0.0 -78.9308178386819,33.82485657516887,0.0 -78.93086508415108,33.82489762425545,0.0 -78.93091200216962,33.82495208501028,0.0 -78.93092678107026,33.82500600720828,0.0 -78.93095763067696,33.82506019824211,0.0 -78.93098847921952,33.82511439015241,0.0 -78.93100325713294,33.825168311423305,0.0 -78.93100164329411,33.825235377458576,0.0 -78.9310000273552,33.825302440752814,0.0 -78.93099841028756,33.825369505830785,0.0 -78.93098104672737,33.82542288943288,0.0 -78.9309633589329,33.825489682967216,0.0 -78.93091417489578,33.82552911257601,0.0 -78.93086499081355,33.825568542163225,0.0 -78.93081580774442,33.825607972648314,0.0 -78.93078237328092,33.825661084650406,0.0 -78.93074893769479,33.82571419662328,0.0 -78.93073157390003,33.82576758017899,0.0 -78.93071421120541,33.82582096194648,0.0 -78.93071259388304,33.825888027006684,0.0 -78.930710977657,33.825955091182884,0.0 -78.9307313959562,33.825990957902924,0.0 -78.93077713799217,33.825964538823776,0.0 -78.93087980405214,33.82592663007183,0.0 -78.9309044707233,33.825912543092976,0.0 -78.930931618549,33.825908161190355,0.0 -78.93094279751202,33.825897708859266,0.0 -78.93097925223879,33.82619021293362,0.0 -78.93163890843253,33.825965576321956,0.0 -78.9316690155651,33.8259982809249,0.0 -78.93163109437333,33.826023594446774,0.0 -78.93159485583082,33.826070325234454,0.0 -78.93157486981511,33.82611507539501,0.0 -78.93156120750105,33.82612160793533,0.0 -78.9315483050783,33.826096596698754,0.0 -78.9315325400041,33.826078296511206,0.0 -78.9315081877104,33.82608014300869,0.0 -78.9314860988997,33.826100060428125,0.0 -78.9314693024278,33.82612457331002,0.0 -78.93144732108738,33.826139984063865,0.0 -78.93142307840557,33.82613732482372,0.0 -78.93139100534948,33.82612326121894,0.0 -78.93135056121653,33.826120326476925,0.0 -78.93132334506541,33.82612888756961,0.0 -78.93130411790814,33.826142089384945,0.0 -78.93127652277447,33.826166424623175,0.0 -78.93124871052719,33.82619977042851,0.0 -78.93124525269312,33.82623127252801,0.0 -78.93125922683006,33.82624955622062,0.0 -78.93126096132337,33.82625182423126,0.0 -78.93127959026347,33.82626340801922,0.0 -78.93130620925673,33.8262796343545,0.0 -78.93130042618482,33.82629531691756,0.0 -78.93124631956726,33.82629891644889,0.0 -78.93121883191218,33.8263187432115,0.0 -78.93121851775798,33.826331781818865,0.0 -78.93108160620211,33.82635533191169,0.0 -78.93106725939238,33.82633197984478,0.0 -78.9310139661252,33.826301779467684,0.0 -78.9309642426081,33.82623557310168,0.0 -78.930920190481,33.82615818985727,0.0 -78.93090086079548,33.82611619370223,0.0 -78.93089195772566,33.82609685084249,0.0 -78.93086026596376,33.82606701388846,0.0 -78.9308170665647,33.82606628875734,0.0 -78.93078968859983,33.82608160790298,0.0 -78.93074594935442,33.82610341779202,0.0 -78.93067785243656,33.82612707120219,0.0 -78.93062325499065,33.82615095029452,0.0 -78.93057951463331,33.826172758300544,0.0 -78.93053842092328,33.826196864953054,0.0 -78.93048938716355,33.826214076500705,0.0 -78.93043247311732,33.82622213790407,0.0 -78.93038889455991,33.82623718496475,0.0 -78.93036145781187,33.82625475815696,0.0 -78.93036108927491,33.826254987310975,0.0 -78.92999266085047,33.82631835751267,0.0 -78.9298831931575,33.82630512273187,0.0 -78.92925556534789,33.82635959936166,0.0 -78.92843081472544,33.826501447855115,0.0 -78.92801851646833,33.82645159243075,0.0 -78.92777905412969,33.82669111311279,0.0 -78.92773179199162,33.82672141703085,0.0 -78.9276377012356,33.82665595760764,0.0 -78.9275388405213,33.8266424707599,0.0 -78.92738589526572,33.82652164333675,0.0 -78.92721907211461,33.82638875759211,0.0 -78.92708903281908,33.82649300112628,0.0 -78.92707315577255,33.826563686417934,0.0 -78.92700033950155,33.826645241658134,0.0 -78.92698682434447,33.82672276360354,0.0 -78.92697655010792,33.82671312666882,0.0 -78.92652655576023,33.82652654095152,0.0</coordinates>
                    </LinearRing>
                </outerBoundaryIs>
            </Polygon>
        </Placemark>
        <Placemark id="1248">
            <name>Population_137</name>
            <styleUrl>#1253</styleUrl>
            <Polygon id="1247">
                <outerBoundaryIs>
                    <LinearRing id="1251">
                        <coordinates>-78.9270821471875,33.82681217331681,0.0 -78.92710965389082,33.82681263587626,0.0 -78.92719377698386,33.82684952661445,0.0 -78.92724929047671,33.82689776371351,0.0 -78.92727574676363,33.82692074995423,0.0 -78.9272751749338,33.82694439260319,0.0 -78.92727402326277,33.82699214394053,0.0 -78.9270821471875,33.82681217331681,0.0</coordinates>
                    </LinearRing>
                </outerBoundaryIs>
            </Polygon>
        </Placemark>
        <Placemark id="1257">
            <name>Population_138</name>
            <styleUrl>#1262</styleUrl>
            <Polygon id="1256">
                <outerBoundaryIs>
                    <LinearRing id="1260">
                        <coordinates>-79.00465768474955,33.82828739180018,0.0 -79.00488482403915,33.828199924544634,0.0 -79.00501044966609,33.82825653359108,0.0 -79.00479869794657,33.82825310732606,0.0 -79.00465768474955,33.82828739180018,0.0</coordinates>
                    </LinearRing>
                </outerBoundaryIs>
            </Polygon>
        </Placemark>
        <Placemark id="1266">
            <name>Population_139</name>
            <styleUrl>#1271</styleUrl>
            <Polygon id="1265">
                <outerBoundaryIs>
                    <LinearRing id="1269">
                        <coordinates>-79.00512646445972,33.82830990764795,0.0 -79.00508405444944,33.82828970114789,0.0 -79.0053324579046,33.828401636395164,0.0 -79.00523815107749,33.828371794915256,0.0 -79.00512646445972,33.82830990764795,0.0</coordinates>
                    </LinearRing>
                </outerBoundaryIs>
            </Polygon>
        </Placemark>
    </Document>
</kml>
