<?xml version="1.0" encoding="UTF-8"?>
<kml xmlns="http://www.opengis.net/kml/2.2" xmlns:gx="http://www.google.com/kml/ext/2.2">
    <Document id="365">
        <Style id="372">
            <LineStyle id="374">
                <colorMode>normal</colorMode>
                <width>1</width>
            </LineStyle>
            <PolyStyle id="373">
                <color>800000ff</color>
                <colorMode>normal</colorMode>
                <fill>1</fill>
                <outline>1</outline>
            </PolyStyle>
        </Style>
        <Style id="381">
            <LineStyle id="383">
                <colorMode>normal</colorMode>
                <width>1</width>
            </LineStyle>
            <PolyStyle id="382">
                <color>800000ff</color>
                <colorMode>normal</colorMode>
                <fill>1</fill>
                <outline>1</outline>
            </PolyStyle>
        </Style>
        <Style id="390">
            <LineStyle id="392">
                <colorMode>normal</colorMode>
                <width>1</width>
            </LineStyle>
            <PolyStyle id="391">
                <color>800000ff</color>
                <colorMode>normal</colorMode>
                <fill>1</fill>
                <outline>1</outline>
            </PolyStyle>
        </Style>
        <Style id="399">
            <LineStyle id="401">
                <colorMode>normal</colorMode>
                <width>1</width>
            </LineStyle>
            <PolyStyle id="400">
                <color>800000ff</color>
                <colorMode>normal</colorMode>
                <fill>1</fill>
                <outline>1</outline>
            </PolyStyle>
        </Style>
        <Style id="408">
            <LineStyle id="410">
                <colorMode>normal</colorMode>
                <width>1</width>
            </LineStyle>
            <PolyStyle id="409">
                <color>800000ff</color>
                <colorMode>normal</colorMode>
                <fill>1</fill>
                <outline>1</outline>
            </PolyStyle>
        </Style>
        <Style id="417">
            <LineStyle id="419">
                <colorMode>normal</colorMode>
                <width>1</width>
            </LineStyle>
            <PolyStyle id="418">
                <color>800000ff</color>
                <colorMode>normal</colorMode>
                <fill>1</fill>
                <outline>1</outline>
            </PolyStyle>
        </Style>
        <Style id="426">
            <LineStyle id="428">
                <colorMode>normal</colorMode>
                <width>1</width>
            </LineStyle>
            <PolyStyle id="427">
                <color>800000ff</color>
                <colorMode>normal</colorMode>
                <fill>1</fill>
                <outline>1</outline>
            </PolyStyle>
        </Style>
        <Style id="435">
            <LineStyle id="437">
                <colorMode>normal</colorMode>
                <width>1</width>
            </LineStyle>
            <PolyStyle id="436">
                <color>800000ff</color>
                <colorMode>normal</colorMode>
                <fill>1</fill>
                <outline>1</outline>
            </PolyStyle>
        </Style>
        <Style id="444">
            <LineStyle id="446">
                <colorMode>normal</colorMode>
                <width>1</width>
            </LineStyle>
            <PolyStyle id="445">
                <color>800000ff</color>
                <colorMode>normal</colorMode>
                <fill>1</fill>
                <outline>1</outline>
            </PolyStyle>
        </Style>
        <Style id="453">
            <LineStyle id="455">
                <colorMode>normal</colorMode>
                <width>1</width>
            </LineStyle>
            <PolyStyle id="454">
                <color>800000ff</color>
                <colorMode>normal</colorMode>
                <fill>1</fill>
                <outline>1</outline>
            </PolyStyle>
        </Style>
        <Style id="462">
            <LineStyle id="464">
                <colorMode>normal</colorMode>
                <width>1</width>
            </LineStyle>
            <PolyStyle id="463">
                <color>800000ff</color>
                <colorMode>normal</colorMode>
                <fill>1</fill>
                <outline>1</outline>
            </PolyStyle>
        </Style>
        <Style id="471">
            <LineStyle id="473">
                <colorMode>normal</colorMode>
                <width>1</width>
            </LineStyle>
            <PolyStyle id="472">
                <color>800000ff</color>
                <colorMode>normal</colorMode>
                <fill>1</fill>
                <outline>1</outline>
            </PolyStyle>
        </Style>
        <Style id="480">
            <LineStyle id="482">
                <colorMode>normal</colorMode>
                <width>1</width>
            </LineStyle>
            <PolyStyle id="481">
                <color>800000ff</color>
                <colorMode>normal</colorMode>
                <fill>1</fill>
                <outline>1</outline>
            </PolyStyle>
        </Style>
        <Style id="489">
            <LineStyle id="491">
                <colorMode>normal</colorMode>
                <width>1</width>
            </LineStyle>
            <PolyStyle id="490">
                <color>800000ff</color>
                <colorMode>normal</colorMode>
                <fill>1</fill>
                <outline>1</outline>
            </PolyStyle>
        </Style>
        <Style id="498">
            <LineStyle id="500">
                <colorMode>normal</colorMode>
                <width>1</width>
            </LineStyle>
            <PolyStyle id="499">
                <color>800000ff</color>
                <colorMode>normal</colorMode>
                <fill>1</fill>
                <outline>1</outline>
            </PolyStyle>
        </Style>
        <Style id="507">
            <LineStyle id="509">
                <colorMode>normal</colorMode>
                <width>1</width>
            </LineStyle>
            <PolyStyle id="508">
                <color>800000ff</color>
                <colorMode>normal</colorMode>
                <fill>1</fill>
                <outline>1</outline>
            </PolyStyle>
        </Style>
        <Style id="516">
            <LineStyle id="518">
                <colorMode>normal</colorMode>
                <width>1</width>
            </LineStyle>
            <PolyStyle id="517">
                <color>800000ff</color>
                <colorMode>normal</colorMode>
                <fill>1</fill>
                <outline>1</outline>
            </PolyStyle>
        </Style>
        <Style id="525">
            <LineStyle id="527">
                <colorMode>normal</colorMode>
                <width>1</width>
            </LineStyle>
            <PolyStyle id="526">
                <color>800000ff</color>
                <colorMode>normal</colorMode>
                <fill>1</fill>
                <outline>1</outline>
            </PolyStyle>
        </Style>
        <Style id="534">
            <LineStyle id="536">
                <colorMode>normal</colorMode>
                <width>1</width>
            </LineStyle>
            <PolyStyle id="535">
                <color>800000ff</color>
                <colorMode>normal</colorMode>
                <fill>1</fill>
                <outline>1</outline>
            </PolyStyle>
        </Style>
        <Style id="543">
            <LineStyle id="545">
                <colorMode>normal</colorMode>
                <width>1</width>
            </LineStyle>
            <PolyStyle id="544">
                <color>800000ff</color>
                <colorMode>normal</colorMode>
                <fill>1</fill>
                <outline>1</outline>
            </PolyStyle>
        </Style>
        <Placemark id="367">
            <name>Population_40</name>
            <styleUrl>#372</styleUrl>
            <Polygon id="366">
                <outerBoundaryIs>
                    <LinearRing id="370">
                        <coordinates>-79.06748427736444,33.76033625033169,0.0 -79.06749234019355,33.76028953897554,0.0 -79.06749384219697,33.760321458474216,0.0 -79.06749235950012,33.76038620557912,0.0 -79.067485797644,33.76045656214691,0.0 -79.06747489765837,33.76052702660833,0.0 -79.06746136442965,33.7605915308744,0.0 -79.06744665183727,33.76064557013148,0.0 -79.06743123770327,33.76068743316691,0.0 -79.0674148817821,33.76071820370365,0.0 -79.06739742607394,33.76074073594562,0.0 -79.06737955934503,33.7607583491255,0.0 -79.06736292416947,33.76077390671271,0.0 -79.06734954895998,33.760789580282136,0.0 -79.06734095241153,33.76080682646995,0.0 -79.06733738879771,33.760826245303,0.0 -79.06733759691505,33.76084741395463,0.0 -79.06733908988048,33.760869154588995,0.0 -79.0673388964028,33.76089032236075,0.0 -79.06733452944952,33.760910611403844,0.0 -79.06732485210709,33.76093065045025,0.0 -79.06731040666901,33.7609512902079,0.0 -79.06729299780764,33.760972694201506,0.0 -79.06727469110457,33.76099412831388,0.0 -79.06725686758205,33.76101452578905,0.0 -79.06723995620456,33.76103329369643,0.0 -79.06722392539199,33.76105058844264,0.0 -79.0672089591184,33.76106696747344,0.0 -79.06719574302568,33.76108290772315,0.0 -79.06718514530219,33.76109868970377,0.0 -79.06717757659635,33.76111453626347,0.0 -79.06717253574665,33.76113064965547,0.0 -79.06716866126828,33.76114698601015,0.0 -79.06716431909724,33.76116304361801,0.0 -79.06715831741286,33.76117804996419,0.0 -79.06715026285038,33.76119144522477,0.0 -79.06714027557511,33.7612032628422,0.0 -79.06712841388891,33.761214127726014,0.0 -79.06711429065139,33.76122493373697,0.0 -79.06709722164223,33.76123653491442,0.0 -79.06707689169855,33.76124964860521,0.0 -79.06705407575127,33.76126491004207,0.0 -79.06703080586445,33.76128288578226,0.0 -79.06700973944125,33.761303795096005,0.0 -79.0669929158489,33.76132706216722,0.0 -79.06698070608128,33.76135116618197,0.0 -79.06697159233305,33.76137413021834,0.0 -79.06696300973964,33.76139445058931,0.0 -79.06695259866264,33.76141177291994,0.0 -79.06693923146247,33.76142684150518,0.0 -79.06692320908184,33.76144072600093,0.0 -79.06690579171458,33.76145384651675,0.0 -79.06689863194862,33.761458594668404,0.0 -79.06689579799156,33.761466669439734,0.0 -79.06682921952245,33.76153799013099,0.0 -79.06666500095561,33.761616826193176,0.0 -79.06654530306898,33.76164208638272,0.0 -79.06645849319804,33.761649771331335,0.0 -79.06645991284458,33.76158647506209,0.0 -79.06644205128742,33.76152165480875,0.0 -79.06684013889338,33.761090573483585,0.0 -79.06705034323922,33.76081337284792,0.0 -79.06748427736444,33.76033625033169,0.0</coordinates>
                    </LinearRing>
                </outerBoundaryIs>
            </Polygon>
        </Placemark>
        <Placemark id="376">
            <name>Population_41</name>
            <styleUrl>#381</styleUrl>
            <Polygon id="375">
                <outerBoundaryIs>
                    <LinearRing id="379">
                        <coordinates>-79.08149142934063,33.76304733477078,0.0 -79.08137191331247,33.76294372677915,0.0 -79.0812962305045,33.762868709800536,0.0 -79.08128788144819,33.76285477084832,0.0 -79.08128129197625,33.762836144101094,0.0 -79.08128916059061,33.762830516114896,0.0 -79.08129165572915,33.76271863104111,0.0 -79.08129187400715,33.762708838920894,0.0 -79.08131889116446,33.762709259037784,0.0 -79.08166079205161,33.76278823577391,0.0 -79.08174657810689,33.76289625519423,0.0 -79.08174456919339,33.762986397166515,0.0 -79.08217627543323,33.762993107933575,0.0 -79.0826944990306,33.76318160903243,0.0 -79.08269276768249,33.7632593339877,0.0 -79.08270358568672,33.76332055025764,0.0 -79.08272108299084,33.76335915297519,0.0 -79.08259239430019,33.76339004754469,0.0 -79.08245639577537,33.76347950859468,0.0 -79.08238151295787,33.7635597432843,0.0 -79.08227009653572,33.763639411914255,0.0 -79.08218416692854,33.763668601765985,0.0 -79.08200013336642,33.76372679023779,0.0 -79.08196269216562,33.76376690879833,0.0 -79.08189998503443,33.763847332447824,0.0 -79.08186209255145,33.76390779334443,0.0 -79.08183728206076,33.763927757930304,0.0 -79.08179794882446,33.76394342631915,0.0 -79.08178924892852,33.763896486672486,0.0 -79.08164628326722,33.76375181470232,0.0 -79.08159983617004,33.76364934293341,0.0 -79.08151640131521,33.76356664543385,0.0 -79.08145755248103,33.763474155927874,0.0 -79.08145873350543,33.76342112269783,0.0 -79.08146027094655,33.76335209918661,0.0 -79.08148870769264,33.76316939237139,0.0 -79.08149142934063,33.76304733477078,0.0</coordinates>
                    </LinearRing>
                </outerBoundaryIs>
            </Polygon>
        </Placemark>
        <Placemark id="385">
            <name>Population_42</name>
            <styleUrl>#390</styleUrl>
            <Polygon id="384">
                <outerBoundaryIs>
                    <LinearRing id="388">
                        <coordinates>-78.79871808569219,33.76035237093747,0.0 -78.79874038082839,33.76033584165562,0.0 -78.79874007033088,33.76034798252192,0.0 -78.7987339195386,33.7603488961782,0.0 -78.79871808569219,33.76035237093747,0.0</coordinates>
                    </LinearRing>
                </outerBoundaryIs>
            </Polygon>
        </Placemark>
        <Placemark id="394">
            <name>Population_43</name>
            <styleUrl>#399</styleUrl>
            <Polygon id="393">
                <outerBoundaryIs>
                    <LinearRing id="397">
                        <coordinates>-79.13617637441146,33.76715705909674,0.0 -79.1354636031976,33.766845474148504,0.0 -79.13542864051287,33.76678506470199,0.0 -79.13566495910815,33.76672648401716,0.0 -79.13589977275761,33.7657914333719,0.0 -79.13652724252304,33.765245958349134,0.0 -79.13694233004973,33.76513144264975,0.0 -79.13766077637139,33.76516609730828,0.0 -79.13822641985898,33.76450543827221,0.0 -79.1379249569228,33.76400808299525,0.0 -79.137970222897,33.76403798167544,0.0 -79.13799999611635,33.764052389053305,0.0 -79.13802308405508,33.76406669644319,0.0 -79.13806944109447,33.764086937651875,0.0 -79.13807272119945,33.76408977894517,0.0 -79.13813250592726,33.76410743185727,0.0 -79.13817230171676,33.76412199042873,0.0 -79.13818298079009,33.764125829776255,0.0 -79.13819891235048,33.76412797645183,0.0 -79.1382289874615,33.76412843024808,0.0 -79.13826240089446,33.76412893440687,0.0 -79.13826908401288,33.764129035244075,0.0 -79.13827935015577,33.76411802295483,0.0 -79.13826026775223,33.7640730662831,0.0 -79.13824063988334,33.764053228452234,0.0 -79.13822077378937,33.764044554211495,0.0 -79.13819422350929,33.76403577911075,0.0 -79.13816445029975,33.76402136997594,0.0 -79.13812823867462,33.76399569829825,0.0 -79.13812167523,33.7639900156657,0.0 -79.13807537862054,33.7639669826904,0.0 -79.13804888659512,33.763955416641195,0.0 -79.13803230174139,33.763949582779894,0.0 -79.13802239783446,33.763943849733934,0.0 -79.13796959818578,33.76391234499997,0.0 -79.1379588235013,33.76389925230692,0.0 -79.13805485191162,33.763647413474345,0.0 -79.13869777177173,33.762804977649694,0.0 -79.13795970372037,33.76217759242001,0.0 -79.13709401044225,33.761880877879676,0.0 -79.13679328025457,33.76163956656789,0.0 -79.13677600170341,33.760969643165794,0.0 -79.13703019094395,33.76003911801479,0.0 -79.13675834341547,33.759623628221775,0.0 -79.13597322497877,33.75918316312115,0.0 -79.13606710728868,33.75837931984892,0.0 -79.1360728539332,33.75837234058933,0.0 -79.13613817566997,33.75827371524898,0.0 -79.13620349729224,33.7581750880646,0.0 -79.1362945922636,33.75809229967233,0.0 -79.13638822921055,33.7579978539833,0.0 -79.13647932601242,33.757915063669635,0.0 -79.13653048803299,33.7578143477377,0.0 -79.13658165314729,33.75771363272925,0.0 -79.1366328160177,33.75761291585845,0.0 -79.13654894993121,33.757528354469514,0.0 -79.13644695851312,33.75749323694329,0.0 -79.1370540607983,33.756607871976804,0.0 -79.1371809721699,33.756537715046825,0.0 -79.13717422020169,33.75654945572576,0.0 -79.13717374005465,33.7565716972064,0.0 -79.13717365040046,33.756575741076404,0.0 -79.13718765064714,33.75660022375765,0.0 -79.13718224056541,33.756626435140106,0.0 -79.13714817479716,33.75663401224376,0.0 -79.13713840667339,33.756637910910925,0.0 -79.13714272201184,33.75666224649284,0.0 -79.13715482547227,33.75666242920409,0.0 -79.1371690871361,33.75667478016359,0.0 -79.1371785074184,33.75668705803829,0.0 -79.1372024529222,33.75669955607835,0.0 -79.13722626613277,33.756718119050156,0.0 -79.13723941951854,33.756669774921455,0.0 -79.13725178547732,33.75665782501367,0.0 -79.13726160054328,33.75665190623782,0.0 -79.13730759261183,33.75665260047352,0.0 -79.13732937776106,33.75665292930747,0.0 -79.13733681591268,33.75664495023235,0.0 -79.1373516462705,33.75663101580241,0.0 -79.13737875395289,33.75660917713869,0.0 -79.13742047760367,33.75658351204953,0.0 -79.13742100035003,33.756559248597945,0.0 -79.13742104409208,33.75655722664636,0.0 -79.13742196375308,33.756514765679114,0.0 -79.13741553278757,33.75647623898821,0.0 -79.13742539050368,33.756468297328716,0.0 -79.1374719970259,33.756440683307694,0.0 -79.13747269577699,33.7564083329658,0.0 -79.13747555388687,33.756388149082944,0.0 -79.13749034045617,33.75637623568379,0.0 -79.13752457995417,33.75636057155893,0.0 -79.13755644249483,33.756342848938374,0.0 -79.13756150361378,33.7563328131648,0.0 -79.13756216552217,33.7563307608659,0.0 -79.13779706749304,33.756279868477506,0.0 -79.13779702311687,33.756281920177464,0.0 -79.13784427552478,33.75634228089697,0.0 -79.13785824191626,33.75635680593631,0.0 -79.13789474364341,33.75638598801854,0.0 -79.1379339473841,33.75642236620167,0.0 -79.13795352395483,33.75644175061968,0.0 -79.13798385033327,33.75649231002283,0.0 -79.13799511587446,33.75649963805272,0.0 -79.13802917474776,33.75650969601849,0.0 -79.13804692847926,33.75648133351996,0.0 -79.13808741965667,33.756458084312754,0.0 -79.13809037625639,33.75645335779396,0.0 -79.138093748752,33.756429549429846,0.0 -79.13805511451264,33.75636693372368,0.0 -79.13804140276557,33.75634048247299,0.0 -79.13800209908189,33.75630887484553,0.0 -79.13798522445977,33.75629668924984,0.0 -79.13797951214652,33.75629660395877,0.0 -79.13792899354557,33.75625528122306,0.0 -79.13792530360045,33.75625208567092,0.0 -79.13862033680054,33.75610150178179,0.0 -79.13863583364045,33.7558773048953,0.0 -79.1386291744158,33.75561935696484,0.0 -79.13880449981377,33.755466915759456,0.0 -79.13905551670557,33.755701566884184,0.0 -79.1395928778604,33.755573182028385,0.0 -79.14013273725966,33.75510377456483,0.0 -79.14050341182431,33.75494702122195,0.0 -79.14095615117377,33.75521742600442,0.0 -79.14228968984455,33.75554967414834,0.0 -79.14262399066234,33.755971551428,0.0 -79.1425984744175,33.756026931291366,0.0 -79.14259810822301,33.756026891513294,0.0 -79.14256143540045,33.756026338626604,0.0 -79.14252170835861,33.7560257415602,0.0 -79.14250337247815,33.75602546556571,0.0 -79.14245153241359,33.756019577762316,0.0 -79.14242097223716,33.75601911864876,0.0 -79.14241180537734,33.75601898066065,0.0 -79.14239910210301,33.756046601960826,0.0 -79.1424414292957,33.756062835690685,0.0 -79.14248415655683,33.75606603078407,0.0 -79.14249943612396,33.7560662598754,0.0 -79.14253599775076,33.75607191768952,0.0 -79.14257244815411,33.756082681302935,0.0 -79.14257278594897,33.756082686387316,0.0 -79.14252672196962,33.75618266385819,0.0 -79.14252520135143,33.75618264096972,0.0 -79.14247612371453,33.75618026016151,0.0 -79.14246433651554,33.75618008183261,0.0 -79.14243093899859,33.756179580912864,0.0 -79.14238775389735,33.756177288768846,0.0 -79.14235825045567,33.75617848582013,0.0 -79.14235628627917,33.75617845625251,0.0 -79.14233628721145,33.75619457056232,0.0 -79.14232807429815,33.75621086139259,0.0 -79.14230996967572,33.756230286568034,0.0 -79.14230365227186,33.75624988918472,0.0 -79.14231308369239,33.75626808770608,0.0 -79.14236225978088,33.75630413490878,0.0 -79.1423712752631,33.756303434704776,0.0 -79.142390922453,33.756303730459415,0.0 -79.14243210696186,33.75630763366479,0.0 -79.14243679848201,33.756308397727445,0.0 -79.14147541995528,33.75714433457816,0.0 -79.14129329432373,33.757280270800386,0.0 -79.14125939764799,33.757213862536126,0.0 -79.14109443150329,33.757428698969655,0.0 -79.14092145917604,33.757557802915386,0.0 -79.14073946012724,33.75800948241253,0.0 -79.14061904682002,33.758191535585475,0.0 -79.14055002239647,33.758187416050674,0.0 -79.14034348088714,33.75818422785338,0.0 -79.14016867920223,33.75830173823914,0.0 -79.14011949752314,33.75845144129436,0.0 -79.14018541200686,33.75852941395098,0.0 -79.14029784982269,33.75854601074018,0.0 -79.14036509412684,33.75865749142401,0.0 -79.1403001450709,33.75878969844432,0.0 -79.14027372044758,33.75884078890053,0.0 -79.14025714498015,33.75884710198671,0.0 -79.13997901960596,33.75925322167099,0.0 -79.1400356955962,33.759300997313595,0.0 -79.13999560298507,33.75937851289266,0.0 -79.1399199205841,33.75965561064356,0.0 -79.13991158246864,33.759638485275175,0.0 -79.13988026408703,33.7596192460791,0.0 -79.13986306136579,33.75961670715028,0.0 -79.1398561802737,33.75961569175836,0.0 -79.13982177809277,33.75961061303912,0.0 -79.13979902382381,33.75963356387512,0.0 -79.13978191728184,33.759663196104555,0.0 -79.13975916298804,33.7596861469322,0.0 -79.13974575747804,33.75969878567512,0.0 -79.13972485582492,33.75971324114045,0.0 -79.13967422153576,33.759717459925824,0.0 -79.13963011487634,33.75970802640843,0.0 -79.13962667325883,33.759707518238955,0.0 -79.13956474669884,33.75969837692279,0.0 -79.13953449509711,33.75972314530543,0.0 -79.13956714396113,33.75976889067297,0.0 -79.13960446565251,33.75980947997414,0.0 -79.13962793334316,33.75981586825477,0.0 -79.13968359505124,33.759821160230395,0.0 -79.13975795548211,33.759805827135885,0.0 -79.13983416430037,33.759781994968,0.0 -79.13987535358314,33.75975591884158,0.0 -79.1398800296144,33.759750761919214,0.0 -79.13989995840929,33.759724469897385,0.0 -79.13990161075468,33.7597226462297,0.0 -79.13983693272567,33.75995945033444,0.0 -79.13975102203183,33.75995301979434,0.0 -79.13951954995157,33.75991202741357,0.0 -79.13936599506583,33.75999740312238,0.0 -79.13925601149815,33.760132455372236,0.0 -79.1392113684826,33.76033742215875,0.0 -79.13918771709702,33.76048406777983,0.0 -79.1392281460031,33.76068123956607,0.0 -79.13924399549256,33.76075852807302,0.0 -79.13944561450661,33.76082241162182,0.0 -79.1395951100907,33.7607830573685,0.0 -79.13979445801796,33.760819307337236,0.0 -79.13989742651465,33.7608413300572,0.0 -79.13990849699522,33.76092372065456,0.0 -79.13999508068966,33.761040003577584,0.0 -79.14008547800279,33.76100557594471,0.0 -79.14018711815797,33.76094867670971,0.0 -79.14041166788046,33.76099230216404,0.0 -79.14048727729109,33.76113994974935,0.0 -79.14045915146656,33.76132658547674,0.0 -79.14047786821695,33.76141153768865,0.0 -79.14066046397053,33.76147129208363,0.0 -79.14089573347519,33.76154828132929,0.0 -79.14116712837745,33.76093579522551,0.0 -79.1411673442804,33.760935846270336,0.0 -79.14190665416385,33.75953947711629,0.0 -79.14246107370546,33.75905741310464,0.0 -79.14352795099134,33.75910882494959,0.0 -79.14358303592036,33.75915302218561,0.0 -79.14357914810603,33.759333312670506,0.0 -79.14368707392443,33.75933493628273,0.0 -79.14372322560428,33.75974870470081,0.0 -79.14395801519261,33.760015320512395,0.0 -79.14365217967678,33.76033761867955,0.0 -79.1435558139737,33.76070466870558,0.0 -79.1434738949056,33.76070968982958,0.0 -79.14344518490118,33.760758825875214,0.0 -79.14341440429348,33.760811508881865,0.0 -79.143409149868,33.76092133085203,0.0 -79.14344561243709,33.761028093253294,0.0 -79.14346364883903,33.76105572084789,0.0 -79.14342922921976,33.76118682072101,0.0 -79.14295648062983,33.7614591972085,0.0 -79.14295142095447,33.761446709450965,0.0 -79.14291134277016,33.761339414578416,0.0 -79.14284994728168,33.76124433310598,0.0 -79.1427636184624,33.761160932653056,0.0 -79.14264846437842,33.76110707224852,0.0 -79.14256923600401,33.76111596477558,0.0 -79.14256864841059,33.76111372591669,0.0 -79.14247740626176,33.76103574473689,0.0 -79.1423838448686,33.760951276596046,0.0 -79.14229260197972,33.76087329527286,0.0 -79.14220136247442,33.76079531483702,0.0 -79.14207314448483,33.76076717515788,0.0 -79.14195764670743,33.76081771651589,0.0 -79.14193419095409,33.76084901815749,0.0 -79.14190685434036,33.76088550229382,0.0 -79.14190816302963,33.76088989546017,0.0 -79.14180854113847,33.7609014651851,0.0 -79.14171007451272,33.760977796564426,0.0 -79.14161831454757,33.761056420105255,0.0 -79.14153972299688,33.76114312946254,0.0 -79.14144597963679,33.76122309274413,0.0 -79.14136170879063,33.761308256514525,0.0 -79.14132795539678,33.761412948272856,0.0 -79.14124936425976,33.76149965923862,0.0 -79.1411511298629,33.76157393045038,0.0 -79.14112906792633,33.76168175147965,0.0 -79.14114156543148,33.761790509734084,0.0 -79.14119617545171,33.761840868803894,0.0 -79.14123652461018,33.76187807660852,0.0 -79.14126687455577,33.76195581596076,0.0 -79.14128861975907,33.76201150789854,0.0 -79.14133973450545,33.76211189982679,0.0 -79.14139843045419,33.7622079495078,0.0 -79.14147113481296,33.76230060408232,0.0 -79.1415286771101,33.76240194399306,0.0 -79.14157864163172,33.76250762797098,0.0 -79.14161574975967,33.76261141400555,0.0 -79.14165292057454,33.76263638764226,0.0 -79.14165135585522,33.7626457034398,0.0 -79.14166029178287,33.76275438726181,0.0 -79.14169253170812,33.76279252242452,0.0 -79.14173807127281,33.762846389510386,0.0 -79.14181870857428,33.762926247677676,0.0 -79.14181438914022,33.762928736369204,0.0 -79.14124358801998,33.76282556517846,0.0 -79.14030807911668,33.76317039928395,0.0 -79.14025179254803,33.763431232452234,0.0 -79.13990650976429,33.763462322115224,0.0 -79.13981617331228,33.76360501470643,0.0 -79.13970824237924,33.76360338752955,0.0 -79.13970629409339,33.763693532509215,0.0 -79.13956121157901,33.76375210996468,0.0 -79.13937470642296,33.76404923023452,0.0 -79.13937275775511,33.76413937519057,0.0 -79.1391568946125,33.76413611992191,0.0 -79.13915299679931,33.76431640980769,0.0 -79.13893713323984,33.76431315413975,0.0 -79.1389293366064,33.764673733850195,0.0 -79.13914520106893,33.76467698956222,0.0 -79.13914325211465,33.7647671344973,0.0 -79.13900894610825,33.76483348719465,0.0 -79.13919759873679,33.76534337901561,0.0 -79.13923364450933,33.76558006661896,0.0 -79.1384847298515,33.76567473483297,0.0 -79.13856598854856,33.766199336897884,0.0 -79.1381640209192,33.76670182613358,0.0 -79.13727517258727,33.76699010468359,0.0 -79.13644687983327,33.76687506183807,0.0 -79.13617637441146,33.76715705909674,0.0</coordinates>
                    </LinearRing>
                </outerBoundaryIs>
            </Polygon>
        </Placemark>
        <Placemark id="403">
            <name>Population_44</name>
            <styleUrl>#408</styleUrl>
            <Polygon id="402">
                <outerBoundaryIs>
                    <LinearRing id="406">
                        <coordinates>-79.07602123495057,33.765410077320325,0.0 -79.07595119239619,33.765397237348836,0.0 -79.07587280554577,33.76544300593801,0.0 -79.07577161266602,33.765486074306644,0.0 -79.07543119532275,33.765282506794975,0.0 -79.07458933301103,33.76449462820916,0.0 -79.07438284817249,33.764328743630166,0.0 -79.07403918884191,33.76447382450819,0.0 -79.07332278271485,33.76551700300789,0.0 -79.0732657904648,33.76555948084081,0.0 -79.07306790093179,33.76536022994015,0.0 -79.07213955042332,33.76504929066091,0.0 -79.0711844525724,33.76466696476322,0.0 -79.07043523785717,33.76451243534648,0.0 -79.07037797726616,33.764342103076864,0.0 -79.07037999818233,33.76425196172705,0.0 -79.07027207077982,33.76425027380735,0.0 -79.07027409179987,33.76416013246183,0.0 -79.070278133813,33.7639798497665,0.0 -79.07017020675806,33.76397816176965,0.0 -79.070172227864,33.76388802042556,0.0 -79.07006430093094,33.763886332340135,0.0 -79.07006632214075,33.763796191000345,0.0 -79.06995839532951,33.76379450282633,0.0 -79.0699604166432,33.763704361490824,0.0 -79.0698524899538,33.76370267322823,0.0 -79.0697445632734,33.76370098487134,0.0 -79.06974658480382,33.763610843545855,0.0 -79.06963865824528,33.76360915510038,0.0 -79.06953073169574,33.76360746656062,0.0 -79.06953275344287,33.76351732524514,0.0 -79.06931690059645,33.76351394789417,0.0 -79.06920897418671,33.76351225907725,0.0 -79.06877726863775,33.76350550286661,0.0 -79.06857337638328,33.763300185189955,0.0 -79.06857556577619,33.76328416867965,0.0 -79.06843505348513,33.76318152007134,0.0 -79.06823414622689,33.763090482352915,0.0 -79.06805753566167,33.76305037748698,0.0 -79.06765240812541,33.76285422945493,0.0 -79.06729746566023,33.76287777898886,0.0 -79.06722454650674,33.76286121992461,0.0 -79.06675384212777,33.76273456238113,0.0 -79.06663390067581,33.762720128303606,0.0 -79.0664690166604,33.762698711114524,0.0 -79.06629807777642,33.76267399497346,0.0 -79.06630030727773,33.762574849650015,0.0 -79.06630326579796,33.76244320481422,0.0 -79.06633745014051,33.76232521817933,0.0 -79.06646886686264,33.762090234664456,0.0 -79.06667672365629,33.76196180042554,0.0 -79.06680547796994,33.76184529536826,0.0 -79.06699668556696,33.76175610717435,0.0 -79.06714119925303,33.76163984953259,0.0 -79.06728512247481,33.76154992017176,0.0 -79.06735023732317,33.76145875719438,0.0 -79.06735319303452,33.76132711223615,0.0 -79.06745130771013,33.76117061908171,0.0 -79.06758094529708,33.761014619521035,0.0 -79.06767758267367,33.76092394911562,0.0 -79.06779116395921,33.76078086852948,0.0 -79.06792109579456,33.76061170432849,0.0 -79.0679698562319,33.7605466217197,0.0 -79.06812894794015,33.760483267428256,0.0 -79.06832192254377,33.76031509068012,0.0 -79.06841885159668,33.76021125445795,0.0 -79.06856543159662,33.76000284264617,0.0 -79.06864837226743,33.75981977409998,0.0 -79.06879376859104,33.75966402070735,0.0 -79.06882824251684,33.75953286801399,0.0 -79.0689272371639,33.759336881635534,0.0 -79.06902387230116,33.759246209151385,0.0 -79.06904258703211,33.75911481156991,0.0 -79.069111831958,33.75883934357294,0.0 -79.06917842014407,33.75868235553933,0.0 -79.06922953942328,33.75851195655447,0.0 -79.06931129831885,33.75838154534349,0.0 -79.06932882926789,33.75830280553634,0.0 -79.06944446858888,33.75806756977405,0.0 -79.0695729190799,33.75796422658989,0.0 -79.0696867861774,33.75780797875917,0.0 -79.06978430314356,33.75767781189541,0.0 -79.06978725467233,33.75754616847006,0.0 -79.06976045627349,33.75733504195746,0.0 -79.06970243118326,33.75711026079969,0.0 -79.0695968290681,33.75689790241011,0.0 -79.06948908620495,33.756812955599614,0.0 -79.06948793202491,33.756814742807165,0.0 -79.06947190846739,33.75683119307261,0.0 -79.0694516678129,33.75684573241988,0.0 -79.06942775540429,33.75685893115678,0.0 -79.06940101218906,33.75687180155519,0.0 -79.06937239094131,33.7568852313948,0.0 -79.06934289859053,33.75689957097036,0.0 -79.06931364480586,33.756914632950256,0.0 -79.06928590239731,33.756929983678994,0.0 -79.06926091537738,33.75694527020729,0.0 -79.0692394013196,33.7569603630945,0.0 -79.06922093823297,33.756975305334876,0.0 -79.06920367758386,33.75699020777429,0.0 -79.06918493793862,33.757005206097624,0.0 -79.06916258224236,33.75702047155802,0.0 -79.06913617758187,33.75703614887019,0.0 -79.06910698377816,33.75705219101673,0.0 -79.0690767836115,33.757068193963626,0.0 -79.06904703429856,33.75708325173078,0.0 -79.06951850809097,33.7564663281468,0.0 -79.06960675760014,33.75540291290012,0.0 -79.07088845364254,33.75548164978914,0.0 -79.0712255026311,33.75542822471004,0.0 -79.07164120071482,33.7558468404117,0.0 -79.07257306185521,33.75630041212352,0.0 -79.07284574215656,33.75559215183507,0.0 -79.07327879184939,33.75569523425037,0.0 -79.07364811438079,33.75606713279551,0.0 -79.0742738491106,33.7565161777596,0.0 -79.07462382474303,33.75661018076943,0.0 -79.07486452695449,33.756852553247285,0.0 -79.07530429004905,33.75706658599134,0.0 -79.07573544375008,33.75684054884979,0.0 -79.07611263418596,33.756357806060294,0.0 -79.07617153880605,33.7563169913628,0.0 -79.07621739206417,33.75645713649064,0.0 -79.07659294744668,33.75684789860862,0.0 -79.07659514911984,33.75685242084497,0.0 -79.07660046140207,33.75685571741894,0.0 -79.07669270652723,33.75695169636424,0.0 -79.0766496453946,33.757226104786696,0.0 -79.07656349324216,33.75733060360512,0.0 -79.07646795592947,33.75735369741249,0.0 -79.0764737401158,33.75745140363844,0.0 -79.07657716666118,33.757392230075546,0.0 -79.07662540530116,33.75738057053434,0.0 -79.076514877635,33.75808489097454,0.0 -79.07621255920299,33.758720625703916,0.0 -79.07652245431018,33.759044338725786,0.0 -79.07703826202155,33.759416013923335,0.0 -79.07696239559431,33.75957555262505,0.0 -79.07679145385833,33.759536058140114,0.0 -79.07641237953868,33.7593960663897,0.0 -79.07634810612407,33.7594301201279,0.0 -79.07632683087384,33.759392858046716,0.0 -79.07627190198163,33.75933726481388,0.0 -79.07615977128474,33.75932769682252,0.0 -79.07613426233961,33.759328630065866,0.0 -79.07600985641888,33.75933318012738,0.0 -79.0758232057468,33.75930680844662,0.0 -79.0757389783517,33.75930549590226,0.0 -79.07557882978324,33.75934991635798,0.0 -79.07549163048441,33.75948149051207,0.0 -79.0753959457808,33.7595738322824,0.0 -79.07529020272686,33.75969729813595,0.0 -79.0751842835583,33.759828578250435,0.0 -79.07510014022485,33.759923184608425,0.0 -79.07508825065537,33.75993655575901,0.0 -79.07501836751814,33.76013095545652,0.0 -79.07501563604887,33.760253151502454,0.0 -79.07501487359998,33.76028729537534,0.0 -79.07506096756987,33.76031929189709,0.0 -79.07523913611591,33.76030643159486,0.0 -79.07546409667589,33.76029430175217,0.0 -79.07563395345836,33.76023439416798,0.0 -79.07570713045094,33.760235535374356,0.0 -79.07569914136685,33.76040621219117,0.0 -79.07596676968163,33.7607614457289,0.0 -79.07649829629595,33.76092271942909,0.0 -79.0771547333069,33.76111201552248,0.0 -79.0795126752473,33.762173484427144,0.0 -79.08022861164291,33.7623906838312,0.0 -79.08025068708969,33.76241754001224,0.0 -79.08037208648662,33.76250370189502,0.0 -79.08038260511337,33.762511167762646,0.0 -79.0804189133573,33.762521906860954,0.0 -79.08049152661592,33.762543385877414,0.0 -79.08059954197063,33.76261629217386,0.0 -79.08076731440353,33.762741000883054,0.0 -79.08082578560779,33.76280626064388,0.0 -79.08081376005725,33.762843472927976,0.0 -79.08081217143007,33.762914673312586,0.0 -79.08080741095152,33.76312827274223,0.0 -79.08082836381936,33.76328122216476,0.0 -79.08083623430795,33.763474668665495,0.0 -79.08090379149456,33.763545002188955,0.0 -79.08095529356346,33.76359862034939,0.0 -79.08109916591584,33.76370260753265,0.0 -79.08118214806093,33.763805647649455,0.0 -79.08128880407568,33.763939579475284,0.0 -79.08135915245055,33.76406277330055,0.0 -79.08139228828853,33.76421591207343,0.0 -79.0813922248323,33.76421875875574,0.0 -79.08116343123018,33.76447468501463,0.0 -79.08112985267236,33.76446534387533,0.0 -79.0809206041232,33.76438453156069,0.0 -79.08072791946526,33.76431807692845,0.0 -79.08055164135881,33.764273029147745,0.0 -79.08029909788391,33.76424089855034,0.0 -79.0800148409517,33.764116611142775,0.0 -79.07983082905008,33.764055688751526,0.0 -79.07961259801854,33.763983436174954,0.0 -79.07941116081274,33.763930947273536,0.0 -79.07914283910446,33.76384920976092,0.0 -79.07890827756334,33.76376799911619,0.0 -79.07866433039383,33.76372894660792,0.0 -79.07855556853504,33.763684949136376,0.0 -79.07838008088413,33.76360465651643,0.0 -79.0781620825663,33.76353780460332,0.0 -79.07800378796419,33.76344367887977,0.0 -79.07780832815145,33.7633453923091,0.0 -79.0777867359142,33.76333453543464,0.0 -79.07772892044567,33.763277227840405,0.0 -79.07763312627925,33.76327001122328,0.0 -79.07761093272076,33.76326833900104,0.0 -79.07757702016717,33.76327486127149,0.0 -79.07750730155519,33.763372486614855,0.0 -79.07747213165642,33.763435395250845,0.0 -79.07744240594859,33.763632355284145,0.0 -79.07739658965862,33.76379380870007,0.0 -79.07738566534688,33.76380339791257,0.0 -79.07730187091894,33.76387694308443,0.0 -79.07729982191437,33.76396857121052,0.0 -79.0773223076068,33.764095836628904,0.0 -79.07732498169689,33.764107300524635,0.0 -79.07734541993771,33.76419490746515,0.0 -79.07734290075724,33.76430768106703,0.0 -79.07737618504473,33.7643293516183,0.0 -79.0774410185548,33.76445022534382,0.0 -79.07747194130009,33.76457762219646,0.0 -79.07747084138181,33.76462696040011,0.0 -79.07747707614571,33.76472576823027,0.0 -79.07748330981883,33.764824576943745,0.0 -79.07757393835067,33.76492470062092,0.0 -79.07760677815835,33.76496623563305,0.0 -79.07760627834371,33.764988661107814,0.0 -79.07761685574341,33.76527085848358,0.0 -79.07772184410425,33.765484016834336,0.0 -79.0778258884175,33.76573946689975,0.0 -79.07797165420648,33.766016718715846,0.0 -79.07800869217873,33.76606024512136,0.0 -79.07774096773021,33.76624626290922,0.0 -79.07809845930198,33.766716929440015,0.0 -79.07809644627929,33.766807071163406,0.0 -79.07728973790168,33.76639388067473,0.0 -79.0763583701414,33.765836947122246,0.0 -79.07634951676496,33.76582637065743,0.0 -79.07624563255973,33.76575426268877,0.0 -79.07613458562165,33.76568791862594,0.0 -79.07604502530407,33.76560428789724,0.0 -79.07604752040521,33.76549272141845,0.0 -79.07602123495057,33.765410077320325,0.0</coordinates>
                    </LinearRing>
                </outerBoundaryIs>
            </Polygon>
        </Placemark>
        <Placemark id="412">
            <name>Population_45</name>
            <styleUrl>#417</styleUrl>
            <Polygon id="411">
                <outerBoundaryIs>
                    <LinearRing id="415">
                        <coordinates>-79.1700396893453,33.76901657130308,0.0 -79.17007037920645,33.76901278916448,0.0 -79.17006783771188,33.76901816196294,0.0 -79.17004952886971,33.76904023845382,0.0 -79.1700396893453,33.76901657130308,0.0</coordinates>
                    </LinearRing>
                </outerBoundaryIs>
            </Polygon>
        </Placemark>
        <Placemark id="421">
            <name>Population_46</name>
            <styleUrl>#426</styleUrl>
            <Polygon id="420">
                <outerBoundaryIs>
                    <LinearRing id="424">
                        <coordinates>-78.86418628706357,33.76934884595315,0.0 -78.86394506573825,33.76891069863057,0.0 -78.86395076739984,33.76891422195106,0.0 -78.86402790586838,33.769006030781625,0.0 -78.86412363443085,33.7690872564499,0.0 -78.86421936425319,33.76916848206858,0.0 -78.86429363726391,33.76927323170242,0.0 -78.86435219076226,33.769375623569836,0.0 -78.8644293300821,33.76946743127432,0.0 -78.8644878795705,33.76956982210968,0.0 -78.86458361026439,33.769651047473864,0.0 -78.8646475608705,33.76970530873294,0.0 -78.86455766104112,33.769685348321666,0.0 -78.86418628706357,33.76934884595315,0.0</coordinates>
                    </LinearRing>
                </outerBoundaryIs>
            </Polygon>
        </Placemark>
        <Placemark id="430">
            <name>Population_47</name>
            <styleUrl>#435</styleUrl>
            <Polygon id="429">
                <outerBoundaryIs>
                    <LinearRing id="433">
                        <coordinates>-79.18890738224007,33.774383343643315,0.0 -79.18893057268488,33.774276565891476,0.0 -79.18890577566242,33.774170598640005,0.0 -79.18879982253549,33.77411783815993,0.0 -79.18837395025587,33.77367215727823,0.0 -79.18824199885304,33.77314431896284,0.0 -79.18789820609709,33.77302577454565,0.0 -79.18726968621925,33.77338423422161,0.0 -79.18663070531,33.77333189278346,0.0 -79.1857243660989,33.773379318118415,0.0 -79.18500000610723,33.77311192373258,0.0 -79.18469283718329,33.77324917871747,0.0 -79.18418039365368,33.77332510555884,0.0 -79.18404990895564,33.77301476457725,0.0 -79.18470370738036,33.7728608156153,0.0 -79.18513004249765,33.772617677847,0.0 -79.1854173717462,33.77247320355988,0.0 -79.18546323924203,33.77251301776852,0.0 -79.18555816499838,33.772595417252106,0.0 -79.1856008857871,33.772699461963924,0.0 -79.18570259718894,33.77277797268573,0.0 -79.18583288938979,33.772806922224696,0.0 -79.18596935247042,33.77280745529556,0.0 -79.1860947298638,33.77277702771739,0.0 -79.18621743675857,33.772731544786375,0.0 -79.18631651881886,33.77265814609314,0.0 -79.18643552764311,33.77260234303733,0.0 -79.18653563570176,33.772524205208356,0.0 -79.1866694343808,33.77250968146529,0.0 -79.18679583628098,33.77247451779083,0.0 -79.18692696543538,33.77244493676286,0.0 -79.18704988524244,33.77239504564599,0.0 -79.18705070096667,33.77239471496701,0.0 -79.18712409595028,33.772302872449785,0.0 -79.18708712700004,33.77219967743344,0.0 -79.18702508598825,33.772102566017914,0.0 -79.18690569112293,33.77205078052039,0.0 -79.18689028172386,33.77203919380338,0.0 -79.18702017068455,33.772001511134604,0.0 -79.18695056301932,33.771073876194414,0.0 -79.18723066722943,33.770671413749646,0.0 -79.18743837378993,33.77030035100647,0.0 -79.18778021239802,33.769809174363864,0.0 -79.1884502983545,33.769156348599125,0.0 -79.18854873071776,33.7686824837414,0.0 -79.18858852309948,33.76866730982458,0.0 -79.18868604645753,33.76859505394609,0.0 -79.18871034828761,33.76848315515394,0.0 -79.18871199508511,33.768367922745455,0.0 -79.18858010418086,33.7683292698484,0.0 -79.18844416488604,33.768309265127606,0.0 -79.18830822564232,33.76828926116048,0.0 -79.18822773463165,33.76827163219349,0.0 -79.18783753520982,33.76786325324543,0.0 -79.18774610862359,33.76670456894643,0.0 -79.18773784225986,33.76662827469894,0.0 -79.18775578894089,33.76662356963611,0.0 -79.18777756410567,33.766614872834,0.0 -79.18779422928648,33.766592573787754,0.0 -79.18780583191327,33.76655441971636,0.0 -79.18780114791848,33.76652053520355,0.0 -79.18779636578152,33.766491158011505,0.0 -79.18779139601051,33.76647079468665,0.0 -79.18778088589207,33.766457114936436,0.0 -79.1877759646597,33.766434497942605,0.0 -79.18777691371957,33.76638942515823,0.0 -79.18777838478762,33.76631956094447,0.0 -79.18778487417936,33.76626780458385,0.0 -79.1877956283014,33.76625010151894,0.0 -79.18780619368687,33.7662414132063,0.0 -79.18781773661338,33.76622562893102,0.0 -79.18781522599978,33.76620143951783,0.0 -79.18779696050672,33.76617944713198,0.0 -79.18779080136642,33.7661650106909,0.0 -79.18779898603911,33.76615303839833,0.0 -79.18780921387514,33.766137407945145,0.0 -79.18782033864484,33.76612179156592,0.0 -79.18782606767867,33.76610609413594,0.0 -79.18781555977412,33.76609241351942,0.0 -79.18778867043957,33.76608750983254,0.0 -79.1877671768574,33.76608268629076,0.0 -79.18775657299703,33.766073512121025,0.0 -79.18774615999676,33.76605532503172,0.0 -79.18773053891377,33.76602804302029,0.0 -79.18770364960488,33.76602313931565,0.0 -79.18767628466122,33.76604077243247,0.0 -79.18767427898092,33.76604157348705,0.0 -79.18762366067516,33.765574349788814,0.0 -79.18767069331196,33.76517383554085,0.0 -79.18762327123736,33.76454191212514,0.0 -79.18770200305728,33.76387143854388,0.0 -79.18802280736814,33.76341044501228,0.0 -79.18813969942197,33.76301316282915,0.0 -79.18834284558572,33.76275232690122,0.0 -79.18928537032028,33.76320986095083,0.0 -79.18979804991967,33.763315081800414,0.0 -79.19007200213662,33.76359028833014,0.0 -79.19011481795461,33.76426286952846,0.0 -79.19000688315134,33.764261286306805,0.0 -79.19000498747867,33.76435143382058,0.0 -79.18992955820555,33.764472778209615,0.0 -79.18992804180162,33.76447321405546,0.0 -79.18986858272848,33.76447685057586,0.0 -79.18983071068318,33.764480802854216,0.0 -79.1898197264905,33.76448966014639,0.0 -79.18980344361225,33.76449392913428,0.0 -79.18978715745648,33.76449819987545,0.0 -79.18977082393879,33.7645047224989,0.0 -79.18974928431983,33.76450215211251,0.0 -79.18973593461293,33.76449519401296,0.0 -79.18972798385818,33.76448831331694,0.0 -79.1897146804756,33.764479101511924,0.0 -79.18970118753344,33.76447890265221,0.0 -79.18969531675911,33.76450136125023,0.0 -79.18968925749674,33.76453283281013,0.0 -79.18967538639967,33.76455066436345,0.0 -79.1896401167733,33.76455916533288,0.0 -79.1895831674987,33.76457185516663,0.0 -79.18956929529418,33.764589686691146,0.0 -79.18960678927196,33.76460376310739,0.0 -79.1896308850845,33.764613134171434,0.0 -79.18963879061792,33.764622267691166,0.0 -79.18965209289613,33.76463148129175,0.0 -79.1896653941168,33.76464069397366,0.0 -79.18967599913637,33.76464986619507,0.0 -79.18971368060059,33.7646549277991,0.0 -79.18977295126642,33.764660307024776,0.0 -79.18981053796611,33.76466987507296,0.0 -79.18983193543808,33.76467920651251,0.0 -79.18984793614854,33.76468845877733,0.0 -79.18985835158945,33.76470664663537,0.0 -79.18986776508393,33.76473576978226,0.0 -79.18987736708901,33.7647558781626,0.0 -79.1898887360175,33.764765384400334,0.0 -79.18990000797997,33.76477939888199,0.0 -79.18991047085635,33.76479533214705,0.0 -79.18992093261923,33.76481126719848,0.0 -79.18992585546407,33.764833882340774,0.0 -79.1899308245887,33.76485424558246,0.0 -79.18994138226839,33.764865671470105,0.0 -79.189952033641,33.76487259086744,0.0 -79.18996259130675,33.76488401765491,0.0 -79.18996751304861,33.764906634582914,0.0 -79.1899725296183,33.764924742332596,0.0 -79.1899824722558,33.764965467072884,0.0 -79.18999170184122,33.76503999709423,0.0 -79.19000149904267,33.76508748465112,0.0 -79.19001195981429,33.76510341787704,0.0 -79.19002251753408,33.76511484375865,0.0 -79.19002762889201,33.76512844503265,0.0 -79.19003274239122,33.76514204723963,0.0 -79.19005423480719,33.76514687036792,0.0 -79.19008112400276,33.76515177355618,0.0 -79.19009712482703,33.76516102579177,0.0 -79.1901132204359,33.76516577065008,0.0 -79.19013480760498,33.76516608819228,0.0 -79.19015109387362,33.76516181740924,0.0 -79.19016756750054,33.76514853364439,0.0 -79.19017457914205,33.76514287969639,0.0 -79.18994171071515,33.76564506056691,0.0 -79.18996289067746,33.76569005763706,0.0 -79.18993856847203,33.76568517223865,0.0 -79.18990029168901,33.76568200736647,0.0 -79.18986947902985,33.76569967787358,0.0 -79.18984447766469,33.765718203723786,0.0 -79.18984084340417,33.765734939244936,0.0 -79.18983409373715,33.76576602013741,0.0 -79.18983346184258,33.76581033653503,0.0 -79.18984860032462,33.76583723698486,0.0 -79.18985844959614,33.76586089198052,0.0 -79.18991155638805,33.765878574420974,0.0 -79.18997752842442,33.76587841411119,0.0 -79.19002011217765,33.765832549804394,0.0 -79.19002249303367,33.76581667960945,0.0 -79.1903801004169,33.7665763864102,0.0 -79.19117945360986,33.76717229181458,0.0 -79.19121721534353,33.76767520478968,0.0 -79.19041847907697,33.76822982352853,0.0 -79.19040929440386,33.76830805204049,0.0 -79.1903344112963,33.76829703447652,0.0 -79.1902368895919,33.7683692926199,0.0 -79.19021258979133,33.76848119087978,0.0 -79.1902849922185,33.768578450030446,0.0 -79.19036872290624,33.768677375805886,0.0 -79.19038043373756,33.768784949918505,0.0 -79.19032417366779,33.76888252400941,0.0 -79.19028854566358,33.76899275560566,0.0 -79.1903115845349,33.76910199819202,0.0 -79.19032127014712,33.76921889738048,0.0 -79.19029697124279,33.76933079565388,0.0 -79.19027267117023,33.76944269480411,0.0 -79.19028438194002,33.76955026891264,0.0 -79.19028274038855,33.7696655014372,0.0 -79.19025844128089,33.7697773996895,0.0 -79.19023414100499,33.76988929881864,0.0 -79.19022116784971,33.770002864605374,0.0 -79.19022494106181,33.77002075661607,0.0 -79.19021336887421,33.77008372397495,0.0 -79.19025051084695,33.770170002896926,0.0 -79.19025591982731,33.77021967952408,0.0 -79.19026762847712,33.77032725359241,0.0 -79.19034933663801,33.77043550359852,0.0 -79.19036980542123,33.77044711720455,0.0 -79.19056507415789,33.77090071033081,0.0 -79.19077416634823,33.77122702241621,0.0 -79.19057524562542,33.77179995172218,0.0 -79.1903854429611,33.77193173737765,0.0 -79.19024080485423,33.77199020277319,0.0 -79.19005355194788,33.77228629749226,0.0 -79.1902680187536,33.772380891139235,0.0 -79.19026612277374,33.772471038547295,0.0 -79.19016772470313,33.77252163348205,0.0 -79.19011351824659,33.77250259676145,0.0 -79.19005789209746,33.77242348971153,0.0 -79.19000637570657,33.77239663904907,0.0 -79.18998655384223,33.77234850308629,0.0 -79.18995399479032,33.772320339826365,0.0 -79.18992552712092,33.7723194298208,0.0 -79.18992253364262,33.77231923981928,0.0 -79.18991971708458,33.772318903624225,0.0 -79.18991693395594,33.772318415523415,0.0 -79.18991419497537,33.77231777928117,0.0 -79.18991151089942,33.77231699685878,0.0 -79.18990889568512,33.772316072068016,0.0 -79.18990636116844,33.77231500688605,0.0 -79.18990391475387,33.772313808635545,0.0 -79.18990156822052,33.77231248199807,0.0 -79.18989933336647,33.77231103075374,0.0 -79.1898972186377,33.77230946404397,0.0 -79.18989523369233,33.77230778471575,0.0 -79.18989338587792,33.772306002796164,0.0 -79.18989168259888,33.772304125607846,0.0 -79.18989013341859,33.772302160505134,0.0 -79.18988874248411,33.772300115664635,0.0 -79.18988751712403,33.77229800201492,0.0 -79.18988646368227,33.77229582596134,0.0 -79.18988558302969,33.77229359743592,0.0 -79.18988488465374,33.77229132739889,0.0 -79.18988436624379,33.772289023030396,0.0 -79.18988403079165,33.77228669609708,0.0 -79.18988388350492,33.77228435569289,0.0 -79.18988392091767,33.77228201258799,0.0 -79.18988414496121,33.772279677631744,0.0 -79.189884553287,33.77227735980721,0.0 -79.18988514570539,33.77227506812912,0.0 -79.18988591875043,33.772272813367685,0.0 -79.18988686897521,33.77227060539157,0.0 -79.18988799297064,33.7722684522665,0.0 -79.18988928725192,33.772266365664166,0.0 -79.18989074305063,33.77226435176817,0.0 -79.18989235366254,33.77226242130118,0.0 -79.18989411783753,33.77226058236058,0.0 -79.18989602142898,33.77225884014936,0.0 -79.18989806093306,33.77225720724064,0.0 -79.18990022551735,33.77225568527898,0.0 -79.18990250635666,33.77225428315242,0.0 -79.18990471119248,33.77225310625054,0.0 -79.18987466069753,33.77222072620921,0.0 -79.18984917755562,33.77219425562385,0.0 -79.18979272855204,33.77215428324989,0.0 -79.1897935529207,33.772115148481355,0.0 -79.18979382623901,33.77210210503977,0.0 -79.18983675941513,33.77204184233565,0.0 -79.18983703494193,33.772028796220866,0.0 -79.1898378581502,33.771989664139156,0.0 -79.1898337474661,33.77193741041269,0.0 -79.18983383894837,33.77193306170242,0.0 -79.18980305719916,33.771910862518894,0.0 -79.18974624250872,33.77188828226487,0.0 -79.18974112891914,33.771883857183376,0.0 -79.18970988982736,33.77188339882355,0.0 -79.18965334857509,33.771847772382394,0.0 -79.1896899788866,33.771839612461804,0.0 -79.18970651105371,33.771796359020215,0.0 -79.18967034131795,33.771782781754375,0.0 -79.18967143908269,33.77173060264318,0.0 -79.18966668923122,33.77170878629303,0.0 -79.18962494426415,33.77171252381132,0.0 -79.18960338569444,33.771747002480225,0.0 -79.18956694052694,33.771746466791356,0.0 -79.18953542811532,33.771759052731,0.0 -79.18950336568167,33.771797728199516,0.0 -79.18947724237341,33.771801694002825,0.0 -79.18944024605406,33.77182724869778,0.0 -79.18937375012533,33.77176972849071,0.0 -79.18927574183272,33.77172479502421,0.0 -79.18917773254668,33.77167986236852,0.0 -79.18921262216823,33.771754316306996,0.0 -79.18923326484651,33.77176331757364,0.0 -79.18929008035164,33.77178589987604,0.0 -79.18932067786218,33.77181679478165,0.0 -79.1893720106762,33.771852343132885,0.0 -79.18939740422505,33.77188316255099,0.0 -79.18944307454231,33.77194037713344,0.0 -79.18945823450672,33.77196234625762,0.0 -79.18952436578044,33.77203725857347,0.0 -79.18959579485072,33.77210789763978,0.0 -79.18966722185968,33.77217853753759,0.0 -79.18973706235751,33.77224760671057,0.0 -79.18975105990248,33.772248360355704,0.0 -79.18975271904884,33.77224848569577,0.0 -79.18975436811829,33.77224867942111,0.0 -79.18975600275509,33.772248943271336,0.0 -79.18975761975882,33.77224927539598,0.0 -79.18975921265285,33.7722496757,0.0 -79.18976077933512,33.772250141447344,0.0 -79.18976231440844,33.77225067255877,0.0 -79.18976381573286,33.77225126810116,0.0 -79.18976527794906,33.772251926192375,0.0 -79.18976669571673,33.772252644048784,0.0 -79.18976806903585,33.77225342167041,0.0 -79.18976939150558,33.77225425535634,0.0 -79.18977065990659,33.77225514415756,0.0 -79.18977187215579,33.77225608443652,0.0 -79.18977302503382,33.77225707524421,0.0 -79.1897741132193,33.772258112895564,0.0 -79.1897751367881,33.7722591937847,0.0 -79.18977609140344,33.77226031874973,0.0 -79.18977697613761,33.77226148056302,0.0 -79.18977778561232,33.77226267824389,0.0 -79.18977852096391,33.77226390910379,0.0 -79.18977917796941,33.77226516857202,0.0 -79.18977975666677,33.772266454845564,0.0 -79.18978025391242,33.772267763369584,0.0 -79.18978067084272,33.772269091455506,0.0 -79.18978100323471,33.77227043453258,0.0 -79.18978125222472,33.77227178991227,0.0 -79.1897814167902,33.77227315487426,0.0 -79.18978149594649,33.77227452489537,0.0 -79.18978149084893,33.77227589638555,0.0 -79.18978139943344,33.77227726480576,0.0 -79.18978122389682,33.77227862838469,0.0 -79.18978096433389,33.77227998261499,0.0 -79.18978062080157,33.77228132479226,0.0 -79.18978019339465,33.772282650409096,0.0 -79.18977968434791,33.77228395589131,0.0 -79.18977909587711,33.77228523856612,0.0 -79.18977842913758,33.772286494843506,0.0 -79.1897776831257,33.772287721101705,0.0 -79.18977686329563,33.77228891471548,0.0 -79.1897759707837,33.772290072996256,0.0 -79.18977500568474,33.77229119143668,0.0 -79.18977397347184,33.77229226651002,0.0 -79.18977287630389,33.772293298247966,0.0 -79.18977171643463,33.772294282174805,0.0 -79.18977049606089,33.77229521651928,0.0 -79.18976922065573,33.772296097754676,0.0 -79.1897678913366,33.7722969240939,0.0 -79.18976651245916,33.772297693797334,0.0 -79.1897650873187,33.77229840420807,0.0 -79.18976362027092,33.77229905358652,0.0 -79.1897621145921,33.77229964017723,0.0 -79.18976057460004,33.77230016404358,0.0 -79.1897590046884,33.77230062164301,0.0 -79.18977326814259,33.772336674666626,0.0 -79.18985520042055,33.772403118543714,0.0 -79.18992663004225,33.772473758334876,0.0 -79.18998225503768,33.77255286452317,0.0 -79.1899855404673,33.772644252095944,0.0 -79.19003066173167,33.772727554218015,0.0 -79.19006528026115,33.77281505230082,0.0 -79.19011040170487,33.77289835349554,0.0 -79.19018703815765,33.772969069524734,0.0 -79.19026376400345,33.77303543857046,0.0 -79.19035108752756,33.773093262009006,0.0 -79.19043850368655,33.773146737595525,0.0 -79.19053868326672,33.773168216780704,0.0 -79.19054572328739,33.773194106535925,0.0 -79.19049821697992,33.773357577367804,0.0 -79.19049168366203,33.77335472849637,0.0 -79.19047028399953,33.77334539711036,0.0 -79.19044869583578,33.773345080476986,0.0 -79.19043231321791,33.77335385861352,0.0 -79.19041564731144,33.77337615797238,0.0 -79.19038790347822,33.77341182022235,0.0 -79.19036044179902,33.77343396302821,0.0 -79.19033856709676,33.7734471666498,0.0 -79.19031659861034,33.773464880357274,0.0 -79.19029101291225,33.77347088315145,0.0 -79.1901642960582,33.773484410949976,0.0 -79.1901604797884,33.77348745248568,0.0 -79.1901162352683,33.77349350255096,0.0 -79.19008366066889,33.773502041302045,0.0 -79.19005108820335,33.77351058097741,0.0 -79.19001851463325,33.773519121529596,0.0 -79.18999133733637,33.77352773943744,0.0 -79.18996955947661,33.773536438357965,0.0 -79.18992609644415,33.77354932698366,0.0 -79.1898609492844,33.773566406208346,0.0 -79.18981739141441,33.77358380126164,0.0 -79.18979542280779,33.77360151396976,0.0 -79.18977894742636,33.77361479851388,0.0 -79.18976796201785,33.77362365575038,0.0 -79.18975697664499,33.77363251118287,0.0 -79.18974589749975,33.77364587489981,0.0 -79.18973472351973,33.7736637459838,0.0 -79.1897234557635,33.773686125352,0.0 -79.18971209102854,33.773713011153845,0.0 -79.18970063361172,33.77374440435399,0.0 -79.1896835881023,33.77378473307575,0.0 -79.18965565308207,33.773829409864334,0.0 -79.18962781285069,33.77386958017905,0.0 -79.18961095583992,33.77390089593975,0.0 -79.18961038684571,33.77392793834287,0.0 -79.18962070840469,33.7739506344994,0.0 -79.18964191846004,33.77396897986785,0.0 -79.18967420769074,33.77397396332891,0.0 -79.18970138300025,33.77396534546555,0.0 -79.18972297456803,33.773965661380785,0.0 -79.18973897478737,33.77397491367132,0.0 -79.18974976950264,33.773975071159576,0.0 -79.1897661522693,33.773966294923696,0.0 -79.18978793023986,33.773957596945394,0.0 -79.18980431303738,33.77394881890122,0.0 -79.18981529736801,33.77393996345029,0.0 -79.18984247373344,33.7739313455708,0.0 -79.18989133435576,33.77391853436761,0.0 -79.18993489236577,33.77390114019566,0.0 -79.18996765682782,33.7738835840483,0.0 -79.1899950217378,33.77386595047944,0.0 -79.19001149819766,33.773852666824745,0.0 -79.19003876829193,33.77383953971278,0.0 -79.19008232629072,33.773822142781846,0.0 -79.19011508953835,33.77380459018316,0.0 -79.1901370592341,33.77378687653256,0.0 -79.19015353459669,33.773773591940206,0.0 -79.19016451994909,33.77376473647184,0.0 -79.1901917899931,33.77375160932418,0.0 -79.19023534789915,33.773734213237944,0.0 -79.19023773851637,33.77373293264943,0.0 -79.1902395781705,33.77373310211188,0.0 -79.1902250455382,33.77383442260246,0.0 -79.19021697642746,33.7738376452276,0.0 -79.19017891169474,33.77385061312767,0.0 -79.19014614728604,33.77386816933308,0.0 -79.19012966976356,33.77388145299047,0.0 -79.19011328918829,33.77389023020968,0.0 -79.19008601696714,33.773903355503236,0.0 -79.19005865314207,33.77392098910824,0.0 -79.1900421744977,33.773934273638694,0.0 -79.19002579390374,33.773943050845574,0.0 -79.19000401594003,33.77395174976828,0.0 -79.18997683848414,33.773960368569284,0.0 -79.18993877258406,33.77397333637616,0.0 -79.18990061294761,33.77399081065359,0.0 -79.18986784844981,33.7740083658796,0.0 -79.18984048238895,33.77402599940167,0.0 -79.18982400692977,33.7740392839485,0.0 -79.18979682942965,33.77404790270821,0.0 -79.18975346094383,33.77405628389472,0.0 -79.18969389930983,33.774064427459145,0.0 -79.18961795808532,33.774081348160536,0.0 -79.18958500385453,33.77410791624017,0.0 -79.18959513576443,33.77413962623218,0.0 -79.18960517388294,33.77417584540969,0.0 -79.18961492216907,33.774225583003776,0.0 -79.18962439020832,33.7742888454672,0.0 -79.18963433031428,33.774329570159445,0.0 -79.1896555415228,33.77434791644496,0.0 -79.18968783093361,33.77435289810393,0.0 -79.18971500852237,33.77434428027363,0.0 -79.1897367865952,33.7743355823082,0.0 -79.18975856466376,33.77432688433876,0.0 -79.18978583814827,33.77431375914038,0.0 -79.1898132021931,33.774296123799985,0.0 -79.18982967986389,33.77428283928846,0.0 -79.1898567604314,33.774278728761985,0.0 -79.18989994261082,33.77427936232658,0.0 -79.18993241948165,33.77427533005459,0.0 -79.18995429341794,33.77426212469693,0.0 -79.18998165955306,33.77424449025048,0.0 -79.19001413746832,33.77424045887371,0.0 -79.19004093683988,33.77424986865607,0.0 -79.19006252414621,33.774250185352365,0.0 -79.19008970168738,33.7742415665356,0.0 -79.19008996661482,33.774241497380224,0.0 -79.18976378237058,33.77446796783168,0.0 -79.18963487349377,33.77448506629245,0.0 -79.18955155553536,33.77452041781387,0.0 -79.1894607349939,33.77455895056867,0.0 -79.18944874846781,33.774614143120786,0.0 -79.18944808967113,33.77461717596304,0.0 -79.18948833734746,33.774753371135,0.0 -79.18937405785806,33.775141731374305,0.0 -79.18881476638049,33.775095927826385,0.0 -79.18889293820499,33.774430255345514,0.0 -79.18889999915291,33.77440732104795,0.0 -79.18890738224007,33.774383343643315,0.0</coordinates>
                    </LinearRing>
                </outerBoundaryIs>
            </Polygon>
        </Placemark>
        <Placemark id="439">
            <name>Population_48</name>
            <styleUrl>#444</styleUrl>
            <Polygon id="438">
                <outerBoundaryIs>
                    <LinearRing id="442">
                        <coordinates>-78.8548722509428,33.76995249689372,0.0 -78.85473890468218,33.76993247629257,0.0 -78.8545989235604,33.769942391432146,0.0 -78.85453982784925,33.76996339450139,0.0 -78.85453043295968,33.76995086544062,0.0 -78.85428993280799,33.7698482017492,0.0 -78.85430691682386,33.769846998559636,0.0 -78.85444689672566,33.76983708372789,0.0 -78.85456926657757,33.769793594009386,0.0 -78.85462995647666,33.76968929237521,0.0 -78.85464215546592,33.76957770852832,0.0 -78.85452977663867,33.7695195946875,0.0 -78.85439421839604,33.76950955295,0.0 -78.85426193705116,33.76954124381706,0.0 -78.85412302487042,33.7696028704664,0.0 -78.85398853375744,33.769644539384174,0.0 -78.85391647109496,33.769679967119664,0.0 -78.85379660991428,33.76962573223419,0.0 -78.85342804795017,33.76867591672439,0.0 -78.85437572204707,33.76843718496961,0.0 -78.85451169681106,33.76825465168207,0.0 -78.85451996740385,33.768251947101156,0.0 -78.85465488326032,33.76821431905644,0.0 -78.85478483435745,33.76819909790409,0.0 -78.85492342621615,33.76820833081068,0.0 -78.85506450640572,33.768206357432675,0.0 -78.85519445739745,33.768191137647875,0.0 -78.85532688903102,33.76816471235755,0.0 -78.85545067525801,33.76811383538446,0.0 -78.85555220403226,33.76803646226649,0.0 -78.855628992522,33.76794379839399,0.0 -78.85573051983314,33.767866425995656,0.0 -78.85586663186541,33.767886860518935,0.0 -78.85597920543064,33.767950069216205,0.0 -78.85609426081902,33.76800207244874,0.0 -78.85613997431035,33.76811312735016,0.0 -78.85610153628811,33.76822312652427,0.0 -78.85598391622608,33.768309661066745,0.0 -78.85588238858573,33.76838703365701,0.0 -78.85594419570313,33.76848892771083,0.0 -78.85606798203204,33.768438051927035,0.0 -78.856180637896,33.76837392442379,0.0 -78.85630442503063,33.76832304750732,0.0 -78.85643685769683,33.76829662013748,0.0 -78.85657177290311,33.768258989965645,0.0 -78.85668690964742,33.76818366110082,0.0 -78.85678843747482,33.76810628602434,0.0 -78.85689586571195,33.76807632196655,0.0 -78.8569245599723,33.76807070882277,0.0 -78.85692697189988,33.76806589696128,0.0 -78.85702488078626,33.76799128108302,0.0 -78.85714866474709,33.76794040323764,0.0 -78.85722793296046,33.76783653380363,0.0 -78.8572527563057,33.7677244907956,0.0 -78.857291188278,33.76761449201457,0.0 -78.85731849401839,33.76749124360301,0.0 -78.85734331604269,33.76737920054368,0.0 -78.85736813907364,33.76726715749365,0.0 -78.8574198705713,33.76715985123381,0.0 -78.85742037137916,33.76715903308783,0.0 -78.85750809661306,33.76707978290189,0.0 -78.85762323636813,33.76700445224831,0.0 -78.85774453611823,33.766964777316595,0.0 -78.85787944765383,33.76692714468264,0.0 -78.85800074829041,33.766887468607024,0.0 -78.85812701143061,33.76682538516806,0.0 -78.85821740471587,33.766734761852256,0.0 -78.85828057840611,33.766640053788706,0.0 -78.85834374983975,33.76654534384596,0.0 -78.8584675331239,33.76649446459147,0.0 -78.85856905517169,33.76641708875285,0.0 -78.85864583901768,33.766324420993364,0.0 -78.85866102470848,33.76630165466745,0.0 -78.85897185968297,33.7663123522162,0.0 -78.85951484142342,33.76695143802307,0.0 -78.85973059771173,33.76713191127716,0.0 -78.86002182379669,33.76739582047283,0.0 -78.86013755654793,33.76795936148997,0.0 -78.85986127674451,33.768172016361795,0.0 -78.85961180058455,33.76838004831765,0.0 -78.85959334969314,33.768367187581944,0.0 -78.85956108842606,33.76836211943062,0.0 -78.85953928164928,33.768370757013145,0.0 -78.85952826450736,33.76837958360002,0.0 -78.85951724740802,33.768388408383245,0.0 -78.85950612034158,33.76840174057732,0.0 -78.85949487791018,33.76841958008851,0.0 -78.8594836398131,33.768437418772066,0.0 -78.85948319248352,33.76845544468321,0.0 -78.85949364697318,33.7684691504292,0.0 -78.8594991749111,33.768473963049786,0.0 -78.85944331346009,33.76852054408962,0.0 -78.85945852836291,33.76854652319943,0.0 -78.85944812534862,33.76856303826995,0.0 -78.85943688508576,33.768580876009,0.0 -78.85941485400582,33.76859852741351,0.0 -78.85938270041233,33.76858895446767,0.0 -78.85937280757148,33.768552715466605,0.0 -78.85938426992286,33.76852586384946,0.0 -78.85938471945514,33.76850783707584,0.0 -78.85937403862678,33.768503143327926,0.0 -78.85935762986131,33.7685118754431,0.0 -78.85933582082409,33.7685205147523,0.0 -78.85931940775728,33.7685292458859,0.0 -78.8593083927759,33.76853807068611,0.0 -78.85930816745075,33.76854708451372,0.0 -78.85931851084503,33.76856529856756,0.0 -78.85932863008901,33.76859252286186,0.0 -78.85933863713876,33.768624257233185,0.0 -78.85933774029863,33.76866030721087,0.0 -78.85932605150899,33.76869617263066,0.0 -78.85931436165205,33.76873203712874,0.0 -78.85930301028192,33.76875438224557,0.0 -78.85929199203125,33.768763206986655,0.0 -78.85928097802778,33.76877203450547,0.0 -78.85926996087423,33.768780858361815,0.0 -78.85925917004023,33.76878067201403,0.0 -78.85924320643663,33.76877137816625,0.0 -78.8592216226804,33.76877100272382,0.0 -78.8592052106104,33.76877973475958,0.0 -78.85919419338111,33.76878856131271,0.0 -78.85918317835282,33.7687973860996,0.0 -78.85917193685654,33.76881522649569,0.0 -78.85917126523735,33.768842264444565,0.0 -78.85918149761586,33.76886498409866,0.0 -78.85918104589904,33.76888300993009,0.0 -78.85916980767256,33.76890084857889,0.0 -78.85914237726368,33.76891840623385,0.0 -78.8590988754437,33.768931175660725,0.0 -78.8590716714213,33.76893972039329,0.0 -78.85906065415759,33.76894854693293,0.0 -78.8590604320406,33.76895756081466,0.0 -78.85907099864343,33.7689667601237,0.0 -78.85907077439143,33.76897577306671,0.0 -78.85905964715451,33.76898910611496,0.0 -78.85904300969203,33.769006851050676,0.0 -78.85902108731244,33.76901999584877,0.0 -78.85899928139546,33.769028633345066,0.0 -78.85897724795186,33.769046284624764,0.0 -78.85896038725365,33.76907304341037,0.0 -78.85894914681953,33.769090881097036,0.0 -78.85893273574021,33.769099613111386,0.0 -78.85891092761379,33.76910825145464,0.0 -78.85887832755297,33.769116702491125,0.0 -78.85883515769726,33.769115952331994,0.0 -78.85880840428989,33.7691064720591,0.0 -78.85880777080368,33.769106461064055,0.0 -78.85903801336352,33.768759112466334,0.0 -78.85809833264184,33.7686145566109,0.0 -78.8573560254824,33.76812350741989,0.0 -78.85702068768373,33.7686714614131,0.0 -78.8561214485025,33.76880191924931,0.0 -78.8551505104776,33.769429074507045,0.0 -78.85507126992903,33.77003095753061,0.0 -78.85499896465544,33.7700024523984,0.0 -78.8548722509428,33.76995249689372,0.0</coordinates>
                    </LinearRing>
                </outerBoundaryIs>
            </Polygon>
        </Placemark>
        <Placemark id="448">
            <name>Population_49</name>
            <styleUrl>#453</styleUrl>
            <Polygon id="447">
                <outerBoundaryIs>
                    <LinearRing id="451">
                        <coordinates>-78.86545319853735,33.77006570719471,0.0 -78.86550683958156,33.770009054631245,0.0 -78.86632383435665,33.77045270273438,0.0 -78.86681648184616,33.77068289452175,0.0 -78.86682291508056,33.770686619717544,0.0 -78.86682442720894,33.770687728788644,0.0 -78.86698902701963,33.77081406156946,0.0 -78.86699284322083,33.77081739075145,0.0 -78.86699620033613,33.7708212079223,0.0 -78.8670884007878,33.770942075166175,0.0 -78.86708938634916,33.77094343301189,0.0 -78.86709029762977,33.770944825640676,0.0 -78.86709113363975,33.77094624942874,0.0 -78.86709189334458,33.77094770255479,0.0 -78.86709257359595,33.77094918135766,0.0 -78.86709317335934,33.77095068401611,0.0 -78.86709369272411,33.770952206924925,0.0 -78.86717942654248,33.77122693854244,0.0 -78.8671801753704,33.77122983237259,0.0 -78.86718078941271,33.7712353324472,0.0 -78.867183808123,33.77140859922979,0.0 -78.86709680829055,33.77140857832743,0.0 -78.86709387946298,33.7712406213201,0.0 -78.8670111215613,33.77097542592845,0.0 -78.8669255457097,33.77086324188763,0.0 -78.86676884466985,33.77074296968089,0.0 -78.86627937860955,33.77051426550416,0.0 -78.86627714588829,33.77051313133948,0.0 -78.86545319853735,33.77006570719471,0.0</coordinates>
                    </LinearRing>
                </outerBoundaryIs>
            </Polygon>
        </Placemark>
        <Placemark id="457">
            <name>Population_50</name>
            <styleUrl>#462</styleUrl>
            <Polygon id="456">
                <outerBoundaryIs>
                    <LinearRing id="460">
                        <coordinates>-78.89513716682134,33.77179739432161,0.0 -78.89523954143475,33.771799141028616,0.0 -78.89498935884104,33.77200789592012,0.0 -78.89475747236371,33.77185461793908,0.0 -78.89501466851337,33.77185152640254,0.0 -78.89513716682134,33.77179739432161,0.0</coordinates>
                    </LinearRing>
                </outerBoundaryIs>
            </Polygon>
        </Placemark>
        <Placemark id="466">
            <name>Population_51</name>
            <styleUrl>#471</styleUrl>
            <Polygon id="465">
                <outerBoundaryIs>
                    <LinearRing id="469">
                        <coordinates>-78.86337329322254,33.771602542714234,0.0 -78.86250302390381,33.771421499925495,0.0 -78.86092662388829,33.77184180371341,0.0 -78.86029128726202,33.77193399297486,0.0 -78.85941140472835,33.7719037187725,0.0 -78.8588518240865,33.771989359614246,0.0 -78.85815777488394,33.77206567611931,0.0 -78.85745784991272,33.771602680354874,0.0 -78.85713412443118,33.77150869255967,0.0 -78.85691486835263,33.771409492039055,0.0 -78.85672955510834,33.7704992050284,0.0 -78.85710582304411,33.76991917164089,0.0 -78.85799221485259,33.76975493396233,0.0 -78.8586068408009,33.76935791181296,0.0 -78.85861843678542,33.769364662924545,0.0 -78.85862922658647,33.76936485021375,0.0 -78.85864564098404,33.76935611829953,0.0 -78.85866744919873,33.76934748000699,0.0 -78.85867857649909,33.76933414880162,0.0 -78.85885124998842,33.7693371449648,0.0 -78.85885697914584,33.76932371914998,0.0 -78.85886777326022,33.76932390649305,0.0 -78.85887834094112,33.769333106739055,0.0 -78.85888913181924,33.769333294024115,0.0 -78.85890014910635,33.76932446930551,0.0 -78.8589111632209,33.769315641825735,0.0 -78.85892218156026,33.76930681802497,0.0 -78.85893331104246,33.76929348412837,0.0 -78.85894454937265,33.76927564550609,0.0 -78.85895578985641,33.76925780692002,0.0 -78.85896703244889,33.76923997017273,0.0 -78.85897815759836,33.76922663619642,0.0 -78.85899457085675,33.769217904214415,0.0 -78.85901638006078,33.76920926677729,0.0 -78.85903818818142,33.76920062931739,0.0 -78.85906010844776,33.76918748448085,0.0 -78.8590767438079,33.769169738605775,0.0 -78.85908798535147,33.76915189912319,0.0 -78.85909922363021,33.76913406048446,0.0 -78.85911035515312,33.76912072931092,0.0 -78.8591213702318,33.769111904532856,0.0 -78.85913238643228,33.76910307796985,0.0 -78.85914340150644,33.76909425318962,0.0 -78.85915441878159,33.76908542664317,0.0 -78.85916543493043,33.769076601879505,0.0 -78.85917645220107,33.7690677753309,0.0 -78.85918746728863,33.76905894964503,0.0 -78.85919848453233,33.76905012399555,0.0 -78.85920949961537,33.76904129830752,0.0 -78.85922051363941,33.76903247169839,0.0 -78.85923153085392,33.76902364694694,0.0 -78.859242548111,33.769014820391824,0.0 -78.85925356532098,33.7690059956382,0.0 -78.85926457823437,33.768997169907315,0.0 -78.85927559654147,33.768988344268955,0.0 -78.85928661374469,33.768979519512094,0.0 -78.85929762777535,33.76897069199408,0.0 -78.85930864495162,33.76896186813634,0.0 -78.85931966113615,33.76895304065362,0.0 -78.8593306793871,33.76894421681243,0.0 -78.85934169232955,33.76893538927136,0.0 -78.85935270844004,33.768926564489256,0.0 -78.85936372567231,33.768917737922216,0.0 -78.85937474177828,33.76890891313794,0.0 -78.85938575572362,33.76890008831514,0.0 -78.85940205679356,33.768895861845664,0.0 -78.85940654216449,33.76871560386131,0.0 -78.859423067411,33.768702364442085,0.0 -78.85943452979193,33.768675511919746,0.0 -78.85944588435457,33.76865316684498,0.0 -78.85945712141077,33.76863532814813,0.0 -78.85946825065275,33.768621996899164,0.0 -78.8594846626446,33.768613265727254,0.0 -78.85949425049675,33.76860751523605,0.0 -78.85958333441391,33.768759616793595,0.0 -78.86074671653387,33.76875996711263,0.0 -78.86115254864261,33.76826569366497,0.0 -78.86161699785667,33.76806991392446,0.0 -78.86217693403842,33.768440291944884,0.0 -78.86336427778596,33.76901492328687,0.0 -78.86356150600123,33.769373168977836,0.0 -78.86354444144077,33.769719399790525,0.0 -78.86369293391682,33.76997290738167,0.0 -78.86398917839658,33.77009933799763,0.0 -78.86443274542845,33.77050125190572,0.0 -78.86517909261194,33.770355203658525,0.0 -78.86533596871517,33.770189519667184,0.0 -78.86542667761596,33.77024557173393,0.0 -78.86554386480945,33.77030326938696,0.0 -78.86565532045547,33.77038685252111,0.0 -78.8657696399578,33.77045749453079,0.0 -78.86588969454058,33.77050225089769,0.0 -78.86602833387187,33.77053642455924,0.0 -78.86616411405411,33.770583539185985,0.0 -78.86629702428299,33.770643597306496,0.0 -78.86641707834399,33.770688353160715,0.0 -78.86653713039908,33.770733107963956,0.0 -78.86665145433102,33.77080375015561,0.0 -78.86671000846897,33.770906138269204,0.0 -78.86680574385419,33.770987362049596,0.0 -78.86686143472414,33.77110269386382,0.0 -78.86683564241508,33.77121917296583,0.0 -78.86680985000534,33.77133565295899,0.0 -78.86681836891637,33.77144390597815,0.0 -78.8668686956734,33.77153190873747,0.0 -78.86660369710694,33.772168684685525,0.0 -78.86615008408545,33.77238452001053,0.0 -78.86463330497875,33.772172526971936,0.0 -78.86337329322254,33.771602542714234,0.0</coordinates>
                    </LinearRing>
                </outerBoundaryIs>
            </Polygon>
        </Placemark>
        <Placemark id="475">
            <name>Population_52</name>
            <styleUrl>#480</styleUrl>
            <Polygon id="474">
                <outerBoundaryIs>
                    <LinearRing id="478">
                        <coordinates>-78.95663616266654,33.77625435238993,0.0 -78.9566987556234,33.77624009899392,0.0 -78.95663608425035,33.776428442202025,0.0 -78.95662077014136,33.7764462009719,0.0 -78.95662437886288,33.77640964795572,0.0 -78.95661060070556,33.77630801227889,0.0 -78.95663616266654,33.77625435238993,0.0</coordinates>
                    </LinearRing>
                </outerBoundaryIs>
            </Polygon>
        </Placemark>
        <Placemark id="484">
            <name>Population_53</name>
            <styleUrl>#489</styleUrl>
            <Polygon id="483">
                <outerBoundaryIs>
                    <LinearRing id="487">
                        <coordinates>-78.9682300991445,33.77709855103341,0.0 -78.968346245982,33.776979611861975,0.0 -78.96833399558106,33.77701514563428,0.0 -78.9682300991445,33.77709855103341,0.0</coordinates>
                    </LinearRing>
                </outerBoundaryIs>
            </Polygon>
        </Placemark>
        <Placemark id="493">
            <name>Population_54</name>
            <styleUrl>#498</styleUrl>
            <Polygon id="492">
                <outerBoundaryIs>
                    <LinearRing id="496">
                        <coordinates>-78.95662386972995,33.777112724323054,0.0 -78.95665004112524,33.777094059751484,0.0 -78.95670814189249,33.77730000381826,0.0 -78.95667607941012,33.777299472728004,0.0 -78.95665254673753,33.77726868828392,0.0 -78.95662242501865,33.77717354467296,0.0 -78.95662386972995,33.777112724323054,0.0</coordinates>
                    </LinearRing>
                </outerBoundaryIs>
            </Polygon>
        </Placemark>
        <Placemark id="502">
            <name>Population_55</name>
            <styleUrl>#507</styleUrl>
            <Polygon id="501">
                <outerBoundaryIs>
                    <LinearRing id="505">
                        <coordinates>-78.95662255335276,33.77784958852128,0.0 -78.95662293616876,33.777833518383474,0.0 -78.95662686106124,33.777855435291656,0.0 -78.95662255335276,33.77784958852128,0.0</coordinates>
                    </LinearRing>
                </outerBoundaryIs>
            </Polygon>
        </Placemark>
        <Placemark id="511">
            <name>Population_56</name>
            <styleUrl>#516</styleUrl>
            <Polygon id="510">
                <outerBoundaryIs>
                    <LinearRing id="514">
                        <coordinates>-78.95662246447529,33.77834134929624,0.0 -78.95657657177821,33.77819235076345,0.0 -78.95663869034374,33.77823803935463,0.0 -78.95668318838932,33.77836438650586,0.0 -78.95668831308352,33.778474304334,0.0 -78.95662246447529,33.77834134929624,0.0</coordinates>
                    </LinearRing>
                </outerBoundaryIs>
            </Polygon>
        </Placemark>
        <Placemark id="520">
            <name>Population_57</name>
            <styleUrl>#525</styleUrl>
            <Polygon id="519">
                <outerBoundaryIs>
                    <LinearRing id="523">
                        <coordinates>-78.9569690890779,33.77844692190727,0.0 -78.95697303102017,33.77839051888847,0.0 -78.95699396648237,33.7784823452903,0.0 -78.95697259260194,33.778450304515815,0.0 -78.9569690890779,33.77844692190727,0.0</coordinates>
                    </LinearRing>
                </outerBoundaryIs>
            </Polygon>
        </Placemark>
        <Placemark id="529">
            <name>Population_58</name>
            <styleUrl>#534</styleUrl>
            <Polygon id="528">
                <outerBoundaryIs>
                    <LinearRing id="532">
                        <coordinates>-78.95693122722714,33.77896477094389,0.0 -78.9566945160052,33.778486828052905,0.0 -78.95674359318879,33.778547918081024,0.0 -78.95680656865723,33.77862332561641,0.0 -78.95686129051089,33.7787053573907,0.0 -78.95690727610993,33.77881428744538,0.0 -78.95694533345996,33.77891632429461,0.0 -78.95693122722714,33.77896477094389,0.0</coordinates>
                    </LinearRing>
                </outerBoundaryIs>
            </Polygon>
        </Placemark>
        <Placemark id="538">
            <name>Population_59</name>
            <styleUrl>#543</styleUrl>
            <Polygon id="537">
                <outerBoundaryIs>
                    <LinearRing id="541">
                        <coordinates>-78.98243542579054,33.7806991098572,0.0 -78.98244539505664,33.78072962264014,0.0 -78.98233251463235,33.780788298116974,0.0 -78.98237070785373,33.78073488070869,0.0 -78.98243542579054,33.7806991098572,0.0</coordinates>
                    </LinearRing>
                </outerBoundaryIs>
            </Polygon>
        </Placemark>
    </Document>
</kml>
