<?xml version="1.0" encoding="UTF-8"?>
<kml xmlns="http://www.opengis.net/kml/2.2" xmlns:gx="http://www.google.com/kml/ext/2.2">
    <Document id="1">
        <Style id="8">
            <LineStyle id="10">
                <colorMode>normal</colorMode>
                <width>1</width>
            </LineStyle>
            <PolyStyle id="9">
                <color>800000ff</color>
                <colorMode>normal</colorMode>
                <fill>1</fill>
                <outline>1</outline>
            </PolyStyle>
        </Style>
        <Style id="17">
            <LineStyle id="19">
                <colorMode>normal</colorMode>
                <width>1</width>
            </LineStyle>
            <PolyStyle id="18">
                <color>800000ff</color>
                <colorMode>normal</colorMode>
                <fill>1</fill>
                <outline>1</outline>
            </PolyStyle>
        </Style>
        <Style id="26">
            <LineStyle id="28">
                <colorMode>normal</colorMode>
                <width>1</width>
            </LineStyle>
            <PolyStyle id="27">
                <color>800000ff</color>
                <colorMode>normal</colorMode>
                <fill>1</fill>
                <outline>1</outline>
            </PolyStyle>
        </Style>
        <Style id="35">
            <LineStyle id="37">
                <colorMode>normal</colorMode>
                <width>1</width>
            </LineStyle>
            <PolyStyle id="36">
                <color>800000ff</color>
                <colorMode>normal</colorMode>
                <fill>1</fill>
                <outline>1</outline>
            </PolyStyle>
        </Style>
        <Style id="44">
            <LineStyle id="46">
                <colorMode>normal</colorMode>
                <width>1</width>
            </LineStyle>
            <PolyStyle id="45">
                <color>800000ff</color>
                <colorMode>normal</colorMode>
                <fill>1</fill>
                <outline>1</outline>
            </PolyStyle>
        </Style>
        <Style id="53">
            <LineStyle id="55">
                <colorMode>normal</colorMode>
                <width>1</width>
            </LineStyle>
            <PolyStyle id="54">
                <color>800000ff</color>
                <colorMode>normal</colorMode>
                <fill>1</fill>
                <outline>1</outline>
            </PolyStyle>
        </Style>
        <Style id="62">
            <LineStyle id="64">
                <colorMode>normal</colorMode>
                <width>1</width>
            </LineStyle>
            <PolyStyle id="63">
                <color>800000ff</color>
                <colorMode>normal</colorMode>
                <fill>1</fill>
                <outline>1</outline>
            </PolyStyle>
        </Style>
        <Style id="71">
            <LineStyle id="73">
                <colorMode>normal</colorMode>
                <width>1</width>
            </LineStyle>
            <PolyStyle id="72">
                <color>800000ff</color>
                <colorMode>normal</colorMode>
                <fill>1</fill>
                <outline>1</outline>
            </PolyStyle>
        </Style>
        <Style id="80">
            <LineStyle id="82">
                <colorMode>normal</colorMode>
                <width>1</width>
            </LineStyle>
            <PolyStyle id="81">
                <color>800000ff</color>
                <colorMode>normal</colorMode>
                <fill>1</fill>
                <outline>1</outline>
            </PolyStyle>
        </Style>
        <Style id="89">
            <LineStyle id="91">
                <colorMode>normal</colorMode>
                <width>1</width>
            </LineStyle>
            <PolyStyle id="90">
                <color>800000ff</color>
                <colorMode>normal</colorMode>
                <fill>1</fill>
                <outline>1</outline>
            </PolyStyle>
        </Style>
        <Style id="98">
            <LineStyle id="100">
                <colorMode>normal</colorMode>
                <width>1</width>
            </LineStyle>
            <PolyStyle id="99">
                <color>800000ff</color>
                <colorMode>normal</colorMode>
                <fill>1</fill>
                <outline>1</outline>
            </PolyStyle>
        </Style>
        <Style id="107">
            <LineStyle id="109">
                <colorMode>normal</colorMode>
                <width>1</width>
            </LineStyle>
            <PolyStyle id="108">
                <color>800000ff</color>
                <colorMode>normal</colorMode>
                <fill>1</fill>
                <outline>1</outline>
            </PolyStyle>
        </Style>
        <Style id="116">
            <LineStyle id="118">
                <colorMode>normal</colorMode>
                <width>1</width>
            </LineStyle>
            <PolyStyle id="117">
                <color>800000ff</color>
                <colorMode>normal</colorMode>
                <fill>1</fill>
                <outline>1</outline>
            </PolyStyle>
        </Style>
        <Style id="125">
            <LineStyle id="127">
                <colorMode>normal</colorMode>
                <width>1</width>
            </LineStyle>
            <PolyStyle id="126">
                <color>800000ff</color>
                <colorMode>normal</colorMode>
                <fill>1</fill>
                <outline>1</outline>
            </PolyStyle>
        </Style>
        <Style id="134">
            <LineStyle id="136">
                <colorMode>normal</colorMode>
                <width>1</width>
            </LineStyle>
            <PolyStyle id="135">
                <color>800000ff</color>
                <colorMode>normal</colorMode>
                <fill>1</fill>
                <outline>1</outline>
            </PolyStyle>
        </Style>
        <Style id="143">
            <LineStyle id="145">
                <colorMode>normal</colorMode>
                <width>1</width>
            </LineStyle>
            <PolyStyle id="144">
                <color>800000ff</color>
                <colorMode>normal</colorMode>
                <fill>1</fill>
                <outline>1</outline>
            </PolyStyle>
        </Style>
        <Style id="152">
            <LineStyle id="154">
                <colorMode>normal</colorMode>
                <width>1</width>
            </LineStyle>
            <PolyStyle id="153">
                <color>800000ff</color>
                <colorMode>normal</colorMode>
                <fill>1</fill>
                <outline>1</outline>
            </PolyStyle>
        </Style>
        <Style id="161">
            <LineStyle id="163">
                <colorMode>normal</colorMode>
                <width>1</width>
            </LineStyle>
            <PolyStyle id="162">
                <color>800000ff</color>
                <colorMode>normal</colorMode>
                <fill>1</fill>
                <outline>1</outline>
            </PolyStyle>
        </Style>
        <Style id="170">
            <LineStyle id="172">
                <colorMode>normal</colorMode>
                <width>1</width>
            </LineStyle>
            <PolyStyle id="171">
                <color>800000ff</color>
                <colorMode>normal</colorMode>
                <fill>1</fill>
                <outline>1</outline>
            </PolyStyle>
        </Style>
        <Style id="179">
            <LineStyle id="181">
                <colorMode>normal</colorMode>
                <width>1</width>
            </LineStyle>
            <PolyStyle id="180">
                <color>800000ff</color>
                <colorMode>normal</colorMode>
                <fill>1</fill>
                <outline>1</outline>
            </PolyStyle>
        </Style>
        <Placemark id="3">
            <name>Population_0</name>
            <styleUrl>#8</styleUrl>
            <Polygon id="2">
                <outerBoundaryIs>
                    <LinearRing id="6">
                        <coordinates>-79.07722062529248,33.573947435799084,0.0 -79.0772214420311,33.57391070826195,0.0 -79.07725626589153,33.57393874036392,0.0 -79.07722062529248,33.573947435799084,0.0</coordinates>
                    </LinearRing>
                </outerBoundaryIs>
            </Polygon>
        </Placemark>
        <Placemark id="12">
            <name>Population_1</name>
            <styleUrl>#17</styleUrl>
            <Polygon id="11">
                <outerBoundaryIs>
                    <LinearRing id="15">
                        <coordinates>-79.08108507742585,33.57407359514404,0.0 -79.08111756343823,33.574074098978556,0.0 -79.08111747580527,33.574078058133644,0.0 -79.08108507742585,33.57407359514404,0.0</coordinates>
                    </LinearRing>
                </outerBoundaryIs>
            </Polygon>
        </Placemark>
        <Placemark id="21">
            <name>Population_2</name>
            <styleUrl>#26</styleUrl>
            <Polygon id="20">
                <outerBoundaryIs>
                    <LinearRing id="24">
                        <coordinates>-79.08076936070754,33.574231013400976,0.0 -79.08077694430727,33.574231131037536,0.0 -79.08076901557959,33.57424650563157,0.0 -79.08076936070754,33.574231013400976,0.0</coordinates>
                    </LinearRing>
                </outerBoundaryIs>
            </Polygon>
        </Placemark>
        <Placemark id="30">
            <name>Population_3</name>
            <styleUrl>#35</styleUrl>
            <Polygon id="29">
                <outerBoundaryIs>
                    <LinearRing id="33">
                        <coordinates>-79.08089020862208,33.57461162559163,0.0 -79.08089340043345,33.574467394090135,0.0 -79.08087186215482,33.574467060908766,0.0 -79.08087226128869,33.574449031071694,0.0 -79.08085072411178,33.57444869700207,0.0 -79.08085112320984,33.57443066896806,0.0 -79.08072189158725,33.57442866343797,0.0 -79.08072149347937,33.57444669419167,0.0 -79.08069995524798,33.574446359177685,0.0 -79.0806995560983,33.574464388111494,0.0 -79.08067801893971,33.57446405311024,0.0 -79.08067841701694,33.574446024159954,0.0 -79.08063534053598,33.57444535501471,0.0 -79.08063494135291,33.57446338484929,0.0 -79.08059186267067,33.57446271745807,0.0 -79.08059226507348,33.57444468857551,0.0 -79.08057072469039,33.57444435350563,0.0 -79.08057112490354,33.57442632639273,0.0 -79.08054958667911,33.57442599135276,0.0 -79.0805499847825,33.57440796240371,0.0 -79.08048537223866,33.574406959098305,0.0 -79.08048497304495,33.57442498802996,0.0 -79.08037727967982,33.57442331719154,0.0 -79.08037688152034,33.574441347040164,0.0 -79.08035534219778,33.574441012851,0.0 -79.08035574251552,33.57442298303601,0.0 -79.08031266601425,33.574422315581764,0.0 -79.0803130652637,33.57440428575047,0.0 -79.08024845053782,33.57440328409095,0.0 -79.08024805021802,33.574421313003405,0.0 -79.08022651195898,33.57442097971014,0.0 -79.08022611382809,33.57443900685283,0.0 -79.08018303841901,33.57443833846844,0.0 -79.08018343552186,33.57442030950659,0.0 -79.08016488248363,33.57442002162182,0.0 -79.08015780714032,33.57427563084436,0.0 -79.08016509136024,33.57427574387305,0.0 -79.08016549169511,33.57425771496104,0.0 -79.08018702989284,33.57425804916495,0.0 -79.0801866295425,33.57427607897862,0.0 -79.080229705948,33.57427674737564,0.0 -79.08022930779998,33.574294775420235,0.0 -79.08025084598778,33.5742951105148,0.0 -79.08025124417125,33.57427708066708,0.0 -79.0802727845287,33.57427741488964,0.0 -79.08027238311898,33.574295444687465,0.0 -79.08029392240437,33.57429577888979,0.0 -79.08029432163583,33.57427774995979,0.0 -79.08031585986014,33.574278083239996,0.0 -79.08031625908679,33.57426005430969,0.0 -79.08033779619014,33.57426038937212,0.0 -79.08033739806484,33.5742784174179,0.0 -79.08038047553228,33.57427908668065,0.0 -79.08038007633864,33.57429711471011,0.0 -79.08042315168257,33.57429778302347,0.0 -79.08042275245764,33.57431581285623,0.0 -79.08050890424455,33.5743171494556,0.0 -79.08050850615396,33.57433517750304,0.0 -79.08053004437528,33.57433551164792,0.0 -79.08053044355826,33.57431748271552,0.0 -79.08057351999302,33.5743181509936,0.0 -79.08057391916671,33.5743001220607,0.0 -79.08059545630324,33.57430045617719,0.0 -79.08059585652904,33.57428242816216,0.0 -79.08063893187114,33.57428309640015,0.0 -79.08063933212755,33.57426506658171,0.0 -79.080682409596,33.57426573573913,0.0 -79.08068201046534,33.574283763771845,0.0 -79.08070354652226,33.574284097852676,0.0 -79.08070394672534,33.57426606983644,0.0 -79.080747022082,33.57426673713509,0.0 -79.08074742227579,33.57424870911834,0.0 -79.0807677177443,33.574249023041844,0.0 -79.08071701040699,33.57434735390481,0.0 -79.08125248190744,33.574216801354495,0.0 -79.0813430660279,33.574109131450435,0.0 -79.0812248761771,33.57409285154528,0.0 -79.08122565222027,33.57405774016701,0.0 -79.08129026672572,33.574058741307326,0.0 -79.08129066466958,33.574040712349394,0.0 -79.08135527804801,33.574041715241506,0.0 -79.08135488229134,33.57405974333209,0.0 -79.08141949676329,33.574060746207884,0.0 -79.08141989577716,33.57404271636384,0.0 -79.08146297100105,33.57404338521231,0.0 -79.08146257095912,33.574061413237224,0.0 -79.08150564834719,33.57406208210457,0.0 -79.08150525046767,33.57408011016327,0.0 -79.08152678863823,33.574080444132484,0.0 -79.08152718761016,33.57406241518881,0.0 -79.08154872467975,33.57406275003879,0.0 -79.08154832467528,33.574080777163104,0.0 -79.08161293917023,33.57408177993848,0.0 -79.08161373705799,33.57404572295069,0.0 -79.08167835372302,33.5740467239215,0.0 -79.08167795366595,33.574064754653016,0.0 -79.08174256929064,33.574065754672645,0.0 -79.08174296606364,33.574047725693255,0.0 -79.08176450422918,33.57404805962081,0.0 -79.08176490422811,33.57403003069121,0.0 -79.08182951763649,33.57403103243405,0.0 -79.08182991762163,33.57401300350372,0.0 -79.08187299501492,33.57401367134092,0.0 -79.08187339283694,33.5739956423767,0.0 -79.08189493097125,33.573995977182555,0.0 -79.08189453317364,33.57401400524556,0.0 -79.08191607025577,33.57401433912976,0.0 -79.08191646914578,33.57399631018177,0.0 -79.08198108470856,33.573997310976544,0.0 -79.08198188244072,33.573961253980485,0.0 -79.08200342060772,33.57396158696426,0.0 -79.0820042172127,33.573925531753716,0.0 -79.08202575429422,33.5739258647166,0.0 -79.08202615533385,33.573907834899146,0.0 -79.08211230679652,33.57390917036822,0.0 -79.08211270672105,33.573891141434544,0.0 -79.08213424377544,33.573891475279694,0.0 -79.08213464259829,33.5738734472305,0.0 -79.08215618074541,33.57387378018692,0.0 -79.08215657850648,33.57385575121929,0.0 -79.08219222733108,33.57385630379557,0.0 -79.08222179162605,33.573923333334946,0.0 -79.08227819093655,33.573808712328756,0.0 -79.08238588150475,33.573810381453,0.0 -79.08238787544748,33.57372023668467,0.0 -79.08249556591272,33.57372190570962,0.0 -79.082490230697,33.57375271270209,0.0 -79.08248722828567,33.573752666170776,0.0 -79.08246050704035,33.57375225204222,0.0 -79.0824593096427,33.57380633888871,0.0 -79.08243777262528,33.57380600419941,0.0 -79.08243737276962,33.573824033136766,0.0 -79.08241583357433,33.57382369931156,0.0 -79.08241543584771,33.57384172918347,0.0 -79.08237235854608,33.57384106063662,0.0 -79.08237156201693,33.573877119461216,0.0 -79.08235002390613,33.57387678473934,0.0 -79.08234962618498,33.57389481370895,0.0 -79.08228501070454,33.573893812207814,0.0 -79.08228421198366,33.573929870996885,0.0 -79.08226267495772,33.57392953537459,0.0 -79.08226187838031,33.57396559419636,0.0 -79.08224034020903,33.57396526125752,0.0 -79.08223994032986,33.57398328929088,0.0 -79.0822184021744,33.57398295544663,0.0 -79.08221800334738,33.57400098439784,0.0 -79.0821103114762,33.57399931510253,0.0 -79.08210951591023,33.57403537393736,0.0 -79.08208797558967,33.57403504003656,0.0 -79.08208717895637,33.57407109795259,0.0 -79.08204410152916,33.574070430188925,0.0 -79.0820437048184,33.57408845917143,0.0 -79.08202216665926,33.574088124390656,0.0 -79.08202176671293,33.5741061533228,0.0 -79.08200022852972,33.57410581943951,0.0 -79.08199982963555,33.5741238492895,0.0 -79.08195675218434,33.57412318149452,0.0 -79.08195635439766,33.57414120955781,0.0 -79.08191327693893,33.5741405417474,0.0 -79.08191287914295,33.57415856981019,0.0 -79.08189134200508,33.574158236825625,0.0 -79.08189094310741,33.57417626577287,0.0 -79.08186940488851,33.57417593276763,0.0 -79.08186900492903,33.57419396079648,0.0 -79.08184746672596,33.57419362688583,0.0 -79.0818478666899,33.57417559885721,0.0 -79.0817832531731,33.57417459712018,0.0 -79.08178364991936,33.574156569042124,0.0 -79.08176211282351,33.57415623423219,0.0 -79.08176171282209,33.57417426316138,0.0 -79.08171863644871,33.574173594397905,0.0 -79.08171823857188,33.57419162426142,0.0 -79.08169670039123,33.57419128942312,0.0 -79.0816970982526,33.574173260461265,0.0 -79.08161094654857,33.57417192469397,0.0 -79.08161054649554,33.57418995452295,0.0 -79.08154593403401,33.57418895357979,0.0 -79.08154633196658,33.574170922816634,0.0 -79.08146017809871,33.57416958781252,0.0 -79.08145977911123,33.57418761675518,0.0 -79.08143824201177,33.57418728188864,0.0 -79.08143784299952,33.57420531173245,0.0 -79.08137322841917,33.57420430886245,0.0 -79.08137282723932,33.57422233867213,0.0 -79.08135129013232,33.57422200379015,0.0 -79.08135089219833,33.57424003274819,0.0 -79.08132935183653,33.57423969871359,0.0 -79.08132975298578,33.57422167070731,0.0 -79.0813082126687,33.57422133486629,0.0 -79.08130781470582,33.57423936472534,0.0 -79.08124320008508,33.57423836268799,0.0 -79.08124280210843,33.5742563925463,0.0 -79.08119972463047,33.574255723584095,0.0 -79.08119932666446,33.57427375254044,0.0 -79.08117778735316,33.574273419397315,0.0 -79.08117818532364,33.574255390441174,0.0 -79.08115664711403,33.574255056409775,0.0 -79.08115625023595,33.57427308448093,0.0 -79.08113470984843,33.574272751313615,0.0 -79.0811351110586,33.57425472240804,0.0 -79.08111357071583,33.5742543874343,0.0 -79.08111317273192,33.574272416389746,0.0 -79.08109163451891,33.574272082346894,0.0 -79.08109123543332,33.57429011218681,0.0 -79.08106969831306,33.57428977725523,0.0 -79.08106889909486,33.57432583511483,0.0 -79.08104735977227,33.574325501948536,0.0 -79.08104696289037,33.574343529116895,0.0 -79.08102542464056,33.57434319596332,0.0 -79.0810258226637,33.57432516610757,0.0 -79.08100428441875,33.574324832950495,0.0 -79.0810038853142,33.57434286278934,0.0 -79.08096080887624,33.57434219375914,0.0 -79.0809600096112,33.57437825161614,0.0 -79.08093847135389,33.57437791844714,0.0 -79.08093767315539,33.574413976320166,0.0 -79.0809161360063,33.57441364136077,0.0 -79.08091533777747,33.574449700134565,0.0 -79.08093687603238,33.57445003420965,0.0 -79.08093488054632,33.57454017798918,0.0 -79.08091334224909,33.57453984481439,0.0 -79.08091174583997,33.5746119596558,0.0 -79.08089020862208,33.57461162559163,0.0</coordinates>
                    </LinearRing>
                </outerBoundaryIs>
            </Polygon>
        </Placemark>
        <Placemark id="39">
            <name>Population_4</name>
            <styleUrl>#44</styleUrl>
            <Polygon id="38">
                <outerBoundaryIs>
                    <LinearRing id="42">
                        <coordinates>-79.06253522287093,33.57700352398312,0.0 -79.06254114117729,33.576976407193705,0.0 -79.06265800034929,33.57706080069155,0.0 -79.06270576570734,33.5771108068614,0.0 -79.06252588053738,33.57713828341366,0.0 -79.06250390893081,33.57714700013715,0.0 -79.06251103948071,33.57711432950594,0.0 -79.0625231317229,33.57705892675407,0.0 -79.06253522287093,33.57700352398312,0.0</coordinates>
                    </LinearRing>
                </outerBoundaryIs>
            </Polygon>
        </Placemark>
        <Placemark id="48">
            <name>Population_5</name>
            <styleUrl>#53</styleUrl>
            <Polygon id="47">
                <outerBoundaryIs>
                    <LinearRing id="51">
                        <coordinates>-79.07199527382697,33.5780262490345,0.0 -79.07200208016049,33.578026355103056,0.0 -79.07200127921273,33.57806241278208,0.0 -79.07196137170169,33.578061789963655,0.0 -79.07199527382697,33.5780262490345,0.0</coordinates>
                    </LinearRing>
                </outerBoundaryIs>
            </Polygon>
        </Placemark>
        <Placemark id="57">
            <name>Population_6</name>
            <styleUrl>#62</styleUrl>
            <Polygon id="56">
                <outerBoundaryIs>
                    <LinearRing id="60">
                        <coordinates>-79.06364085377172,33.57901800997286,0.0 -79.06435236107252,33.57893157818603,0.0 -79.06423872624039,33.57950136416497,0.0 -79.06448019457339,33.57966348625233,0.0 -79.0642135826944,33.57998318452779,0.0 -79.06361056554563,33.58001057867366,0.0 -79.06356054199293,33.57994240144893,0.0 -79.0635839436221,33.57983517880363,0.0 -79.06362636761327,33.579697779177884,0.0 -79.06362996789574,33.57968611816273,0.0 -79.06366056945491,33.57954590035981,0.0 -79.06366974253851,33.57938022344309,0.0 -79.06364701336697,33.57929889396246,0.0 -79.06361523014975,33.57917966730504,0.0 -79.06362483843132,33.57909139187744,0.0 -79.06362875223867,33.579073459573074,0.0 -79.06364085377172,33.57901800997286,0.0</coordinates>
                    </LinearRing>
                </outerBoundaryIs>
            </Polygon>
        </Placemark>
        <Placemark id="66">
            <name>Population_7</name>
            <styleUrl>#71</styleUrl>
            <Polygon id="65">
                <outerBoundaryIs>
                    <LinearRing id="69">
                        <coordinates>-79.06249407364281,33.57945042573549,0.0 -79.06252467692337,33.579310208271195,0.0 -79.06249024094511,33.579251455479074,0.0 -79.06249037881346,33.57925068573861,0.0 -79.06248965253432,33.57925045163162,0.0 -79.06244602514673,33.579176018597465,0.0 -79.0624359850158,33.579170109981625,0.0 -79.06237904915045,33.5791366028085,0.0 -79.06235690035125,33.57915163168612,0.0 -79.06232691132617,33.579164608014906,0.0 -79.06233322835834,33.57913566603502,0.0 -79.06234531996412,33.57908026421631,0.0 -79.06235741157286,33.579024861493934,0.0 -79.0623695042212,33.57896945968769,0.0 -79.06239501998522,33.578916053577686,0.0 -79.06240711265141,33.578860649061134,0.0 -79.06241920416299,33.578805247229816,0.0 -79.06243128849036,33.57874987684534,0.0 -79.06245410962214,33.578730019679774,0.0 -79.06251699492829,33.57876783567827,0.0 -79.06260655568546,33.579309149577455,0.0 -79.06274770336164,33.579337966070014,0.0 -79.06320841455637,33.578787798392135,0.0 -79.06342336874062,33.578745195613095,0.0 -79.06327624036788,33.57906922032885,0.0 -79.0632101611013,33.57977475816881,0.0 -79.06326734458176,33.57977851012999,0.0 -79.06326559425082,33.579810122500575,0.0 -79.06330974940538,33.57991691026615,0.0 -79.06335286411307,33.57994350786287,0.0 -79.06317977729107,33.580003835179404,0.0 -79.06307208024982,33.580002149071724,0.0 -79.06307006575138,33.580092292722526,0.0 -79.06289017443156,33.58011976957561,0.0 -79.06277762118128,33.58029765326708,0.0 -79.06263323233749,33.58035597820761,0.0 -79.0623561772743,33.58039092219948,0.0 -79.06198100082426,33.58061628796942,0.0 -79.0620320278402,33.580476836986705,0.0 -79.06234776326882,33.58004592267921,0.0 -79.06235295711366,33.58001696220964,0.0 -79.06240721254082,33.579972037237894,0.0 -79.06245794755488,33.57980140520651,0.0 -79.0625003209906,33.57960725886865,0.0 -79.06249407364281,33.57945042573549,0.0</coordinates>
                    </LinearRing>
                </outerBoundaryIs>
            </Polygon>
        </Placemark>
        <Placemark id="75">
            <name>Population_8</name>
            <styleUrl>#80</styleUrl>
            <Polygon id="74">
                <outerBoundaryIs>
                    <LinearRing id="78">
                        <coordinates>-79.06320778061117,33.58123819476213,0.0 -79.06321423439508,33.581208624559395,0.0 -79.06321946001253,33.58121111314492,0.0 -79.06325280846444,33.58125837031872,0.0 -79.06320416908027,33.58125474037327,0.0 -79.06320778061117,33.58123819476213,0.0</coordinates>
                    </LinearRing>
                </outerBoundaryIs>
            </Polygon>
        </Placemark>
        <Placemark id="84">
            <name>Population_9</name>
            <styleUrl>#89</styleUrl>
            <Polygon id="83">
                <outerBoundaryIs>
                    <LinearRing id="87">
                        <coordinates>-79.06313975678043,33.58224131958106,0.0 -79.06317174012428,33.58221980135007,0.0 -79.06323711478329,33.582259112322696,0.0 -79.06317631310715,33.58232255450303,0.0 -79.06309793311688,33.58231160285998,0.0 -79.06313975678043,33.58224131958106,0.0</coordinates>
                    </LinearRing>
                </outerBoundaryIs>
            </Polygon>
        </Placemark>
        <Placemark id="93">
            <name>Population_10</name>
            <styleUrl>#98</styleUrl>
            <Polygon id="92">
                <outerBoundaryIs>
                    <LinearRing id="96">
                        <coordinates>-79.06687954221756,33.58417521057931,0.0 -79.0668955513651,33.58416603112461,0.0 -79.06690161552663,33.584290182636245,0.0 -79.06686745261221,33.58423061287624,0.0 -79.06687954221756,33.58417521057931,0.0</coordinates>
                    </LinearRing>
                </outerBoundaryIs>
            </Polygon>
        </Placemark>
        <Placemark id="102">
            <name>Population_11</name>
            <styleUrl>#107</styleUrl>
            <Polygon id="101">
                <outerBoundaryIs>
                    <LinearRing id="105">
                        <coordinates>-79.08422724844553,33.585277284773404,0.0 -79.0842291723138,33.585277254149794,0.0 -79.08423107198965,33.5852772943902,0.0 -79.0842329679968,33.585277403107185,0.0 -79.08423485602708,33.58527758023402,0.0 -79.08423673286924,33.58527782481926,0.0 -79.08423859529219,33.58527813681282,0.0 -79.08424043898766,33.58527851614799,0.0 -79.0842422607445,33.585278961873314,0.0 -79.08424405733156,33.58527947393872,0.0 -79.08424582452032,33.585280048671756,0.0 -79.08424756011685,33.5852806878419,0.0 -79.08424925987275,33.585281388678105,0.0 -79.08425092165385,33.58528215024558,0.0 -79.08425254011476,33.58528297065806,0.0 -79.0842541141784,33.585283849898815,0.0 -79.0842556406934,33.58528478431206,0.0 -79.0842571142944,33.585285772912925,0.0 -79.08425853500135,33.58528681479999,0.0 -79.08425989966281,33.585287906317404,0.0 -79.08426120508747,33.58528904561227,0.0 -79.08426244806414,33.58529023173309,0.0 -79.08433873134236,33.58536680252621,0.0 -79.08429002887499,33.585430690678166,0.0 -79.08419550350683,33.58533580944738,0.0 -79.08419431364388,33.58533456012385,0.0 -79.08419319366877,33.58533326859835,0.0 -79.08419214352172,33.58533193757526,0.0 -79.08419116529703,33.585330569792276,0.0 -79.08419026218598,33.58532916710235,0.0 -79.08418943520586,33.58532773222647,0.0 -79.08418868533404,33.585326269688565,0.0 -79.08418801580169,33.58532477953868,0.0 -79.08418742646926,33.58532326808696,0.0 -79.08418691949089,33.58532173536675,0.0 -79.08418649584397,33.58532018590197,0.0 -79.08418615439163,33.58531862238029,0.0 -79.08418589828533,33.585317048457505,0.0 -79.08418572640814,33.58531546591988,0.0 -79.0841856407946,33.585313880209405,0.0 -79.0841856393105,33.58531229039131,0.0 -79.08418572287346,33.585310703693835,0.0 -79.08418589252068,33.585309121936554,0.0 -79.08418614713524,33.585307546905696,0.0 -79.08418648661748,33.585305983108476,0.0 -79.0841869087336,33.58530443411732,0.0 -79.0841874145407,33.58530290085038,0.0 -79.08418800070797,33.58530138776482,0.0 -79.08418866823276,33.585299898483115,0.0 -79.08418941601806,33.58529843389003,0.0 -79.08419024179025,33.58529699936088,0.0 -79.08419114337524,33.58529559576378,0.0 -79.08419211961626,33.5852942266878,0.0 -79.08419316829946,33.58529289480394,0.0 -79.08419428613388,33.58529160276649,0.0 -79.08419547415672,33.58529035239502,0.0 -79.08419672690299,33.58528914721192,0.0 -79.08419804435279,33.58528798811863,0.0 -79.08419942319522,33.58528687867089,0.0 -79.08420085906234,33.58528582150636,0.0 -79.08420235085713,33.58528481750975,0.0 -79.08420389528867,33.5852838693354,0.0 -79.08420548908596,33.58528297873613,0.0 -79.08420712899793,33.58528214656338,0.0 -79.08420881065659,33.58528137545473,0.0 -79.08421053402208,33.5852806672131,0.0 -79.08421229368922,33.58528002265652,0.0 -79.0842140853299,33.585279442619736,0.0 -79.08421590675017,33.58527892887226,0.0 -79.08421775360199,33.58527848315028,0.0 -79.08421962267411,33.585278104502315,0.0 -79.08422151067562,33.58527779558264,0.0 -79.08422341333817,33.585277554521674,0.0 -79.08422532737085,33.58527738397368,0.0 -79.08422724844553,33.585277284773404,0.0</coordinates>
                    </LinearRing>
                </outerBoundaryIs>
            </Polygon>
        </Placemark>
        <Placemark id="111">
            <name>Population_12</name>
            <styleUrl>#116</styleUrl>
            <Polygon id="110">
                <outerBoundaryIs>
                    <LinearRing id="114">
                        <coordinates>-79.06944444302115,33.62842858370791,0.0 -79.06931302504164,33.62841735254334,0.0 -79.06918140555271,33.62841529697424,0.0 -79.06903881423645,33.6284130680908,0.0 -79.06889663573506,33.628392490433846,0.0 -79.06876583346948,33.62835373166386,0.0 -79.06863482752411,33.62832415025976,0.0 -79.0685032049969,33.62832209392338,0.0 -79.06837158569566,33.628320038398996,0.0 -79.06823996427275,33.62831798179952,0.0 -79.06810916352526,33.62827922236527,0.0 -79.06797795200441,33.62825881413423,0.0 -79.06783495333254,33.6282749361604,0.0 -79.06770333092223,33.62827287987681,0.0 -79.06757171070056,33.628270822585506,0.0 -79.06744009049225,33.628268765154246,0.0 -79.06730846923989,33.62826670666473,0.0 -79.0671770540328,33.62825547418206,0.0 -79.0670574264315,33.628207710351745,0.0 -79.06692642034369,33.628178125344725,0.0 -79.06679500534084,33.628166892462154,0.0 -79.06666338319586,33.62816483417615,0.0 -79.06653196828164,33.62815360011432,0.0 -79.06640034833248,33.6281515415828,0.0 -79.06632541601856,33.628067761498556,0.0 -79.0663034777675,33.628067418358555,0.0 -79.06617185794705,33.62806536048991,0.0 -79.0660394177452,33.62810000244507,0.0 -79.06590800302361,33.62808876862738,0.0 -79.06577699647121,33.62805918330621,0.0 -79.06577740785173,33.62804083109038,0.0 -79.06564619844308,33.62802042043199,0.0 -79.0656244664276,33.62801090242535,0.0 -79.06555721994461,33.6280741005379,0.0 -79.06552431417693,33.62807358654864,0.0 -79.0653817247691,33.62807135528833,0.0 -79.06525010613227,33.62806929465252,0.0 -79.06511889573592,33.62804888432178,0.0 -79.0651103885829,33.62793860649467,0.0 -79.06514693007017,33.62788022674178,0.0 -79.06607614169688,33.62792561018598,0.0 -79.06737795488827,33.62810886820866,0.0 -79.06913371806189,33.62831251681119,0.0 -79.06971586682717,33.62849347885719,0.0 -79.06976955576054,33.62854380410534,0.0 -79.06967232264182,33.62854228593591,0.0 -79.06955269315128,33.62849452446036,0.0 -79.06944444302115,33.62842858370791,0.0</coordinates>
                    </LinearRing>
                </outerBoundaryIs>
            </Polygon>
        </Placemark>
        <Placemark id="120">
            <name>Population_13</name>
            <styleUrl>#125</styleUrl>
            <Polygon id="119">
                <outerBoundaryIs>
                    <LinearRing id="123">
                        <coordinates>-79.05796033956437,33.643336244384685,0.0 -79.05803124030128,33.643332338375316,0.0 -79.05814431622801,33.64334913977639,0.0 -79.05825071791959,33.643369761509135,0.0 -79.05837250186556,33.643373415932786,0.0 -79.05844655960858,33.643408487513156,0.0 -79.05845231515434,33.6434622902302,0.0 -79.0583677128329,33.64355561627221,0.0 -79.05815240128955,33.64357053732089,0.0 -79.058044432412,33.643512396416924,0.0 -79.05801198733609,33.643473880899656,0.0 -79.0580036346793,33.643405252389265,0.0 -79.05796033956437,33.643336244384685,0.0</coordinates>
                    </LinearRing>
                </outerBoundaryIs>
            </Polygon>
        </Placemark>
        <Placemark id="129">
            <name>Population_14</name>
            <styleUrl>#134</styleUrl>
            <Polygon id="128">
                <outerBoundaryIs>
                    <LinearRing id="132">
                        <coordinates>-79.05830164262092,33.64527382365083,0.0 -79.05819898953064,33.64524287995503,0.0 -79.0581696850323,33.64526026323464,0.0 -79.05816910056511,33.64526060392813,0.0 -79.05816671404499,33.64526187666522,0.0 -79.05816423234205,33.645263018957635,0.0 -79.05816166635557,33.6452640255662,0.0 -79.0581590259678,33.64526488853047,0.0 -79.05815632191602,33.645265609822644,0.0 -79.05815356621781,33.64526618241755,0.0 -79.05815077074898,33.64526660560006,0.0 -79.05814794846316,33.64526687867191,0.0 -79.05814511023937,33.64526699729537,0.0 -79.05814226791294,33.64526696255807,0.0 -79.0581394354748,33.645266775581575,0.0 -79.05813662480075,33.64526643565076,0.0 -79.0581338466079,33.6452659456392,0.0 -79.05813111277203,33.64526530483177,0.0 -79.0581284360848,33.645264519741616,0.0 -79.05812582512799,33.645263592307074,0.0 -79.05812329604801,33.64526252368358,0.0 -79.05812085510911,33.645261322986975,0.0 -79.05811851628191,33.64525999224024,0.0 -79.05811628802667,33.64525853879025,0.0 -79.05811417774615,33.645256969065514,0.0 -79.05811219932998,33.64525528869473,0.0 -79.05811035696784,33.64525350315418,0.0 -79.05810865901869,33.645251624297856,0.0 -79.0581071161591,33.6452496568022,0.0 -79.05810573141999,33.6452476097323,0.0 -79.05810451100474,33.645245494908245,0.0 -79.05810346345466,33.64524331607121,0.0 -79.05810258952353,33.64524108766095,0.0 -79.05810189447874,33.64523881517065,0.0 -79.0581013813107,33.64523650946823,0.0 -79.05810104973592,33.64523418317361,0.0 -79.05810090609958,33.64523184179696,0.0 -79.05810094794242,33.64522949882576,0.0 -79.05810117613973,33.645227163291175,0.0 -79.0581015883132,33.64522484507505,0.0 -79.05807391055579,33.645220732003516,0.0 -79.05795777628632,33.64521791715817,0.0 -79.0578616632972,33.64520363734896,0.0 -79.05779789086145,33.64517490756714,0.0 -79.05772591867343,33.64515699424659,0.0 -79.05770427242429,33.64512249067098,0.0 -79.05773030159388,33.6450300905803,0.0 -79.0578278930023,33.6450108957921,0.0 -79.0579266052934,33.645040003238776,0.0 -79.058047934157,33.64507247056655,0.0 -79.05814720716313,33.645125727197076,0.0 -79.05821297164698,33.64514636520036,0.0 -79.0582361678306,33.645132604731,0.0 -79.05823675229665,33.645132264037144,0.0 -79.05823913881213,33.64513099129853,0.0 -79.0582416194325,33.64512984898747,0.0 -79.0582441864716,33.64512884329541,0.0 -79.05824682689489,33.64512797852627,0.0 -79.05824953094164,33.64512725723193,0.0 -79.05825228555707,33.64512668461776,0.0 -79.05825508102096,33.64512626143274,0.0 -79.0582579043595,33.64512598927661,0.0 -79.05826074257863,33.64512587065041,0.0 -79.05826358492084,33.64512590448341,0.0 -79.05826641625677,33.64512609234138,0.0 -79.0582692280047,33.64512643228604,0.0 -79.05827200617381,33.64512692319585,0.0 -79.05827473896926,33.64512756218029,0.0 -79.05827741671132,33.64512834818554,0.0 -79.0582800265679,33.6451292765013,0.0 -79.05828255676442,33.64513034333563,0.0 -79.05828499768191,33.64513154493044,0.0 -79.05828733652869,33.64513287477259,0.0 -79.05828956478382,33.64513432821952,0.0 -79.05829167504456,33.645135898842696,0.0 -79.05829365344148,33.64513758011209,0.0 -79.05829549582546,33.645139364748566,0.0 -79.05829719162116,33.645141243568574,0.0 -79.0582987366187,33.64514321199723,0.0 -79.05830012032366,33.64514525724535,0.0 -79.05830134070202,33.64514737387046,0.0 -79.05830238935415,33.6451495518215,0.0 -79.05830326326948,33.64515178113194,0.0 -79.05830395833925,33.645154052719896,0.0 -79.05830447153261,33.64515635752024,0.0 -79.05830480307222,33.645158685617375,0.0 -79.05830494565653,33.645161026075655,0.0 -79.05830490381936,33.64516336904715,0.0 -79.05830467670557,33.64516570459926,0.0 -79.05830426453787,33.645168022816286,0.0 -79.05830366969445,33.64517031381646,0.0 -79.0583028945738,33.64517256681652,0.0 -79.05830202112847,33.64517458922931,0.0 -79.05834926776008,33.64518944283026,0.0 -79.05838996439833,33.64524362491456,0.0 -79.05830164262092,33.64527382365083,0.0</coordinates>
                    </LinearRing>
                </outerBoundaryIs>
            </Polygon>
        </Placemark>
        <Placemark id="138">
            <name>Population_15</name>
            <styleUrl>#143</styleUrl>
            <Polygon id="137">
                <outerBoundaryIs>
                    <LinearRing id="141">
                        <coordinates>-79.0563875188144,33.645778816418954,0.0 -79.0564788978864,33.645734633341995,0.0 -79.05659966699085,33.6457429518578,0.0 -79.05666373865013,33.64578072151538,0.0 -79.05669792069568,33.645800872758585,0.0 -79.05671434196229,33.645847029622125,0.0 -79.05673046721266,33.645892350423104,0.0 -79.05673632082068,33.645999115839935,0.0 -79.05672307603264,33.646059723783615,0.0 -79.05668925489725,33.64610764441536,0.0 -79.05658702669406,33.6461213350712,0.0 -79.05650944900306,33.64612906319819,0.0 -79.0564251999944,33.646140609846846,0.0 -79.05641605839625,33.646140265003204,0.0 -79.05638302604909,33.64611990271892,0.0 -79.05635659333335,33.64600045259375,0.0 -79.05634730866761,33.645885809698186,0.0 -79.0563455448331,33.645864034648476,0.0 -79.05637105866033,33.645812234931476,0.0 -79.0563875188144,33.645778816418954,0.0</coordinates>
                    </LinearRing>
                </outerBoundaryIs>
            </Polygon>
        </Placemark>
        <Placemark id="147">
            <name>Population_16</name>
            <styleUrl>#152</styleUrl>
            <Polygon id="146">
                <outerBoundaryIs>
                    <LinearRing id="150">
                        <coordinates>-79.05498260022445,33.65968059373495,0.0 -79.05494968905722,33.65948692030524,0.0 -79.05504055716158,33.659505463788086,0.0 -79.05507554429823,33.65971135598535,0.0 -79.05498260022445,33.65968059373495,0.0</coordinates>
                    </LinearRing>
                </outerBoundaryIs>
            </Polygon>
        </Placemark>
        <Placemark id="156">
            <name>Population_17</name>
            <styleUrl>#161</styleUrl>
            <Polygon id="155">
                <outerBoundaryIs>
                    <LinearRing id="159">
                        <coordinates>-79.05507592663443,33.660460575302174,0.0 -79.05516281831862,33.660359461072126,0.0 -79.05516278231201,33.66050795451862,0.0 -79.05516209532573,33.6605142342435,0.0 -79.05516056942363,33.66051917069852,0.0 -79.0549523821772,33.66103587582439,0.0 -79.05495238274953,33.66114555173299,0.0 -79.05495233847357,33.66114713539276,0.0 -79.05495220907815,33.66114871590923,0.0 -79.05495199462413,33.66115029057811,0.0 -79.05495169627069,33.6611518558107,0.0 -79.05495131407866,33.66115340890271,0.0 -79.05495084920717,33.66115494626549,0.0 -79.05495030171714,33.66115646519469,0.0 -79.0549496749439,33.66115796123418,0.0 -79.05494896673152,33.661159434350004,0.0 -79.05494818041537,33.66116088008596,0.0 -79.05494731821229,33.66116229577172,0.0 -79.05494638018313,33.661163678703026,0.0 -79.0549453696227,33.66116502622652,0.0 -79.05494428659186,33.66116633563794,0.0 -79.0549431354837,33.66116760339945,0.0 -79.05494191739646,33.66116882862663,0.0 -79.05494063456727,33.661170007747714,0.0 -79.05493928917238,33.661171139895224,0.0 -79.05493788454717,33.661172220612954,0.0 -79.05493642392554,33.66117324995182,0.0 -79.05493490846666,33.66117422432311,0.0 -79.05493334250275,33.66117514289325,0.0 -79.05493172930827,33.66117600391033,0.0 -79.05493007112035,33.66117680380257,0.0 -79.05492837115266,33.66117754352234,0.0 -79.05492663483562,33.66117822135159,0.0 -79.05492486225045,33.66117883368467,0.0 -79.05492305876669,33.66117938150782,0.0 -79.05492122873686,33.6611798630861,0.0 -79.05491937325921,33.66118027753504,0.0 -79.05491749776424,33.66118062313662,0.0 -79.0549156065435,33.661180900860174,0.0 -79.05491370071563,33.661181108919784,0.0 -79.05491178674845,33.6611812474173,0.0 -79.0549098668182,33.66118131548522,0.0 -79.05490794521653,33.66118131409286,0.0 -79.05490602519761,33.66118124238965,0.0 -79.05490411107337,33.661181100443535,0.0 -79.05490220603718,33.661180890108206,0.0 -79.05490031551948,33.661180609665706,0.0 -79.05489844165595,33.66118026005135,0.0 -79.05489658763992,33.66117984311892,0.0 -79.05489475778332,33.661179358936295,0.0 -79.05489295529975,33.66117880845577,0.0 -79.05489118555882,33.661178192663655,0.0 -79.05488944961823,33.66117751247828,0.0 -79.05488775174928,33.66117676977041,0.0 -79.05488609514532,33.661175966393785,0.0 -79.0548844829997,33.66117510420214,0.0 -79.05488292072259,33.66117418237889,0.0 -79.05488140713454,33.661173205414215,0.0 -79.05487994868312,33.661172174311304,0.0 -79.05487854750402,33.66117109000554,0.0 -79.05487720459398,33.66116995611957,0.0 -79.05487592420408,33.66116877542553,0.0 -79.05487470849023,33.661167547957355,0.0 -79.05487356058495,33.66116627827307,0.0 -79.05487248154587,33.66116496729105,0.0 -79.05487147346807,33.661163617749494,0.0 -79.05487053948403,33.66116223420641,0.0 -79.05486967957344,33.661160817563264,0.0 -79.05486889690935,33.66115937057514,0.0 -79.05486819250885,33.66115789596336,0.0 -79.05486756844674,33.66115639736749,0.0 -79.05486702571979,33.661154878410194,0.0 -79.05486656428742,33.66115334089429,0.0 -79.05486618516674,33.66115178754106,0.0 -79.05486589043251,33.66115022199009,0.0 -79.05486568110182,33.661148646962594,0.0 -79.05486555493756,33.66114706603035,0.0 -79.0548655140348,33.661145481931534,0.0 -79.05486551343493,33.66103001595387,0.0 -79.05486620376381,33.66102373267728,0.0 -79.05486772861495,33.661018796210236,0.0 -79.05507591639534,33.660502087636594,0.0 -79.05507592663443,33.660460575302174,0.0</coordinates>
                    </LinearRing>
                </outerBoundaryIs>
            </Polygon>
        </Placemark>
        <Placemark id="165">
            <name>Population_18</name>
            <styleUrl>#170</styleUrl>
            <Polygon id="164">
                <outerBoundaryIs>
                    <LinearRing id="168">
                        <coordinates>-79.06124632025968,33.667599161941084,0.0 -79.06125149182958,33.66759870925886,0.0 -79.06113894865175,33.667740716728936,0.0 -79.06114459659946,33.66772331610641,0.0 -79.0611503664328,33.667702262643274,0.0 -79.0611564823925,33.66768366193395,0.0 -79.0611637596574,33.667667038928705,0.0 -79.06117196134312,33.667652088728964,0.0 -79.06118054304676,33.667638946168616,0.0 -79.06118918413414,33.667627914611465,0.0 -79.06119796259618,33.667619026842246,0.0 -79.06120730264267,33.66761197751528,0.0 -79.06121792125866,33.667606390132754,0.0 -79.0612306913056,33.66760210255132,0.0 -79.06124632025968,33.667599161941084,0.0</coordinates>
                    </LinearRing>
                </outerBoundaryIs>
            </Polygon>
        </Placemark>
        <Placemark id="174">
            <name>Population_19</name>
            <styleUrl>#179</styleUrl>
            <Polygon id="173">
                <outerBoundaryIs>
                    <LinearRing id="177">
                        <coordinates>-79.10577999488522,33.701449858295284,0.0 -79.10613246269124,33.70122658592066,0.0 -79.10648303400164,33.70073924343214,0.0 -79.10654188562818,33.70069841207209,0.0 -79.1065976605208,33.70091399524353,0.0 -79.10689615242804,33.700741037343185,0.0 -79.10665171396556,33.70060992135514,0.0 -79.10675024426602,33.70051085841158,0.0 -79.107551442179,33.69999511838177,0.0 -79.10855256856324,33.700114810311796,0.0 -79.10867538292966,33.7000356494948,0.0 -79.10873065039956,33.7000541150691,0.0 -79.10890191057874,33.70003987674827,0.0 -79.10907386631254,33.69993192228646,0.0 -79.10895979236527,33.69985233154892,0.0 -79.10898826968634,33.699833976106916,0.0 -79.10899680854205,33.69978432056537,0.0 -79.10913734561974,33.699882373892464,0.0 -79.10914465848244,33.69988747611653,0.0 -79.1092080612178,33.69984767077716,0.0 -79.10915259869986,33.699661324415224,0.0 -79.10903629682467,33.69955467612258,0.0 -79.10911429226572,33.69910108560444,0.0 -79.1094938412561,33.698719458224076,0.0 -79.10956031829286,33.698672630949446,0.0 -79.1096743445853,33.698574908268256,0.0 -79.11035300320334,33.69813745508068,0.0 -79.11070928313777,33.6976061231688,0.0 -79.11071125685265,33.697515978721434,0.0 -79.11082511380953,33.69743098407337,0.0 -79.1111953544767,33.69710900260966,0.0 -79.11164508823921,33.69677326459833,0.0 -79.11176238280066,33.69622280205179,0.0 -79.11210913535588,33.69585881405203,0.0 -79.11238756650526,33.69364729130683,0.0 -79.11217064877474,33.69344427508402,0.0 -79.11161832331004,33.69313403152504,0.0 -79.1118673799691,33.692766840414095,0.0 -79.11263459818576,33.69255514124472,0.0 -79.1131250062147,33.69311044554766,0.0 -79.11301381824303,33.69344994920569,0.0 -79.11257216869983,33.69391357138284,0.0 -79.11279828434681,33.69429500740737,0.0 -79.11371743691768,33.694719705784635,0.0 -79.11396469170549,33.694366220142705,0.0 -79.11413770649239,33.69380477019666,0.0 -79.11491939087986,33.69361095385672,0.0 -79.11539070901667,33.69289819259389,0.0 -79.11516811000592,33.69213124355542,0.0 -79.11603221886617,33.69200695430398,0.0 -79.11605959019515,33.69202281783613,0.0 -79.11607034969438,33.69200146984124,0.0 -79.11658188852866,33.691927890059915,0.0 -79.11672174296638,33.69161287042082,0.0 -79.1168544912614,33.69118202808402,0.0 -79.1171726628455,33.69053420913435,0.0 -79.11721371592166,33.690472120999324,0.0 -79.11728987881824,33.69049894298225,0.0 -79.11730211653597,33.690509552825304,0.0 -79.11725877708966,33.69040397016751,0.0 -79.11739471758003,33.690198373056816,0.0 -79.11741467831953,33.689910238528576,0.0 -79.11719421824651,33.68954605162726,0.0 -79.11696773268103,33.688858448668746,0.0 -79.11700170873435,33.68884768483501,0.0 -79.11703955549135,33.688827414245395,0.0 -79.11697927853892,33.68873268644273,0.0 -79.11698177999143,33.68861806901779,0.0 -79.11688365443601,33.68854361171624,0.0 -79.11686487426492,33.68854617132705,0.0 -79.11664565148227,33.68788060181882,0.0 -79.11643628499854,33.68768465702201,0.0 -79.11536704903081,33.686929704954785,0.0 -79.11479634573153,33.68714430447383,0.0 -79.11456249888987,33.68731891001988,0.0 -79.11417017929472,33.688483390503414,0.0 -79.11419551088895,33.68947493108726,0.0 -79.1139620892002,33.68982793730849,0.0 -79.11410228289083,33.69044399965631,0.0 -79.11392526399369,33.69047910707457,0.0 -79.11398853578066,33.69071278728804,0.0 -79.11435010056978,33.69139552026008,0.0 -79.11465038716177,33.69178079240259,0.0 -79.11321108735524,33.69173424284637,0.0 -79.11283903010842,33.691734906277276,0.0 -79.11254548012049,33.69149036486533,0.0 -79.11281311481007,33.6910749125983,0.0 -79.11296794230562,33.69047086083011,0.0 -79.11319046216289,33.69012543431496,0.0 -79.11330721931475,33.68975464529793,0.0 -79.11352920648164,33.68908191777921,0.0 -79.11342986243606,33.688161208986834,0.0 -79.11342955952689,33.688155375460326,0.0 -79.11342836621118,33.68814734249699,0.0 -79.11335863380685,33.687501060381756,0.0 -79.11303031429297,33.68653043891549,0.0 -79.11317839248522,33.68587696387324,0.0 -79.11330220474252,33.685141745040426,0.0 -79.11374789934764,33.68444981804295,0.0 -79.11387053544303,33.68372153378137,0.0 -79.11448557232364,33.683565001144444,0.0 -79.11474918375306,33.683463011273794,0.0 -79.11495867106714,33.6832872686708,0.0 -79.11501462821704,33.68324393683545,0.0 -79.1153345998473,33.68360388535584,0.0 -79.11612465039407,33.68351856274729,0.0 -79.11639046770743,33.68381758295346,0.0 -79.11698743627944,33.6839664111422,0.0 -79.11704175165939,33.684266776789194,0.0 -79.11696651485003,33.68504320297613,0.0 -79.11648293316934,33.68516000671167,0.0 -79.11643153655007,33.685043728791825,0.0 -79.11637510181622,33.68515836248697,0.0 -79.11626727047184,33.68515671816826,0.0 -79.11603990696145,33.684936015831845,0.0 -79.11589154561061,33.68521274790001,0.0 -79.1160476733619,33.68533371905853,0.0 -79.11604373887947,33.685514008862626,0.0 -79.11604177162513,33.68560415376254,0.0 -79.11614960351419,33.68560579829718,0.0 -79.11632345436313,33.68582473038971,0.0 -79.11657503102894,33.68588281027032,0.0 -79.11657306430179,33.68597295519243,0.0 -79.11639944839766,33.68660859833772,0.0 -79.11651792707713,33.687109873751616,0.0 -79.11679782423565,33.687371828647436,0.0 -79.11709557835063,33.68738624458922,0.0 -79.11795755988096,33.68685424558833,0.0 -79.11828617294726,33.686848367819486,0.0 -79.11897573461789,33.68699682352683,0.0 -79.11880992920334,33.68747642155429,0.0 -79.1185438508959,33.6879263087447,0.0 -79.11808614941594,33.68840686702738,0.0 -79.11834521590113,33.68882661926278,0.0 -79.11890574440187,33.68895856562618,0.0 -79.11905820837865,33.68884471864588,0.0 -79.11929582865231,33.6884429473044,0.0 -79.1197450434328,33.688252910715114,0.0 -79.12022700169653,33.68811988248322,0.0 -79.12040720799868,33.68841755454612,0.0 -79.12055679387367,33.68869551171151,0.0 -79.12159191482903,33.68975809297854,0.0 -79.12182140444087,33.69006737138904,0.0 -79.12222165809955,33.690180036397194,0.0 -79.12268045009657,33.690437693053894,0.0 -79.12343201218515,33.69096825176316,0.0 -79.1240456797618,33.69114097687507,0.0 -79.12420694480628,33.69154919814831,0.0 -79.12383296099391,33.69276333026553,0.0 -79.12361324304288,33.69313485260522,0.0 -79.12348232472907,33.69324873938478,0.0 -79.12315084207177,33.693420615226756,0.0 -79.12309795889625,33.69346661783584,0.0 -79.12309599841676,33.69355676298516,0.0 -79.1228803139262,33.69355348526711,0.0 -79.12287835321304,33.693643630403905,0.0 -79.122278084993,33.69403024247574,0.0 -79.12162151931567,33.69411549739974,0.0 -79.12125613190314,33.69433019222223,0.0 -79.1210822417375,33.69465831936125,0.0 -79.12095716475102,33.694738963553,0.0 -79.12101755686783,33.69487778495952,0.0 -79.12042131419489,33.694826979003984,0.0 -79.12016658869723,33.694323786977,0.0 -79.12016855229236,33.69423364199053,0.0 -79.12023027095245,33.694195299342844,0.0 -79.12049292533256,33.69368553770911,0.0 -79.12141490513775,33.693569004355666,0.0 -79.12148425206209,33.69326173572713,0.0 -79.12144195867297,33.69258731723851,0.0 -79.12142153989232,33.69118675867467,0.0 -79.12157396011251,33.691098901797346,0.0 -79.12142546398817,33.69100646847866,0.0 -79.12135561506246,33.69088564299178,0.0 -79.12121371058628,33.69082289788271,0.0 -79.12115672580734,33.69050787603764,0.0 -79.12057453002332,33.69045247420031,0.0 -79.12007858252281,33.69048175806398,0.0 -79.11910294515616,33.69066800432756,0.0 -79.11858838833315,33.690988994084876,0.0 -79.11850791984654,33.69123258595626,0.0 -79.11844620154957,33.69127092869197,0.0 -79.1182843803527,33.691589880151774,0.0 -79.11815469508761,33.69164226180344,0.0 -79.11827848422743,33.69186031492984,0.0 -79.11827455343355,33.69204060477478,0.0 -79.11821571319389,33.692081442176644,0.0 -79.11781065410833,33.69253529286341,0.0 -79.11738771656724,33.692500388909544,0.0 -79.11713196566895,33.6926778870957,0.0 -79.11722534103386,33.69297480529034,0.0 -79.11802095473885,33.69337456877718,0.0 -79.11828409820879,33.69389268824413,0.0 -79.11834112041436,33.69393529078242,0.0 -79.11829111324074,33.69398378694098,0.0 -79.11795225491902,33.694210476092756,0.0 -79.1173679451014,33.69391878741171,0.0 -79.11667888855759,33.69342037644945,0.0 -79.11589200411053,33.69378132502821,0.0 -79.11594951270861,33.69435685825636,0.0 -79.11553517498271,33.69477843008015,0.0 -79.11528838348275,33.69523126343913,0.0 -79.11503711755627,33.69554897411365,0.0 -79.11424681435318,33.695351203473486,0.0 -79.1140498028254,33.695542243249264,0.0 -79.11339365051651,33.69584223122998,0.0 -79.11309186571891,33.69639593056069,0.0 -79.11257975665632,33.69691693695515,0.0 -79.11263277919316,33.697447769669004,0.0 -79.11296814838121,33.69791118086169,0.0 -79.11313301752548,33.697955433526346,0.0 -79.11333857252883,33.69805545562965,0.0 -79.113736924553,33.69816237625697,0.0 -79.11386992713466,33.69842427023225,0.0 -79.11398200244084,33.698599623961755,0.0 -79.11435378859487,33.69939172253346,0.0 -79.11475067217326,33.69963615563999,0.0 -79.11553701582471,33.69994394406054,0.0 -79.11597931089808,33.70063592427873,0.0 -79.1157591947019,33.70098585621518,0.0 -79.11483503834067,33.70217044747613,0.0 -79.11421477503806,33.70239051460188,0.0 -79.11405200721917,33.702616819255475,0.0 -79.11350756930449,33.70266530843182,0.0 -79.11339700412417,33.70296751332556,0.0 -79.11295587672602,33.70279570987814,0.0 -79.11253409921298,33.70303610109279,0.0 -79.11279902114694,33.703360808874685,0.0 -79.11289114946297,33.704408839029725,0.0 -79.11254578209204,33.704529208446864,0.0 -79.11202765936477,33.704097961190634,0.0 -79.1123681480431,33.70371176779388,0.0 -79.11234854925969,33.70344745234107,0.0 -79.11238873028147,33.70310748696902,0.0 -79.1117812697214,33.70298233613102,0.0 -79.1115008388444,33.7025924480471,0.0 -79.11130063400675,33.702442863492784,0.0 -79.11125177888545,33.7023936754321,0.0 -79.11130467383708,33.70234767836657,0.0 -79.11173119718397,33.7021873406511,0.0 -79.1119605598012,33.701840546983135,0.0 -79.1113734450129,33.701764313958236,0.0 -79.11149149113722,33.70151010984714,0.0 -79.11144129175688,33.701431563901366,0.0 -79.11155094364283,33.70141828430126,0.0 -79.11149541003472,33.70129529270669,0.0 -79.11137973384237,33.70119709014915,0.0 -79.1112197056612,33.70106123128299,0.0 -79.11119455728091,33.70104550706366,0.0 -79.11116479449808,33.700998937476754,0.0 -79.11109810294934,33.70098519652991,0.0 -79.11090225190384,33.700862735760175,0.0 -79.11084867175782,33.70083816507993,0.0 -79.11083904988446,33.700845777420135,0.0 -79.11075275718176,33.700914042413906,0.0 -79.11065319639368,33.700893529467116,0.0 -79.11076923196494,33.70080173489703,0.0 -79.11057096609905,33.70071080950586,0.0 -79.1105619893245,33.70071812870714,0.0 -79.11050663810771,33.700763254683686,0.0 -79.11045134949372,33.70070758713725,0.0 -79.11049452294873,33.70067239065662,0.0 -79.11029789981541,33.70055308767799,0.0 -79.11027174135282,33.70052675050192,0.0 -79.11023881513152,33.70050228819337,0.0 -79.11019518470451,33.700457866053,0.0 -79.11022240051089,33.70037386465945,0.0 -79.11013112390346,33.70024159754781,0.0 -79.10989366550734,33.7000085224926,0.0 -79.10969676194675,33.69992000080402,0.0 -79.10967088200938,33.69989253968435,0.0 -79.10946223602409,33.70000404982182,0.0 -79.10941806891438,33.70007823935391,0.0 -79.10942641787759,33.70008406348954,0.0 -79.10976627501537,33.70032118562075,0.0 -79.10968426046685,33.70035780274791,0.0 -79.10937270076414,33.70014042447663,0.0 -79.10919008948224,33.70026066751915,0.0 -79.1094168154338,33.700432776688906,0.0 -79.10945647325656,33.70046419192036,0.0 -79.1098773451024,33.70111020342766,0.0 -79.10910614532601,33.700957190073986,0.0 -79.10880592782844,33.70097273268598,0.0 -79.10834756086338,33.70148615417592,0.0 -79.10791535952455,33.70158773463089,0.0 -79.10775603099587,33.70209184167823,0.0 -79.10818491881577,33.701847419711115,0.0 -79.10841047364231,33.701767407330976,0.0 -79.10852008828111,33.70166492380537,0.0 -79.10875512329821,33.70168433724907,0.0 -79.10858405248023,33.70239818563315,0.0 -79.10927881344261,33.70251513916295,0.0 -79.10957880405638,33.70249960826354,0.0 -79.10989562886058,33.70255477503689,0.0 -79.10972999324242,33.7029114394011,0.0 -79.10947337948906,33.70276399312571,0.0 -79.10912079468928,33.70264752895201,0.0 -79.1086221345237,33.7029081873429,0.0 -79.10853768037653,33.70316370731417,0.0 -79.10806810405856,33.70320438983262,0.0 -79.10756109915619,33.7035066856791,0.0 -79.10717181975618,33.70363293538455,0.0 -79.10712372018519,33.70368308991958,0.0 -79.10669230460043,33.70367647660267,0.0 -79.10571890398467,33.70358137536121,0.0 -79.10544701448728,33.70406651728891,0.0 -79.1053881599907,33.70410734800843,0.0 -79.10539013974837,33.704017203933475,0.0 -79.10528228552967,33.70401554921753,0.0 -79.10522813997204,33.70378809746353,0.0 -79.10568647611723,33.70298809717162,0.0 -79.10580636684847,33.702676126259014,0.0 -79.1057946410737,33.70251782185887,0.0 -79.10537542173554,33.702539512925554,0.0 -79.10494497028128,33.70224694174012,0.0 -79.10411180784682,33.70248825306736,0.0 -79.10428303183562,33.70305159162758,0.0 -79.10421166772122,33.70363842081593,0.0 -79.10385927391984,33.70358644097251,0.0 -79.1035974227336,33.70345613545992,0.0 -79.10338150496074,33.703102161961134,0.0 -79.10326970982537,33.7029607440697,0.0 -79.10331696475362,33.70279858056178,0.0 -79.10331699341799,33.702798601742124,0.0 -79.1033183581743,33.70279968315361,0.0 -79.10331966362007,33.702800812348336,0.0 -79.10332090979493,33.70280198752346,0.0 -79.1033220913459,33.70280320679327,0.0 -79.10332320837205,33.702804465650594,0.0 -79.10333102573173,33.70281370414851,0.0 -79.10336252741155,33.70279102033871,0.0 -79.10336896008789,33.70274143933534,0.0 -79.10333839163627,33.702700818802995,0.0 -79.10332012434098,33.70264397093349,0.0 -79.10330076137456,33.70261222792661,0.0 -79.10325712883687,33.70259133077067,0.0 -79.10323133427065,33.70260916786578,0.0 -79.10320916050215,33.702640594846464,0.0 -79.10291389350711,33.70233336828658,0.0 -79.10273669541289,33.70170879251872,0.0 -79.10246216187134,33.70140120714088,0.0 -79.10256682992595,33.70121993615889,0.0 -79.10261283115818,33.701009020657395,0.0 -79.10257660195978,33.70091776389431,0.0 -79.1029257706063,33.70085794898143,0.0 -79.10334331816235,33.700973198267285,0.0 -79.10508705622264,33.7010736273651,0.0 -79.10512993551774,33.70112762889314,0.0 -79.10577999488522,33.701449858295284,0.0</coordinates>
                    </LinearRing>
                </outerBoundaryIs>
            </Polygon>
        </Placemark>
    </Document>
</kml>
