<?xml version="1.0" encoding="UTF-8"?>
<kml xmlns="http://www.opengis.net/kml/2.2" xmlns:gx="http://www.google.com/kml/ext/2.2">
    <Document id="183">
        <Style id="190">
            <LineStyle id="192">
                <colorMode>normal</colorMode>
                <width>1</width>
            </LineStyle>
            <PolyStyle id="191">
                <color>800000ff</color>
                <colorMode>normal</colorMode>
                <fill>1</fill>
                <outline>1</outline>
            </PolyStyle>
        </Style>
        <Style id="199">
            <LineStyle id="201">
                <colorMode>normal</colorMode>
                <width>1</width>
            </LineStyle>
            <PolyStyle id="200">
                <color>800000ff</color>
                <colorMode>normal</colorMode>
                <fill>1</fill>
                <outline>1</outline>
            </PolyStyle>
        </Style>
        <Style id="208">
            <LineStyle id="210">
                <colorMode>normal</colorMode>
                <width>1</width>
            </LineStyle>
            <PolyStyle id="209">
                <color>800000ff</color>
                <colorMode>normal</colorMode>
                <fill>1</fill>
                <outline>1</outline>
            </PolyStyle>
        </Style>
        <Style id="217">
            <LineStyle id="219">
                <colorMode>normal</colorMode>
                <width>1</width>
            </LineStyle>
            <PolyStyle id="218">
                <color>800000ff</color>
                <colorMode>normal</colorMode>
                <fill>1</fill>
                <outline>1</outline>
            </PolyStyle>
        </Style>
        <Style id="226">
            <LineStyle id="228">
                <colorMode>normal</colorMode>
                <width>1</width>
            </LineStyle>
            <PolyStyle id="227">
                <color>800000ff</color>
                <colorMode>normal</colorMode>
                <fill>1</fill>
                <outline>1</outline>
            </PolyStyle>
        </Style>
        <Style id="235">
            <LineStyle id="237">
                <colorMode>normal</colorMode>
                <width>1</width>
            </LineStyle>
            <PolyStyle id="236">
                <color>800000ff</color>
                <colorMode>normal</colorMode>
                <fill>1</fill>
                <outline>1</outline>
            </PolyStyle>
        </Style>
        <Style id="244">
            <LineStyle id="246">
                <colorMode>normal</colorMode>
                <width>1</width>
            </LineStyle>
            <PolyStyle id="245">
                <color>800000ff</color>
                <colorMode>normal</colorMode>
                <fill>1</fill>
                <outline>1</outline>
            </PolyStyle>
        </Style>
        <Style id="253">
            <LineStyle id="255">
                <colorMode>normal</colorMode>
                <width>1</width>
            </LineStyle>
            <PolyStyle id="254">
                <color>800000ff</color>
                <colorMode>normal</colorMode>
                <fill>1</fill>
                <outline>1</outline>
            </PolyStyle>
        </Style>
        <Style id="262">
            <LineStyle id="264">
                <colorMode>normal</colorMode>
                <width>1</width>
            </LineStyle>
            <PolyStyle id="263">
                <color>800000ff</color>
                <colorMode>normal</colorMode>
                <fill>1</fill>
                <outline>1</outline>
            </PolyStyle>
        </Style>
        <Style id="271">
            <LineStyle id="273">
                <colorMode>normal</colorMode>
                <width>1</width>
            </LineStyle>
            <PolyStyle id="272">
                <color>800000ff</color>
                <colorMode>normal</colorMode>
                <fill>1</fill>
                <outline>1</outline>
            </PolyStyle>
        </Style>
        <Style id="280">
            <LineStyle id="282">
                <colorMode>normal</colorMode>
                <width>1</width>
            </LineStyle>
            <PolyStyle id="281">
                <color>800000ff</color>
                <colorMode>normal</colorMode>
                <fill>1</fill>
                <outline>1</outline>
            </PolyStyle>
        </Style>
        <Style id="289">
            <LineStyle id="291">
                <colorMode>normal</colorMode>
                <width>1</width>
            </LineStyle>
            <PolyStyle id="290">
                <color>800000ff</color>
                <colorMode>normal</colorMode>
                <fill>1</fill>
                <outline>1</outline>
            </PolyStyle>
        </Style>
        <Style id="298">
            <LineStyle id="300">
                <colorMode>normal</colorMode>
                <width>1</width>
            </LineStyle>
            <PolyStyle id="299">
                <color>800000ff</color>
                <colorMode>normal</colorMode>
                <fill>1</fill>
                <outline>1</outline>
            </PolyStyle>
        </Style>
        <Style id="307">
            <LineStyle id="309">
                <colorMode>normal</colorMode>
                <width>1</width>
            </LineStyle>
            <PolyStyle id="308">
                <color>800000ff</color>
                <colorMode>normal</colorMode>
                <fill>1</fill>
                <outline>1</outline>
            </PolyStyle>
        </Style>
        <Style id="316">
            <LineStyle id="318">
                <colorMode>normal</colorMode>
                <width>1</width>
            </LineStyle>
            <PolyStyle id="317">
                <color>800000ff</color>
                <colorMode>normal</colorMode>
                <fill>1</fill>
                <outline>1</outline>
            </PolyStyle>
        </Style>
        <Style id="325">
            <LineStyle id="327">
                <colorMode>normal</colorMode>
                <width>1</width>
            </LineStyle>
            <PolyStyle id="326">
                <color>800000ff</color>
                <colorMode>normal</colorMode>
                <fill>1</fill>
                <outline>1</outline>
            </PolyStyle>
        </Style>
        <Style id="334">
            <LineStyle id="336">
                <colorMode>normal</colorMode>
                <width>1</width>
            </LineStyle>
            <PolyStyle id="335">
                <color>800000ff</color>
                <colorMode>normal</colorMode>
                <fill>1</fill>
                <outline>1</outline>
            </PolyStyle>
        </Style>
        <Style id="343">
            <LineStyle id="345">
                <colorMode>normal</colorMode>
                <width>1</width>
            </LineStyle>
            <PolyStyle id="344">
                <color>800000ff</color>
                <colorMode>normal</colorMode>
                <fill>1</fill>
                <outline>1</outline>
            </PolyStyle>
        </Style>
        <Style id="352">
            <LineStyle id="354">
                <colorMode>normal</colorMode>
                <width>1</width>
            </LineStyle>
            <PolyStyle id="353">
                <color>800000ff</color>
                <colorMode>normal</colorMode>
                <fill>1</fill>
                <outline>1</outline>
            </PolyStyle>
        </Style>
        <Style id="361">
            <LineStyle id="363">
                <colorMode>normal</colorMode>
                <width>1</width>
            </LineStyle>
            <PolyStyle id="362">
                <color>800000ff</color>
                <colorMode>normal</colorMode>
                <fill>1</fill>
                <outline>1</outline>
            </PolyStyle>
        </Style>
        <Placemark id="185">
            <name>Population_20</name>
            <styleUrl>#190</styleUrl>
            <Polygon id="184">
                <outerBoundaryIs>
                    <LinearRing id="188">
                        <coordinates>-78.87404259808865,33.71052541373844,0.0 -78.87419038022533,33.71038245270872,0.0 -78.87411121957618,33.710486305764285,0.0 -78.87404259808865,33.71052541373844,0.0</coordinates>
                    </LinearRing>
                </outerBoundaryIs>
            </Polygon>
        </Placemark>
        <Placemark id="194">
            <name>Population_21</name>
            <styleUrl>#199</styleUrl>
            <Polygon id="193">
                <outerBoundaryIs>
                    <LinearRing id="197">
                        <coordinates>-78.87539325612569,33.72157231763819,0.0 -78.87528801353402,33.72147692864471,0.0 -78.87530063622181,33.72148319805667,0.0 -78.87531778587153,33.72149317739959,0.0 -78.87533352013102,33.721503799633425,0.0 -78.87534858450103,33.72151524530406,0.0 -78.87536343758794,33.72152742672503,0.0 -78.8753694610995,33.721532586185,0.0 -78.87539325612569,33.72157231763819,0.0</coordinates>
                    </LinearRing>
                </outerBoundaryIs>
            </Polygon>
        </Placemark>
        <Placemark id="203">
            <name>Population_22</name>
            <styleUrl>#208</styleUrl>
            <Polygon id="202">
                <outerBoundaryIs>
                    <LinearRing id="206">
                        <coordinates>-78.88304441419801,33.7283253227775,0.0 -78.88294792238796,33.727629178681816,0.0 -78.88295363287642,33.72763358581454,0.0 -78.88296638498444,33.72763925886395,0.0 -78.88298016069761,33.727643590614015,0.0 -78.88299402160767,33.72764823220309,0.0 -78.88300779832765,33.72765467573491,0.0 -78.88302175034785,33.72766364791674,0.0 -78.88303603278945,33.72767524789005,0.0 -78.88305036353115,33.72768971427388,0.0 -78.88306412969334,33.727708362048055,0.0 -78.88307668324518,33.727733893296914,0.0 -78.88308751049456,33.72776942808986,0.0 -78.88309614223998,33.72781649486753,0.0 -78.88310198115133,33.727873315164345,0.0 -78.88310438588442,33.727934805952756,0.0 -78.8831030125309,33.72799458275115,0.0 -78.88309821688888,33.7280476499641,0.0 -78.88309121807461,33.7280919996866,0.0 -78.88308952662258,33.72810045201352,0.0 -78.88306601375304,33.72813574324158,0.0 -78.88304669601004,33.7282231179243,0.0 -78.88308203555421,33.72829461787088,0.0 -78.8831172392081,33.728324160556475,0.0 -78.88304441419801,33.7283253227775,0.0</coordinates>
                    </LinearRing>
                </outerBoundaryIs>
            </Polygon>
        </Placemark>
        <Placemark id="212">
            <name>Population_23</name>
            <styleUrl>#217</styleUrl>
            <Polygon id="211">
                <outerBoundaryIs>
                    <LinearRing id="215">
                        <coordinates>-78.88268237570449,33.72882709886338,0.0 -78.88272175525093,33.72857998253544,0.0 -78.88276922035422,33.72862458833417,0.0 -78.88276814578272,33.728656774802495,0.0 -78.88272697752285,33.728710780754966,0.0 -78.88271409866068,33.728769031993636,0.0 -78.88273529605871,33.72883841032834,0.0 -78.88273077690907,33.72889189523314,0.0 -78.88272248595501,33.72892939693807,0.0 -78.88268237570449,33.72882709886338,0.0</coordinates>
                    </LinearRing>
                </outerBoundaryIs>
            </Polygon>
        </Placemark>
        <Placemark id="221">
            <name>Population_24</name>
            <styleUrl>#226</styleUrl>
            <Polygon id="220">
                <outerBoundaryIs>
                    <LinearRing id="224">
                        <coordinates>-78.8746503256151,33.73258494471389,0.0 -78.87465831029066,33.732579883948716,0.0 -78.87468297920692,33.73263026964256,0.0 -78.87464535874005,33.732660433567325,0.0 -78.87464938997725,33.732622877194935,0.0 -78.8746503256151,33.73258494471389,0.0</coordinates>
                    </LinearRing>
                </outerBoundaryIs>
            </Polygon>
        </Placemark>
        <Placemark id="230">
            <name>Population_25</name>
            <styleUrl>#235</styleUrl>
            <Polygon id="229">
                <outerBoundaryIs>
                    <LinearRing id="233">
                        <coordinates>-78.86549007971261,33.73566700607184,0.0 -78.86541978255558,33.735656453348284,0.0 -78.86533286256419,33.7356553684654,0.0 -78.8653168757639,33.73565920186858,0.0 -78.86601720381397,33.73547236265637,0.0 -78.86578708916394,33.73580205754662,0.0 -78.8657367094026,33.7357997337716,0.0 -78.865694530803,33.73579340221969,0.0 -78.86558974165396,33.735741783528766,0.0 -78.86549007971261,33.73566700607184,0.0</coordinates>
                    </LinearRing>
                </outerBoundaryIs>
            </Polygon>
        </Placemark>
        <Placemark id="239">
            <name>Population_26</name>
            <styleUrl>#244</styleUrl>
            <Polygon id="238">
                <outerBoundaryIs>
                    <LinearRing id="242">
                        <coordinates>-78.8485560386302,33.736554288640036,0.0 -78.84874261911166,33.73645763955867,0.0 -78.84872961223192,33.73646973347578,0.0 -78.84794060193776,33.73701412149029,0.0 -78.8479150318617,33.73702312438988,0.0 -78.84807300555094,33.73691566227691,0.0 -78.84832952024254,33.736737228548854,0.0 -78.8485560386302,33.736554288640036,0.0</coordinates>
                    </LinearRing>
                </outerBoundaryIs>
            </Polygon>
        </Placemark>
        <Placemark id="248">
            <name>Population_27</name>
            <styleUrl>#253</styleUrl>
            <Polygon id="247">
                <outerBoundaryIs>
                    <LinearRing id="251">
                        <coordinates>-78.86693108675551,33.737294959653404,0.0 -78.86695359877689,33.73728045641867,0.0 -78.86692600401733,33.73730805631028,0.0 -78.86680259004375,33.737387180851236,0.0 -78.86683391249755,33.737340190569924,0.0 -78.86693108675551,33.737294959653404,0.0</coordinates>
                    </LinearRing>
                </outerBoundaryIs>
            </Polygon>
        </Placemark>
        <Placemark id="257">
            <name>Population_28</name>
            <styleUrl>#262</styleUrl>
            <Polygon id="256">
                <outerBoundaryIs>
                    <LinearRing id="260">
                        <coordinates>-78.8666766228133,33.73746013956278,0.0 -78.86672524934023,33.737436766088685,0.0 -78.8666123773492,33.73750913143766,0.0 -78.8666766228133,33.73746013956278,0.0</coordinates>
                    </LinearRing>
                </outerBoundaryIs>
            </Polygon>
        </Placemark>
        <Placemark id="266">
            <name>Population_29</name>
            <styleUrl>#271</styleUrl>
            <Polygon id="265">
                <outerBoundaryIs>
                    <LinearRing id="269">
                        <coordinates>-78.86468196107076,33.739313211394474,0.0 -78.86463000375183,33.73900422803686,0.0 -78.86432962053544,33.739101330685386,0.0 -78.86435440541017,33.73902565976578,0.0 -78.86452832691108,33.7388962453985,0.0 -78.86468049893816,33.738799458986875,0.0 -78.86483010535883,33.73871424805445,0.0 -78.86505770257766,33.7386048547404,0.0 -78.86515099538623,33.73864278581261,0.0 -78.86524678100834,33.738800721496666,0.0 -78.86525820675935,33.73894599451788,0.0 -78.86521983670184,33.738988086210554,0.0 -78.86516740400452,33.73902806905066,0.0 -78.86515568677034,33.73903087801285,0.0 -78.8651555198951,33.73903046936644,0.0 -78.86515426444687,33.73903121949584,0.0 -78.86510603610795,33.739042783476485,0.0 -78.86501398746317,33.73906485511235,0.0 -78.86497033214191,33.73914103740695,0.0 -78.86468196107076,33.739313211394474,0.0</coordinates>
                    </LinearRing>
                </outerBoundaryIs>
            </Polygon>
        </Placemark>
        <Placemark id="275">
            <name>Population_30</name>
            <styleUrl>#280</styleUrl>
            <Polygon id="274">
                <outerBoundaryIs>
                    <LinearRing id="278">
                        <coordinates>-78.86523763233438,33.739170205105175,0.0 -78.86536979695381,33.7390007437185,0.0 -78.86540581531663,33.73929171763994,0.0 -78.86553832062057,33.73959853121342,0.0 -78.86537116423524,33.739556510535905,0.0 -78.86537036206481,33.73955595474684,0.0 -78.86523406968296,33.73922259561119,0.0 -78.86523763233438,33.739170205105175,0.0</coordinates>
                    </LinearRing>
                </outerBoundaryIs>
            </Polygon>
        </Placemark>
        <Placemark id="284">
            <name>Population_31</name>
            <styleUrl>#289</styleUrl>
            <Polygon id="283">
                <outerBoundaryIs>
                    <LinearRing id="287">
                        <coordinates>-78.86117482535681,33.73763910052869,0.0 -78.86128606165303,33.737595985218064,0.0 -78.86135635974215,33.73760654033607,0.0 -78.86143567223735,33.73751078029497,0.0 -78.86148429773667,33.73742237465628,0.0 -78.86150224169558,33.73734132535684,0.0 -78.8615904845041,33.73727083284933,0.0 -78.86175927914668,33.7371645808661,0.0 -78.86187183456495,33.7370498839019,0.0 -78.86190256313125,33.73699731040285,0.0 -78.8619000779003,33.736996254754544,0.0 -78.86189763845552,33.73699505021914,0.0 -78.8618952993456,33.73699371667705,0.0 -78.86189307232546,33.73699225884034,0.0 -78.86189096364413,33.73699068583418,0.0 -78.86188898723644,33.73698900150672,0.0 -78.86188714721627,33.7369872140444,0.0 -78.86188545201264,33.736985331708475,0.0 -78.8618839111557,33.73698336187752,0.0 -78.86188252981573,33.73698131365802,0.0 -78.86188131424181,33.73697919617509,0.0 -78.86188027072772,33.73697701675132,0.0 -78.86187940116261,33.736974786239635,0.0 -78.8618787107391,33.73697251284522,0.0 -78.86187820242515,33.73697020743974,0.0 -78.86187787705346,33.73696787995619,0.0 -78.86187773979431,33.73696553950102,0.0 -78.86187778716523,33.736963195932496,0.0 -78.86187802103301,33.73696086100488,0.0 -78.86187843899398,33.736958544595105,0.0 -78.86187904084683,33.73695625481486,0.0 -78.86187982308674,33.73695400242371,0.0 -78.86188078225359,33.73695179637857,0.0 -78.86188191378619,33.736949646519,0.0 -78.86188321635969,33.73694756274062,0.0 -78.86188468004123,33.736945553888205,0.0 -78.86188629925789,33.736943627078745,0.0 -78.86188806834731,33.73694179303439,0.0 -78.86188997854494,33.73694005701342,0.0 -78.86189202418835,33.73693842973801,0.0 -78.86189407812454,33.73693699015737,0.0 -78.86195892717085,33.73689433658526,0.0 -78.86196127019863,33.73689290291302,0.0 -78.861963663095,33.736891634211844,0.0 -78.86196615094035,33.73689049699848,0.0 -78.86196872175616,33.736889495573905,0.0 -78.86197136893549,33.736888635233754,0.0 -78.86197407728578,33.7368879193216,0.0 -78.86197683700847,33.73688735127448,0.0 -78.86197963619212,33.73688693268941,0.0 -78.86198246402647,33.73688666428082,0.0 -78.86198530633065,33.73688655211488,0.0 -78.8619881513722,33.736886590578216,0.0 -78.86199098503738,33.736886783033086,0.0 -78.86199379981937,33.73688712754609,0.0 -78.86199657847992,33.73688762291693,0.0 -78.86199931461337,33.73688826632959,0.0 -78.86200199311665,33.73688905752243,0.0 -78.86200460445963,33.73688998911689,0.0 -78.86200713461797,33.73689106087002,0.0 -78.86200957403918,33.736892266304515,0.0 -78.86201191314831,33.73689359984442,0.0 -78.86201414019051,33.736895056777676,0.0 -78.86201624777081,33.73689663066437,0.0 -78.86201822525786,33.73689831500853,0.0 -78.86202006420028,33.73690010245024,0.0 -78.86202175940538,33.73690198478441,0.0 -78.86202329918542,33.736903954595014,0.0 -78.86202468160647,33.736906002831745,0.0 -78.86202589716069,33.73690812121466,0.0 -78.86202694070018,33.73691029973606,0.0 -78.86202781132502,33.73691253116684,0.0 -78.86202850177449,33.73691480365929,0.0 -78.86202876460243,33.73691599844046,0.0 -78.86206237776426,33.736911007358216,0.0 -78.8621978461665,33.73695527335524,0.0 -78.86220289709614,33.73706370048351,0.0 -78.86229362453936,33.73711321108852,0.0 -78.86236773076467,33.73717219002343,0.0 -78.86236641113514,33.73724377203291,0.0 -78.86244688508957,33.7373395959876,0.0 -78.86243150544021,33.7374090679962,0.0 -78.86241868928391,33.7374669589336,0.0 -78.86238031638467,33.73750905148932,0.0 -78.86235724629117,33.737613256767624,0.0 -78.86244409351767,33.737745926788065,0.0 -78.86260768472472,33.73779441511597,0.0 -78.86281858232431,33.73782607726532,0.0 -78.86295537604794,33.73779876144542,0.0 -78.863016739061,33.7377840470905,0.0 -78.86308703972716,33.737794601273535,0.0 -78.86318545745598,33.737809377007586,0.0 -78.86329281082608,33.73784942028252,0.0 -78.86336054826756,33.737871551797355,0.0 -78.86340653334653,33.737926310312154,0.0 -78.86339371774373,33.737984201368874,0.0 -78.8634947012411,33.73798739851547,0.0 -78.86364555091514,33.737962192644744,0.0 -78.86373115572489,33.738034859081225,0.0 -78.86366847189569,33.73812115490562,0.0 -78.8637233920517,33.738201178185776,0.0 -78.86379112988874,33.73822330947809,0.0 -78.86393172787558,33.73824441688137,0.0 -78.86397515241853,33.738310752739956,0.0 -78.86404537822335,33.73845288938923,0.0 -78.86404786926813,33.73857289493301,0.0 -78.8639570636649,33.73865496851256,0.0 -78.86390843882693,33.7387433742613,0.0 -78.86402721631919,33.73892868909455,0.0 -78.86401901095574,33.73896575796332,0.0 -78.86398947373505,33.73899180780325,0.0 -78.86400952950491,33.739008587273766,0.0 -78.86399902220184,33.73905605154068,0.0 -78.86395171556511,33.73907287613877,0.0 -78.86388616182495,33.73912524594931,0.0 -78.86371285793962,33.73842067689832,0.0 -78.86325163525701,33.73807453076564,0.0 -78.86309264115872,33.73791373012911,0.0 -78.86221769066768,33.73773165319838,0.0 -78.8619785308895,33.737489769605766,0.0 -78.8616503591527,33.73750608729294,0.0 -78.86143094931589,33.73783098613457,0.0 -78.86207313842064,33.738047415461764,0.0 -78.86227685932978,33.73821285941831,0.0 -78.86170195322754,33.73834667630277,0.0 -78.86176778343938,33.73927079985878,0.0 -78.86135294033171,33.740048280464485,0.0 -78.86067948654468,33.740384639267035,0.0 -78.8605498207592,33.74050522392552,0.0 -78.86056593975498,33.740454742857985,0.0 -78.86058901297353,33.74035053717223,0.0 -78.86064401227925,33.74029897989369,0.0 -78.8608371297019,33.74014852647473,0.0 -78.86116836379209,33.73989917890966,0.0 -78.86137041027038,33.73977399315245,0.0 -78.86139604486586,33.73965820981234,0.0 -78.86142937034927,33.739507692367745,0.0 -78.86145500584568,33.73939190902325,0.0 -78.86142183629322,33.73927926079727,0.0 -78.86138354171244,33.739189767462456,0.0 -78.86140404985404,33.73909714078607,0.0 -78.86142968415234,33.73898135741755,0.0 -78.86147194334252,33.73885610674542,0.0 -78.86149245018915,33.738763480925506,0.0 -78.86146565017755,33.73868767693154,0.0 -78.86141073189091,33.73860765272176,0.0 -78.86135837628142,33.73851604923751,0.0 -78.8613060208015,33.738424444832795,0.0 -78.86124473358159,33.738307574524995,0.0 -78.8611642569502,33.73821174885957,0.0 -78.86105053613996,33.73813485863204,0.0 -78.86103523424335,33.73807274306778,0.0 -78.86109279325497,33.738009607140434,0.0 -78.86114911138392,33.7378864676002,0.0 -78.86117218304095,33.73778226171066,0.0 -78.8611735047746,33.73771067977751,0.0 -78.86117482535681,33.73763910052869,0.0</coordinates>
                    </LinearRing>
                </outerBoundaryIs>
            </Polygon>
        </Placemark>
        <Placemark id="293">
            <name>Population_32</name>
            <styleUrl>#298</styleUrl>
            <Polygon id="292">
                <outerBoundaryIs>
                    <LinearRing id="296">
                        <coordinates>-78.84182839179502,33.740219783875965,0.0 -78.84194226528034,33.73982363239002,0.0 -78.84202778930458,33.73992551132198,0.0 -78.84201814833104,33.74003893409618,0.0 -78.84201802912546,33.740179314171215,0.0 -78.84199064951613,33.740302833996886,0.0 -78.84198860351798,33.74036322001173,0.0 -78.84195579730468,33.74040500834556,0.0 -78.84177273352896,33.74044758471471,0.0 -78.84182839179502,33.740219783875965,0.0</coordinates>
                    </LinearRing>
                </outerBoundaryIs>
            </Polygon>
        </Placemark>
        <Placemark id="302">
            <name>Population_33</name>
            <styleUrl>#307</styleUrl>
            <Polygon id="301">
                <outerBoundaryIs>
                    <LinearRing id="305">
                        <coordinates>-78.86019492425707,33.740949343192916,0.0 -78.8602619376532,33.74091117977722,0.0 -78.86008153040201,33.741230946907294,0.0 -78.85958354218303,33.74134684501056,0.0 -78.85957983275557,33.74129962514836,0.0 -78.8596463277673,33.74126175695921,0.0 -78.85976269848473,33.74119548761544,0.0 -78.85983688624506,33.7411228835809,0.0 -78.85990850883398,33.741061859567985,0.0 -78.86007218640324,33.740978766921586,0.0 -78.86019492425707,33.740949343192916,0.0</coordinates>
                    </LinearRing>
                </outerBoundaryIs>
            </Polygon>
        </Placemark>
        <Placemark id="311">
            <name>Population_34</name>
            <styleUrl>#316</styleUrl>
            <Polygon id="310">
                <outerBoundaryIs>
                    <LinearRing id="314">
                        <coordinates>-78.84152879080199,33.74110113056927,0.0 -78.84160241727189,33.74094388523883,0.0 -78.84171147688969,33.74057841258276,0.0 -78.84177047532455,33.74053771353631,0.0 -78.84178536225781,33.74107921905937,0.0 -78.8417226796599,33.74109218282436,0.0 -78.84156994397401,33.741081988943414,0.0 -78.84152879080199,33.74110113056927,0.0</coordinates>
                    </LinearRing>
                </outerBoundaryIs>
            </Polygon>
        </Placemark>
        <Placemark id="320">
            <name>Population_35</name>
            <styleUrl>#325</styleUrl>
            <Polygon id="319">
                <outerBoundaryIs>
                    <LinearRing id="323">
                        <coordinates>-79.06709862434212,33.74645149400174,0.0 -79.06676472789034,33.74591443488933,0.0 -79.066645914398,33.7455702477021,0.0 -79.06606136925772,33.74435368397043,0.0 -79.06541232989937,33.743309674618516,0.0 -79.06518577502513,33.74302759111442,0.0 -79.06492091565997,33.7426648248153,0.0 -79.06458655920213,33.74135321797498,0.0 -79.06454860959458,33.74116370836902,0.0 -79.06461930883835,33.74113877408439,0.0 -79.06474726146013,33.741117115338376,0.0 -79.06480218194248,33.74111339565313,0.0 -79.06481284542033,33.741114864043745,0.0 -79.06532218036945,33.74132461123431,0.0 -79.06546576230394,33.7413395283956,0.0 -79.06549580456101,33.741358018565386,0.0 -79.065565650721,33.7413683776642,0.0 -79.06561910593724,33.74135546043587,0.0 -79.0661751839614,33.741413232084575,0.0 -79.06631405372772,33.74177579839307,0.0 -79.06656493788786,33.74182932936502,0.0 -79.0662933826204,33.74217157728143,0.0 -79.06638385738808,33.74241760565318,0.0 -79.06668752299436,33.7426286824474,0.0 -79.0669308676343,33.74313758451012,0.0 -79.067346721452,33.74303787390164,0.0 -79.06763063398273,33.742263515194615,0.0 -79.06817533891292,33.742215238364885,0.0 -79.06817331737,33.742305379919536,0.0 -79.0682812171461,33.74230706871219,0.0 -79.06849701672525,33.74231044601486,0.0 -79.06849499551154,33.74240058758526,0.0 -79.06892659522866,33.74240734108283,0.0 -79.0689286159914,33.74231719948957,0.0 -79.06921418234225,33.74226071539178,0.0 -79.0696467294679,33.7420210828328,0.0 -79.06969199485751,33.74196844789554,0.0 -79.06988544784168,33.74192903052169,0.0 -79.07062023359721,33.741527793204796,0.0 -79.07075712320206,33.74100800653189,0.0 -79.0718684557774,33.74084062719131,0.0 -79.07230377311701,33.7410173610786,0.0 -79.07235953442026,33.74157760034062,0.0 -79.07304375660847,33.74240590564249,0.0 -79.07400873195832,33.7424858634398,0.0 -79.07588629202858,33.7420234352437,0.0 -79.07610705589421,33.742471036301765,0.0 -79.07620074149315,33.742749723762905,0.0 -79.0763133902077,33.74292604796075,0.0 -79.0763102461328,33.74306692998754,0.0 -79.07634417798128,33.74320114264558,0.0 -79.07636557306179,33.743345445071796,0.0 -79.07639950400622,33.74347965769892,0.0 -79.07644291030087,33.74360583205506,0.0 -79.07623599819952,33.744036919800216,0.0 -79.07573919583645,33.74459970539469,0.0 -79.07572458833656,33.74472276080483,0.0 -79.07574455804628,33.7449935921057,0.0 -79.07570716373479,33.745308615672215,0.0 -79.07574044481262,33.74576000110901,0.0 -79.07572204867104,33.745914973779165,0.0 -79.07562884672824,33.74601793495206,0.0 -79.07550349286078,33.746118814860495,0.0 -79.07535398930511,33.7461987504063,0.0 -79.07519240862419,33.74626821404967,0.0 -79.07518675555073,33.746269571362525,0.0 -79.07504284788062,33.74619111153975,0.0 -79.07337924032304,33.74627669176968,0.0 -79.07320874202648,33.74658050187567,0.0 -79.07314984296731,33.746621315403644,0.0 -79.07289200178167,33.746331209570336,0.0 -79.07199870264608,33.746427270082755,0.0 -79.071419319261,33.74677463179351,0.0 -79.07054949381262,33.746813507175695,0.0 -79.0696724317788,33.74719406189381,0.0 -79.06868067892961,33.74752161514852,0.0 -79.06832576307019,33.747675605685274,0.0 -79.0678875164563,33.74783539715966,0.0 -79.0678301283072,33.74798091640104,0.0 -79.06777409376836,33.74793748912508,0.0 -79.06759484910887,33.747763447531206,0.0 -79.0673688781235,33.74702434087491,0.0 -79.06709862434212,33.74645149400174,0.0</coordinates>
                    </LinearRing>
                </outerBoundaryIs>
            </Polygon>
        </Placemark>
        <Placemark id="329">
            <name>Population_36</name>
            <styleUrl>#334</styleUrl>
            <Polygon id="328">
                <outerBoundaryIs>
                    <LinearRing id="332">
                        <coordinates>-79.08207706418206,33.75028923107293,0.0 -79.08188658480425,33.750192193713325,0.0 -79.08186825409402,33.7501921973617,0.0 -79.081790709419,33.75013837051549,0.0 -79.08136539197756,33.75004432055562,0.0 -79.08100804750144,33.750031478506024,0.0 -79.08077212947458,33.75004966877456,0.0 -79.08064859379971,33.750113326114814,0.0 -79.08056868305394,33.75019242592329,0.0 -79.08054736690252,33.75021352768973,0.0 -79.08039017523167,33.75022162128871,0.0 -79.07947509335233,33.74990860743673,0.0 -79.07929518625569,33.749554213680476,0.0 -79.07908599474975,33.749226820740965,0.0 -79.07838205616068,33.74909583944743,0.0 -79.07799710394711,33.749455313680734,0.0 -79.07773747707711,33.74903736103678,0.0 -79.07779051117274,33.74889957357585,0.0 -79.0780361823673,33.74872932559658,0.0 -79.07801300637108,33.74841512365776,0.0 -79.077761924496,33.74802215229583,0.0 -79.07749078289073,33.74781953222522,0.0 -79.07739306376327,33.747721129552154,0.0 -79.07691370438032,33.747362905752915,0.0 -79.0764237905671,33.74726186664083,0.0 -79.07604547128079,33.747077723974535,0.0 -79.07561958705747,33.747200889403025,0.0 -79.07558335830262,33.74673395727773,0.0 -79.07560069069302,33.746727052449074,0.0 -79.07576158296173,33.74668842673757,0.0 -79.07588670772847,33.74659782727798,0.0 -79.07601183117454,33.74650722676277,0.0 -79.07613695327977,33.74641662609336,0.0 -79.07623792327774,33.74630508299713,0.0 -79.0762778247186,33.74617202031519,0.0 -79.07627900200302,33.746119359417456,0.0 -79.07590987146725,33.746333758813854,0.0 -79.07556711699286,33.7465246390591,0.0 -79.07556325352569,33.74647484013035,0.0 -79.07553195567486,33.74645777644631,0.0 -79.07586044480736,33.74627484268981,0.0 -79.07624596964773,33.746050916980565,0.0 -79.07628144193406,33.746024375517976,0.0 -79.07628277961577,33.746011991225835,0.0 -79.07641521657973,33.74596780916395,0.0 -79.07710308906789,33.74602478639009,0.0 -79.07768273604123,33.745994952327344,0.0 -79.07796880963166,33.74610697736648,0.0 -79.07835059107688,33.74629279929558,0.0 -79.07887190505159,33.74640030699388,0.0 -79.07897675265274,33.74671215070672,0.0 -79.07897474206754,33.74680229276907,0.0 -79.0786051916859,33.746875414661375,0.0 -79.07868342935605,33.74762623196731,0.0 -79.07907508747387,33.748255934126156,0.0 -79.07936093669102,33.74831415697275,0.0 -79.07988151177415,33.74804237368134,0.0 -79.08050574987216,33.748272909739974,0.0 -79.08073576236382,33.74814546145123,0.0 -79.08078102458627,33.748092822369934,0.0 -79.08191714114233,33.7481522180342,0.0 -79.08250554385323,33.74820980172106,0.0 -79.08254306315358,33.748866810989,0.0 -79.0828672208968,33.749246610347925,0.0 -79.0829110903095,33.74938835639117,0.0 -79.08274011987659,33.749975181040625,0.0 -79.08224050390679,33.75026325094145,0.0 -79.08207706418206,33.75028923107293,0.0</coordinates>
                    </LinearRing>
                </outerBoundaryIs>
            </Polygon>
        </Placemark>
        <Placemark id="338">
            <name>Population_37</name>
            <styleUrl>#343</styleUrl>
            <Polygon id="337">
                <outerBoundaryIs>
                    <LinearRing id="341">
                        <coordinates>-78.884995246469,33.750965886341746,0.0 -78.8850352099951,33.75095004238154,0.0 -78.88499442408065,33.75099936738352,0.0 -78.884995246469,33.750965886341746,0.0</coordinates>
                    </LinearRing>
                </outerBoundaryIs>
            </Polygon>
        </Placemark>
        <Placemark id="347">
            <name>Population_38</name>
            <styleUrl>#352</styleUrl>
            <Polygon id="346">
                <outerBoundaryIs>
                    <LinearRing id="350">
                        <coordinates>-78.88284197479406,33.751348061250084,0.0 -78.88279848184992,33.75092411895242,0.0 -78.88290859340997,33.75103746165103,0.0 -78.88293561231546,33.75104630731693,0.0 -78.88296173132564,33.751265392967696,0.0 -78.88284197479406,33.751348061250084,0.0</coordinates>
                    </LinearRing>
                </outerBoundaryIs>
            </Polygon>
        </Placemark>
        <Placemark id="356">
            <name>Population_39</name>
            <styleUrl>#361</styleUrl>
            <Polygon id="355">
                <outerBoundaryIs>
                    <LinearRing id="359">
                        <coordinates>-79.17153349417283,33.76075614444318,0.0 -79.17172893353397,33.76065534261239,0.0 -79.17177476610684,33.76087713622057,0.0 -79.17169490859473,33.760836428423985,0.0 -79.1716013306548,33.76078873070671,0.0 -79.17153349417283,33.76075614444318,0.0</coordinates>
                    </LinearRing>
                </outerBoundaryIs>
            </Polygon>
        </Placemark>
    </Document>
</kml>
