<?xml version="1.0" encoding="UTF-8"?>
<kml xmlns="http://www.opengis.net/kml/2.2" xmlns:gx="http://www.google.com/kml/ext/2.2">
    <Document id="2095">
        <NetworkLink id="2096">
            <name>Parcel_0401</name>
            <Link id="2097">
                <href>https://raw.githubusercontent.com/robmohammedmahid-stack/Horry-County-Data/Parcels/KML-Output/Parcels/Set_005/Parcel_0401.kml</href>
                <refreshMode>onChange</refreshMode>
            </Link>
        </NetworkLink>
        <NetworkLink id="2098">
            <name>Parcel_0402</name>
            <Link id="2099">
                <href>https://raw.githubusercontent.com/robmohammedmahid-stack/Horry-County-Data/Parcels/KML-Output/Parcels/Set_005/Parcel_0402.kml</href>
                <refreshMode>onChange</refreshMode>
            </Link>
        </NetworkLink>
        <NetworkLink id="2100">
            <name>Parcel_0403</name>
            <Link id="2101">
                <href>https://raw.githubusercontent.com/robmohammedmahid-stack/Horry-County-Data/Parcels/KML-Output/Parcels/Set_005/Parcel_0403.kml</href>
                <refreshMode>onChange</refreshMode>
            </Link>
        </NetworkLink>
        <NetworkLink id="2102">
            <name>Parcel_0404</name>
            <Link id="2103">
                <href>https://raw.githubusercontent.com/robmohammedmahid-stack/Horry-County-Data/Parcels/KML-Output/Parcels/Set_005/Parcel_0404.kml</href>
                <refreshMode>onChange</refreshMode>
            </Link>
        </NetworkLink>
        <NetworkLink id="2104">
            <name>Parcel_0405</name>
            <Link id="2105">
                <href>https://raw.githubusercontent.com/robmohammedmahid-stack/Horry-County-Data/Parcels/KML-Output/Parcels/Set_005/Parcel_0405.kml</href>
                <refreshMode>onChange</refreshMode>
            </Link>
        </NetworkLink>
        <NetworkLink id="2106">
            <name>Parcel_0406</name>
            <Link id="2107">
                <href>https://raw.githubusercontent.com/robmohammedmahid-stack/Horry-County-Data/Parcels/KML-Output/Parcels/Set_005/Parcel_0406.kml</href>
                <refreshMode>onChange</refreshMode>
            </Link>
        </NetworkLink>
        <NetworkLink id="2108">
            <name>Parcel_0407</name>
            <Link id="2109">
                <href>https://raw.githubusercontent.com/robmohammedmahid-stack/Horry-County-Data/Parcels/KML-Output/Parcels/Set_005/Parcel_0407.kml</href>
                <refreshMode>onChange</refreshMode>
            </Link>
        </NetworkLink>
        <NetworkLink id="2110">
            <name>Parcel_0408</name>
            <Link id="2111">
                <href>https://raw.githubusercontent.com/robmohammedmahid-stack/Horry-County-Data/Parcels/KML-Output/Parcels/Set_005/Parcel_0408.kml</href>
                <refreshMode>onChange</refreshMode>
            </Link>
        </NetworkLink>
        <NetworkLink id="2112">
            <name>Parcel_0409</name>
            <Link id="2113">
                <href>https://raw.githubusercontent.com/robmohammedmahid-stack/Horry-County-Data/Parcels/KML-Output/Parcels/Set_005/Parcel_0409.kml</href>
                <refreshMode>onChange</refreshMode>
            </Link>
        </NetworkLink>
        <NetworkLink id="2114">
            <name>Parcel_0410</name>
            <Link id="2115">
                <href>https://raw.githubusercontent.com/robmohammedmahid-stack/Horry-County-Data/Parcels/KML-Output/Parcels/Set_005/Parcel_0410.kml</href>
                <refreshMode>onChange</refreshMode>
            </Link>
        </NetworkLink>
        <NetworkLink id="2116">
            <name>Parcel_0411</name>
            <Link id="2117">
                <href>https://raw.githubusercontent.com/robmohammedmahid-stack/Horry-County-Data/Parcels/KML-Output/Parcels/Set_005/Parcel_0411.kml</href>
                <refreshMode>onChange</refreshMode>
            </Link>
        </NetworkLink>
        <NetworkLink id="2118">
            <name>Parcel_0412</name>
            <Link id="2119">
                <href>https://raw.githubusercontent.com/robmohammedmahid-stack/Horry-County-Data/Parcels/KML-Output/Parcels/Set_005/Parcel_0412.kml</href>
                <refreshMode>onChange</refreshMode>
            </Link>
        </NetworkLink>
        <NetworkLink id="2120">
            <name>Parcel_0413</name>
            <Link id="2121">
                <href>https://raw.githubusercontent.com/robmohammedmahid-stack/Horry-County-Data/Parcels/KML-Output/Parcels/Set_005/Parcel_0413.kml</href>
                <refreshMode>onChange</refreshMode>
            </Link>
        </NetworkLink>
        <NetworkLink id="2122">
            <name>Parcel_0414</name>
            <Link id="2123">
                <href>https://raw.githubusercontent.com/robmohammedmahid-stack/Horry-County-Data/Parcels/KML-Output/Parcels/Set_005/Parcel_0414.kml</href>
                <refreshMode>onChange</refreshMode>
            </Link>
        </NetworkLink>
        <NetworkLink id="2124">
            <name>Parcel_0415</name>
            <Link id="2125">
                <href>https://raw.githubusercontent.com/robmohammedmahid-stack/Horry-County-Data/Parcels/KML-Output/Parcels/Set_005/Parcel_0415.kml</href>
                <refreshMode>onChange</refreshMode>
            </Link>
        </NetworkLink>
        <NetworkLink id="2126">
            <name>Parcel_0416</name>
            <Link id="2127">
                <href>https://raw.githubusercontent.com/robmohammedmahid-stack/Horry-County-Data/Parcels/KML-Output/Parcels/Set_005/Parcel_0416.kml</href>
                <refreshMode>onChange</refreshMode>
            </Link>
        </NetworkLink>
        <NetworkLink id="2128">
            <name>Parcel_0417</name>
            <Link id="2129">
                <href>https://raw.githubusercontent.com/robmohammedmahid-stack/Horry-County-Data/Parcels/KML-Output/Parcels/Set_005/Parcel_0417.kml</href>
                <refreshMode>onChange</refreshMode>
            </Link>
        </NetworkLink>
        <NetworkLink id="2130">
            <name>Parcel_0418</name>
            <Link id="2131">
                <href>https://raw.githubusercontent.com/robmohammedmahid-stack/Horry-County-Data/Parcels/KML-Output/Parcels/Set_005/Parcel_0418.kml</href>
                <refreshMode>onChange</refreshMode>
            </Link>
        </NetworkLink>
        <NetworkLink id="2132">
            <name>Parcel_0419</name>
            <Link id="2133">
                <href>https://raw.githubusercontent.com/robmohammedmahid-stack/Horry-County-Data/Parcels/KML-Output/Parcels/Set_005/Parcel_0419.kml</href>
                <refreshMode>onChange</refreshMode>
            </Link>
        </NetworkLink>
        <NetworkLink id="2134">
            <name>Parcel_0420</name>
            <Link id="2135">
                <href>https://raw.githubusercontent.com/robmohammedmahid-stack/Horry-County-Data/Parcels/KML-Output/Parcels/Set_005/Parcel_0420.kml</href>
                <refreshMode>onChange</refreshMode>
            </Link>
        </NetworkLink>
        <NetworkLink id="2136">
            <name>Parcel_0421</name>
            <Link id="2137">
                <href>https://raw.githubusercontent.com/robmohammedmahid-stack/Horry-County-Data/Parcels/KML-Output/Parcels/Set_005/Parcel_0421.kml</href>
                <refreshMode>onChange</refreshMode>
            </Link>
        </NetworkLink>
        <NetworkLink id="2138">
            <name>Parcel_0422</name>
            <Link id="2139">
                <href>https://raw.githubusercontent.com/robmohammedmahid-stack/Horry-County-Data/Parcels/KML-Output/Parcels/Set_005/Parcel_0422.kml</href>
                <refreshMode>onChange</refreshMode>
            </Link>
        </NetworkLink>
        <NetworkLink id="2140">
            <name>Parcel_0423</name>
            <Link id="2141">
                <href>https://raw.githubusercontent.com/robmohammedmahid-stack/Horry-County-Data/Parcels/KML-Output/Parcels/Set_005/Parcel_0423.kml</href>
                <refreshMode>onChange</refreshMode>
            </Link>
        </NetworkLink>
        <NetworkLink id="2142">
            <name>Parcel_0424</name>
            <Link id="2143">
                <href>https://raw.githubusercontent.com/robmohammedmahid-stack/Horry-County-Data/Parcels/KML-Output/Parcels/Set_005/Parcel_0424.kml</href>
                <refreshMode>onChange</refreshMode>
            </Link>
        </NetworkLink>
        <NetworkLink id="2144">
            <name>Parcel_0425</name>
            <Link id="2145">
                <href>https://raw.githubusercontent.com/robmohammedmahid-stack/Horry-County-Data/Parcels/KML-Output/Parcels/Set_005/Parcel_0425.kml</href>
                <refreshMode>onChange</refreshMode>
            </Link>
        </NetworkLink>
        <NetworkLink id="2146">
            <name>Parcel_0426</name>
            <Link id="2147">
                <href>https://raw.githubusercontent.com/robmohammedmahid-stack/Horry-County-Data/Parcels/KML-Output/Parcels/Set_005/Parcel_0426.kml</href>
                <refreshMode>onChange</refreshMode>
            </Link>
        </NetworkLink>
        <NetworkLink id="2148">
            <name>Parcel_0427</name>
            <Link id="2149">
                <href>https://raw.githubusercontent.com/robmohammedmahid-stack/Horry-County-Data/Parcels/KML-Output/Parcels/Set_005/Parcel_0427.kml</href>
                <refreshMode>onChange</refreshMode>
            </Link>
        </NetworkLink>
        <NetworkLink id="2150">
            <name>Parcel_0428</name>
            <Link id="2151">
                <href>https://raw.githubusercontent.com/robmohammedmahid-stack/Horry-County-Data/Parcels/KML-Output/Parcels/Set_005/Parcel_0428.kml</href>
                <refreshMode>onChange</refreshMode>
            </Link>
        </NetworkLink>
        <NetworkLink id="2152">
            <name>Parcel_0429</name>
            <Link id="2153">
                <href>https://raw.githubusercontent.com/robmohammedmahid-stack/Horry-County-Data/Parcels/KML-Output/Parcels/Set_005/Parcel_0429.kml</href>
                <refreshMode>onChange</refreshMode>
            </Link>
        </NetworkLink>
        <NetworkLink id="2154">
            <name>Parcel_0430</name>
            <Link id="2155">
                <href>https://raw.githubusercontent.com/robmohammedmahid-stack/Horry-County-Data/Parcels/KML-Output/Parcels/Set_005/Parcel_0430.kml</href>
                <refreshMode>onChange</refreshMode>
            </Link>
        </NetworkLink>
        <NetworkLink id="2156">
            <name>Parcel_0431</name>
            <Link id="2157">
                <href>https://raw.githubusercontent.com/robmohammedmahid-stack/Horry-County-Data/Parcels/KML-Output/Parcels/Set_005/Parcel_0431.kml</href>
                <refreshMode>onChange</refreshMode>
            </Link>
        </NetworkLink>
        <NetworkLink id="2158">
            <name>Parcel_0432</name>
            <Link id="2159">
                <href>https://raw.githubusercontent.com/robmohammedmahid-stack/Horry-County-Data/Parcels/KML-Output/Parcels/Set_005/Parcel_0432.kml</href>
                <refreshMode>onChange</refreshMode>
            </Link>
        </NetworkLink>
        <NetworkLink id="2160">
            <name>Parcel_0433</name>
            <Link id="2161">
                <href>https://raw.githubusercontent.com/robmohammedmahid-stack/Horry-County-Data/Parcels/KML-Output/Parcels/Set_005/Parcel_0433.kml</href>
                <refreshMode>onChange</refreshMode>
            </Link>
        </NetworkLink>
        <NetworkLink id="2162">
            <name>Parcel_0434</name>
            <Link id="2163">
                <href>https://raw.githubusercontent.com/robmohammedmahid-stack/Horry-County-Data/Parcels/KML-Output/Parcels/Set_005/Parcel_0434.kml</href>
                <refreshMode>onChange</refreshMode>
            </Link>
        </NetworkLink>
        <NetworkLink id="2164">
            <name>Parcel_0435</name>
            <Link id="2165">
                <href>https://raw.githubusercontent.com/robmohammedmahid-stack/Horry-County-Data/Parcels/KML-Output/Parcels/Set_005/Parcel_0435.kml</href>
                <refreshMode>onChange</refreshMode>
            </Link>
        </NetworkLink>
        <NetworkLink id="2166">
            <name>Parcel_0436</name>
            <Link id="2167">
                <href>https://raw.githubusercontent.com/robmohammedmahid-stack/Horry-County-Data/Parcels/KML-Output/Parcels/Set_005/Parcel_0436.kml</href>
                <refreshMode>onChange</refreshMode>
            </Link>
        </NetworkLink>
        <NetworkLink id="2168">
            <name>Parcel_0437</name>
            <Link id="2169">
                <href>https://raw.githubusercontent.com/robmohammedmahid-stack/Horry-County-Data/Parcels/KML-Output/Parcels/Set_005/Parcel_0437.kml</href>
                <refreshMode>onChange</refreshMode>
            </Link>
        </NetworkLink>
        <NetworkLink id="2170">
            <name>Parcel_0438</name>
            <Link id="2171">
                <href>https://raw.githubusercontent.com/robmohammedmahid-stack/Horry-County-Data/Parcels/KML-Output/Parcels/Set_005/Parcel_0438.kml</href>
                <refreshMode>onChange</refreshMode>
            </Link>
        </NetworkLink>
        <NetworkLink id="2172">
            <name>Parcel_0439</name>
            <Link id="2173">
                <href>https://raw.githubusercontent.com/robmohammedmahid-stack/Horry-County-Data/Parcels/KML-Output/Parcels/Set_005/Parcel_0439.kml</href>
                <refreshMode>onChange</refreshMode>
            </Link>
        </NetworkLink>
        <NetworkLink id="2174">
            <name>Parcel_0440</name>
            <Link id="2175">
                <href>https://raw.githubusercontent.com/robmohammedmahid-stack/Horry-County-Data/Parcels/KML-Output/Parcels/Set_005/Parcel_0440.kml</href>
                <refreshMode>onChange</refreshMode>
            </Link>
        </NetworkLink>
        <NetworkLink id="2176">
            <name>Parcel_0441</name>
            <Link id="2177">
                <href>https://raw.githubusercontent.com/robmohammedmahid-stack/Horry-County-Data/Parcels/KML-Output/Parcels/Set_005/Parcel_0441.kml</href>
                <refreshMode>onChange</refreshMode>
            </Link>
        </NetworkLink>
        <NetworkLink id="2178">
            <name>Parcel_0442</name>
            <Link id="2179">
                <href>https://raw.githubusercontent.com/robmohammedmahid-stack/Horry-County-Data/Parcels/KML-Output/Parcels/Set_005/Parcel_0442.kml</href>
                <refreshMode>onChange</refreshMode>
            </Link>
        </NetworkLink>
        <NetworkLink id="2180">
            <name>Parcel_0443</name>
            <Link id="2181">
                <href>https://raw.githubusercontent.com/robmohammedmahid-stack/Horry-County-Data/Parcels/KML-Output/Parcels/Set_005/Parcel_0443.kml</href>
                <refreshMode>onChange</refreshMode>
            </Link>
        </NetworkLink>
        <NetworkLink id="2182">
            <name>Parcel_0444</name>
            <Link id="2183">
                <href>https://raw.githubusercontent.com/robmohammedmahid-stack/Horry-County-Data/Parcels/KML-Output/Parcels/Set_005/Parcel_0444.kml</href>
                <refreshMode>onChange</refreshMode>
            </Link>
        </NetworkLink>
        <NetworkLink id="2184">
            <name>Parcel_0445</name>
            <Link id="2185">
                <href>https://raw.githubusercontent.com/robmohammedmahid-stack/Horry-County-Data/Parcels/KML-Output/Parcels/Set_005/Parcel_0445.kml</href>
                <refreshMode>onChange</refreshMode>
            </Link>
        </NetworkLink>
        <NetworkLink id="2186">
            <name>Parcel_0446</name>
            <Link id="2187">
                <href>https://raw.githubusercontent.com/robmohammedmahid-stack/Horry-County-Data/Parcels/KML-Output/Parcels/Set_005/Parcel_0446.kml</href>
                <refreshMode>onChange</refreshMode>
            </Link>
        </NetworkLink>
        <NetworkLink id="2188">
            <name>Parcel_0447</name>
            <Link id="2189">
                <href>https://raw.githubusercontent.com/robmohammedmahid-stack/Horry-County-Data/Parcels/KML-Output/Parcels/Set_005/Parcel_0447.kml</href>
                <refreshMode>onChange</refreshMode>
            </Link>
        </NetworkLink>
        <NetworkLink id="2190">
            <name>Parcel_0448</name>
            <Link id="2191">
                <href>https://raw.githubusercontent.com/robmohammedmahid-stack/Horry-County-Data/Parcels/KML-Output/Parcels/Set_005/Parcel_0448.kml</href>
                <refreshMode>onChange</refreshMode>
            </Link>
        </NetworkLink>
        <NetworkLink id="2192">
            <name>Parcel_0449</name>
            <Link id="2193">
                <href>https://raw.githubusercontent.com/robmohammedmahid-stack/Horry-County-Data/Parcels/KML-Output/Parcels/Set_005/Parcel_0449.kml</href>
                <refreshMode>onChange</refreshMode>
            </Link>
        </NetworkLink>
        <NetworkLink id="2194">
            <name>Parcel_0450</name>
            <Link id="2195">
                <href>https://raw.githubusercontent.com/robmohammedmahid-stack/Horry-County-Data/Parcels/KML-Output/Parcels/Set_005/Parcel_0450.kml</href>
                <refreshMode>onChange</refreshMode>
            </Link>
        </NetworkLink>
        <NetworkLink id="2196">
            <name>Parcel_0451</name>
            <Link id="2197">
                <href>https://raw.githubusercontent.com/robmohammedmahid-stack/Horry-County-Data/Parcels/KML-Output/Parcels/Set_005/Parcel_0451.kml</href>
                <refreshMode>onChange</refreshMode>
            </Link>
        </NetworkLink>
        <NetworkLink id="2198">
            <name>Parcel_0452</name>
            <Link id="2199">
                <href>https://raw.githubusercontent.com/robmohammedmahid-stack/Horry-County-Data/Parcels/KML-Output/Parcels/Set_005/Parcel_0452.kml</href>
                <refreshMode>onChange</refreshMode>
            </Link>
        </NetworkLink>
        <NetworkLink id="2200">
            <name>Parcel_0453</name>
            <Link id="2201">
                <href>https://raw.githubusercontent.com/robmohammedmahid-stack/Horry-County-Data/Parcels/KML-Output/Parcels/Set_005/Parcel_0453.kml</href>
                <refreshMode>onChange</refreshMode>
            </Link>
        </NetworkLink>
        <NetworkLink id="2202">
            <name>Parcel_0454</name>
            <Link id="2203">
                <href>https://raw.githubusercontent.com/robmohammedmahid-stack/Horry-County-Data/Parcels/KML-Output/Parcels/Set_005/Parcel_0454.kml</href>
                <refreshMode>onChange</refreshMode>
            </Link>
        </NetworkLink>
        <NetworkLink id="2204">
            <name>Parcel_0455</name>
            <Link id="2205">
                <href>https://raw.githubusercontent.com/robmohammedmahid-stack/Horry-County-Data/Parcels/KML-Output/Parcels/Set_005/Parcel_0455.kml</href>
                <refreshMode>onChange</refreshMode>
            </Link>
        </NetworkLink>
        <NetworkLink id="2206">
            <name>Parcel_0456</name>
            <Link id="2207">
                <href>https://raw.githubusercontent.com/robmohammedmahid-stack/Horry-County-Data/Parcels/KML-Output/Parcels/Set_005/Parcel_0456.kml</href>
                <refreshMode>onChange</refreshMode>
            </Link>
        </NetworkLink>
        <NetworkLink id="2208">
            <name>Parcel_0457</name>
            <Link id="2209">
                <href>https://raw.githubusercontent.com/robmohammedmahid-stack/Horry-County-Data/Parcels/KML-Output/Parcels/Set_005/Parcel_0457.kml</href>
                <refreshMode>onChange</refreshMode>
            </Link>
        </NetworkLink>
        <NetworkLink id="2210">
            <name>Parcel_0458</name>
            <Link id="2211">
                <href>https://raw.githubusercontent.com/robmohammedmahid-stack/Horry-County-Data/Parcels/KML-Output/Parcels/Set_005/Parcel_0458.kml</href>
                <refreshMode>onChange</refreshMode>
            </Link>
        </NetworkLink>
        <NetworkLink id="2212">
            <name>Parcel_0459</name>
            <Link id="2213">
                <href>https://raw.githubusercontent.com/robmohammedmahid-stack/Horry-County-Data/Parcels/KML-Output/Parcels/Set_005/Parcel_0459.kml</href>
                <refreshMode>onChange</refreshMode>
            </Link>
        </NetworkLink>
        <NetworkLink id="2214">
            <name>Parcel_0460</name>
            <Link id="2215">
                <href>https://raw.githubusercontent.com/robmohammedmahid-stack/Horry-County-Data/Parcels/KML-Output/Parcels/Set_005/Parcel_0460.kml</href>
                <refreshMode>onChange</refreshMode>
            </Link>
        </NetworkLink>
        <NetworkLink id="2216">
            <name>Parcel_0461</name>
            <Link id="2217">
                <href>https://raw.githubusercontent.com/robmohammedmahid-stack/Horry-County-Data/Parcels/KML-Output/Parcels/Set_005/Parcel_0461.kml</href>
                <refreshMode>onChange</refreshMode>
            </Link>
        </NetworkLink>
        <NetworkLink id="2218">
            <name>Parcel_0462</name>
            <Link id="2219">
                <href>https://raw.githubusercontent.com/robmohammedmahid-stack/Horry-County-Data/Parcels/KML-Output/Parcels/Set_005/Parcel_0462.kml</href>
                <refreshMode>onChange</refreshMode>
            </Link>
        </NetworkLink>
        <NetworkLink id="2220">
            <name>Parcel_0463</name>
            <Link id="2221">
                <href>https://raw.githubusercontent.com/robmohammedmahid-stack/Horry-County-Data/Parcels/KML-Output/Parcels/Set_005/Parcel_0463.kml</href>
                <refreshMode>onChange</refreshMode>
            </Link>
        </NetworkLink>
        <NetworkLink id="2222">
            <name>Parcel_0464</name>
            <Link id="2223">
                <href>https://raw.githubusercontent.com/robmohammedmahid-stack/Horry-County-Data/Parcels/KML-Output/Parcels/Set_005/Parcel_0464.kml</href>
                <refreshMode>onChange</refreshMode>
            </Link>
        </NetworkLink>
        <NetworkLink id="2224">
            <name>Parcel_0465</name>
            <Link id="2225">
                <href>https://raw.githubusercontent.com/robmohammedmahid-stack/Horry-County-Data/Parcels/KML-Output/Parcels/Set_005/Parcel_0465.kml</href>
                <refreshMode>onChange</refreshMode>
            </Link>
        </NetworkLink>
        <NetworkLink id="2226">
            <name>Parcel_0466</name>
            <Link id="2227">
                <href>https://raw.githubusercontent.com/robmohammedmahid-stack/Horry-County-Data/Parcels/KML-Output/Parcels/Set_005/Parcel_0466.kml</href>
                <refreshMode>onChange</refreshMode>
            </Link>
        </NetworkLink>
        <NetworkLink id="2228">
            <name>Parcel_0467</name>
            <Link id="2229">
                <href>https://raw.githubusercontent.com/robmohammedmahid-stack/Horry-County-Data/Parcels/KML-Output/Parcels/Set_005/Parcel_0467.kml</href>
                <refreshMode>onChange</refreshMode>
            </Link>
        </NetworkLink>
        <NetworkLink id="2230">
            <name>Parcel_0468</name>
            <Link id="2231">
                <href>https://raw.githubusercontent.com/robmohammedmahid-stack/Horry-County-Data/Parcels/KML-Output/Parcels/Set_005/Parcel_0468.kml</href>
                <refreshMode>onChange</refreshMode>
            </Link>
        </NetworkLink>
        <NetworkLink id="2232">
            <name>Parcel_0469</name>
            <Link id="2233">
                <href>https://raw.githubusercontent.com/robmohammedmahid-stack/Horry-County-Data/Parcels/KML-Output/Parcels/Set_005/Parcel_0469.kml</href>
                <refreshMode>onChange</refreshMode>
            </Link>
        </NetworkLink>
        <NetworkLink id="2234">
            <name>Parcel_0470</name>
            <Link id="2235">
                <href>https://raw.githubusercontent.com/robmohammedmahid-stack/Horry-County-Data/Parcels/KML-Output/Parcels/Set_005/Parcel_0470.kml</href>
                <refreshMode>onChange</refreshMode>
            </Link>
        </NetworkLink>
        <NetworkLink id="2236">
            <name>Parcel_0471</name>
            <Link id="2237">
                <href>https://raw.githubusercontent.com/robmohammedmahid-stack/Horry-County-Data/Parcels/KML-Output/Parcels/Set_005/Parcel_0471.kml</href>
                <refreshMode>onChange</refreshMode>
            </Link>
        </NetworkLink>
        <NetworkLink id="2238">
            <name>Parcel_0472</name>
            <Link id="2239">
                <href>https://raw.githubusercontent.com/robmohammedmahid-stack/Horry-County-Data/Parcels/KML-Output/Parcels/Set_005/Parcel_0472.kml</href>
                <refreshMode>onChange</refreshMode>
            </Link>
        </NetworkLink>
        <NetworkLink id="2240">
            <name>Parcel_0473</name>
            <Link id="2241">
                <href>https://raw.githubusercontent.com/robmohammedmahid-stack/Horry-County-Data/Parcels/KML-Output/Parcels/Set_005/Parcel_0473.kml</href>
                <refreshMode>onChange</refreshMode>
            </Link>
        </NetworkLink>
        <NetworkLink id="2242">
            <name>Parcel_0474</name>
            <Link id="2243">
                <href>https://raw.githubusercontent.com/robmohammedmahid-stack/Horry-County-Data/Parcels/KML-Output/Parcels/Set_005/Parcel_0474.kml</href>
                <refreshMode>onChange</refreshMode>
            </Link>
        </NetworkLink>
        <NetworkLink id="2244">
            <name>Parcel_0475</name>
            <Link id="2245">
                <href>https://raw.githubusercontent.com/robmohammedmahid-stack/Horry-County-Data/Parcels/KML-Output/Parcels/Set_005/Parcel_0475.kml</href>
                <refreshMode>onChange</refreshMode>
            </Link>
        </NetworkLink>
        <NetworkLink id="2246">
            <name>Parcel_0476</name>
            <Link id="2247">
                <href>https://raw.githubusercontent.com/robmohammedmahid-stack/Horry-County-Data/Parcels/KML-Output/Parcels/Set_005/Parcel_0476.kml</href>
                <refreshMode>onChange</refreshMode>
            </Link>
        </NetworkLink>
        <NetworkLink id="2248">
            <name>Parcel_0477</name>
            <Link id="2249">
                <href>https://raw.githubusercontent.com/robmohammedmahid-stack/Horry-County-Data/Parcels/KML-Output/Parcels/Set_005/Parcel_0477.kml</href>
                <refreshMode>onChange</refreshMode>
            </Link>
        </NetworkLink>
        <NetworkLink id="2250">
            <name>Parcel_0478</name>
            <Link id="2251">
                <href>https://raw.githubusercontent.com/robmohammedmahid-stack/Horry-County-Data/Parcels/KML-Output/Parcels/Set_005/Parcel_0478.kml</href>
                <refreshMode>onChange</refreshMode>
            </Link>
        </NetworkLink>
        <NetworkLink id="2252">
            <name>Parcel_0479</name>
            <Link id="2253">
                <href>https://raw.githubusercontent.com/robmohammedmahid-stack/Horry-County-Data/Parcels/KML-Output/Parcels/Set_005/Parcel_0479.kml</href>
                <refreshMode>onChange</refreshMode>
            </Link>
        </NetworkLink>
        <NetworkLink id="2254">
            <name>Parcel_0480</name>
            <Link id="2255">
                <href>https://raw.githubusercontent.com/robmohammedmahid-stack/Horry-County-Data/Parcels/KML-Output/Parcels/Set_005/Parcel_0480.kml</href>
                <refreshMode>onChange</refreshMode>
            </Link>
        </NetworkLink>
        <NetworkLink id="2256">
            <name>Parcel_0481</name>
            <Link id="2257">
                <href>https://raw.githubusercontent.com/robmohammedmahid-stack/Horry-County-Data/Parcels/KML-Output/Parcels/Set_005/Parcel_0481.kml</href>
                <refreshMode>onChange</refreshMode>
            </Link>
        </NetworkLink>
        <NetworkLink id="2258">
            <name>Parcel_0482</name>
            <Link id="2259">
                <href>https://raw.githubusercontent.com/robmohammedmahid-stack/Horry-County-Data/Parcels/KML-Output/Parcels/Set_005/Parcel_0482.kml</href>
                <refreshMode>onChange</refreshMode>
            </Link>
        </NetworkLink>
        <NetworkLink id="2260">
            <name>Parcel_0483</name>
            <Link id="2261">
                <href>https://raw.githubusercontent.com/robmohammedmahid-stack/Horry-County-Data/Parcels/KML-Output/Parcels/Set_005/Parcel_0483.kml</href>
                <refreshMode>onChange</refreshMode>
            </Link>
        </NetworkLink>
        <NetworkLink id="2262">
            <name>Parcel_0484</name>
            <Link id="2263">
                <href>https://raw.githubusercontent.com/robmohammedmahid-stack/Horry-County-Data/Parcels/KML-Output/Parcels/Set_005/Parcel_0484.kml</href>
                <refreshMode>onChange</refreshMode>
            </Link>
        </NetworkLink>
        <NetworkLink id="2264">
            <name>Parcel_0485</name>
            <Link id="2265">
                <href>https://raw.githubusercontent.com/robmohammedmahid-stack/Horry-County-Data/Parcels/KML-Output/Parcels/Set_005/Parcel_0485.kml</href>
                <refreshMode>onChange</refreshMode>
            </Link>
        </NetworkLink>
        <NetworkLink id="2266">
            <name>Parcel_0486</name>
            <Link id="2267">
                <href>https://raw.githubusercontent.com/robmohammedmahid-stack/Horry-County-Data/Parcels/KML-Output/Parcels/Set_005/Parcel_0486.kml</href>
                <refreshMode>onChange</refreshMode>
            </Link>
        </NetworkLink>
        <NetworkLink id="2268">
            <name>Parcel_0487</name>
            <Link id="2269">
                <href>https://raw.githubusercontent.com/robmohammedmahid-stack/Horry-County-Data/Parcels/KML-Output/Parcels/Set_005/Parcel_0487.kml</href>
                <refreshMode>onChange</refreshMode>
            </Link>
        </NetworkLink>
        <NetworkLink id="2270">
            <name>Parcel_0488</name>
            <Link id="2271">
                <href>https://raw.githubusercontent.com/robmohammedmahid-stack/Horry-County-Data/Parcels/KML-Output/Parcels/Set_005/Parcel_0488.kml</href>
                <refreshMode>onChange</refreshMode>
            </Link>
        </NetworkLink>
        <NetworkLink id="2272">
            <name>Parcel_0489</name>
            <Link id="2273">
                <href>https://raw.githubusercontent.com/robmohammedmahid-stack/Horry-County-Data/Parcels/KML-Output/Parcels/Set_005/Parcel_0489.kml</href>
                <refreshMode>onChange</refreshMode>
            </Link>
        </NetworkLink>
        <NetworkLink id="2274">
            <name>Parcel_0490</name>
            <Link id="2275">
                <href>https://raw.githubusercontent.com/robmohammedmahid-stack/Horry-County-Data/Parcels/KML-Output/Parcels/Set_005/Parcel_0490.kml</href>
                <refreshMode>onChange</refreshMode>
            </Link>
        </NetworkLink>
        <NetworkLink id="2276">
            <name>Parcel_0491</name>
            <Link id="2277">
                <href>https://raw.githubusercontent.com/robmohammedmahid-stack/Horry-County-Data/Parcels/KML-Output/Parcels/Set_005/Parcel_0491.kml</href>
                <refreshMode>onChange</refreshMode>
            </Link>
        </NetworkLink>
        <NetworkLink id="2278">
            <name>Parcel_0492</name>
            <Link id="2279">
                <href>https://raw.githubusercontent.com/robmohammedmahid-stack/Horry-County-Data/Parcels/KML-Output/Parcels/Set_005/Parcel_0492.kml</href>
                <refreshMode>onChange</refreshMode>
            </Link>
        </NetworkLink>
        <NetworkLink id="2280">
            <name>Parcel_0493</name>
            <Link id="2281">
                <href>https://raw.githubusercontent.com/robmohammedmahid-stack/Horry-County-Data/Parcels/KML-Output/Parcels/Set_005/Parcel_0493.kml</href>
                <refreshMode>onChange</refreshMode>
            </Link>
        </NetworkLink>
        <NetworkLink id="2282">
            <name>Parcel_0494</name>
            <Link id="2283">
                <href>https://raw.githubusercontent.com/robmohammedmahid-stack/Horry-County-Data/Parcels/KML-Output/Parcels/Set_005/Parcel_0494.kml</href>
                <refreshMode>onChange</refreshMode>
            </Link>
        </NetworkLink>
        <NetworkLink id="2284">
            <name>Parcel_0495</name>
            <Link id="2285">
                <href>https://raw.githubusercontent.com/robmohammedmahid-stack/Horry-County-Data/Parcels/KML-Output/Parcels/Set_005/Parcel_0495.kml</href>
                <refreshMode>onChange</refreshMode>
            </Link>
        </NetworkLink>
        <NetworkLink id="2286">
            <name>Parcel_0496</name>
            <Link id="2287">
                <href>https://raw.githubusercontent.com/robmohammedmahid-stack/Horry-County-Data/Parcels/KML-Output/Parcels/Set_005/Parcel_0496.kml</href>
                <refreshMode>onChange</refreshMode>
            </Link>
        </NetworkLink>
        <NetworkLink id="2288">
            <name>Parcel_0497</name>
            <Link id="2289">
                <href>https://raw.githubusercontent.com/robmohammedmahid-stack/Horry-County-Data/Parcels/KML-Output/Parcels/Set_005/Parcel_0497.kml</href>
                <refreshMode>onChange</refreshMode>
            </Link>
        </NetworkLink>
        <NetworkLink id="2290">
            <name>Parcel_0498</name>
            <Link id="2291">
                <href>https://raw.githubusercontent.com/robmohammedmahid-stack/Horry-County-Data/Parcels/KML-Output/Parcels/Set_005/Parcel_0498.kml</href>
                <refreshMode>onChange</refreshMode>
            </Link>
        </NetworkLink>
        <NetworkLink id="2292">
            <name>Parcel_0499</name>
            <Link id="2293">
                <href>https://raw.githubusercontent.com/robmohammedmahid-stack/Horry-County-Data/Parcels/KML-Output/Parcels/Set_005/Parcel_0499.kml</href>
                <refreshMode>onChange</refreshMode>
            </Link>
        </NetworkLink>
        <NetworkLink id="2294">
            <name>Parcel_0500</name>
            <Link id="2295">
                <href>https://raw.githubusercontent.com/robmohammedmahid-stack/Horry-County-Data/Parcels/KML-Output/Parcels/Set_005/Parcel_0500.kml</href>
                <refreshMode>onChange</refreshMode>
            </Link>
        </NetworkLink>
    </Document>
</kml>
