<?xml version="1.0" encoding="UTF-8"?>
<kml xmlns="http://www.opengis.net/kml/2.2" xmlns:gx="http://www.google.com/kml/ext/2.2">
    <Document id="3711">
        <NetworkLink id="3712">
            <name>Parcel_1201</name>
            <Link id="3713">
                <href>https://raw.githubusercontent.com/robmohammedmahid-stack/Horry-County-Data/Parcels/KML-Output/Parcels/Set_013/Parcel_1201.kml</href>
                <refreshMode>onChange</refreshMode>
            </Link>
        </NetworkLink>
        <NetworkLink id="3714">
            <name>Parcel_1202</name>
            <Link id="3715">
                <href>https://raw.githubusercontent.com/robmohammedmahid-stack/Horry-County-Data/Parcels/KML-Output/Parcels/Set_013/Parcel_1202.kml</href>
                <refreshMode>onChange</refreshMode>
            </Link>
        </NetworkLink>
        <NetworkLink id="3716">
            <name>Parcel_1203</name>
            <Link id="3717">
                <href>https://raw.githubusercontent.com/robmohammedmahid-stack/Horry-County-Data/Parcels/KML-Output/Parcels/Set_013/Parcel_1203.kml</href>
                <refreshMode>onChange</refreshMode>
            </Link>
        </NetworkLink>
        <NetworkLink id="3718">
            <name>Parcel_1204</name>
            <Link id="3719">
                <href>https://raw.githubusercontent.com/robmohammedmahid-stack/Horry-County-Data/Parcels/KML-Output/Parcels/Set_013/Parcel_1204.kml</href>
                <refreshMode>onChange</refreshMode>
            </Link>
        </NetworkLink>
        <NetworkLink id="3720">
            <name>Parcel_1205</name>
            <Link id="3721">
                <href>https://raw.githubusercontent.com/robmohammedmahid-stack/Horry-County-Data/Parcels/KML-Output/Parcels/Set_013/Parcel_1205.kml</href>
                <refreshMode>onChange</refreshMode>
            </Link>
        </NetworkLink>
        <NetworkLink id="3722">
            <name>Parcel_1206</name>
            <Link id="3723">
                <href>https://raw.githubusercontent.com/robmohammedmahid-stack/Horry-County-Data/Parcels/KML-Output/Parcels/Set_013/Parcel_1206.kml</href>
                <refreshMode>onChange</refreshMode>
            </Link>
        </NetworkLink>
        <NetworkLink id="3724">
            <name>Parcel_1207</name>
            <Link id="3725">
                <href>https://raw.githubusercontent.com/robmohammedmahid-stack/Horry-County-Data/Parcels/KML-Output/Parcels/Set_013/Parcel_1207.kml</href>
                <refreshMode>onChange</refreshMode>
            </Link>
        </NetworkLink>
        <NetworkLink id="3726">
            <name>Parcel_1208</name>
            <Link id="3727">
                <href>https://raw.githubusercontent.com/robmohammedmahid-stack/Horry-County-Data/Parcels/KML-Output/Parcels/Set_013/Parcel_1208.kml</href>
                <refreshMode>onChange</refreshMode>
            </Link>
        </NetworkLink>
        <NetworkLink id="3728">
            <name>Parcel_1209</name>
            <Link id="3729">
                <href>https://raw.githubusercontent.com/robmohammedmahid-stack/Horry-County-Data/Parcels/KML-Output/Parcels/Set_013/Parcel_1209.kml</href>
                <refreshMode>onChange</refreshMode>
            </Link>
        </NetworkLink>
        <NetworkLink id="3730">
            <name>Parcel_1210</name>
            <Link id="3731">
                <href>https://raw.githubusercontent.com/robmohammedmahid-stack/Horry-County-Data/Parcels/KML-Output/Parcels/Set_013/Parcel_1210.kml</href>
                <refreshMode>onChange</refreshMode>
            </Link>
        </NetworkLink>
        <NetworkLink id="3732">
            <name>Parcel_1211</name>
            <Link id="3733">
                <href>https://raw.githubusercontent.com/robmohammedmahid-stack/Horry-County-Data/Parcels/KML-Output/Parcels/Set_013/Parcel_1211.kml</href>
                <refreshMode>onChange</refreshMode>
            </Link>
        </NetworkLink>
        <NetworkLink id="3734">
            <name>Parcel_1212</name>
            <Link id="3735">
                <href>https://raw.githubusercontent.com/robmohammedmahid-stack/Horry-County-Data/Parcels/KML-Output/Parcels/Set_013/Parcel_1212.kml</href>
                <refreshMode>onChange</refreshMode>
            </Link>
        </NetworkLink>
        <NetworkLink id="3736">
            <name>Parcel_1213</name>
            <Link id="3737">
                <href>https://raw.githubusercontent.com/robmohammedmahid-stack/Horry-County-Data/Parcels/KML-Output/Parcels/Set_013/Parcel_1213.kml</href>
                <refreshMode>onChange</refreshMode>
            </Link>
        </NetworkLink>
        <NetworkLink id="3738">
            <name>Parcel_1214</name>
            <Link id="3739">
                <href>https://raw.githubusercontent.com/robmohammedmahid-stack/Horry-County-Data/Parcels/KML-Output/Parcels/Set_013/Parcel_1214.kml</href>
                <refreshMode>onChange</refreshMode>
            </Link>
        </NetworkLink>
        <NetworkLink id="3740">
            <name>Parcel_1215</name>
            <Link id="3741">
                <href>https://raw.githubusercontent.com/robmohammedmahid-stack/Horry-County-Data/Parcels/KML-Output/Parcels/Set_013/Parcel_1215.kml</href>
                <refreshMode>onChange</refreshMode>
            </Link>
        </NetworkLink>
        <NetworkLink id="3742">
            <name>Parcel_1216</name>
            <Link id="3743">
                <href>https://raw.githubusercontent.com/robmohammedmahid-stack/Horry-County-Data/Parcels/KML-Output/Parcels/Set_013/Parcel_1216.kml</href>
                <refreshMode>onChange</refreshMode>
            </Link>
        </NetworkLink>
        <NetworkLink id="3744">
            <name>Parcel_1217</name>
            <Link id="3745">
                <href>https://raw.githubusercontent.com/robmohammedmahid-stack/Horry-County-Data/Parcels/KML-Output/Parcels/Set_013/Parcel_1217.kml</href>
                <refreshMode>onChange</refreshMode>
            </Link>
        </NetworkLink>
        <NetworkLink id="3746">
            <name>Parcel_1218</name>
            <Link id="3747">
                <href>https://raw.githubusercontent.com/robmohammedmahid-stack/Horry-County-Data/Parcels/KML-Output/Parcels/Set_013/Parcel_1218.kml</href>
                <refreshMode>onChange</refreshMode>
            </Link>
        </NetworkLink>
        <NetworkLink id="3748">
            <name>Parcel_1219</name>
            <Link id="3749">
                <href>https://raw.githubusercontent.com/robmohammedmahid-stack/Horry-County-Data/Parcels/KML-Output/Parcels/Set_013/Parcel_1219.kml</href>
                <refreshMode>onChange</refreshMode>
            </Link>
        </NetworkLink>
        <NetworkLink id="3750">
            <name>Parcel_1220</name>
            <Link id="3751">
                <href>https://raw.githubusercontent.com/robmohammedmahid-stack/Horry-County-Data/Parcels/KML-Output/Parcels/Set_013/Parcel_1220.kml</href>
                <refreshMode>onChange</refreshMode>
            </Link>
        </NetworkLink>
        <NetworkLink id="3752">
            <name>Parcel_1221</name>
            <Link id="3753">
                <href>https://raw.githubusercontent.com/robmohammedmahid-stack/Horry-County-Data/Parcels/KML-Output/Parcels/Set_013/Parcel_1221.kml</href>
                <refreshMode>onChange</refreshMode>
            </Link>
        </NetworkLink>
        <NetworkLink id="3754">
            <name>Parcel_1222</name>
            <Link id="3755">
                <href>https://raw.githubusercontent.com/robmohammedmahid-stack/Horry-County-Data/Parcels/KML-Output/Parcels/Set_013/Parcel_1222.kml</href>
                <refreshMode>onChange</refreshMode>
            </Link>
        </NetworkLink>
        <NetworkLink id="3756">
            <name>Parcel_1223</name>
            <Link id="3757">
                <href>https://raw.githubusercontent.com/robmohammedmahid-stack/Horry-County-Data/Parcels/KML-Output/Parcels/Set_013/Parcel_1223.kml</href>
                <refreshMode>onChange</refreshMode>
            </Link>
        </NetworkLink>
        <NetworkLink id="3758">
            <name>Parcel_1224</name>
            <Link id="3759">
                <href>https://raw.githubusercontent.com/robmohammedmahid-stack/Horry-County-Data/Parcels/KML-Output/Parcels/Set_013/Parcel_1224.kml</href>
                <refreshMode>onChange</refreshMode>
            </Link>
        </NetworkLink>
        <NetworkLink id="3760">
            <name>Parcel_1225</name>
            <Link id="3761">
                <href>https://raw.githubusercontent.com/robmohammedmahid-stack/Horry-County-Data/Parcels/KML-Output/Parcels/Set_013/Parcel_1225.kml</href>
                <refreshMode>onChange</refreshMode>
            </Link>
        </NetworkLink>
        <NetworkLink id="3762">
            <name>Parcel_1226</name>
            <Link id="3763">
                <href>https://raw.githubusercontent.com/robmohammedmahid-stack/Horry-County-Data/Parcels/KML-Output/Parcels/Set_013/Parcel_1226.kml</href>
                <refreshMode>onChange</refreshMode>
            </Link>
        </NetworkLink>
        <NetworkLink id="3764">
            <name>Parcel_1227</name>
            <Link id="3765">
                <href>https://raw.githubusercontent.com/robmohammedmahid-stack/Horry-County-Data/Parcels/KML-Output/Parcels/Set_013/Parcel_1227.kml</href>
                <refreshMode>onChange</refreshMode>
            </Link>
        </NetworkLink>
        <NetworkLink id="3766">
            <name>Parcel_1228</name>
            <Link id="3767">
                <href>https://raw.githubusercontent.com/robmohammedmahid-stack/Horry-County-Data/Parcels/KML-Output/Parcels/Set_013/Parcel_1228.kml</href>
                <refreshMode>onChange</refreshMode>
            </Link>
        </NetworkLink>
        <NetworkLink id="3768">
            <name>Parcel_1229</name>
            <Link id="3769">
                <href>https://raw.githubusercontent.com/robmohammedmahid-stack/Horry-County-Data/Parcels/KML-Output/Parcels/Set_013/Parcel_1229.kml</href>
                <refreshMode>onChange</refreshMode>
            </Link>
        </NetworkLink>
        <NetworkLink id="3770">
            <name>Parcel_1230</name>
            <Link id="3771">
                <href>https://raw.githubusercontent.com/robmohammedmahid-stack/Horry-County-Data/Parcels/KML-Output/Parcels/Set_013/Parcel_1230.kml</href>
                <refreshMode>onChange</refreshMode>
            </Link>
        </NetworkLink>
        <NetworkLink id="3772">
            <name>Parcel_1231</name>
            <Link id="3773">
                <href>https://raw.githubusercontent.com/robmohammedmahid-stack/Horry-County-Data/Parcels/KML-Output/Parcels/Set_013/Parcel_1231.kml</href>
                <refreshMode>onChange</refreshMode>
            </Link>
        </NetworkLink>
        <NetworkLink id="3774">
            <name>Parcel_1232</name>
            <Link id="3775">
                <href>https://raw.githubusercontent.com/robmohammedmahid-stack/Horry-County-Data/Parcels/KML-Output/Parcels/Set_013/Parcel_1232.kml</href>
                <refreshMode>onChange</refreshMode>
            </Link>
        </NetworkLink>
        <NetworkLink id="3776">
            <name>Parcel_1233</name>
            <Link id="3777">
                <href>https://raw.githubusercontent.com/robmohammedmahid-stack/Horry-County-Data/Parcels/KML-Output/Parcels/Set_013/Parcel_1233.kml</href>
                <refreshMode>onChange</refreshMode>
            </Link>
        </NetworkLink>
        <NetworkLink id="3778">
            <name>Parcel_1234</name>
            <Link id="3779">
                <href>https://raw.githubusercontent.com/robmohammedmahid-stack/Horry-County-Data/Parcels/KML-Output/Parcels/Set_013/Parcel_1234.kml</href>
                <refreshMode>onChange</refreshMode>
            </Link>
        </NetworkLink>
        <NetworkLink id="3780">
            <name>Parcel_1235</name>
            <Link id="3781">
                <href>https://raw.githubusercontent.com/robmohammedmahid-stack/Horry-County-Data/Parcels/KML-Output/Parcels/Set_013/Parcel_1235.kml</href>
                <refreshMode>onChange</refreshMode>
            </Link>
        </NetworkLink>
        <NetworkLink id="3782">
            <name>Parcel_1236</name>
            <Link id="3783">
                <href>https://raw.githubusercontent.com/robmohammedmahid-stack/Horry-County-Data/Parcels/KML-Output/Parcels/Set_013/Parcel_1236.kml</href>
                <refreshMode>onChange</refreshMode>
            </Link>
        </NetworkLink>
        <NetworkLink id="3784">
            <name>Parcel_1237</name>
            <Link id="3785">
                <href>https://raw.githubusercontent.com/robmohammedmahid-stack/Horry-County-Data/Parcels/KML-Output/Parcels/Set_013/Parcel_1237.kml</href>
                <refreshMode>onChange</refreshMode>
            </Link>
        </NetworkLink>
        <NetworkLink id="3786">
            <name>Parcel_1238</name>
            <Link id="3787">
                <href>https://raw.githubusercontent.com/robmohammedmahid-stack/Horry-County-Data/Parcels/KML-Output/Parcels/Set_013/Parcel_1238.kml</href>
                <refreshMode>onChange</refreshMode>
            </Link>
        </NetworkLink>
        <NetworkLink id="3788">
            <name>Parcel_1239</name>
            <Link id="3789">
                <href>https://raw.githubusercontent.com/robmohammedmahid-stack/Horry-County-Data/Parcels/KML-Output/Parcels/Set_013/Parcel_1239.kml</href>
                <refreshMode>onChange</refreshMode>
            </Link>
        </NetworkLink>
        <NetworkLink id="3790">
            <name>Parcel_1240</name>
            <Link id="3791">
                <href>https://raw.githubusercontent.com/robmohammedmahid-stack/Horry-County-Data/Parcels/KML-Output/Parcels/Set_013/Parcel_1240.kml</href>
                <refreshMode>onChange</refreshMode>
            </Link>
        </NetworkLink>
        <NetworkLink id="3792">
            <name>Parcel_1241</name>
            <Link id="3793">
                <href>https://raw.githubusercontent.com/robmohammedmahid-stack/Horry-County-Data/Parcels/KML-Output/Parcels/Set_013/Parcel_1241.kml</href>
                <refreshMode>onChange</refreshMode>
            </Link>
        </NetworkLink>
        <NetworkLink id="3794">
            <name>Parcel_1242</name>
            <Link id="3795">
                <href>https://raw.githubusercontent.com/robmohammedmahid-stack/Horry-County-Data/Parcels/KML-Output/Parcels/Set_013/Parcel_1242.kml</href>
                <refreshMode>onChange</refreshMode>
            </Link>
        </NetworkLink>
        <NetworkLink id="3796">
            <name>Parcel_1243</name>
            <Link id="3797">
                <href>https://raw.githubusercontent.com/robmohammedmahid-stack/Horry-County-Data/Parcels/KML-Output/Parcels/Set_013/Parcel_1243.kml</href>
                <refreshMode>onChange</refreshMode>
            </Link>
        </NetworkLink>
        <NetworkLink id="3798">
            <name>Parcel_1244</name>
            <Link id="3799">
                <href>https://raw.githubusercontent.com/robmohammedmahid-stack/Horry-County-Data/Parcels/KML-Output/Parcels/Set_013/Parcel_1244.kml</href>
                <refreshMode>onChange</refreshMode>
            </Link>
        </NetworkLink>
        <NetworkLink id="3800">
            <name>Parcel_1245</name>
            <Link id="3801">
                <href>https://raw.githubusercontent.com/robmohammedmahid-stack/Horry-County-Data/Parcels/KML-Output/Parcels/Set_013/Parcel_1245.kml</href>
                <refreshMode>onChange</refreshMode>
            </Link>
        </NetworkLink>
        <NetworkLink id="3802">
            <name>Parcel_1246</name>
            <Link id="3803">
                <href>https://raw.githubusercontent.com/robmohammedmahid-stack/Horry-County-Data/Parcels/KML-Output/Parcels/Set_013/Parcel_1246.kml</href>
                <refreshMode>onChange</refreshMode>
            </Link>
        </NetworkLink>
        <NetworkLink id="3804">
            <name>Parcel_1247</name>
            <Link id="3805">
                <href>https://raw.githubusercontent.com/robmohammedmahid-stack/Horry-County-Data/Parcels/KML-Output/Parcels/Set_013/Parcel_1247.kml</href>
                <refreshMode>onChange</refreshMode>
            </Link>
        </NetworkLink>
        <NetworkLink id="3806">
            <name>Parcel_1248</name>
            <Link id="3807">
                <href>https://raw.githubusercontent.com/robmohammedmahid-stack/Horry-County-Data/Parcels/KML-Output/Parcels/Set_013/Parcel_1248.kml</href>
                <refreshMode>onChange</refreshMode>
            </Link>
        </NetworkLink>
        <NetworkLink id="3808">
            <name>Parcel_1249</name>
            <Link id="3809">
                <href>https://raw.githubusercontent.com/robmohammedmahid-stack/Horry-County-Data/Parcels/KML-Output/Parcels/Set_013/Parcel_1249.kml</href>
                <refreshMode>onChange</refreshMode>
            </Link>
        </NetworkLink>
        <NetworkLink id="3810">
            <name>Parcel_1250</name>
            <Link id="3811">
                <href>https://raw.githubusercontent.com/robmohammedmahid-stack/Horry-County-Data/Parcels/KML-Output/Parcels/Set_013/Parcel_1250.kml</href>
                <refreshMode>onChange</refreshMode>
            </Link>
        </NetworkLink>
        <NetworkLink id="3812">
            <name>Parcel_1251</name>
            <Link id="3813">
                <href>https://raw.githubusercontent.com/robmohammedmahid-stack/Horry-County-Data/Parcels/KML-Output/Parcels/Set_013/Parcel_1251.kml</href>
                <refreshMode>onChange</refreshMode>
            </Link>
        </NetworkLink>
        <NetworkLink id="3814">
            <name>Parcel_1252</name>
            <Link id="3815">
                <href>https://raw.githubusercontent.com/robmohammedmahid-stack/Horry-County-Data/Parcels/KML-Output/Parcels/Set_013/Parcel_1252.kml</href>
                <refreshMode>onChange</refreshMode>
            </Link>
        </NetworkLink>
        <NetworkLink id="3816">
            <name>Parcel_1253</name>
            <Link id="3817">
                <href>https://raw.githubusercontent.com/robmohammedmahid-stack/Horry-County-Data/Parcels/KML-Output/Parcels/Set_013/Parcel_1253.kml</href>
                <refreshMode>onChange</refreshMode>
            </Link>
        </NetworkLink>
        <NetworkLink id="3818">
            <name>Parcel_1254</name>
            <Link id="3819">
                <href>https://raw.githubusercontent.com/robmohammedmahid-stack/Horry-County-Data/Parcels/KML-Output/Parcels/Set_013/Parcel_1254.kml</href>
                <refreshMode>onChange</refreshMode>
            </Link>
        </NetworkLink>
        <NetworkLink id="3820">
            <name>Parcel_1255</name>
            <Link id="3821">
                <href>https://raw.githubusercontent.com/robmohammedmahid-stack/Horry-County-Data/Parcels/KML-Output/Parcels/Set_013/Parcel_1255.kml</href>
                <refreshMode>onChange</refreshMode>
            </Link>
        </NetworkLink>
        <NetworkLink id="3822">
            <name>Parcel_1256</name>
            <Link id="3823">
                <href>https://raw.githubusercontent.com/robmohammedmahid-stack/Horry-County-Data/Parcels/KML-Output/Parcels/Set_013/Parcel_1256.kml</href>
                <refreshMode>onChange</refreshMode>
            </Link>
        </NetworkLink>
        <NetworkLink id="3824">
            <name>Parcel_1257</name>
            <Link id="3825">
                <href>https://raw.githubusercontent.com/robmohammedmahid-stack/Horry-County-Data/Parcels/KML-Output/Parcels/Set_013/Parcel_1257.kml</href>
                <refreshMode>onChange</refreshMode>
            </Link>
        </NetworkLink>
        <NetworkLink id="3826">
            <name>Parcel_1258</name>
            <Link id="3827">
                <href>https://raw.githubusercontent.com/robmohammedmahid-stack/Horry-County-Data/Parcels/KML-Output/Parcels/Set_013/Parcel_1258.kml</href>
                <refreshMode>onChange</refreshMode>
            </Link>
        </NetworkLink>
        <NetworkLink id="3828">
            <name>Parcel_1259</name>
            <Link id="3829">
                <href>https://raw.githubusercontent.com/robmohammedmahid-stack/Horry-County-Data/Parcels/KML-Output/Parcels/Set_013/Parcel_1259.kml</href>
                <refreshMode>onChange</refreshMode>
            </Link>
        </NetworkLink>
        <NetworkLink id="3830">
            <name>Parcel_1260</name>
            <Link id="3831">
                <href>https://raw.githubusercontent.com/robmohammedmahid-stack/Horry-County-Data/Parcels/KML-Output/Parcels/Set_013/Parcel_1260.kml</href>
                <refreshMode>onChange</refreshMode>
            </Link>
        </NetworkLink>
        <NetworkLink id="3832">
            <name>Parcel_1261</name>
            <Link id="3833">
                <href>https://raw.githubusercontent.com/robmohammedmahid-stack/Horry-County-Data/Parcels/KML-Output/Parcels/Set_013/Parcel_1261.kml</href>
                <refreshMode>onChange</refreshMode>
            </Link>
        </NetworkLink>
        <NetworkLink id="3834">
            <name>Parcel_1262</name>
            <Link id="3835">
                <href>https://raw.githubusercontent.com/robmohammedmahid-stack/Horry-County-Data/Parcels/KML-Output/Parcels/Set_013/Parcel_1262.kml</href>
                <refreshMode>onChange</refreshMode>
            </Link>
        </NetworkLink>
        <NetworkLink id="3836">
            <name>Parcel_1263</name>
            <Link id="3837">
                <href>https://raw.githubusercontent.com/robmohammedmahid-stack/Horry-County-Data/Parcels/KML-Output/Parcels/Set_013/Parcel_1263.kml</href>
                <refreshMode>onChange</refreshMode>
            </Link>
        </NetworkLink>
        <NetworkLink id="3838">
            <name>Parcel_1264</name>
            <Link id="3839">
                <href>https://raw.githubusercontent.com/robmohammedmahid-stack/Horry-County-Data/Parcels/KML-Output/Parcels/Set_013/Parcel_1264.kml</href>
                <refreshMode>onChange</refreshMode>
            </Link>
        </NetworkLink>
        <NetworkLink id="3840">
            <name>Parcel_1265</name>
            <Link id="3841">
                <href>https://raw.githubusercontent.com/robmohammedmahid-stack/Horry-County-Data/Parcels/KML-Output/Parcels/Set_013/Parcel_1265.kml</href>
                <refreshMode>onChange</refreshMode>
            </Link>
        </NetworkLink>
        <NetworkLink id="3842">
            <name>Parcel_1266</name>
            <Link id="3843">
                <href>https://raw.githubusercontent.com/robmohammedmahid-stack/Horry-County-Data/Parcels/KML-Output/Parcels/Set_013/Parcel_1266.kml</href>
                <refreshMode>onChange</refreshMode>
            </Link>
        </NetworkLink>
        <NetworkLink id="3844">
            <name>Parcel_1267</name>
            <Link id="3845">
                <href>https://raw.githubusercontent.com/robmohammedmahid-stack/Horry-County-Data/Parcels/KML-Output/Parcels/Set_013/Parcel_1267.kml</href>
                <refreshMode>onChange</refreshMode>
            </Link>
        </NetworkLink>
        <NetworkLink id="3846">
            <name>Parcel_1268</name>
            <Link id="3847">
                <href>https://raw.githubusercontent.com/robmohammedmahid-stack/Horry-County-Data/Parcels/KML-Output/Parcels/Set_013/Parcel_1268.kml</href>
                <refreshMode>onChange</refreshMode>
            </Link>
        </NetworkLink>
        <NetworkLink id="3848">
            <name>Parcel_1269</name>
            <Link id="3849">
                <href>https://raw.githubusercontent.com/robmohammedmahid-stack/Horry-County-Data/Parcels/KML-Output/Parcels/Set_013/Parcel_1269.kml</href>
                <refreshMode>onChange</refreshMode>
            </Link>
        </NetworkLink>
        <NetworkLink id="3850">
            <name>Parcel_1270</name>
            <Link id="3851">
                <href>https://raw.githubusercontent.com/robmohammedmahid-stack/Horry-County-Data/Parcels/KML-Output/Parcels/Set_013/Parcel_1270.kml</href>
                <refreshMode>onChange</refreshMode>
            </Link>
        </NetworkLink>
        <NetworkLink id="3852">
            <name>Parcel_1271</name>
            <Link id="3853">
                <href>https://raw.githubusercontent.com/robmohammedmahid-stack/Horry-County-Data/Parcels/KML-Output/Parcels/Set_013/Parcel_1271.kml</href>
                <refreshMode>onChange</refreshMode>
            </Link>
        </NetworkLink>
        <NetworkLink id="3854">
            <name>Parcel_1272</name>
            <Link id="3855">
                <href>https://raw.githubusercontent.com/robmohammedmahid-stack/Horry-County-Data/Parcels/KML-Output/Parcels/Set_013/Parcel_1272.kml</href>
                <refreshMode>onChange</refreshMode>
            </Link>
        </NetworkLink>
        <NetworkLink id="3856">
            <name>Parcel_1273</name>
            <Link id="3857">
                <href>https://raw.githubusercontent.com/robmohammedmahid-stack/Horry-County-Data/Parcels/KML-Output/Parcels/Set_013/Parcel_1273.kml</href>
                <refreshMode>onChange</refreshMode>
            </Link>
        </NetworkLink>
        <NetworkLink id="3858">
            <name>Parcel_1274</name>
            <Link id="3859">
                <href>https://raw.githubusercontent.com/robmohammedmahid-stack/Horry-County-Data/Parcels/KML-Output/Parcels/Set_013/Parcel_1274.kml</href>
                <refreshMode>onChange</refreshMode>
            </Link>
        </NetworkLink>
        <NetworkLink id="3860">
            <name>Parcel_1275</name>
            <Link id="3861">
                <href>https://raw.githubusercontent.com/robmohammedmahid-stack/Horry-County-Data/Parcels/KML-Output/Parcels/Set_013/Parcel_1275.kml</href>
                <refreshMode>onChange</refreshMode>
            </Link>
        </NetworkLink>
        <NetworkLink id="3862">
            <name>Parcel_1276</name>
            <Link id="3863">
                <href>https://raw.githubusercontent.com/robmohammedmahid-stack/Horry-County-Data/Parcels/KML-Output/Parcels/Set_013/Parcel_1276.kml</href>
                <refreshMode>onChange</refreshMode>
            </Link>
        </NetworkLink>
        <NetworkLink id="3864">
            <name>Parcel_1277</name>
            <Link id="3865">
                <href>https://raw.githubusercontent.com/robmohammedmahid-stack/Horry-County-Data/Parcels/KML-Output/Parcels/Set_013/Parcel_1277.kml</href>
                <refreshMode>onChange</refreshMode>
            </Link>
        </NetworkLink>
        <NetworkLink id="3866">
            <name>Parcel_1278</name>
            <Link id="3867">
                <href>https://raw.githubusercontent.com/robmohammedmahid-stack/Horry-County-Data/Parcels/KML-Output/Parcels/Set_013/Parcel_1278.kml</href>
                <refreshMode>onChange</refreshMode>
            </Link>
        </NetworkLink>
        <NetworkLink id="3868">
            <name>Parcel_1279</name>
            <Link id="3869">
                <href>https://raw.githubusercontent.com/robmohammedmahid-stack/Horry-County-Data/Parcels/KML-Output/Parcels/Set_013/Parcel_1279.kml</href>
                <refreshMode>onChange</refreshMode>
            </Link>
        </NetworkLink>
        <NetworkLink id="3870">
            <name>Parcel_1280</name>
            <Link id="3871">
                <href>https://raw.githubusercontent.com/robmohammedmahid-stack/Horry-County-Data/Parcels/KML-Output/Parcels/Set_013/Parcel_1280.kml</href>
                <refreshMode>onChange</refreshMode>
            </Link>
        </NetworkLink>
        <NetworkLink id="3872">
            <name>Parcel_1281</name>
            <Link id="3873">
                <href>https://raw.githubusercontent.com/robmohammedmahid-stack/Horry-County-Data/Parcels/KML-Output/Parcels/Set_013/Parcel_1281.kml</href>
                <refreshMode>onChange</refreshMode>
            </Link>
        </NetworkLink>
        <NetworkLink id="3874">
            <name>Parcel_1282</name>
            <Link id="3875">
                <href>https://raw.githubusercontent.com/robmohammedmahid-stack/Horry-County-Data/Parcels/KML-Output/Parcels/Set_013/Parcel_1282.kml</href>
                <refreshMode>onChange</refreshMode>
            </Link>
        </NetworkLink>
        <NetworkLink id="3876">
            <name>Parcel_1283</name>
            <Link id="3877">
                <href>https://raw.githubusercontent.com/robmohammedmahid-stack/Horry-County-Data/Parcels/KML-Output/Parcels/Set_013/Parcel_1283.kml</href>
                <refreshMode>onChange</refreshMode>
            </Link>
        </NetworkLink>
        <NetworkLink id="3878">
            <name>Parcel_1284</name>
            <Link id="3879">
                <href>https://raw.githubusercontent.com/robmohammedmahid-stack/Horry-County-Data/Parcels/KML-Output/Parcels/Set_013/Parcel_1284.kml</href>
                <refreshMode>onChange</refreshMode>
            </Link>
        </NetworkLink>
        <NetworkLink id="3880">
            <name>Parcel_1285</name>
            <Link id="3881">
                <href>https://raw.githubusercontent.com/robmohammedmahid-stack/Horry-County-Data/Parcels/KML-Output/Parcels/Set_013/Parcel_1285.kml</href>
                <refreshMode>onChange</refreshMode>
            </Link>
        </NetworkLink>
        <NetworkLink id="3882">
            <name>Parcel_1286</name>
            <Link id="3883">
                <href>https://raw.githubusercontent.com/robmohammedmahid-stack/Horry-County-Data/Parcels/KML-Output/Parcels/Set_013/Parcel_1286.kml</href>
                <refreshMode>onChange</refreshMode>
            </Link>
        </NetworkLink>
        <NetworkLink id="3884">
            <name>Parcel_1287</name>
            <Link id="3885">
                <href>https://raw.githubusercontent.com/robmohammedmahid-stack/Horry-County-Data/Parcels/KML-Output/Parcels/Set_013/Parcel_1287.kml</href>
                <refreshMode>onChange</refreshMode>
            </Link>
        </NetworkLink>
        <NetworkLink id="3886">
            <name>Parcel_1288</name>
            <Link id="3887">
                <href>https://raw.githubusercontent.com/robmohammedmahid-stack/Horry-County-Data/Parcels/KML-Output/Parcels/Set_013/Parcel_1288.kml</href>
                <refreshMode>onChange</refreshMode>
            </Link>
        </NetworkLink>
        <NetworkLink id="3888">
            <name>Parcel_1289</name>
            <Link id="3889">
                <href>https://raw.githubusercontent.com/robmohammedmahid-stack/Horry-County-Data/Parcels/KML-Output/Parcels/Set_013/Parcel_1289.kml</href>
                <refreshMode>onChange</refreshMode>
            </Link>
        </NetworkLink>
        <NetworkLink id="3890">
            <name>Parcel_1290</name>
            <Link id="3891">
                <href>https://raw.githubusercontent.com/robmohammedmahid-stack/Horry-County-Data/Parcels/KML-Output/Parcels/Set_013/Parcel_1290.kml</href>
                <refreshMode>onChange</refreshMode>
            </Link>
        </NetworkLink>
        <NetworkLink id="3892">
            <name>Parcel_1291</name>
            <Link id="3893">
                <href>https://raw.githubusercontent.com/robmohammedmahid-stack/Horry-County-Data/Parcels/KML-Output/Parcels/Set_013/Parcel_1291.kml</href>
                <refreshMode>onChange</refreshMode>
            </Link>
        </NetworkLink>
        <NetworkLink id="3894">
            <name>Parcel_1292</name>
            <Link id="3895">
                <href>https://raw.githubusercontent.com/robmohammedmahid-stack/Horry-County-Data/Parcels/KML-Output/Parcels/Set_013/Parcel_1292.kml</href>
                <refreshMode>onChange</refreshMode>
            </Link>
        </NetworkLink>
        <NetworkLink id="3896">
            <name>Parcel_1293</name>
            <Link id="3897">
                <href>https://raw.githubusercontent.com/robmohammedmahid-stack/Horry-County-Data/Parcels/KML-Output/Parcels/Set_013/Parcel_1293.kml</href>
                <refreshMode>onChange</refreshMode>
            </Link>
        </NetworkLink>
        <NetworkLink id="3898">
            <name>Parcel_1294</name>
            <Link id="3899">
                <href>https://raw.githubusercontent.com/robmohammedmahid-stack/Horry-County-Data/Parcels/KML-Output/Parcels/Set_013/Parcel_1294.kml</href>
                <refreshMode>onChange</refreshMode>
            </Link>
        </NetworkLink>
        <NetworkLink id="3900">
            <name>Parcel_1295</name>
            <Link id="3901">
                <href>https://raw.githubusercontent.com/robmohammedmahid-stack/Horry-County-Data/Parcels/KML-Output/Parcels/Set_013/Parcel_1295.kml</href>
                <refreshMode>onChange</refreshMode>
            </Link>
        </NetworkLink>
        <NetworkLink id="3902">
            <name>Parcel_1296</name>
            <Link id="3903">
                <href>https://raw.githubusercontent.com/robmohammedmahid-stack/Horry-County-Data/Parcels/KML-Output/Parcels/Set_013/Parcel_1296.kml</href>
                <refreshMode>onChange</refreshMode>
            </Link>
        </NetworkLink>
        <NetworkLink id="3904">
            <name>Parcel_1297</name>
            <Link id="3905">
                <href>https://raw.githubusercontent.com/robmohammedmahid-stack/Horry-County-Data/Parcels/KML-Output/Parcels/Set_013/Parcel_1297.kml</href>
                <refreshMode>onChange</refreshMode>
            </Link>
        </NetworkLink>
        <NetworkLink id="3906">
            <name>Parcel_1298</name>
            <Link id="3907">
                <href>https://raw.githubusercontent.com/robmohammedmahid-stack/Horry-County-Data/Parcels/KML-Output/Parcels/Set_013/Parcel_1298.kml</href>
                <refreshMode>onChange</refreshMode>
            </Link>
        </NetworkLink>
        <NetworkLink id="3908">
            <name>Parcel_1299</name>
            <Link id="3909">
                <href>https://raw.githubusercontent.com/robmohammedmahid-stack/Horry-County-Data/Parcels/KML-Output/Parcels/Set_013/Parcel_1299.kml</href>
                <refreshMode>onChange</refreshMode>
            </Link>
        </NetworkLink>
        <NetworkLink id="3910">
            <name>Parcel_1300</name>
            <Link id="3911">
                <href>https://raw.githubusercontent.com/robmohammedmahid-stack/Horry-County-Data/Parcels/KML-Output/Parcels/Set_013/Parcel_1300.kml</href>
                <refreshMode>onChange</refreshMode>
            </Link>
        </NetworkLink>
    </Document>
</kml>
