<?xml version="1.0" encoding="UTF-8"?>
<kml xmlns="http://www.opengis.net/kml/2.2" xmlns:gx="http://www.google.com/kml/ext/2.2">
    <Document id="1">
        <NetworkLink id="2">
            <name>Flood_001</name>
            <Link id="3">
                <href>https://raw.githubusercontent.com/robmohammedmahid-stack/Horry-County-Data/Flood-Layers/KML-Output/Flood/Flood_001.kml</href>
                <refreshMode>onChange</refreshMode>
            </Link>
        </NetworkLink>
        <NetworkLink id="4">
            <name>Flood_002</name>
            <Link id="5">
                <href>https://raw.githubusercontent.com/robmohammedmahid-stack/Horry-County-Data/Flood-Layers/KML-Output/Flood/Flood_002.kml</href>
                <refreshMode>onChange</refreshMode>
            </Link>
        </NetworkLink>
        <NetworkLink id="6">
            <name>Flood_003</name>
            <Link id="7">
                <href>https://raw.githubusercontent.com/robmohammedmahid-stack/Horry-County-Data/Flood-Layers/KML-Output/Flood/Flood_003.kml</href>
                <refreshMode>onChange</refreshMode>
            </Link>
        </NetworkLink>
        <NetworkLink id="8">
            <name>Flood_004</name>
            <Link id="9">
                <href>https://raw.githubusercontent.com/robmohammedmahid-stack/Horry-County-Data/Flood-Layers/KML-Output/Flood/Flood_004.kml</href>
                <refreshMode>onChange</refreshMode>
            </Link>
        </NetworkLink>
        <NetworkLink id="10">
            <name>Flood_005</name>
            <Link id="11">
                <href>https://raw.githubusercontent.com/robmohammedmahid-stack/Horry-County-Data/Flood-Layers/KML-Output/Flood/Flood_005.kml</href>
                <refreshMode>onChange</refreshMode>
            </Link>
        </NetworkLink>
        <NetworkLink id="12">
            <name>Flood_006</name>
            <Link id="13">
                <href>https://raw.githubusercontent.com/robmohammedmahid-stack/Horry-County-Data/Flood-Layers/KML-Output/Flood/Flood_006.kml</href>
                <refreshMode>onChange</refreshMode>
            </Link>
        </NetworkLink>
        <NetworkLink id="14">
            <name>Flood_007</name>
            <Link id="15">
                <href>https://raw.githubusercontent.com/robmohammedmahid-stack/Horry-County-Data/Flood-Layers/KML-Output/Flood/Flood_007.kml</href>
                <refreshMode>onChange</refreshMode>
            </Link>
        </NetworkLink>
        <NetworkLink id="16">
            <name>Flood_008</name>
            <Link id="17">
                <href>https://raw.githubusercontent.com/robmohammedmahid-stack/Horry-County-Data/Flood-Layers/KML-Output/Flood/Flood_008.kml</href>
                <refreshMode>onChange</refreshMode>
            </Link>
        </NetworkLink>
        <NetworkLink id="18">
            <name>Flood_009</name>
            <Link id="19">
                <href>https://raw.githubusercontent.com/robmohammedmahid-stack/Horry-County-Data/Flood-Layers/KML-Output/Flood/Flood_009.kml</href>
                <refreshMode>onChange</refreshMode>
            </Link>
        </NetworkLink>
        <NetworkLink id="20">
            <name>Flood_010</name>
            <Link id="21">
                <href>https://raw.githubusercontent.com/robmohammedmahid-stack/Horry-County-Data/Flood-Layers/KML-Output/Flood/Flood_010.kml</href>
                <refreshMode>onChange</refreshMode>
            </Link>
        </NetworkLink>
        <NetworkLink id="22">
            <name>Flood_011</name>
            <Link id="23">
                <href>https://raw.githubusercontent.com/robmohammedmahid-stack/Horry-County-Data/Flood-Layers/KML-Output/Flood/Flood_011.kml</href>
                <refreshMode>onChange</refreshMode>
            </Link>
        </NetworkLink>
        <NetworkLink id="24">
            <name>Flood_012</name>
            <Link id="25">
                <href>https://raw.githubusercontent.com/robmohammedmahid-stack/Horry-County-Data/Flood-Layers/KML-Output/Flood/Flood_012.kml</href>
                <refreshMode>onChange</refreshMode>
            </Link>
        </NetworkLink>
        <NetworkLink id="26">
            <name>Flood_013</name>
            <Link id="27">
                <href>https://raw.githubusercontent.com/robmohammedmahid-stack/Horry-County-Data/Flood-Layers/KML-Output/Flood/Flood_013.kml</href>
                <refreshMode>onChange</refreshMode>
            </Link>
        </NetworkLink>
        <NetworkLink id="28">
            <name>Flood_014</name>
            <Link id="29">
                <href>https://raw.githubusercontent.com/robmohammedmahid-stack/Horry-County-Data/Flood-Layers/KML-Output/Flood/Flood_014.kml</href>
                <refreshMode>onChange</refreshMode>
            </Link>
        </NetworkLink>
        <NetworkLink id="30">
            <name>Flood_015</name>
            <Link id="31">
                <href>https://raw.githubusercontent.com/robmohammedmahid-stack/Horry-County-Data/Flood-Layers/KML-Output/Flood/Flood_015.kml</href>
                <refreshMode>onChange</refreshMode>
            </Link>
        </NetworkLink>
        <NetworkLink id="32">
            <name>Flood_016</name>
            <Link id="33">
                <href>https://raw.githubusercontent.com/robmohammedmahid-stack/Horry-County-Data/Flood-Layers/KML-Output/Flood/Flood_016.kml</href>
                <refreshMode>onChange</refreshMode>
            </Link>
        </NetworkLink>
        <NetworkLink id="34">
            <name>Flood_017</name>
            <Link id="35">
                <href>https://raw.githubusercontent.com/robmohammedmahid-stack/Horry-County-Data/Flood-Layers/KML-Output/Flood/Flood_017.kml</href>
                <refreshMode>onChange</refreshMode>
            </Link>
        </NetworkLink>
        <NetworkLink id="36">
            <name>Flood_018</name>
            <Link id="37">
                <href>https://raw.githubusercontent.com/robmohammedmahid-stack/Horry-County-Data/Flood-Layers/KML-Output/Flood/Flood_018.kml</href>
                <refreshMode>onChange</refreshMode>
            </Link>
        </NetworkLink>
        <NetworkLink id="38">
            <name>Flood_019</name>
            <Link id="39">
                <href>https://raw.githubusercontent.com/robmohammedmahid-stack/Horry-County-Data/Flood-Layers/KML-Output/Flood/Flood_019.kml</href>
                <refreshMode>onChange</refreshMode>
            </Link>
        </NetworkLink>
        <NetworkLink id="40">
            <name>Flood_020</name>
            <Link id="41">
                <href>https://raw.githubusercontent.com/robmohammedmahid-stack/Horry-County-Data/Flood-Layers/KML-Output/Flood/Flood_020.kml</href>
                <refreshMode>onChange</refreshMode>
            </Link>
        </NetworkLink>
        <NetworkLink id="42">
            <name>Flood_021</name>
            <Link id="43">
                <href>https://raw.githubusercontent.com/robmohammedmahid-stack/Horry-County-Data/Flood-Layers/KML-Output/Flood/Flood_021.kml</href>
                <refreshMode>onChange</refreshMode>
            </Link>
        </NetworkLink>
        <NetworkLink id="44">
            <name>Flood_022</name>
            <Link id="45">
                <href>https://raw.githubusercontent.com/robmohammedmahid-stack/Horry-County-Data/Flood-Layers/KML-Output/Flood/Flood_022.kml</href>
                <refreshMode>onChange</refreshMode>
            </Link>
        </NetworkLink>
        <NetworkLink id="46">
            <name>Flood_023</name>
            <Link id="47">
                <href>https://raw.githubusercontent.com/robmohammedmahid-stack/Horry-County-Data/Flood-Layers/KML-Output/Flood/Flood_023.kml</href>
                <refreshMode>onChange</refreshMode>
            </Link>
        </NetworkLink>
        <NetworkLink id="48">
            <name>Flood_024</name>
            <Link id="49">
                <href>https://raw.githubusercontent.com/robmohammedmahid-stack/Horry-County-Data/Flood-Layers/KML-Output/Flood/Flood_024.kml</href>
                <refreshMode>onChange</refreshMode>
            </Link>
        </NetworkLink>
        <NetworkLink id="50">
            <name>Flood_025</name>
            <Link id="51">
                <href>https://raw.githubusercontent.com/robmohammedmahid-stack/Horry-County-Data/Flood-Layers/KML-Output/Flood/Flood_025.kml</href>
                <refreshMode>onChange</refreshMode>
            </Link>
        </NetworkLink>
        <NetworkLink id="52">
            <name>Flood_026</name>
            <Link id="53">
                <href>https://raw.githubusercontent.com/robmohammedmahid-stack/Horry-County-Data/Flood-Layers/KML-Output/Flood/Flood_026.kml</href>
                <refreshMode>onChange</refreshMode>
            </Link>
        </NetworkLink>
        <NetworkLink id="54">
            <name>Flood_027</name>
            <Link id="55">
                <href>https://raw.githubusercontent.com/robmohammedmahid-stack/Horry-County-Data/Flood-Layers/KML-Output/Flood/Flood_027.kml</href>
                <refreshMode>onChange</refreshMode>
            </Link>
        </NetworkLink>
        <NetworkLink id="56">
            <name>Flood_028</name>
            <Link id="57">
                <href>https://raw.githubusercontent.com/robmohammedmahid-stack/Horry-County-Data/Flood-Layers/KML-Output/Flood/Flood_028.kml</href>
                <refreshMode>onChange</refreshMode>
            </Link>
        </NetworkLink>
        <NetworkLink id="58">
            <name>Flood_029</name>
            <Link id="59">
                <href>https://raw.githubusercontent.com/robmohammedmahid-stack/Horry-County-Data/Flood-Layers/KML-Output/Flood/Flood_029.kml</href>
                <refreshMode>onChange</refreshMode>
            </Link>
        </NetworkLink>
        <NetworkLink id="60">
            <name>Flood_030</name>
            <Link id="61">
                <href>https://raw.githubusercontent.com/robmohammedmahid-stack/Horry-County-Data/Flood-Layers/KML-Output/Flood/Flood_030.kml</href>
                <refreshMode>onChange</refreshMode>
            </Link>
        </NetworkLink>
        <NetworkLink id="62">
            <name>Flood_031</name>
            <Link id="63">
                <href>https://raw.githubusercontent.com/robmohammedmahid-stack/Horry-County-Data/Flood-Layers/KML-Output/Flood/Flood_031.kml</href>
                <refreshMode>onChange</refreshMode>
            </Link>
        </NetworkLink>
        <NetworkLink id="64">
            <name>Flood_032</name>
            <Link id="65">
                <href>https://raw.githubusercontent.com/robmohammedmahid-stack/Horry-County-Data/Flood-Layers/KML-Output/Flood/Flood_032.kml</href>
                <refreshMode>onChange</refreshMode>
            </Link>
        </NetworkLink>
        <NetworkLink id="66">
            <name>Flood_033</name>
            <Link id="67">
                <href>https://raw.githubusercontent.com/robmohammedmahid-stack/Horry-County-Data/Flood-Layers/KML-Output/Flood/Flood_033.kml</href>
                <refreshMode>onChange</refreshMode>
            </Link>
        </NetworkLink>
        <NetworkLink id="68">
            <name>Flood_034</name>
            <Link id="69">
                <href>https://raw.githubusercontent.com/robmohammedmahid-stack/Horry-County-Data/Flood-Layers/KML-Output/Flood/Flood_034.kml</href>
                <refreshMode>onChange</refreshMode>
            </Link>
        </NetworkLink>
        <NetworkLink id="70">
            <name>Flood_035</name>
            <Link id="71">
                <href>https://raw.githubusercontent.com/robmohammedmahid-stack/Horry-County-Data/Flood-Layers/KML-Output/Flood/Flood_035.kml</href>
                <refreshMode>onChange</refreshMode>
            </Link>
        </NetworkLink>
        <NetworkLink id="72">
            <name>Flood_036</name>
            <Link id="73">
                <href>https://raw.githubusercontent.com/robmohammedmahid-stack/Horry-County-Data/Flood-Layers/KML-Output/Flood/Flood_036.kml</href>
                <refreshMode>onChange</refreshMode>
            </Link>
        </NetworkLink>
        <NetworkLink id="74">
            <name>Flood_037</name>
            <Link id="75">
                <href>https://raw.githubusercontent.com/robmohammedmahid-stack/Horry-County-Data/Flood-Layers/KML-Output/Flood/Flood_037.kml</href>
                <refreshMode>onChange</refreshMode>
            </Link>
        </NetworkLink>
        <NetworkLink id="76">
            <name>Flood_038</name>
            <Link id="77">
                <href>https://raw.githubusercontent.com/robmohammedmahid-stack/Horry-County-Data/Flood-Layers/KML-Output/Flood/Flood_038.kml</href>
                <refreshMode>onChange</refreshMode>
            </Link>
        </NetworkLink>
        <NetworkLink id="78">
            <name>Flood_039</name>
            <Link id="79">
                <href>https://raw.githubusercontent.com/robmohammedmahid-stack/Horry-County-Data/Flood-Layers/KML-Output/Flood/Flood_039.kml</href>
                <refreshMode>onChange</refreshMode>
            </Link>
        </NetworkLink>
        <NetworkLink id="80">
            <name>Flood_040</name>
            <Link id="81">
                <href>https://raw.githubusercontent.com/robmohammedmahid-stack/Horry-County-Data/Flood-Layers/KML-Output/Flood/Flood_040.kml</href>
                <refreshMode>onChange</refreshMode>
            </Link>
        </NetworkLink>
        <NetworkLink id="82">
            <name>Flood_041</name>
            <Link id="83">
                <href>https://raw.githubusercontent.com/robmohammedmahid-stack/Horry-County-Data/Flood-Layers/KML-Output/Flood/Flood_041.kml</href>
                <refreshMode>onChange</refreshMode>
            </Link>
        </NetworkLink>
        <NetworkLink id="84">
            <name>Flood_042</name>
            <Link id="85">
                <href>https://raw.githubusercontent.com/robmohammedmahid-stack/Horry-County-Data/Flood-Layers/KML-Output/Flood/Flood_042.kml</href>
                <refreshMode>onChange</refreshMode>
            </Link>
        </NetworkLink>
        <NetworkLink id="86">
            <name>Flood_043</name>
            <Link id="87">
                <href>https://raw.githubusercontent.com/robmohammedmahid-stack/Horry-County-Data/Flood-Layers/KML-Output/Flood/Flood_043.kml</href>
                <refreshMode>onChange</refreshMode>
            </Link>
        </NetworkLink>
        <NetworkLink id="88">
            <name>Flood_044</name>
            <Link id="89">
                <href>https://raw.githubusercontent.com/robmohammedmahid-stack/Horry-County-Data/Flood-Layers/KML-Output/Flood/Flood_044.kml</href>
                <refreshMode>onChange</refreshMode>
            </Link>
        </NetworkLink>
        <NetworkLink id="90">
            <name>Flood_045</name>
            <Link id="91">
                <href>https://raw.githubusercontent.com/robmohammedmahid-stack/Horry-County-Data/Flood-Layers/KML-Output/Flood/Flood_045.kml</href>
                <refreshMode>onChange</refreshMode>
            </Link>
        </NetworkLink>
        <NetworkLink id="92">
            <name>Flood_046</name>
            <Link id="93">
                <href>https://raw.githubusercontent.com/robmohammedmahid-stack/Horry-County-Data/Flood-Layers/KML-Output/Flood/Flood_046.kml</href>
                <refreshMode>onChange</refreshMode>
            </Link>
        </NetworkLink>
        <NetworkLink id="94">
            <name>Flood_047</name>
            <Link id="95">
                <href>https://raw.githubusercontent.com/robmohammedmahid-stack/Horry-County-Data/Flood-Layers/KML-Output/Flood/Flood_047.kml</href>
                <refreshMode>onChange</refreshMode>
            </Link>
        </NetworkLink>
        <NetworkLink id="96">
            <name>Flood_048</name>
            <Link id="97">
                <href>https://raw.githubusercontent.com/robmohammedmahid-stack/Horry-County-Data/Flood-Layers/KML-Output/Flood/Flood_048.kml</href>
                <refreshMode>onChange</refreshMode>
            </Link>
        </NetworkLink>
        <NetworkLink id="98">
            <name>Flood_049</name>
            <Link id="99">
                <href>https://raw.githubusercontent.com/robmohammedmahid-stack/Horry-County-Data/Flood-Layers/KML-Output/Flood/Flood_049.kml</href>
                <refreshMode>onChange</refreshMode>
            </Link>
        </NetworkLink>
        <NetworkLink id="100">
            <name>Flood_050</name>
            <Link id="101">
                <href>https://raw.githubusercontent.com/robmohammedmahid-stack/Horry-County-Data/Flood-Layers/KML-Output/Flood/Flood_050.kml</href>
                <refreshMode>onChange</refreshMode>
            </Link>
        </NetworkLink>
    </Document>
</kml>
