<?xml version="1.0" encoding="UTF-8"?>
<kml xmlns="http://www.opengis.net/kml/2.2" xmlns:gx="http://www.google.com/kml/ext/2.2">
    <Document id="1287">
        <NetworkLink id="1288">
            <name>Parcel_0001</name>
            <Link id="1289">
                <href>https://raw.githubusercontent.com/robmohammedmahid-stack/Horry-County-Data/Parcels/KML-Output/Parcels/Set_001/Parcel_0001.kml</href>
                <refreshMode>onChange</refreshMode>
            </Link>
        </NetworkLink>
        <NetworkLink id="1290">
            <name>Parcel_0002</name>
            <Link id="1291">
                <href>https://raw.githubusercontent.com/robmohammedmahid-stack/Horry-County-Data/Parcels/KML-Output/Parcels/Set_001/Parcel_0002.kml</href>
                <refreshMode>onChange</refreshMode>
            </Link>
        </NetworkLink>
        <NetworkLink id="1292">
            <name>Parcel_0003</name>
            <Link id="1293">
                <href>https://raw.githubusercontent.com/robmohammedmahid-stack/Horry-County-Data/Parcels/KML-Output/Parcels/Set_001/Parcel_0003.kml</href>
                <refreshMode>onChange</refreshMode>
            </Link>
        </NetworkLink>
        <NetworkLink id="1294">
            <name>Parcel_0004</name>
            <Link id="1295">
                <href>https://raw.githubusercontent.com/robmohammedmahid-stack/Horry-County-Data/Parcels/KML-Output/Parcels/Set_001/Parcel_0004.kml</href>
                <refreshMode>onChange</refreshMode>
            </Link>
        </NetworkLink>
        <NetworkLink id="1296">
            <name>Parcel_0005</name>
            <Link id="1297">
                <href>https://raw.githubusercontent.com/robmohammedmahid-stack/Horry-County-Data/Parcels/KML-Output/Parcels/Set_001/Parcel_0005.kml</href>
                <refreshMode>onChange</refreshMode>
            </Link>
        </NetworkLink>
        <NetworkLink id="1298">
            <name>Parcel_0006</name>
            <Link id="1299">
                <href>https://raw.githubusercontent.com/robmohammedmahid-stack/Horry-County-Data/Parcels/KML-Output/Parcels/Set_001/Parcel_0006.kml</href>
                <refreshMode>onChange</refreshMode>
            </Link>
        </NetworkLink>
        <NetworkLink id="1300">
            <name>Parcel_0007</name>
            <Link id="1301">
                <href>https://raw.githubusercontent.com/robmohammedmahid-stack/Horry-County-Data/Parcels/KML-Output/Parcels/Set_001/Parcel_0007.kml</href>
                <refreshMode>onChange</refreshMode>
            </Link>
        </NetworkLink>
        <NetworkLink id="1302">
            <name>Parcel_0008</name>
            <Link id="1303">
                <href>https://raw.githubusercontent.com/robmohammedmahid-stack/Horry-County-Data/Parcels/KML-Output/Parcels/Set_001/Parcel_0008.kml</href>
                <refreshMode>onChange</refreshMode>
            </Link>
        </NetworkLink>
        <NetworkLink id="1304">
            <name>Parcel_0009</name>
            <Link id="1305">
                <href>https://raw.githubusercontent.com/robmohammedmahid-stack/Horry-County-Data/Parcels/KML-Output/Parcels/Set_001/Parcel_0009.kml</href>
                <refreshMode>onChange</refreshMode>
            </Link>
        </NetworkLink>
        <NetworkLink id="1306">
            <name>Parcel_0010</name>
            <Link id="1307">
                <href>https://raw.githubusercontent.com/robmohammedmahid-stack/Horry-County-Data/Parcels/KML-Output/Parcels/Set_001/Parcel_0010.kml</href>
                <refreshMode>onChange</refreshMode>
            </Link>
        </NetworkLink>
        <NetworkLink id="1308">
            <name>Parcel_0011</name>
            <Link id="1309">
                <href>https://raw.githubusercontent.com/robmohammedmahid-stack/Horry-County-Data/Parcels/KML-Output/Parcels/Set_001/Parcel_0011.kml</href>
                <refreshMode>onChange</refreshMode>
            </Link>
        </NetworkLink>
        <NetworkLink id="1310">
            <name>Parcel_0012</name>
            <Link id="1311">
                <href>https://raw.githubusercontent.com/robmohammedmahid-stack/Horry-County-Data/Parcels/KML-Output/Parcels/Set_001/Parcel_0012.kml</href>
                <refreshMode>onChange</refreshMode>
            </Link>
        </NetworkLink>
        <NetworkLink id="1312">
            <name>Parcel_0013</name>
            <Link id="1313">
                <href>https://raw.githubusercontent.com/robmohammedmahid-stack/Horry-County-Data/Parcels/KML-Output/Parcels/Set_001/Parcel_0013.kml</href>
                <refreshMode>onChange</refreshMode>
            </Link>
        </NetworkLink>
        <NetworkLink id="1314">
            <name>Parcel_0014</name>
            <Link id="1315">
                <href>https://raw.githubusercontent.com/robmohammedmahid-stack/Horry-County-Data/Parcels/KML-Output/Parcels/Set_001/Parcel_0014.kml</href>
                <refreshMode>onChange</refreshMode>
            </Link>
        </NetworkLink>
        <NetworkLink id="1316">
            <name>Parcel_0015</name>
            <Link id="1317">
                <href>https://raw.githubusercontent.com/robmohammedmahid-stack/Horry-County-Data/Parcels/KML-Output/Parcels/Set_001/Parcel_0015.kml</href>
                <refreshMode>onChange</refreshMode>
            </Link>
        </NetworkLink>
        <NetworkLink id="1318">
            <name>Parcel_0016</name>
            <Link id="1319">
                <href>https://raw.githubusercontent.com/robmohammedmahid-stack/Horry-County-Data/Parcels/KML-Output/Parcels/Set_001/Parcel_0016.kml</href>
                <refreshMode>onChange</refreshMode>
            </Link>
        </NetworkLink>
        <NetworkLink id="1320">
            <name>Parcel_0017</name>
            <Link id="1321">
                <href>https://raw.githubusercontent.com/robmohammedmahid-stack/Horry-County-Data/Parcels/KML-Output/Parcels/Set_001/Parcel_0017.kml</href>
                <refreshMode>onChange</refreshMode>
            </Link>
        </NetworkLink>
        <NetworkLink id="1322">
            <name>Parcel_0018</name>
            <Link id="1323">
                <href>https://raw.githubusercontent.com/robmohammedmahid-stack/Horry-County-Data/Parcels/KML-Output/Parcels/Set_001/Parcel_0018.kml</href>
                <refreshMode>onChange</refreshMode>
            </Link>
        </NetworkLink>
        <NetworkLink id="1324">
            <name>Parcel_0019</name>
            <Link id="1325">
                <href>https://raw.githubusercontent.com/robmohammedmahid-stack/Horry-County-Data/Parcels/KML-Output/Parcels/Set_001/Parcel_0019.kml</href>
                <refreshMode>onChange</refreshMode>
            </Link>
        </NetworkLink>
        <NetworkLink id="1326">
            <name>Parcel_0020</name>
            <Link id="1327">
                <href>https://raw.githubusercontent.com/robmohammedmahid-stack/Horry-County-Data/Parcels/KML-Output/Parcels/Set_001/Parcel_0020.kml</href>
                <refreshMode>onChange</refreshMode>
            </Link>
        </NetworkLink>
        <NetworkLink id="1328">
            <name>Parcel_0021</name>
            <Link id="1329">
                <href>https://raw.githubusercontent.com/robmohammedmahid-stack/Horry-County-Data/Parcels/KML-Output/Parcels/Set_001/Parcel_0021.kml</href>
                <refreshMode>onChange</refreshMode>
            </Link>
        </NetworkLink>
        <NetworkLink id="1330">
            <name>Parcel_0022</name>
            <Link id="1331">
                <href>https://raw.githubusercontent.com/robmohammedmahid-stack/Horry-County-Data/Parcels/KML-Output/Parcels/Set_001/Parcel_0022.kml</href>
                <refreshMode>onChange</refreshMode>
            </Link>
        </NetworkLink>
        <NetworkLink id="1332">
            <name>Parcel_0023</name>
            <Link id="1333">
                <href>https://raw.githubusercontent.com/robmohammedmahid-stack/Horry-County-Data/Parcels/KML-Output/Parcels/Set_001/Parcel_0023.kml</href>
                <refreshMode>onChange</refreshMode>
            </Link>
        </NetworkLink>
        <NetworkLink id="1334">
            <name>Parcel_0024</name>
            <Link id="1335">
                <href>https://raw.githubusercontent.com/robmohammedmahid-stack/Horry-County-Data/Parcels/KML-Output/Parcels/Set_001/Parcel_0024.kml</href>
                <refreshMode>onChange</refreshMode>
            </Link>
        </NetworkLink>
        <NetworkLink id="1336">
            <name>Parcel_0025</name>
            <Link id="1337">
                <href>https://raw.githubusercontent.com/robmohammedmahid-stack/Horry-County-Data/Parcels/KML-Output/Parcels/Set_001/Parcel_0025.kml</href>
                <refreshMode>onChange</refreshMode>
            </Link>
        </NetworkLink>
        <NetworkLink id="1338">
            <name>Parcel_0026</name>
            <Link id="1339">
                <href>https://raw.githubusercontent.com/robmohammedmahid-stack/Horry-County-Data/Parcels/KML-Output/Parcels/Set_001/Parcel_0026.kml</href>
                <refreshMode>onChange</refreshMode>
            </Link>
        </NetworkLink>
        <NetworkLink id="1340">
            <name>Parcel_0027</name>
            <Link id="1341">
                <href>https://raw.githubusercontent.com/robmohammedmahid-stack/Horry-County-Data/Parcels/KML-Output/Parcels/Set_001/Parcel_0027.kml</href>
                <refreshMode>onChange</refreshMode>
            </Link>
        </NetworkLink>
        <NetworkLink id="1342">
            <name>Parcel_0028</name>
            <Link id="1343">
                <href>https://raw.githubusercontent.com/robmohammedmahid-stack/Horry-County-Data/Parcels/KML-Output/Parcels/Set_001/Parcel_0028.kml</href>
                <refreshMode>onChange</refreshMode>
            </Link>
        </NetworkLink>
        <NetworkLink id="1344">
            <name>Parcel_0029</name>
            <Link id="1345">
                <href>https://raw.githubusercontent.com/robmohammedmahid-stack/Horry-County-Data/Parcels/KML-Output/Parcels/Set_001/Parcel_0029.kml</href>
                <refreshMode>onChange</refreshMode>
            </Link>
        </NetworkLink>
        <NetworkLink id="1346">
            <name>Parcel_0030</name>
            <Link id="1347">
                <href>https://raw.githubusercontent.com/robmohammedmahid-stack/Horry-County-Data/Parcels/KML-Output/Parcels/Set_001/Parcel_0030.kml</href>
                <refreshMode>onChange</refreshMode>
            </Link>
        </NetworkLink>
        <NetworkLink id="1348">
            <name>Parcel_0031</name>
            <Link id="1349">
                <href>https://raw.githubusercontent.com/robmohammedmahid-stack/Horry-County-Data/Parcels/KML-Output/Parcels/Set_001/Parcel_0031.kml</href>
                <refreshMode>onChange</refreshMode>
            </Link>
        </NetworkLink>
        <NetworkLink id="1350">
            <name>Parcel_0032</name>
            <Link id="1351">
                <href>https://raw.githubusercontent.com/robmohammedmahid-stack/Horry-County-Data/Parcels/KML-Output/Parcels/Set_001/Parcel_0032.kml</href>
                <refreshMode>onChange</refreshMode>
            </Link>
        </NetworkLink>
        <NetworkLink id="1352">
            <name>Parcel_0033</name>
            <Link id="1353">
                <href>https://raw.githubusercontent.com/robmohammedmahid-stack/Horry-County-Data/Parcels/KML-Output/Parcels/Set_001/Parcel_0033.kml</href>
                <refreshMode>onChange</refreshMode>
            </Link>
        </NetworkLink>
        <NetworkLink id="1354">
            <name>Parcel_0034</name>
            <Link id="1355">
                <href>https://raw.githubusercontent.com/robmohammedmahid-stack/Horry-County-Data/Parcels/KML-Output/Parcels/Set_001/Parcel_0034.kml</href>
                <refreshMode>onChange</refreshMode>
            </Link>
        </NetworkLink>
        <NetworkLink id="1356">
            <name>Parcel_0035</name>
            <Link id="1357">
                <href>https://raw.githubusercontent.com/robmohammedmahid-stack/Horry-County-Data/Parcels/KML-Output/Parcels/Set_001/Parcel_0035.kml</href>
                <refreshMode>onChange</refreshMode>
            </Link>
        </NetworkLink>
        <NetworkLink id="1358">
            <name>Parcel_0036</name>
            <Link id="1359">
                <href>https://raw.githubusercontent.com/robmohammedmahid-stack/Horry-County-Data/Parcels/KML-Output/Parcels/Set_001/Parcel_0036.kml</href>
                <refreshMode>onChange</refreshMode>
            </Link>
        </NetworkLink>
        <NetworkLink id="1360">
            <name>Parcel_0037</name>
            <Link id="1361">
                <href>https://raw.githubusercontent.com/robmohammedmahid-stack/Horry-County-Data/Parcels/KML-Output/Parcels/Set_001/Parcel_0037.kml</href>
                <refreshMode>onChange</refreshMode>
            </Link>
        </NetworkLink>
        <NetworkLink id="1362">
            <name>Parcel_0038</name>
            <Link id="1363">
                <href>https://raw.githubusercontent.com/robmohammedmahid-stack/Horry-County-Data/Parcels/KML-Output/Parcels/Set_001/Parcel_0038.kml</href>
                <refreshMode>onChange</refreshMode>
            </Link>
        </NetworkLink>
        <NetworkLink id="1364">
            <name>Parcel_0039</name>
            <Link id="1365">
                <href>https://raw.githubusercontent.com/robmohammedmahid-stack/Horry-County-Data/Parcels/KML-Output/Parcels/Set_001/Parcel_0039.kml</href>
                <refreshMode>onChange</refreshMode>
            </Link>
        </NetworkLink>
        <NetworkLink id="1366">
            <name>Parcel_0040</name>
            <Link id="1367">
                <href>https://raw.githubusercontent.com/robmohammedmahid-stack/Horry-County-Data/Parcels/KML-Output/Parcels/Set_001/Parcel_0040.kml</href>
                <refreshMode>onChange</refreshMode>
            </Link>
        </NetworkLink>
        <NetworkLink id="1368">
            <name>Parcel_0041</name>
            <Link id="1369">
                <href>https://raw.githubusercontent.com/robmohammedmahid-stack/Horry-County-Data/Parcels/KML-Output/Parcels/Set_001/Parcel_0041.kml</href>
                <refreshMode>onChange</refreshMode>
            </Link>
        </NetworkLink>
        <NetworkLink id="1370">
            <name>Parcel_0042</name>
            <Link id="1371">
                <href>https://raw.githubusercontent.com/robmohammedmahid-stack/Horry-County-Data/Parcels/KML-Output/Parcels/Set_001/Parcel_0042.kml</href>
                <refreshMode>onChange</refreshMode>
            </Link>
        </NetworkLink>
        <NetworkLink id="1372">
            <name>Parcel_0043</name>
            <Link id="1373">
                <href>https://raw.githubusercontent.com/robmohammedmahid-stack/Horry-County-Data/Parcels/KML-Output/Parcels/Set_001/Parcel_0043.kml</href>
                <refreshMode>onChange</refreshMode>
            </Link>
        </NetworkLink>
        <NetworkLink id="1374">
            <name>Parcel_0044</name>
            <Link id="1375">
                <href>https://raw.githubusercontent.com/robmohammedmahid-stack/Horry-County-Data/Parcels/KML-Output/Parcels/Set_001/Parcel_0044.kml</href>
                <refreshMode>onChange</refreshMode>
            </Link>
        </NetworkLink>
        <NetworkLink id="1376">
            <name>Parcel_0045</name>
            <Link id="1377">
                <href>https://raw.githubusercontent.com/robmohammedmahid-stack/Horry-County-Data/Parcels/KML-Output/Parcels/Set_001/Parcel_0045.kml</href>
                <refreshMode>onChange</refreshMode>
            </Link>
        </NetworkLink>
        <NetworkLink id="1378">
            <name>Parcel_0046</name>
            <Link id="1379">
                <href>https://raw.githubusercontent.com/robmohammedmahid-stack/Horry-County-Data/Parcels/KML-Output/Parcels/Set_001/Parcel_0046.kml</href>
                <refreshMode>onChange</refreshMode>
            </Link>
        </NetworkLink>
        <NetworkLink id="1380">
            <name>Parcel_0047</name>
            <Link id="1381">
                <href>https://raw.githubusercontent.com/robmohammedmahid-stack/Horry-County-Data/Parcels/KML-Output/Parcels/Set_001/Parcel_0047.kml</href>
                <refreshMode>onChange</refreshMode>
            </Link>
        </NetworkLink>
        <NetworkLink id="1382">
            <name>Parcel_0048</name>
            <Link id="1383">
                <href>https://raw.githubusercontent.com/robmohammedmahid-stack/Horry-County-Data/Parcels/KML-Output/Parcels/Set_001/Parcel_0048.kml</href>
                <refreshMode>onChange</refreshMode>
            </Link>
        </NetworkLink>
        <NetworkLink id="1384">
            <name>Parcel_0049</name>
            <Link id="1385">
                <href>https://raw.githubusercontent.com/robmohammedmahid-stack/Horry-County-Data/Parcels/KML-Output/Parcels/Set_001/Parcel_0049.kml</href>
                <refreshMode>onChange</refreshMode>
            </Link>
        </NetworkLink>
        <NetworkLink id="1386">
            <name>Parcel_0050</name>
            <Link id="1387">
                <href>https://raw.githubusercontent.com/robmohammedmahid-stack/Horry-County-Data/Parcels/KML-Output/Parcels/Set_001/Parcel_0050.kml</href>
                <refreshMode>onChange</refreshMode>
            </Link>
        </NetworkLink>
        <NetworkLink id="1388">
            <name>Parcel_0051</name>
            <Link id="1389">
                <href>https://raw.githubusercontent.com/robmohammedmahid-stack/Horry-County-Data/Parcels/KML-Output/Parcels/Set_001/Parcel_0051.kml</href>
                <refreshMode>onChange</refreshMode>
            </Link>
        </NetworkLink>
        <NetworkLink id="1390">
            <name>Parcel_0052</name>
            <Link id="1391">
                <href>https://raw.githubusercontent.com/robmohammedmahid-stack/Horry-County-Data/Parcels/KML-Output/Parcels/Set_001/Parcel_0052.kml</href>
                <refreshMode>onChange</refreshMode>
            </Link>
        </NetworkLink>
        <NetworkLink id="1392">
            <name>Parcel_0053</name>
            <Link id="1393">
                <href>https://raw.githubusercontent.com/robmohammedmahid-stack/Horry-County-Data/Parcels/KML-Output/Parcels/Set_001/Parcel_0053.kml</href>
                <refreshMode>onChange</refreshMode>
            </Link>
        </NetworkLink>
        <NetworkLink id="1394">
            <name>Parcel_0054</name>
            <Link id="1395">
                <href>https://raw.githubusercontent.com/robmohammedmahid-stack/Horry-County-Data/Parcels/KML-Output/Parcels/Set_001/Parcel_0054.kml</href>
                <refreshMode>onChange</refreshMode>
            </Link>
        </NetworkLink>
        <NetworkLink id="1396">
            <name>Parcel_0055</name>
            <Link id="1397">
                <href>https://raw.githubusercontent.com/robmohammedmahid-stack/Horry-County-Data/Parcels/KML-Output/Parcels/Set_001/Parcel_0055.kml</href>
                <refreshMode>onChange</refreshMode>
            </Link>
        </NetworkLink>
        <NetworkLink id="1398">
            <name>Parcel_0056</name>
            <Link id="1399">
                <href>https://raw.githubusercontent.com/robmohammedmahid-stack/Horry-County-Data/Parcels/KML-Output/Parcels/Set_001/Parcel_0056.kml</href>
                <refreshMode>onChange</refreshMode>
            </Link>
        </NetworkLink>
        <NetworkLink id="1400">
            <name>Parcel_0057</name>
            <Link id="1401">
                <href>https://raw.githubusercontent.com/robmohammedmahid-stack/Horry-County-Data/Parcels/KML-Output/Parcels/Set_001/Parcel_0057.kml</href>
                <refreshMode>onChange</refreshMode>
            </Link>
        </NetworkLink>
        <NetworkLink id="1402">
            <name>Parcel_0058</name>
            <Link id="1403">
                <href>https://raw.githubusercontent.com/robmohammedmahid-stack/Horry-County-Data/Parcels/KML-Output/Parcels/Set_001/Parcel_0058.kml</href>
                <refreshMode>onChange</refreshMode>
            </Link>
        </NetworkLink>
        <NetworkLink id="1404">
            <name>Parcel_0059</name>
            <Link id="1405">
                <href>https://raw.githubusercontent.com/robmohammedmahid-stack/Horry-County-Data/Parcels/KML-Output/Parcels/Set_001/Parcel_0059.kml</href>
                <refreshMode>onChange</refreshMode>
            </Link>
        </NetworkLink>
        <NetworkLink id="1406">
            <name>Parcel_0060</name>
            <Link id="1407">
                <href>https://raw.githubusercontent.com/robmohammedmahid-stack/Horry-County-Data/Parcels/KML-Output/Parcels/Set_001/Parcel_0060.kml</href>
                <refreshMode>onChange</refreshMode>
            </Link>
        </NetworkLink>
        <NetworkLink id="1408">
            <name>Parcel_0061</name>
            <Link id="1409">
                <href>https://raw.githubusercontent.com/robmohammedmahid-stack/Horry-County-Data/Parcels/KML-Output/Parcels/Set_001/Parcel_0061.kml</href>
                <refreshMode>onChange</refreshMode>
            </Link>
        </NetworkLink>
        <NetworkLink id="1410">
            <name>Parcel_0062</name>
            <Link id="1411">
                <href>https://raw.githubusercontent.com/robmohammedmahid-stack/Horry-County-Data/Parcels/KML-Output/Parcels/Set_001/Parcel_0062.kml</href>
                <refreshMode>onChange</refreshMode>
            </Link>
        </NetworkLink>
        <NetworkLink id="1412">
            <name>Parcel_0063</name>
            <Link id="1413">
                <href>https://raw.githubusercontent.com/robmohammedmahid-stack/Horry-County-Data/Parcels/KML-Output/Parcels/Set_001/Parcel_0063.kml</href>
                <refreshMode>onChange</refreshMode>
            </Link>
        </NetworkLink>
        <NetworkLink id="1414">
            <name>Parcel_0064</name>
            <Link id="1415">
                <href>https://raw.githubusercontent.com/robmohammedmahid-stack/Horry-County-Data/Parcels/KML-Output/Parcels/Set_001/Parcel_0064.kml</href>
                <refreshMode>onChange</refreshMode>
            </Link>
        </NetworkLink>
        <NetworkLink id="1416">
            <name>Parcel_0065</name>
            <Link id="1417">
                <href>https://raw.githubusercontent.com/robmohammedmahid-stack/Horry-County-Data/Parcels/KML-Output/Parcels/Set_001/Parcel_0065.kml</href>
                <refreshMode>onChange</refreshMode>
            </Link>
        </NetworkLink>
        <NetworkLink id="1418">
            <name>Parcel_0066</name>
            <Link id="1419">
                <href>https://raw.githubusercontent.com/robmohammedmahid-stack/Horry-County-Data/Parcels/KML-Output/Parcels/Set_001/Parcel_0066.kml</href>
                <refreshMode>onChange</refreshMode>
            </Link>
        </NetworkLink>
        <NetworkLink id="1420">
            <name>Parcel_0067</name>
            <Link id="1421">
                <href>https://raw.githubusercontent.com/robmohammedmahid-stack/Horry-County-Data/Parcels/KML-Output/Parcels/Set_001/Parcel_0067.kml</href>
                <refreshMode>onChange</refreshMode>
            </Link>
        </NetworkLink>
        <NetworkLink id="1422">
            <name>Parcel_0068</name>
            <Link id="1423">
                <href>https://raw.githubusercontent.com/robmohammedmahid-stack/Horry-County-Data/Parcels/KML-Output/Parcels/Set_001/Parcel_0068.kml</href>
                <refreshMode>onChange</refreshMode>
            </Link>
        </NetworkLink>
        <NetworkLink id="1424">
            <name>Parcel_0069</name>
            <Link id="1425">
                <href>https://raw.githubusercontent.com/robmohammedmahid-stack/Horry-County-Data/Parcels/KML-Output/Parcels/Set_001/Parcel_0069.kml</href>
                <refreshMode>onChange</refreshMode>
            </Link>
        </NetworkLink>
        <NetworkLink id="1426">
            <name>Parcel_0070</name>
            <Link id="1427">
                <href>https://raw.githubusercontent.com/robmohammedmahid-stack/Horry-County-Data/Parcels/KML-Output/Parcels/Set_001/Parcel_0070.kml</href>
                <refreshMode>onChange</refreshMode>
            </Link>
        </NetworkLink>
        <NetworkLink id="1428">
            <name>Parcel_0071</name>
            <Link id="1429">
                <href>https://raw.githubusercontent.com/robmohammedmahid-stack/Horry-County-Data/Parcels/KML-Output/Parcels/Set_001/Parcel_0071.kml</href>
                <refreshMode>onChange</refreshMode>
            </Link>
        </NetworkLink>
        <NetworkLink id="1430">
            <name>Parcel_0072</name>
            <Link id="1431">
                <href>https://raw.githubusercontent.com/robmohammedmahid-stack/Horry-County-Data/Parcels/KML-Output/Parcels/Set_001/Parcel_0072.kml</href>
                <refreshMode>onChange</refreshMode>
            </Link>
        </NetworkLink>
        <NetworkLink id="1432">
            <name>Parcel_0073</name>
            <Link id="1433">
                <href>https://raw.githubusercontent.com/robmohammedmahid-stack/Horry-County-Data/Parcels/KML-Output/Parcels/Set_001/Parcel_0073.kml</href>
                <refreshMode>onChange</refreshMode>
            </Link>
        </NetworkLink>
        <NetworkLink id="1434">
            <name>Parcel_0074</name>
            <Link id="1435">
                <href>https://raw.githubusercontent.com/robmohammedmahid-stack/Horry-County-Data/Parcels/KML-Output/Parcels/Set_001/Parcel_0074.kml</href>
                <refreshMode>onChange</refreshMode>
            </Link>
        </NetworkLink>
        <NetworkLink id="1436">
            <name>Parcel_0075</name>
            <Link id="1437">
                <href>https://raw.githubusercontent.com/robmohammedmahid-stack/Horry-County-Data/Parcels/KML-Output/Parcels/Set_001/Parcel_0075.kml</href>
                <refreshMode>onChange</refreshMode>
            </Link>
        </NetworkLink>
        <NetworkLink id="1438">
            <name>Parcel_0076</name>
            <Link id="1439">
                <href>https://raw.githubusercontent.com/robmohammedmahid-stack/Horry-County-Data/Parcels/KML-Output/Parcels/Set_001/Parcel_0076.kml</href>
                <refreshMode>onChange</refreshMode>
            </Link>
        </NetworkLink>
        <NetworkLink id="1440">
            <name>Parcel_0077</name>
            <Link id="1441">
                <href>https://raw.githubusercontent.com/robmohammedmahid-stack/Horry-County-Data/Parcels/KML-Output/Parcels/Set_001/Parcel_0077.kml</href>
                <refreshMode>onChange</refreshMode>
            </Link>
        </NetworkLink>
        <NetworkLink id="1442">
            <name>Parcel_0078</name>
            <Link id="1443">
                <href>https://raw.githubusercontent.com/robmohammedmahid-stack/Horry-County-Data/Parcels/KML-Output/Parcels/Set_001/Parcel_0078.kml</href>
                <refreshMode>onChange</refreshMode>
            </Link>
        </NetworkLink>
        <NetworkLink id="1444">
            <name>Parcel_0079</name>
            <Link id="1445">
                <href>https://raw.githubusercontent.com/robmohammedmahid-stack/Horry-County-Data/Parcels/KML-Output/Parcels/Set_001/Parcel_0079.kml</href>
                <refreshMode>onChange</refreshMode>
            </Link>
        </NetworkLink>
        <NetworkLink id="1446">
            <name>Parcel_0080</name>
            <Link id="1447">
                <href>https://raw.githubusercontent.com/robmohammedmahid-stack/Horry-County-Data/Parcels/KML-Output/Parcels/Set_001/Parcel_0080.kml</href>
                <refreshMode>onChange</refreshMode>
            </Link>
        </NetworkLink>
        <NetworkLink id="1448">
            <name>Parcel_0081</name>
            <Link id="1449">
                <href>https://raw.githubusercontent.com/robmohammedmahid-stack/Horry-County-Data/Parcels/KML-Output/Parcels/Set_001/Parcel_0081.kml</href>
                <refreshMode>onChange</refreshMode>
            </Link>
        </NetworkLink>
        <NetworkLink id="1450">
            <name>Parcel_0082</name>
            <Link id="1451">
                <href>https://raw.githubusercontent.com/robmohammedmahid-stack/Horry-County-Data/Parcels/KML-Output/Parcels/Set_001/Parcel_0082.kml</href>
                <refreshMode>onChange</refreshMode>
            </Link>
        </NetworkLink>
        <NetworkLink id="1452">
            <name>Parcel_0083</name>
            <Link id="1453">
                <href>https://raw.githubusercontent.com/robmohammedmahid-stack/Horry-County-Data/Parcels/KML-Output/Parcels/Set_001/Parcel_0083.kml</href>
                <refreshMode>onChange</refreshMode>
            </Link>
        </NetworkLink>
        <NetworkLink id="1454">
            <name>Parcel_0084</name>
            <Link id="1455">
                <href>https://raw.githubusercontent.com/robmohammedmahid-stack/Horry-County-Data/Parcels/KML-Output/Parcels/Set_001/Parcel_0084.kml</href>
                <refreshMode>onChange</refreshMode>
            </Link>
        </NetworkLink>
        <NetworkLink id="1456">
            <name>Parcel_0085</name>
            <Link id="1457">
                <href>https://raw.githubusercontent.com/robmohammedmahid-stack/Horry-County-Data/Parcels/KML-Output/Parcels/Set_001/Parcel_0085.kml</href>
                <refreshMode>onChange</refreshMode>
            </Link>
        </NetworkLink>
        <NetworkLink id="1458">
            <name>Parcel_0086</name>
            <Link id="1459">
                <href>https://raw.githubusercontent.com/robmohammedmahid-stack/Horry-County-Data/Parcels/KML-Output/Parcels/Set_001/Parcel_0086.kml</href>
                <refreshMode>onChange</refreshMode>
            </Link>
        </NetworkLink>
        <NetworkLink id="1460">
            <name>Parcel_0087</name>
            <Link id="1461">
                <href>https://raw.githubusercontent.com/robmohammedmahid-stack/Horry-County-Data/Parcels/KML-Output/Parcels/Set_001/Parcel_0087.kml</href>
                <refreshMode>onChange</refreshMode>
            </Link>
        </NetworkLink>
        <NetworkLink id="1462">
            <name>Parcel_0088</name>
            <Link id="1463">
                <href>https://raw.githubusercontent.com/robmohammedmahid-stack/Horry-County-Data/Parcels/KML-Output/Parcels/Set_001/Parcel_0088.kml</href>
                <refreshMode>onChange</refreshMode>
            </Link>
        </NetworkLink>
        <NetworkLink id="1464">
            <name>Parcel_0089</name>
            <Link id="1465">
                <href>https://raw.githubusercontent.com/robmohammedmahid-stack/Horry-County-Data/Parcels/KML-Output/Parcels/Set_001/Parcel_0089.kml</href>
                <refreshMode>onChange</refreshMode>
            </Link>
        </NetworkLink>
        <NetworkLink id="1466">
            <name>Parcel_0090</name>
            <Link id="1467">
                <href>https://raw.githubusercontent.com/robmohammedmahid-stack/Horry-County-Data/Parcels/KML-Output/Parcels/Set_001/Parcel_0090.kml</href>
                <refreshMode>onChange</refreshMode>
            </Link>
        </NetworkLink>
        <NetworkLink id="1468">
            <name>Parcel_0091</name>
            <Link id="1469">
                <href>https://raw.githubusercontent.com/robmohammedmahid-stack/Horry-County-Data/Parcels/KML-Output/Parcels/Set_001/Parcel_0091.kml</href>
                <refreshMode>onChange</refreshMode>
            </Link>
        </NetworkLink>
        <NetworkLink id="1470">
            <name>Parcel_0092</name>
            <Link id="1471">
                <href>https://raw.githubusercontent.com/robmohammedmahid-stack/Horry-County-Data/Parcels/KML-Output/Parcels/Set_001/Parcel_0092.kml</href>
                <refreshMode>onChange</refreshMode>
            </Link>
        </NetworkLink>
        <NetworkLink id="1472">
            <name>Parcel_0093</name>
            <Link id="1473">
                <href>https://raw.githubusercontent.com/robmohammedmahid-stack/Horry-County-Data/Parcels/KML-Output/Parcels/Set_001/Parcel_0093.kml</href>
                <refreshMode>onChange</refreshMode>
            </Link>
        </NetworkLink>
        <NetworkLink id="1474">
            <name>Parcel_0094</name>
            <Link id="1475">
                <href>https://raw.githubusercontent.com/robmohammedmahid-stack/Horry-County-Data/Parcels/KML-Output/Parcels/Set_001/Parcel_0094.kml</href>
                <refreshMode>onChange</refreshMode>
            </Link>
        </NetworkLink>
        <NetworkLink id="1476">
            <name>Parcel_0095</name>
            <Link id="1477">
                <href>https://raw.githubusercontent.com/robmohammedmahid-stack/Horry-County-Data/Parcels/KML-Output/Parcels/Set_001/Parcel_0095.kml</href>
                <refreshMode>onChange</refreshMode>
            </Link>
        </NetworkLink>
        <NetworkLink id="1478">
            <name>Parcel_0096</name>
            <Link id="1479">
                <href>https://raw.githubusercontent.com/robmohammedmahid-stack/Horry-County-Data/Parcels/KML-Output/Parcels/Set_001/Parcel_0096.kml</href>
                <refreshMode>onChange</refreshMode>
            </Link>
        </NetworkLink>
        <NetworkLink id="1480">
            <name>Parcel_0097</name>
            <Link id="1481">
                <href>https://raw.githubusercontent.com/robmohammedmahid-stack/Horry-County-Data/Parcels/KML-Output/Parcels/Set_001/Parcel_0097.kml</href>
                <refreshMode>onChange</refreshMode>
            </Link>
        </NetworkLink>
        <NetworkLink id="1482">
            <name>Parcel_0098</name>
            <Link id="1483">
                <href>https://raw.githubusercontent.com/robmohammedmahid-stack/Horry-County-Data/Parcels/KML-Output/Parcels/Set_001/Parcel_0098.kml</href>
                <refreshMode>onChange</refreshMode>
            </Link>
        </NetworkLink>
        <NetworkLink id="1484">
            <name>Parcel_0099</name>
            <Link id="1485">
                <href>https://raw.githubusercontent.com/robmohammedmahid-stack/Horry-County-Data/Parcels/KML-Output/Parcels/Set_001/Parcel_0099.kml</href>
                <refreshMode>onChange</refreshMode>
            </Link>
        </NetworkLink>
        <NetworkLink id="1486">
            <name>Parcel_0100</name>
            <Link id="1487">
                <href>https://raw.githubusercontent.com/robmohammedmahid-stack/Horry-County-Data/Parcels/KML-Output/Parcels/Set_001/Parcel_0100.kml</href>
                <refreshMode>onChange</refreshMode>
            </Link>
        </NetworkLink>
    </Document>
</kml>
