<?xml version="1.0" encoding="UTF-8"?>
<kml xmlns="http://www.opengis.net/kml/2.2" xmlns:gx="http://www.google.com/kml/ext/2.2">
    <Document id="5327">
        <NetworkLink id="5328">
            <name>Parcel_2001</name>
            <Link id="5329">
                <href>https://raw.githubusercontent.com/robmohammedmahid-stack/Horry-County-Data/Parcels/KML-Output/Parcels/Set_021/Parcel_2001.kml</href>
                <refreshMode>onChange</refreshMode>
            </Link>
        </NetworkLink>
        <NetworkLink id="5330">
            <name>Parcel_2002</name>
            <Link id="5331">
                <href>https://raw.githubusercontent.com/robmohammedmahid-stack/Horry-County-Data/Parcels/KML-Output/Parcels/Set_021/Parcel_2002.kml</href>
                <refreshMode>onChange</refreshMode>
            </Link>
        </NetworkLink>
        <NetworkLink id="5332">
            <name>Parcel_2003</name>
            <Link id="5333">
                <href>https://raw.githubusercontent.com/robmohammedmahid-stack/Horry-County-Data/Parcels/KML-Output/Parcels/Set_021/Parcel_2003.kml</href>
                <refreshMode>onChange</refreshMode>
            </Link>
        </NetworkLink>
        <NetworkLink id="5334">
            <name>Parcel_2004</name>
            <Link id="5335">
                <href>https://raw.githubusercontent.com/robmohammedmahid-stack/Horry-County-Data/Parcels/KML-Output/Parcels/Set_021/Parcel_2004.kml</href>
                <refreshMode>onChange</refreshMode>
            </Link>
        </NetworkLink>
        <NetworkLink id="5336">
            <name>Parcel_2005</name>
            <Link id="5337">
                <href>https://raw.githubusercontent.com/robmohammedmahid-stack/Horry-County-Data/Parcels/KML-Output/Parcels/Set_021/Parcel_2005.kml</href>
                <refreshMode>onChange</refreshMode>
            </Link>
        </NetworkLink>
        <NetworkLink id="5338">
            <name>Parcel_2006</name>
            <Link id="5339">
                <href>https://raw.githubusercontent.com/robmohammedmahid-stack/Horry-County-Data/Parcels/KML-Output/Parcels/Set_021/Parcel_2006.kml</href>
                <refreshMode>onChange</refreshMode>
            </Link>
        </NetworkLink>
        <NetworkLink id="5340">
            <name>Parcel_2007</name>
            <Link id="5341">
                <href>https://raw.githubusercontent.com/robmohammedmahid-stack/Horry-County-Data/Parcels/KML-Output/Parcels/Set_021/Parcel_2007.kml</href>
                <refreshMode>onChange</refreshMode>
            </Link>
        </NetworkLink>
        <NetworkLink id="5342">
            <name>Parcel_2008</name>
            <Link id="5343">
                <href>https://raw.githubusercontent.com/robmohammedmahid-stack/Horry-County-Data/Parcels/KML-Output/Parcels/Set_021/Parcel_2008.kml</href>
                <refreshMode>onChange</refreshMode>
            </Link>
        </NetworkLink>
        <NetworkLink id="5344">
            <name>Parcel_2009</name>
            <Link id="5345">
                <href>https://raw.githubusercontent.com/robmohammedmahid-stack/Horry-County-Data/Parcels/KML-Output/Parcels/Set_021/Parcel_2009.kml</href>
                <refreshMode>onChange</refreshMode>
            </Link>
        </NetworkLink>
        <NetworkLink id="5346">
            <name>Parcel_2010</name>
            <Link id="5347">
                <href>https://raw.githubusercontent.com/robmohammedmahid-stack/Horry-County-Data/Parcels/KML-Output/Parcels/Set_021/Parcel_2010.kml</href>
                <refreshMode>onChange</refreshMode>
            </Link>
        </NetworkLink>
        <NetworkLink id="5348">
            <name>Parcel_2011</name>
            <Link id="5349">
                <href>https://raw.githubusercontent.com/robmohammedmahid-stack/Horry-County-Data/Parcels/KML-Output/Parcels/Set_021/Parcel_2011.kml</href>
                <refreshMode>onChange</refreshMode>
            </Link>
        </NetworkLink>
        <NetworkLink id="5350">
            <name>Parcel_2012</name>
            <Link id="5351">
                <href>https://raw.githubusercontent.com/robmohammedmahid-stack/Horry-County-Data/Parcels/KML-Output/Parcels/Set_021/Parcel_2012.kml</href>
                <refreshMode>onChange</refreshMode>
            </Link>
        </NetworkLink>
        <NetworkLink id="5352">
            <name>Parcel_2013</name>
            <Link id="5353">
                <href>https://raw.githubusercontent.com/robmohammedmahid-stack/Horry-County-Data/Parcels/KML-Output/Parcels/Set_021/Parcel_2013.kml</href>
                <refreshMode>onChange</refreshMode>
            </Link>
        </NetworkLink>
        <NetworkLink id="5354">
            <name>Parcel_2014</name>
            <Link id="5355">
                <href>https://raw.githubusercontent.com/robmohammedmahid-stack/Horry-County-Data/Parcels/KML-Output/Parcels/Set_021/Parcel_2014.kml</href>
                <refreshMode>onChange</refreshMode>
            </Link>
        </NetworkLink>
        <NetworkLink id="5356">
            <name>Parcel_2015</name>
            <Link id="5357">
                <href>https://raw.githubusercontent.com/robmohammedmahid-stack/Horry-County-Data/Parcels/KML-Output/Parcels/Set_021/Parcel_2015.kml</href>
                <refreshMode>onChange</refreshMode>
            </Link>
        </NetworkLink>
        <NetworkLink id="5358">
            <name>Parcel_2016</name>
            <Link id="5359">
                <href>https://raw.githubusercontent.com/robmohammedmahid-stack/Horry-County-Data/Parcels/KML-Output/Parcels/Set_021/Parcel_2016.kml</href>
                <refreshMode>onChange</refreshMode>
            </Link>
        </NetworkLink>
        <NetworkLink id="5360">
            <name>Parcel_2017</name>
            <Link id="5361">
                <href>https://raw.githubusercontent.com/robmohammedmahid-stack/Horry-County-Data/Parcels/KML-Output/Parcels/Set_021/Parcel_2017.kml</href>
                <refreshMode>onChange</refreshMode>
            </Link>
        </NetworkLink>
        <NetworkLink id="5362">
            <name>Parcel_2018</name>
            <Link id="5363">
                <href>https://raw.githubusercontent.com/robmohammedmahid-stack/Horry-County-Data/Parcels/KML-Output/Parcels/Set_021/Parcel_2018.kml</href>
                <refreshMode>onChange</refreshMode>
            </Link>
        </NetworkLink>
        <NetworkLink id="5364">
            <name>Parcel_2019</name>
            <Link id="5365">
                <href>https://raw.githubusercontent.com/robmohammedmahid-stack/Horry-County-Data/Parcels/KML-Output/Parcels/Set_021/Parcel_2019.kml</href>
                <refreshMode>onChange</refreshMode>
            </Link>
        </NetworkLink>
        <NetworkLink id="5366">
            <name>Parcel_2020</name>
            <Link id="5367">
                <href>https://raw.githubusercontent.com/robmohammedmahid-stack/Horry-County-Data/Parcels/KML-Output/Parcels/Set_021/Parcel_2020.kml</href>
                <refreshMode>onChange</refreshMode>
            </Link>
        </NetworkLink>
        <NetworkLink id="5368">
            <name>Parcel_2021</name>
            <Link id="5369">
                <href>https://raw.githubusercontent.com/robmohammedmahid-stack/Horry-County-Data/Parcels/KML-Output/Parcels/Set_021/Parcel_2021.kml</href>
                <refreshMode>onChange</refreshMode>
            </Link>
        </NetworkLink>
        <NetworkLink id="5370">
            <name>Parcel_2022</name>
            <Link id="5371">
                <href>https://raw.githubusercontent.com/robmohammedmahid-stack/Horry-County-Data/Parcels/KML-Output/Parcels/Set_021/Parcel_2022.kml</href>
                <refreshMode>onChange</refreshMode>
            </Link>
        </NetworkLink>
        <NetworkLink id="5372">
            <name>Parcel_2023</name>
            <Link id="5373">
                <href>https://raw.githubusercontent.com/robmohammedmahid-stack/Horry-County-Data/Parcels/KML-Output/Parcels/Set_021/Parcel_2023.kml</href>
                <refreshMode>onChange</refreshMode>
            </Link>
        </NetworkLink>
        <NetworkLink id="5374">
            <name>Parcel_2024</name>
            <Link id="5375">
                <href>https://raw.githubusercontent.com/robmohammedmahid-stack/Horry-County-Data/Parcels/KML-Output/Parcels/Set_021/Parcel_2024.kml</href>
                <refreshMode>onChange</refreshMode>
            </Link>
        </NetworkLink>
        <NetworkLink id="5376">
            <name>Parcel_2025</name>
            <Link id="5377">
                <href>https://raw.githubusercontent.com/robmohammedmahid-stack/Horry-County-Data/Parcels/KML-Output/Parcels/Set_021/Parcel_2025.kml</href>
                <refreshMode>onChange</refreshMode>
            </Link>
        </NetworkLink>
        <NetworkLink id="5378">
            <name>Parcel_2026</name>
            <Link id="5379">
                <href>https://raw.githubusercontent.com/robmohammedmahid-stack/Horry-County-Data/Parcels/KML-Output/Parcels/Set_021/Parcel_2026.kml</href>
                <refreshMode>onChange</refreshMode>
            </Link>
        </NetworkLink>
        <NetworkLink id="5380">
            <name>Parcel_2027</name>
            <Link id="5381">
                <href>https://raw.githubusercontent.com/robmohammedmahid-stack/Horry-County-Data/Parcels/KML-Output/Parcels/Set_021/Parcel_2027.kml</href>
                <refreshMode>onChange</refreshMode>
            </Link>
        </NetworkLink>
        <NetworkLink id="5382">
            <name>Parcel_2028</name>
            <Link id="5383">
                <href>https://raw.githubusercontent.com/robmohammedmahid-stack/Horry-County-Data/Parcels/KML-Output/Parcels/Set_021/Parcel_2028.kml</href>
                <refreshMode>onChange</refreshMode>
            </Link>
        </NetworkLink>
        <NetworkLink id="5384">
            <name>Parcel_2029</name>
            <Link id="5385">
                <href>https://raw.githubusercontent.com/robmohammedmahid-stack/Horry-County-Data/Parcels/KML-Output/Parcels/Set_021/Parcel_2029.kml</href>
                <refreshMode>onChange</refreshMode>
            </Link>
        </NetworkLink>
        <NetworkLink id="5386">
            <name>Parcel_2030</name>
            <Link id="5387">
                <href>https://raw.githubusercontent.com/robmohammedmahid-stack/Horry-County-Data/Parcels/KML-Output/Parcels/Set_021/Parcel_2030.kml</href>
                <refreshMode>onChange</refreshMode>
            </Link>
        </NetworkLink>
        <NetworkLink id="5388">
            <name>Parcel_2031</name>
            <Link id="5389">
                <href>https://raw.githubusercontent.com/robmohammedmahid-stack/Horry-County-Data/Parcels/KML-Output/Parcels/Set_021/Parcel_2031.kml</href>
                <refreshMode>onChange</refreshMode>
            </Link>
        </NetworkLink>
        <NetworkLink id="5390">
            <name>Parcel_2032</name>
            <Link id="5391">
                <href>https://raw.githubusercontent.com/robmohammedmahid-stack/Horry-County-Data/Parcels/KML-Output/Parcels/Set_021/Parcel_2032.kml</href>
                <refreshMode>onChange</refreshMode>
            </Link>
        </NetworkLink>
        <NetworkLink id="5392">
            <name>Parcel_2033</name>
            <Link id="5393">
                <href>https://raw.githubusercontent.com/robmohammedmahid-stack/Horry-County-Data/Parcels/KML-Output/Parcels/Set_021/Parcel_2033.kml</href>
                <refreshMode>onChange</refreshMode>
            </Link>
        </NetworkLink>
        <NetworkLink id="5394">
            <name>Parcel_2034</name>
            <Link id="5395">
                <href>https://raw.githubusercontent.com/robmohammedmahid-stack/Horry-County-Data/Parcels/KML-Output/Parcels/Set_021/Parcel_2034.kml</href>
                <refreshMode>onChange</refreshMode>
            </Link>
        </NetworkLink>
        <NetworkLink id="5396">
            <name>Parcel_2035</name>
            <Link id="5397">
                <href>https://raw.githubusercontent.com/robmohammedmahid-stack/Horry-County-Data/Parcels/KML-Output/Parcels/Set_021/Parcel_2035.kml</href>
                <refreshMode>onChange</refreshMode>
            </Link>
        </NetworkLink>
        <NetworkLink id="5398">
            <name>Parcel_2036</name>
            <Link id="5399">
                <href>https://raw.githubusercontent.com/robmohammedmahid-stack/Horry-County-Data/Parcels/KML-Output/Parcels/Set_021/Parcel_2036.kml</href>
                <refreshMode>onChange</refreshMode>
            </Link>
        </NetworkLink>
        <NetworkLink id="5400">
            <name>Parcel_2037</name>
            <Link id="5401">
                <href>https://raw.githubusercontent.com/robmohammedmahid-stack/Horry-County-Data/Parcels/KML-Output/Parcels/Set_021/Parcel_2037.kml</href>
                <refreshMode>onChange</refreshMode>
            </Link>
        </NetworkLink>
        <NetworkLink id="5402">
            <name>Parcel_2038</name>
            <Link id="5403">
                <href>https://raw.githubusercontent.com/robmohammedmahid-stack/Horry-County-Data/Parcels/KML-Output/Parcels/Set_021/Parcel_2038.kml</href>
                <refreshMode>onChange</refreshMode>
            </Link>
        </NetworkLink>
        <NetworkLink id="5404">
            <name>Parcel_2039</name>
            <Link id="5405">
                <href>https://raw.githubusercontent.com/robmohammedmahid-stack/Horry-County-Data/Parcels/KML-Output/Parcels/Set_021/Parcel_2039.kml</href>
                <refreshMode>onChange</refreshMode>
            </Link>
        </NetworkLink>
        <NetworkLink id="5406">
            <name>Parcel_2040</name>
            <Link id="5407">
                <href>https://raw.githubusercontent.com/robmohammedmahid-stack/Horry-County-Data/Parcels/KML-Output/Parcels/Set_021/Parcel_2040.kml</href>
                <refreshMode>onChange</refreshMode>
            </Link>
        </NetworkLink>
        <NetworkLink id="5408">
            <name>Parcel_2041</name>
            <Link id="5409">
                <href>https://raw.githubusercontent.com/robmohammedmahid-stack/Horry-County-Data/Parcels/KML-Output/Parcels/Set_021/Parcel_2041.kml</href>
                <refreshMode>onChange</refreshMode>
            </Link>
        </NetworkLink>
        <NetworkLink id="5410">
            <name>Parcel_2042</name>
            <Link id="5411">
                <href>https://raw.githubusercontent.com/robmohammedmahid-stack/Horry-County-Data/Parcels/KML-Output/Parcels/Set_021/Parcel_2042.kml</href>
                <refreshMode>onChange</refreshMode>
            </Link>
        </NetworkLink>
        <NetworkLink id="5412">
            <name>Parcel_2043</name>
            <Link id="5413">
                <href>https://raw.githubusercontent.com/robmohammedmahid-stack/Horry-County-Data/Parcels/KML-Output/Parcels/Set_021/Parcel_2043.kml</href>
                <refreshMode>onChange</refreshMode>
            </Link>
        </NetworkLink>
        <NetworkLink id="5414">
            <name>Parcel_2044</name>
            <Link id="5415">
                <href>https://raw.githubusercontent.com/robmohammedmahid-stack/Horry-County-Data/Parcels/KML-Output/Parcels/Set_021/Parcel_2044.kml</href>
                <refreshMode>onChange</refreshMode>
            </Link>
        </NetworkLink>
        <NetworkLink id="5416">
            <name>Parcel_2045</name>
            <Link id="5417">
                <href>https://raw.githubusercontent.com/robmohammedmahid-stack/Horry-County-Data/Parcels/KML-Output/Parcels/Set_021/Parcel_2045.kml</href>
                <refreshMode>onChange</refreshMode>
            </Link>
        </NetworkLink>
        <NetworkLink id="5418">
            <name>Parcel_2046</name>
            <Link id="5419">
                <href>https://raw.githubusercontent.com/robmohammedmahid-stack/Horry-County-Data/Parcels/KML-Output/Parcels/Set_021/Parcel_2046.kml</href>
                <refreshMode>onChange</refreshMode>
            </Link>
        </NetworkLink>
        <NetworkLink id="5420">
            <name>Parcel_2047</name>
            <Link id="5421">
                <href>https://raw.githubusercontent.com/robmohammedmahid-stack/Horry-County-Data/Parcels/KML-Output/Parcels/Set_021/Parcel_2047.kml</href>
                <refreshMode>onChange</refreshMode>
            </Link>
        </NetworkLink>
        <NetworkLink id="5422">
            <name>Parcel_2048</name>
            <Link id="5423">
                <href>https://raw.githubusercontent.com/robmohammedmahid-stack/Horry-County-Data/Parcels/KML-Output/Parcels/Set_021/Parcel_2048.kml</href>
                <refreshMode>onChange</refreshMode>
            </Link>
        </NetworkLink>
        <NetworkLink id="5424">
            <name>Parcel_2049</name>
            <Link id="5425">
                <href>https://raw.githubusercontent.com/robmohammedmahid-stack/Horry-County-Data/Parcels/KML-Output/Parcels/Set_021/Parcel_2049.kml</href>
                <refreshMode>onChange</refreshMode>
            </Link>
        </NetworkLink>
        <NetworkLink id="5426">
            <name>Parcel_2050</name>
            <Link id="5427">
                <href>https://raw.githubusercontent.com/robmohammedmahid-stack/Horry-County-Data/Parcels/KML-Output/Parcels/Set_021/Parcel_2050.kml</href>
                <refreshMode>onChange</refreshMode>
            </Link>
        </NetworkLink>
        <NetworkLink id="5428">
            <name>Parcel_2051</name>
            <Link id="5429">
                <href>https://raw.githubusercontent.com/robmohammedmahid-stack/Horry-County-Data/Parcels/KML-Output/Parcels/Set_021/Parcel_2051.kml</href>
                <refreshMode>onChange</refreshMode>
            </Link>
        </NetworkLink>
        <NetworkLink id="5430">
            <name>Parcel_2052</name>
            <Link id="5431">
                <href>https://raw.githubusercontent.com/robmohammedmahid-stack/Horry-County-Data/Parcels/KML-Output/Parcels/Set_021/Parcel_2052.kml</href>
                <refreshMode>onChange</refreshMode>
            </Link>
        </NetworkLink>
        <NetworkLink id="5432">
            <name>Parcel_2053</name>
            <Link id="5433">
                <href>https://raw.githubusercontent.com/robmohammedmahid-stack/Horry-County-Data/Parcels/KML-Output/Parcels/Set_021/Parcel_2053.kml</href>
                <refreshMode>onChange</refreshMode>
            </Link>
        </NetworkLink>
        <NetworkLink id="5434">
            <name>Parcel_2054</name>
            <Link id="5435">
                <href>https://raw.githubusercontent.com/robmohammedmahid-stack/Horry-County-Data/Parcels/KML-Output/Parcels/Set_021/Parcel_2054.kml</href>
                <refreshMode>onChange</refreshMode>
            </Link>
        </NetworkLink>
        <NetworkLink id="5436">
            <name>Parcel_2055</name>
            <Link id="5437">
                <href>https://raw.githubusercontent.com/robmohammedmahid-stack/Horry-County-Data/Parcels/KML-Output/Parcels/Set_021/Parcel_2055.kml</href>
                <refreshMode>onChange</refreshMode>
            </Link>
        </NetworkLink>
        <NetworkLink id="5438">
            <name>Parcel_2056</name>
            <Link id="5439">
                <href>https://raw.githubusercontent.com/robmohammedmahid-stack/Horry-County-Data/Parcels/KML-Output/Parcels/Set_021/Parcel_2056.kml</href>
                <refreshMode>onChange</refreshMode>
            </Link>
        </NetworkLink>
        <NetworkLink id="5440">
            <name>Parcel_2057</name>
            <Link id="5441">
                <href>https://raw.githubusercontent.com/robmohammedmahid-stack/Horry-County-Data/Parcels/KML-Output/Parcels/Set_021/Parcel_2057.kml</href>
                <refreshMode>onChange</refreshMode>
            </Link>
        </NetworkLink>
        <NetworkLink id="5442">
            <name>Parcel_2058</name>
            <Link id="5443">
                <href>https://raw.githubusercontent.com/robmohammedmahid-stack/Horry-County-Data/Parcels/KML-Output/Parcels/Set_021/Parcel_2058.kml</href>
                <refreshMode>onChange</refreshMode>
            </Link>
        </NetworkLink>
        <NetworkLink id="5444">
            <name>Parcel_2059</name>
            <Link id="5445">
                <href>https://raw.githubusercontent.com/robmohammedmahid-stack/Horry-County-Data/Parcels/KML-Output/Parcels/Set_021/Parcel_2059.kml</href>
                <refreshMode>onChange</refreshMode>
            </Link>
        </NetworkLink>
        <NetworkLink id="5446">
            <name>Parcel_2060</name>
            <Link id="5447">
                <href>https://raw.githubusercontent.com/robmohammedmahid-stack/Horry-County-Data/Parcels/KML-Output/Parcels/Set_021/Parcel_2060.kml</href>
                <refreshMode>onChange</refreshMode>
            </Link>
        </NetworkLink>
        <NetworkLink id="5448">
            <name>Parcel_2061</name>
            <Link id="5449">
                <href>https://raw.githubusercontent.com/robmohammedmahid-stack/Horry-County-Data/Parcels/KML-Output/Parcels/Set_021/Parcel_2061.kml</href>
                <refreshMode>onChange</refreshMode>
            </Link>
        </NetworkLink>
        <NetworkLink id="5450">
            <name>Parcel_2062</name>
            <Link id="5451">
                <href>https://raw.githubusercontent.com/robmohammedmahid-stack/Horry-County-Data/Parcels/KML-Output/Parcels/Set_021/Parcel_2062.kml</href>
                <refreshMode>onChange</refreshMode>
            </Link>
        </NetworkLink>
        <NetworkLink id="5452">
            <name>Parcel_2063</name>
            <Link id="5453">
                <href>https://raw.githubusercontent.com/robmohammedmahid-stack/Horry-County-Data/Parcels/KML-Output/Parcels/Set_021/Parcel_2063.kml</href>
                <refreshMode>onChange</refreshMode>
            </Link>
        </NetworkLink>
        <NetworkLink id="5454">
            <name>Parcel_2064</name>
            <Link id="5455">
                <href>https://raw.githubusercontent.com/robmohammedmahid-stack/Horry-County-Data/Parcels/KML-Output/Parcels/Set_021/Parcel_2064.kml</href>
                <refreshMode>onChange</refreshMode>
            </Link>
        </NetworkLink>
        <NetworkLink id="5456">
            <name>Parcel_2065</name>
            <Link id="5457">
                <href>https://raw.githubusercontent.com/robmohammedmahid-stack/Horry-County-Data/Parcels/KML-Output/Parcels/Set_021/Parcel_2065.kml</href>
                <refreshMode>onChange</refreshMode>
            </Link>
        </NetworkLink>
        <NetworkLink id="5458">
            <name>Parcel_2066</name>
            <Link id="5459">
                <href>https://raw.githubusercontent.com/robmohammedmahid-stack/Horry-County-Data/Parcels/KML-Output/Parcels/Set_021/Parcel_2066.kml</href>
                <refreshMode>onChange</refreshMode>
            </Link>
        </NetworkLink>
        <NetworkLink id="5460">
            <name>Parcel_2067</name>
            <Link id="5461">
                <href>https://raw.githubusercontent.com/robmohammedmahid-stack/Horry-County-Data/Parcels/KML-Output/Parcels/Set_021/Parcel_2067.kml</href>
                <refreshMode>onChange</refreshMode>
            </Link>
        </NetworkLink>
        <NetworkLink id="5462">
            <name>Parcel_2068</name>
            <Link id="5463">
                <href>https://raw.githubusercontent.com/robmohammedmahid-stack/Horry-County-Data/Parcels/KML-Output/Parcels/Set_021/Parcel_2068.kml</href>
                <refreshMode>onChange</refreshMode>
            </Link>
        </NetworkLink>
        <NetworkLink id="5464">
            <name>Parcel_2069</name>
            <Link id="5465">
                <href>https://raw.githubusercontent.com/robmohammedmahid-stack/Horry-County-Data/Parcels/KML-Output/Parcels/Set_021/Parcel_2069.kml</href>
                <refreshMode>onChange</refreshMode>
            </Link>
        </NetworkLink>
        <NetworkLink id="5466">
            <name>Parcel_2070</name>
            <Link id="5467">
                <href>https://raw.githubusercontent.com/robmohammedmahid-stack/Horry-County-Data/Parcels/KML-Output/Parcels/Set_021/Parcel_2070.kml</href>
                <refreshMode>onChange</refreshMode>
            </Link>
        </NetworkLink>
        <NetworkLink id="5468">
            <name>Parcel_2071</name>
            <Link id="5469">
                <href>https://raw.githubusercontent.com/robmohammedmahid-stack/Horry-County-Data/Parcels/KML-Output/Parcels/Set_021/Parcel_2071.kml</href>
                <refreshMode>onChange</refreshMode>
            </Link>
        </NetworkLink>
        <NetworkLink id="5470">
            <name>Parcel_2072</name>
            <Link id="5471">
                <href>https://raw.githubusercontent.com/robmohammedmahid-stack/Horry-County-Data/Parcels/KML-Output/Parcels/Set_021/Parcel_2072.kml</href>
                <refreshMode>onChange</refreshMode>
            </Link>
        </NetworkLink>
        <NetworkLink id="5472">
            <name>Parcel_2073</name>
            <Link id="5473">
                <href>https://raw.githubusercontent.com/robmohammedmahid-stack/Horry-County-Data/Parcels/KML-Output/Parcels/Set_021/Parcel_2073.kml</href>
                <refreshMode>onChange</refreshMode>
            </Link>
        </NetworkLink>
        <NetworkLink id="5474">
            <name>Parcel_2074</name>
            <Link id="5475">
                <href>https://raw.githubusercontent.com/robmohammedmahid-stack/Horry-County-Data/Parcels/KML-Output/Parcels/Set_021/Parcel_2074.kml</href>
                <refreshMode>onChange</refreshMode>
            </Link>
        </NetworkLink>
        <NetworkLink id="5476">
            <name>Parcel_2075</name>
            <Link id="5477">
                <href>https://raw.githubusercontent.com/robmohammedmahid-stack/Horry-County-Data/Parcels/KML-Output/Parcels/Set_021/Parcel_2075.kml</href>
                <refreshMode>onChange</refreshMode>
            </Link>
        </NetworkLink>
        <NetworkLink id="5478">
            <name>Parcel_2076</name>
            <Link id="5479">
                <href>https://raw.githubusercontent.com/robmohammedmahid-stack/Horry-County-Data/Parcels/KML-Output/Parcels/Set_021/Parcel_2076.kml</href>
                <refreshMode>onChange</refreshMode>
            </Link>
        </NetworkLink>
        <NetworkLink id="5480">
            <name>Parcel_2077</name>
            <Link id="5481">
                <href>https://raw.githubusercontent.com/robmohammedmahid-stack/Horry-County-Data/Parcels/KML-Output/Parcels/Set_021/Parcel_2077.kml</href>
                <refreshMode>onChange</refreshMode>
            </Link>
        </NetworkLink>
        <NetworkLink id="5482">
            <name>Parcel_2078</name>
            <Link id="5483">
                <href>https://raw.githubusercontent.com/robmohammedmahid-stack/Horry-County-Data/Parcels/KML-Output/Parcels/Set_021/Parcel_2078.kml</href>
                <refreshMode>onChange</refreshMode>
            </Link>
        </NetworkLink>
        <NetworkLink id="5484">
            <name>Parcel_2079</name>
            <Link id="5485">
                <href>https://raw.githubusercontent.com/robmohammedmahid-stack/Horry-County-Data/Parcels/KML-Output/Parcels/Set_021/Parcel_2079.kml</href>
                <refreshMode>onChange</refreshMode>
            </Link>
        </NetworkLink>
        <NetworkLink id="5486">
            <name>Parcel_2080</name>
            <Link id="5487">
                <href>https://raw.githubusercontent.com/robmohammedmahid-stack/Horry-County-Data/Parcels/KML-Output/Parcels/Set_021/Parcel_2080.kml</href>
                <refreshMode>onChange</refreshMode>
            </Link>
        </NetworkLink>
        <NetworkLink id="5488">
            <name>Parcel_2081</name>
            <Link id="5489">
                <href>https://raw.githubusercontent.com/robmohammedmahid-stack/Horry-County-Data/Parcels/KML-Output/Parcels/Set_021/Parcel_2081.kml</href>
                <refreshMode>onChange</refreshMode>
            </Link>
        </NetworkLink>
        <NetworkLink id="5490">
            <name>Parcel_2082</name>
            <Link id="5491">
                <href>https://raw.githubusercontent.com/robmohammedmahid-stack/Horry-County-Data/Parcels/KML-Output/Parcels/Set_021/Parcel_2082.kml</href>
                <refreshMode>onChange</refreshMode>
            </Link>
        </NetworkLink>
        <NetworkLink id="5492">
            <name>Parcel_2083</name>
            <Link id="5493">
                <href>https://raw.githubusercontent.com/robmohammedmahid-stack/Horry-County-Data/Parcels/KML-Output/Parcels/Set_021/Parcel_2083.kml</href>
                <refreshMode>onChange</refreshMode>
            </Link>
        </NetworkLink>
        <NetworkLink id="5494">
            <name>Parcel_2084</name>
            <Link id="5495">
                <href>https://raw.githubusercontent.com/robmohammedmahid-stack/Horry-County-Data/Parcels/KML-Output/Parcels/Set_021/Parcel_2084.kml</href>
                <refreshMode>onChange</refreshMode>
            </Link>
        </NetworkLink>
        <NetworkLink id="5496">
            <name>Parcel_2085</name>
            <Link id="5497">
                <href>https://raw.githubusercontent.com/robmohammedmahid-stack/Horry-County-Data/Parcels/KML-Output/Parcels/Set_021/Parcel_2085.kml</href>
                <refreshMode>onChange</refreshMode>
            </Link>
        </NetworkLink>
        <NetworkLink id="5498">
            <name>Parcel_2086</name>
            <Link id="5499">
                <href>https://raw.githubusercontent.com/robmohammedmahid-stack/Horry-County-Data/Parcels/KML-Output/Parcels/Set_021/Parcel_2086.kml</href>
                <refreshMode>onChange</refreshMode>
            </Link>
        </NetworkLink>
        <NetworkLink id="5500">
            <name>Parcel_2087</name>
            <Link id="5501">
                <href>https://raw.githubusercontent.com/robmohammedmahid-stack/Horry-County-Data/Parcels/KML-Output/Parcels/Set_021/Parcel_2087.kml</href>
                <refreshMode>onChange</refreshMode>
            </Link>
        </NetworkLink>
        <NetworkLink id="5502">
            <name>Parcel_2088</name>
            <Link id="5503">
                <href>https://raw.githubusercontent.com/robmohammedmahid-stack/Horry-County-Data/Parcels/KML-Output/Parcels/Set_021/Parcel_2088.kml</href>
                <refreshMode>onChange</refreshMode>
            </Link>
        </NetworkLink>
        <NetworkLink id="5504">
            <name>Parcel_2089</name>
            <Link id="5505">
                <href>https://raw.githubusercontent.com/robmohammedmahid-stack/Horry-County-Data/Parcels/KML-Output/Parcels/Set_021/Parcel_2089.kml</href>
                <refreshMode>onChange</refreshMode>
            </Link>
        </NetworkLink>
        <NetworkLink id="5506">
            <name>Parcel_2090</name>
            <Link id="5507">
                <href>https://raw.githubusercontent.com/robmohammedmahid-stack/Horry-County-Data/Parcels/KML-Output/Parcels/Set_021/Parcel_2090.kml</href>
                <refreshMode>onChange</refreshMode>
            </Link>
        </NetworkLink>
        <NetworkLink id="5508">
            <name>Parcel_2091</name>
            <Link id="5509">
                <href>https://raw.githubusercontent.com/robmohammedmahid-stack/Horry-County-Data/Parcels/KML-Output/Parcels/Set_021/Parcel_2091.kml</href>
                <refreshMode>onChange</refreshMode>
            </Link>
        </NetworkLink>
        <NetworkLink id="5510">
            <name>Parcel_2092</name>
            <Link id="5511">
                <href>https://raw.githubusercontent.com/robmohammedmahid-stack/Horry-County-Data/Parcels/KML-Output/Parcels/Set_021/Parcel_2092.kml</href>
                <refreshMode>onChange</refreshMode>
            </Link>
        </NetworkLink>
        <NetworkLink id="5512">
            <name>Parcel_2093</name>
            <Link id="5513">
                <href>https://raw.githubusercontent.com/robmohammedmahid-stack/Horry-County-Data/Parcels/KML-Output/Parcels/Set_021/Parcel_2093.kml</href>
                <refreshMode>onChange</refreshMode>
            </Link>
        </NetworkLink>
        <NetworkLink id="5514">
            <name>Parcel_2094</name>
            <Link id="5515">
                <href>https://raw.githubusercontent.com/robmohammedmahid-stack/Horry-County-Data/Parcels/KML-Output/Parcels/Set_021/Parcel_2094.kml</href>
                <refreshMode>onChange</refreshMode>
            </Link>
        </NetworkLink>
        <NetworkLink id="5516">
            <name>Parcel_2095</name>
            <Link id="5517">
                <href>https://raw.githubusercontent.com/robmohammedmahid-stack/Horry-County-Data/Parcels/KML-Output/Parcels/Set_021/Parcel_2095.kml</href>
                <refreshMode>onChange</refreshMode>
            </Link>
        </NetworkLink>
        <NetworkLink id="5518">
            <name>Parcel_2096</name>
            <Link id="5519">
                <href>https://raw.githubusercontent.com/robmohammedmahid-stack/Horry-County-Data/Parcels/KML-Output/Parcels/Set_021/Parcel_2096.kml</href>
                <refreshMode>onChange</refreshMode>
            </Link>
        </NetworkLink>
        <NetworkLink id="5520">
            <name>Parcel_2097</name>
            <Link id="5521">
                <href>https://raw.githubusercontent.com/robmohammedmahid-stack/Horry-County-Data/Parcels/KML-Output/Parcels/Set_021/Parcel_2097.kml</href>
                <refreshMode>onChange</refreshMode>
            </Link>
        </NetworkLink>
        <NetworkLink id="5522">
            <name>Parcel_2098</name>
            <Link id="5523">
                <href>https://raw.githubusercontent.com/robmohammedmahid-stack/Horry-County-Data/Parcels/KML-Output/Parcels/Set_021/Parcel_2098.kml</href>
                <refreshMode>onChange</refreshMode>
            </Link>
        </NetworkLink>
        <NetworkLink id="5524">
            <name>Parcel_2099</name>
            <Link id="5525">
                <href>https://raw.githubusercontent.com/robmohammedmahid-stack/Horry-County-Data/Parcels/KML-Output/Parcels/Set_021/Parcel_2099.kml</href>
                <refreshMode>onChange</refreshMode>
            </Link>
        </NetworkLink>
        <NetworkLink id="5526">
            <name>Parcel_2100</name>
            <Link id="5527">
                <href>https://raw.githubusercontent.com/robmohammedmahid-stack/Horry-County-Data/Parcels/KML-Output/Parcels/Set_021/Parcel_2100.kml</href>
                <refreshMode>onChange</refreshMode>
            </Link>
        </NetworkLink>
    </Document>
</kml>
