<?xml version="1.0" encoding="UTF-8"?>
<kml xmlns="http://www.opengis.net/kml/2.2" xmlns:gx="http://www.google.com/kml/ext/2.2">
    <Document id="319">
        <NetworkLink id="320">
            <name>Wetland_101</name>
            <Link id="321">
                <href>https://raw.githubusercontent.com/robmohammedmahid-stack/Horry-County-Data/Wetlands/KML-Output/Wetlands/Wetland_101.kml</href>
                <refreshMode>onChange</refreshMode>
            </Link>
        </NetworkLink>
        <NetworkLink id="322">
            <name>Wetland_102</name>
            <Link id="323">
                <href>https://raw.githubusercontent.com/robmohammedmahid-stack/Horry-County-Data/Wetlands/KML-Output/Wetlands/Wetland_102.kml</href>
                <refreshMode>onChange</refreshMode>
            </Link>
        </NetworkLink>
        <NetworkLink id="324">
            <name>Wetland_103</name>
            <Link id="325">
                <href>https://raw.githubusercontent.com/robmohammedmahid-stack/Horry-County-Data/Wetlands/KML-Output/Wetlands/Wetland_103.kml</href>
                <refreshMode>onChange</refreshMode>
            </Link>
        </NetworkLink>
        <NetworkLink id="326">
            <name>Wetland_104</name>
            <Link id="327">
                <href>https://raw.githubusercontent.com/robmohammedmahid-stack/Horry-County-Data/Wetlands/KML-Output/Wetlands/Wetland_104.kml</href>
                <refreshMode>onChange</refreshMode>
            </Link>
        </NetworkLink>
        <NetworkLink id="328">
            <name>Wetland_105</name>
            <Link id="329">
                <href>https://raw.githubusercontent.com/robmohammedmahid-stack/Horry-County-Data/Wetlands/KML-Output/Wetlands/Wetland_105.kml</href>
                <refreshMode>onChange</refreshMode>
            </Link>
        </NetworkLink>
        <NetworkLink id="330">
            <name>Wetland_106</name>
            <Link id="331">
                <href>https://raw.githubusercontent.com/robmohammedmahid-stack/Horry-County-Data/Wetlands/KML-Output/Wetlands/Wetland_106.kml</href>
                <refreshMode>onChange</refreshMode>
            </Link>
        </NetworkLink>
        <NetworkLink id="332">
            <name>Wetland_107</name>
            <Link id="333">
                <href>https://raw.githubusercontent.com/robmohammedmahid-stack/Horry-County-Data/Wetlands/KML-Output/Wetlands/Wetland_107.kml</href>
                <refreshMode>onChange</refreshMode>
            </Link>
        </NetworkLink>
        <NetworkLink id="334">
            <name>Wetland_108</name>
            <Link id="335">
                <href>https://raw.githubusercontent.com/robmohammedmahid-stack/Horry-County-Data/Wetlands/KML-Output/Wetlands/Wetland_108.kml</href>
                <refreshMode>onChange</refreshMode>
            </Link>
        </NetworkLink>
        <NetworkLink id="336">
            <name>Wetland_109</name>
            <Link id="337">
                <href>https://raw.githubusercontent.com/robmohammedmahid-stack/Horry-County-Data/Wetlands/KML-Output/Wetlands/Wetland_109.kml</href>
                <refreshMode>onChange</refreshMode>
            </Link>
        </NetworkLink>
        <NetworkLink id="338">
            <name>Wetland_110</name>
            <Link id="339">
                <href>https://raw.githubusercontent.com/robmohammedmahid-stack/Horry-County-Data/Wetlands/KML-Output/Wetlands/Wetland_110.kml</href>
                <refreshMode>onChange</refreshMode>
            </Link>
        </NetworkLink>
        <NetworkLink id="340">
            <name>Wetland_111</name>
            <Link id="341">
                <href>https://raw.githubusercontent.com/robmohammedmahid-stack/Horry-County-Data/Wetlands/KML-Output/Wetlands/Wetland_111.kml</href>
                <refreshMode>onChange</refreshMode>
            </Link>
        </NetworkLink>
        <NetworkLink id="342">
            <name>Wetland_112</name>
            <Link id="343">
                <href>https://raw.githubusercontent.com/robmohammedmahid-stack/Horry-County-Data/Wetlands/KML-Output/Wetlands/Wetland_112.kml</href>
                <refreshMode>onChange</refreshMode>
            </Link>
        </NetworkLink>
        <NetworkLink id="344">
            <name>Wetland_113</name>
            <Link id="345">
                <href>https://raw.githubusercontent.com/robmohammedmahid-stack/Horry-County-Data/Wetlands/KML-Output/Wetlands/Wetland_113.kml</href>
                <refreshMode>onChange</refreshMode>
            </Link>
        </NetworkLink>
        <NetworkLink id="346">
            <name>Wetland_114</name>
            <Link id="347">
                <href>https://raw.githubusercontent.com/robmohammedmahid-stack/Horry-County-Data/Wetlands/KML-Output/Wetlands/Wetland_114.kml</href>
                <refreshMode>onChange</refreshMode>
            </Link>
        </NetworkLink>
        <NetworkLink id="348">
            <name>Wetland_115</name>
            <Link id="349">
                <href>https://raw.githubusercontent.com/robmohammedmahid-stack/Horry-County-Data/Wetlands/KML-Output/Wetlands/Wetland_115.kml</href>
                <refreshMode>onChange</refreshMode>
            </Link>
        </NetworkLink>
        <NetworkLink id="350">
            <name>Wetland_116</name>
            <Link id="351">
                <href>https://raw.githubusercontent.com/robmohammedmahid-stack/Horry-County-Data/Wetlands/KML-Output/Wetlands/Wetland_116.kml</href>
                <refreshMode>onChange</refreshMode>
            </Link>
        </NetworkLink>
        <NetworkLink id="352">
            <name>Wetland_117</name>
            <Link id="353">
                <href>https://raw.githubusercontent.com/robmohammedmahid-stack/Horry-County-Data/Wetlands/KML-Output/Wetlands/Wetland_117.kml</href>
                <refreshMode>onChange</refreshMode>
            </Link>
        </NetworkLink>
        <NetworkLink id="354">
            <name>Wetland_118</name>
            <Link id="355">
                <href>https://raw.githubusercontent.com/robmohammedmahid-stack/Horry-County-Data/Wetlands/KML-Output/Wetlands/Wetland_118.kml</href>
                <refreshMode>onChange</refreshMode>
            </Link>
        </NetworkLink>
        <NetworkLink id="356">
            <name>Wetland_119</name>
            <Link id="357">
                <href>https://raw.githubusercontent.com/robmohammedmahid-stack/Horry-County-Data/Wetlands/KML-Output/Wetlands/Wetland_119.kml</href>
                <refreshMode>onChange</refreshMode>
            </Link>
        </NetworkLink>
        <NetworkLink id="358">
            <name>Wetland_120</name>
            <Link id="359">
                <href>https://raw.githubusercontent.com/robmohammedmahid-stack/Horry-County-Data/Wetlands/KML-Output/Wetlands/Wetland_120.kml</href>
                <refreshMode>onChange</refreshMode>
            </Link>
        </NetworkLink>
        <NetworkLink id="360">
            <name>Wetland_121</name>
            <Link id="361">
                <href>https://raw.githubusercontent.com/robmohammedmahid-stack/Horry-County-Data/Wetlands/KML-Output/Wetlands/Wetland_121.kml</href>
                <refreshMode>onChange</refreshMode>
            </Link>
        </NetworkLink>
        <NetworkLink id="362">
            <name>Wetland_122</name>
            <Link id="363">
                <href>https://raw.githubusercontent.com/robmohammedmahid-stack/Horry-County-Data/Wetlands/KML-Output/Wetlands/Wetland_122.kml</href>
                <refreshMode>onChange</refreshMode>
            </Link>
        </NetworkLink>
        <NetworkLink id="364">
            <name>Wetland_123</name>
            <Link id="365">
                <href>https://raw.githubusercontent.com/robmohammedmahid-stack/Horry-County-Data/Wetlands/KML-Output/Wetlands/Wetland_123.kml</href>
                <refreshMode>onChange</refreshMode>
            </Link>
        </NetworkLink>
        <NetworkLink id="366">
            <name>Wetland_124</name>
            <Link id="367">
                <href>https://raw.githubusercontent.com/robmohammedmahid-stack/Horry-County-Data/Wetlands/KML-Output/Wetlands/Wetland_124.kml</href>
                <refreshMode>onChange</refreshMode>
            </Link>
        </NetworkLink>
        <NetworkLink id="368">
            <name>Wetland_125</name>
            <Link id="369">
                <href>https://raw.githubusercontent.com/robmohammedmahid-stack/Horry-County-Data/Wetlands/KML-Output/Wetlands/Wetland_125.kml</href>
                <refreshMode>onChange</refreshMode>
            </Link>
        </NetworkLink>
        <NetworkLink id="370">
            <name>Wetland_126</name>
            <Link id="371">
                <href>https://raw.githubusercontent.com/robmohammedmahid-stack/Horry-County-Data/Wetlands/KML-Output/Wetlands/Wetland_126.kml</href>
                <refreshMode>onChange</refreshMode>
            </Link>
        </NetworkLink>
        <NetworkLink id="372">
            <name>Wetland_127</name>
            <Link id="373">
                <href>https://raw.githubusercontent.com/robmohammedmahid-stack/Horry-County-Data/Wetlands/KML-Output/Wetlands/Wetland_127.kml</href>
                <refreshMode>onChange</refreshMode>
            </Link>
        </NetworkLink>
        <NetworkLink id="374">
            <name>Wetland_128</name>
            <Link id="375">
                <href>https://raw.githubusercontent.com/robmohammedmahid-stack/Horry-County-Data/Wetlands/KML-Output/Wetlands/Wetland_128.kml</href>
                <refreshMode>onChange</refreshMode>
            </Link>
        </NetworkLink>
        <NetworkLink id="376">
            <name>Wetland_129</name>
            <Link id="377">
                <href>https://raw.githubusercontent.com/robmohammedmahid-stack/Horry-County-Data/Wetlands/KML-Output/Wetlands/Wetland_129.kml</href>
                <refreshMode>onChange</refreshMode>
            </Link>
        </NetworkLink>
        <NetworkLink id="378">
            <name>Wetland_130</name>
            <Link id="379">
                <href>https://raw.githubusercontent.com/robmohammedmahid-stack/Horry-County-Data/Wetlands/KML-Output/Wetlands/Wetland_130.kml</href>
                <refreshMode>onChange</refreshMode>
            </Link>
        </NetworkLink>
        <NetworkLink id="380">
            <name>Wetland_131</name>
            <Link id="381">
                <href>https://raw.githubusercontent.com/robmohammedmahid-stack/Horry-County-Data/Wetlands/KML-Output/Wetlands/Wetland_131.kml</href>
                <refreshMode>onChange</refreshMode>
            </Link>
        </NetworkLink>
        <NetworkLink id="382">
            <name>Wetland_132</name>
            <Link id="383">
                <href>https://raw.githubusercontent.com/robmohammedmahid-stack/Horry-County-Data/Wetlands/KML-Output/Wetlands/Wetland_132.kml</href>
                <refreshMode>onChange</refreshMode>
            </Link>
        </NetworkLink>
        <NetworkLink id="384">
            <name>Wetland_133</name>
            <Link id="385">
                <href>https://raw.githubusercontent.com/robmohammedmahid-stack/Horry-County-Data/Wetlands/KML-Output/Wetlands/Wetland_133.kml</href>
                <refreshMode>onChange</refreshMode>
            </Link>
        </NetworkLink>
        <NetworkLink id="386">
            <name>Wetland_134</name>
            <Link id="387">
                <href>https://raw.githubusercontent.com/robmohammedmahid-stack/Horry-County-Data/Wetlands/KML-Output/Wetlands/Wetland_134.kml</href>
                <refreshMode>onChange</refreshMode>
            </Link>
        </NetworkLink>
        <NetworkLink id="388">
            <name>Wetland_135</name>
            <Link id="389">
                <href>https://raw.githubusercontent.com/robmohammedmahid-stack/Horry-County-Data/Wetlands/KML-Output/Wetlands/Wetland_135.kml</href>
                <refreshMode>onChange</refreshMode>
            </Link>
        </NetworkLink>
        <NetworkLink id="390">
            <name>Wetland_136</name>
            <Link id="391">
                <href>https://raw.githubusercontent.com/robmohammedmahid-stack/Horry-County-Data/Wetlands/KML-Output/Wetlands/Wetland_136.kml</href>
                <refreshMode>onChange</refreshMode>
            </Link>
        </NetworkLink>
        <NetworkLink id="392">
            <name>Wetland_137</name>
            <Link id="393">
                <href>https://raw.githubusercontent.com/robmohammedmahid-stack/Horry-County-Data/Wetlands/KML-Output/Wetlands/Wetland_137.kml</href>
                <refreshMode>onChange</refreshMode>
            </Link>
        </NetworkLink>
        <NetworkLink id="394">
            <name>Wetland_138</name>
            <Link id="395">
                <href>https://raw.githubusercontent.com/robmohammedmahid-stack/Horry-County-Data/Wetlands/KML-Output/Wetlands/Wetland_138.kml</href>
                <refreshMode>onChange</refreshMode>
            </Link>
        </NetworkLink>
        <NetworkLink id="396">
            <name>Wetland_139</name>
            <Link id="397">
                <href>https://raw.githubusercontent.com/robmohammedmahid-stack/Horry-County-Data/Wetlands/KML-Output/Wetlands/Wetland_139.kml</href>
                <refreshMode>onChange</refreshMode>
            </Link>
        </NetworkLink>
        <NetworkLink id="398">
            <name>Wetland_140</name>
            <Link id="399">
                <href>https://raw.githubusercontent.com/robmohammedmahid-stack/Horry-County-Data/Wetlands/KML-Output/Wetlands/Wetland_140.kml</href>
                <refreshMode>onChange</refreshMode>
            </Link>
        </NetworkLink>
        <NetworkLink id="400">
            <name>Wetland_141</name>
            <Link id="401">
                <href>https://raw.githubusercontent.com/robmohammedmahid-stack/Horry-County-Data/Wetlands/KML-Output/Wetlands/Wetland_141.kml</href>
                <refreshMode>onChange</refreshMode>
            </Link>
        </NetworkLink>
        <NetworkLink id="402">
            <name>Wetland_142</name>
            <Link id="403">
                <href>https://raw.githubusercontent.com/robmohammedmahid-stack/Horry-County-Data/Wetlands/KML-Output/Wetlands/Wetland_142.kml</href>
                <refreshMode>onChange</refreshMode>
            </Link>
        </NetworkLink>
        <NetworkLink id="404">
            <name>Wetland_143</name>
            <Link id="405">
                <href>https://raw.githubusercontent.com/robmohammedmahid-stack/Horry-County-Data/Wetlands/KML-Output/Wetlands/Wetland_143.kml</href>
                <refreshMode>onChange</refreshMode>
            </Link>
        </NetworkLink>
        <NetworkLink id="406">
            <name>Wetland_144</name>
            <Link id="407">
                <href>https://raw.githubusercontent.com/robmohammedmahid-stack/Horry-County-Data/Wetlands/KML-Output/Wetlands/Wetland_144.kml</href>
                <refreshMode>onChange</refreshMode>
            </Link>
        </NetworkLink>
        <NetworkLink id="408">
            <name>Wetland_145</name>
            <Link id="409">
                <href>https://raw.githubusercontent.com/robmohammedmahid-stack/Horry-County-Data/Wetlands/KML-Output/Wetlands/Wetland_145.kml</href>
                <refreshMode>onChange</refreshMode>
            </Link>
        </NetworkLink>
        <NetworkLink id="410">
            <name>Wetland_146</name>
            <Link id="411">
                <href>https://raw.githubusercontent.com/robmohammedmahid-stack/Horry-County-Data/Wetlands/KML-Output/Wetlands/Wetland_146.kml</href>
                <refreshMode>onChange</refreshMode>
            </Link>
        </NetworkLink>
        <NetworkLink id="412">
            <name>Wetland_147</name>
            <Link id="413">
                <href>https://raw.githubusercontent.com/robmohammedmahid-stack/Horry-County-Data/Wetlands/KML-Output/Wetlands/Wetland_147.kml</href>
                <refreshMode>onChange</refreshMode>
            </Link>
        </NetworkLink>
        <NetworkLink id="414">
            <name>Wetland_148</name>
            <Link id="415">
                <href>https://raw.githubusercontent.com/robmohammedmahid-stack/Horry-County-Data/Wetlands/KML-Output/Wetlands/Wetland_148.kml</href>
                <refreshMode>onChange</refreshMode>
            </Link>
        </NetworkLink>
        <NetworkLink id="416">
            <name>Wetland_149</name>
            <Link id="417">
                <href>https://raw.githubusercontent.com/robmohammedmahid-stack/Horry-County-Data/Wetlands/KML-Output/Wetlands/Wetland_149.kml</href>
                <refreshMode>onChange</refreshMode>
            </Link>
        </NetworkLink>
        <NetworkLink id="418">
            <name>Wetland_150</name>
            <Link id="419">
                <href>https://raw.githubusercontent.com/robmohammedmahid-stack/Horry-County-Data/Wetlands/KML-Output/Wetlands/Wetland_150.kml</href>
                <refreshMode>onChange</refreshMode>
            </Link>
        </NetworkLink>
        <NetworkLink id="420">
            <name>Wetland_151</name>
            <Link id="421">
                <href>https://raw.githubusercontent.com/robmohammedmahid-stack/Horry-County-Data/Wetlands/KML-Output/Wetlands/Wetland_151.kml</href>
                <refreshMode>onChange</refreshMode>
            </Link>
        </NetworkLink>
        <NetworkLink id="422">
            <name>Wetland_152</name>
            <Link id="423">
                <href>https://raw.githubusercontent.com/robmohammedmahid-stack/Horry-County-Data/Wetlands/KML-Output/Wetlands/Wetland_152.kml</href>
                <refreshMode>onChange</refreshMode>
            </Link>
        </NetworkLink>
        <NetworkLink id="424">
            <name>Wetland_153</name>
            <Link id="425">
                <href>https://raw.githubusercontent.com/robmohammedmahid-stack/Horry-County-Data/Wetlands/KML-Output/Wetlands/Wetland_153.kml</href>
                <refreshMode>onChange</refreshMode>
            </Link>
        </NetworkLink>
        <NetworkLink id="426">
            <name>Wetland_154</name>
            <Link id="427">
                <href>https://raw.githubusercontent.com/robmohammedmahid-stack/Horry-County-Data/Wetlands/KML-Output/Wetlands/Wetland_154.kml</href>
                <refreshMode>onChange</refreshMode>
            </Link>
        </NetworkLink>
        <NetworkLink id="428">
            <name>Wetland_155</name>
            <Link id="429">
                <href>https://raw.githubusercontent.com/robmohammedmahid-stack/Horry-County-Data/Wetlands/KML-Output/Wetlands/Wetland_155.kml</href>
                <refreshMode>onChange</refreshMode>
            </Link>
        </NetworkLink>
        <NetworkLink id="430">
            <name>Wetland_156</name>
            <Link id="431">
                <href>https://raw.githubusercontent.com/robmohammedmahid-stack/Horry-County-Data/Wetlands/KML-Output/Wetlands/Wetland_156.kml</href>
                <refreshMode>onChange</refreshMode>
            </Link>
        </NetworkLink>
        <NetworkLink id="432">
            <name>Wetland_157</name>
            <Link id="433">
                <href>https://raw.githubusercontent.com/robmohammedmahid-stack/Horry-County-Data/Wetlands/KML-Output/Wetlands/Wetland_157.kml</href>
                <refreshMode>onChange</refreshMode>
            </Link>
        </NetworkLink>
        <NetworkLink id="434">
            <name>Wetland_158</name>
            <Link id="435">
                <href>https://raw.githubusercontent.com/robmohammedmahid-stack/Horry-County-Data/Wetlands/KML-Output/Wetlands/Wetland_158.kml</href>
                <refreshMode>onChange</refreshMode>
            </Link>
        </NetworkLink>
        <NetworkLink id="436">
            <name>Wetland_159</name>
            <Link id="437">
                <href>https://raw.githubusercontent.com/robmohammedmahid-stack/Horry-County-Data/Wetlands/KML-Output/Wetlands/Wetland_159.kml</href>
                <refreshMode>onChange</refreshMode>
            </Link>
        </NetworkLink>
        <NetworkLink id="438">
            <name>Wetland_160</name>
            <Link id="439">
                <href>https://raw.githubusercontent.com/robmohammedmahid-stack/Horry-County-Data/Wetlands/KML-Output/Wetlands/Wetland_160.kml</href>
                <refreshMode>onChange</refreshMode>
            </Link>
        </NetworkLink>
        <NetworkLink id="440">
            <name>Wetland_161</name>
            <Link id="441">
                <href>https://raw.githubusercontent.com/robmohammedmahid-stack/Horry-County-Data/Wetlands/KML-Output/Wetlands/Wetland_161.kml</href>
                <refreshMode>onChange</refreshMode>
            </Link>
        </NetworkLink>
        <NetworkLink id="442">
            <name>Wetland_162</name>
            <Link id="443">
                <href>https://raw.githubusercontent.com/robmohammedmahid-stack/Horry-County-Data/Wetlands/KML-Output/Wetlands/Wetland_162.kml</href>
                <refreshMode>onChange</refreshMode>
            </Link>
        </NetworkLink>
        <NetworkLink id="444">
            <name>Wetland_163</name>
            <Link id="445">
                <href>https://raw.githubusercontent.com/robmohammedmahid-stack/Horry-County-Data/Wetlands/KML-Output/Wetlands/Wetland_163.kml</href>
                <refreshMode>onChange</refreshMode>
            </Link>
        </NetworkLink>
        <NetworkLink id="446">
            <name>Wetland_164</name>
            <Link id="447">
                <href>https://raw.githubusercontent.com/robmohammedmahid-stack/Horry-County-Data/Wetlands/KML-Output/Wetlands/Wetland_164.kml</href>
                <refreshMode>onChange</refreshMode>
            </Link>
        </NetworkLink>
        <NetworkLink id="448">
            <name>Wetland_165</name>
            <Link id="449">
                <href>https://raw.githubusercontent.com/robmohammedmahid-stack/Horry-County-Data/Wetlands/KML-Output/Wetlands/Wetland_165.kml</href>
                <refreshMode>onChange</refreshMode>
            </Link>
        </NetworkLink>
        <NetworkLink id="450">
            <name>Wetland_166</name>
            <Link id="451">
                <href>https://raw.githubusercontent.com/robmohammedmahid-stack/Horry-County-Data/Wetlands/KML-Output/Wetlands/Wetland_166.kml</href>
                <refreshMode>onChange</refreshMode>
            </Link>
        </NetworkLink>
        <NetworkLink id="452">
            <name>Wetland_167</name>
            <Link id="453">
                <href>https://raw.githubusercontent.com/robmohammedmahid-stack/Horry-County-Data/Wetlands/KML-Output/Wetlands/Wetland_167.kml</href>
                <refreshMode>onChange</refreshMode>
            </Link>
        </NetworkLink>
        <NetworkLink id="454">
            <name>Wetland_168</name>
            <Link id="455">
                <href>https://raw.githubusercontent.com/robmohammedmahid-stack/Horry-County-Data/Wetlands/KML-Output/Wetlands/Wetland_168.kml</href>
                <refreshMode>onChange</refreshMode>
            </Link>
        </NetworkLink>
        <NetworkLink id="456">
            <name>Wetland_169</name>
            <Link id="457">
                <href>https://raw.githubusercontent.com/robmohammedmahid-stack/Horry-County-Data/Wetlands/KML-Output/Wetlands/Wetland_169.kml</href>
                <refreshMode>onChange</refreshMode>
            </Link>
        </NetworkLink>
        <NetworkLink id="458">
            <name>Wetland_170</name>
            <Link id="459">
                <href>https://raw.githubusercontent.com/robmohammedmahid-stack/Horry-County-Data/Wetlands/KML-Output/Wetlands/Wetland_170.kml</href>
                <refreshMode>onChange</refreshMode>
            </Link>
        </NetworkLink>
        <NetworkLink id="460">
            <name>Wetland_171</name>
            <Link id="461">
                <href>https://raw.githubusercontent.com/robmohammedmahid-stack/Horry-County-Data/Wetlands/KML-Output/Wetlands/Wetland_171.kml</href>
                <refreshMode>onChange</refreshMode>
            </Link>
        </NetworkLink>
        <NetworkLink id="462">
            <name>Wetland_172</name>
            <Link id="463">
                <href>https://raw.githubusercontent.com/robmohammedmahid-stack/Horry-County-Data/Wetlands/KML-Output/Wetlands/Wetland_172.kml</href>
                <refreshMode>onChange</refreshMode>
            </Link>
        </NetworkLink>
        <NetworkLink id="464">
            <name>Wetland_173</name>
            <Link id="465">
                <href>https://raw.githubusercontent.com/robmohammedmahid-stack/Horry-County-Data/Wetlands/KML-Output/Wetlands/Wetland_173.kml</href>
                <refreshMode>onChange</refreshMode>
            </Link>
        </NetworkLink>
        <NetworkLink id="466">
            <name>Wetland_174</name>
            <Link id="467">
                <href>https://raw.githubusercontent.com/robmohammedmahid-stack/Horry-County-Data/Wetlands/KML-Output/Wetlands/Wetland_174.kml</href>
                <refreshMode>onChange</refreshMode>
            </Link>
        </NetworkLink>
        <NetworkLink id="468">
            <name>Wetland_175</name>
            <Link id="469">
                <href>https://raw.githubusercontent.com/robmohammedmahid-stack/Horry-County-Data/Wetlands/KML-Output/Wetlands/Wetland_175.kml</href>
                <refreshMode>onChange</refreshMode>
            </Link>
        </NetworkLink>
        <NetworkLink id="470">
            <name>Wetland_176</name>
            <Link id="471">
                <href>https://raw.githubusercontent.com/robmohammedmahid-stack/Horry-County-Data/Wetlands/KML-Output/Wetlands/Wetland_176.kml</href>
                <refreshMode>onChange</refreshMode>
            </Link>
        </NetworkLink>
        <NetworkLink id="472">
            <name>Wetland_177</name>
            <Link id="473">
                <href>https://raw.githubusercontent.com/robmohammedmahid-stack/Horry-County-Data/Wetlands/KML-Output/Wetlands/Wetland_177.kml</href>
                <refreshMode>onChange</refreshMode>
            </Link>
        </NetworkLink>
        <NetworkLink id="474">
            <name>Wetland_178</name>
            <Link id="475">
                <href>https://raw.githubusercontent.com/robmohammedmahid-stack/Horry-County-Data/Wetlands/KML-Output/Wetlands/Wetland_178.kml</href>
                <refreshMode>onChange</refreshMode>
            </Link>
        </NetworkLink>
        <NetworkLink id="476">
            <name>Wetland_179</name>
            <Link id="477">
                <href>https://raw.githubusercontent.com/robmohammedmahid-stack/Horry-County-Data/Wetlands/KML-Output/Wetlands/Wetland_179.kml</href>
                <refreshMode>onChange</refreshMode>
            </Link>
        </NetworkLink>
        <NetworkLink id="478">
            <name>Wetland_180</name>
            <Link id="479">
                <href>https://raw.githubusercontent.com/robmohammedmahid-stack/Horry-County-Data/Wetlands/KML-Output/Wetlands/Wetland_180.kml</href>
                <refreshMode>onChange</refreshMode>
            </Link>
        </NetworkLink>
        <NetworkLink id="480">
            <name>Wetland_181</name>
            <Link id="481">
                <href>https://raw.githubusercontent.com/robmohammedmahid-stack/Horry-County-Data/Wetlands/KML-Output/Wetlands/Wetland_181.kml</href>
                <refreshMode>onChange</refreshMode>
            </Link>
        </NetworkLink>
        <NetworkLink id="482">
            <name>Wetland_182</name>
            <Link id="483">
                <href>https://raw.githubusercontent.com/robmohammedmahid-stack/Horry-County-Data/Wetlands/KML-Output/Wetlands/Wetland_182.kml</href>
                <refreshMode>onChange</refreshMode>
            </Link>
        </NetworkLink>
        <NetworkLink id="484">
            <name>Wetland_183</name>
            <Link id="485">
                <href>https://raw.githubusercontent.com/robmohammedmahid-stack/Horry-County-Data/Wetlands/KML-Output/Wetlands/Wetland_183.kml</href>
                <refreshMode>onChange</refreshMode>
            </Link>
        </NetworkLink>
        <NetworkLink id="486">
            <name>Wetland_184</name>
            <Link id="487">
                <href>https://raw.githubusercontent.com/robmohammedmahid-stack/Horry-County-Data/Wetlands/KML-Output/Wetlands/Wetland_184.kml</href>
                <refreshMode>onChange</refreshMode>
            </Link>
        </NetworkLink>
        <NetworkLink id="488">
            <name>Wetland_185</name>
            <Link id="489">
                <href>https://raw.githubusercontent.com/robmohammedmahid-stack/Horry-County-Data/Wetlands/KML-Output/Wetlands/Wetland_185.kml</href>
                <refreshMode>onChange</refreshMode>
            </Link>
        </NetworkLink>
        <NetworkLink id="490">
            <name>Wetland_186</name>
            <Link id="491">
                <href>https://raw.githubusercontent.com/robmohammedmahid-stack/Horry-County-Data/Wetlands/KML-Output/Wetlands/Wetland_186.kml</href>
                <refreshMode>onChange</refreshMode>
            </Link>
        </NetworkLink>
        <NetworkLink id="492">
            <name>Wetland_187</name>
            <Link id="493">
                <href>https://raw.githubusercontent.com/robmohammedmahid-stack/Horry-County-Data/Wetlands/KML-Output/Wetlands/Wetland_187.kml</href>
                <refreshMode>onChange</refreshMode>
            </Link>
        </NetworkLink>
        <NetworkLink id="494">
            <name>Wetland_188</name>
            <Link id="495">
                <href>https://raw.githubusercontent.com/robmohammedmahid-stack/Horry-County-Data/Wetlands/KML-Output/Wetlands/Wetland_188.kml</href>
                <refreshMode>onChange</refreshMode>
            </Link>
        </NetworkLink>
        <NetworkLink id="496">
            <name>Wetland_189</name>
            <Link id="497">
                <href>https://raw.githubusercontent.com/robmohammedmahid-stack/Horry-County-Data/Wetlands/KML-Output/Wetlands/Wetland_189.kml</href>
                <refreshMode>onChange</refreshMode>
            </Link>
        </NetworkLink>
        <NetworkLink id="498">
            <name>Wetland_190</name>
            <Link id="499">
                <href>https://raw.githubusercontent.com/robmohammedmahid-stack/Horry-County-Data/Wetlands/KML-Output/Wetlands/Wetland_190.kml</href>
                <refreshMode>onChange</refreshMode>
            </Link>
        </NetworkLink>
        <NetworkLink id="500">
            <name>Wetland_191</name>
            <Link id="501">
                <href>https://raw.githubusercontent.com/robmohammedmahid-stack/Horry-County-Data/Wetlands/KML-Output/Wetlands/Wetland_191.kml</href>
                <refreshMode>onChange</refreshMode>
            </Link>
        </NetworkLink>
        <NetworkLink id="502">
            <name>Wetland_192</name>
            <Link id="503">
                <href>https://raw.githubusercontent.com/robmohammedmahid-stack/Horry-County-Data/Wetlands/KML-Output/Wetlands/Wetland_192.kml</href>
                <refreshMode>onChange</refreshMode>
            </Link>
        </NetworkLink>
        <NetworkLink id="504">
            <name>Wetland_193</name>
            <Link id="505">
                <href>https://raw.githubusercontent.com/robmohammedmahid-stack/Horry-County-Data/Wetlands/KML-Output/Wetlands/Wetland_193.kml</href>
                <refreshMode>onChange</refreshMode>
            </Link>
        </NetworkLink>
        <NetworkLink id="506">
            <name>Wetland_194</name>
            <Link id="507">
                <href>https://raw.githubusercontent.com/robmohammedmahid-stack/Horry-County-Data/Wetlands/KML-Output/Wetlands/Wetland_194.kml</href>
                <refreshMode>onChange</refreshMode>
            </Link>
        </NetworkLink>
        <NetworkLink id="508">
            <name>Wetland_195</name>
            <Link id="509">
                <href>https://raw.githubusercontent.com/robmohammedmahid-stack/Horry-County-Data/Wetlands/KML-Output/Wetlands/Wetland_195.kml</href>
                <refreshMode>onChange</refreshMode>
            </Link>
        </NetworkLink>
        <NetworkLink id="510">
            <name>Wetland_196</name>
            <Link id="511">
                <href>https://raw.githubusercontent.com/robmohammedmahid-stack/Horry-County-Data/Wetlands/KML-Output/Wetlands/Wetland_196.kml</href>
                <refreshMode>onChange</refreshMode>
            </Link>
        </NetworkLink>
        <NetworkLink id="512">
            <name>Wetland_197</name>
            <Link id="513">
                <href>https://raw.githubusercontent.com/robmohammedmahid-stack/Horry-County-Data/Wetlands/KML-Output/Wetlands/Wetland_197.kml</href>
                <refreshMode>onChange</refreshMode>
            </Link>
        </NetworkLink>
        <NetworkLink id="514">
            <name>Wetland_198</name>
            <Link id="515">
                <href>https://raw.githubusercontent.com/robmohammedmahid-stack/Horry-County-Data/Wetlands/KML-Output/Wetlands/Wetland_198.kml</href>
                <refreshMode>onChange</refreshMode>
            </Link>
        </NetworkLink>
        <NetworkLink id="516">
            <name>Wetland_199</name>
            <Link id="517">
                <href>https://raw.githubusercontent.com/robmohammedmahid-stack/Horry-County-Data/Wetlands/KML-Output/Wetlands/Wetland_199.kml</href>
                <refreshMode>onChange</refreshMode>
            </Link>
        </NetworkLink>
        <NetworkLink id="518">
            <name>Wetland_200</name>
            <Link id="519">
                <href>https://raw.githubusercontent.com/robmohammedmahid-stack/Horry-County-Data/Wetlands/KML-Output/Wetlands/Wetland_200.kml</href>
                <refreshMode>onChange</refreshMode>
            </Link>
        </NetworkLink>
    </Document>
</kml>
