<?xml version="1.0" encoding="UTF-8"?>
<kml xmlns="http://www.opengis.net/kml/2.2" xmlns:gx="http://www.google.com/kml/ext/2.2">
    <Document id="425614">
        <NetworkLink id="425615">
            <name>Flood_001</name>
            <Link id="425616">
                <href>https://raw.githubusercontent.com/robmohammedmahid-stack/Horry-County-Data/Flood-Layers/KML_Output/Flood/Flood_001.kml</href>
                <refreshMode>onChange</refreshMode>
            </Link>
        </NetworkLink>
        <NetworkLink id="425617">
            <name>Flood_002</name>
            <Link id="425618">
                <href>https://raw.githubusercontent.com/robmohammedmahid-stack/Horry-County-Data/Flood-Layers/KML_Output/Flood/Flood_002.kml</href>
                <refreshMode>onChange</refreshMode>
            </Link>
        </NetworkLink>
        <NetworkLink id="425619">
            <name>Flood_003</name>
            <Link id="425620">
                <href>https://raw.githubusercontent.com/robmohammedmahid-stack/Horry-County-Data/Flood-Layers/KML_Output/Flood/Flood_003.kml</href>
                <refreshMode>onChange</refreshMode>
            </Link>
        </NetworkLink>
        <NetworkLink id="425621">
            <name>Flood_004</name>
            <Link id="425622">
                <href>https://raw.githubusercontent.com/robmohammedmahid-stack/Horry-County-Data/Flood-Layers/KML_Output/Flood/Flood_004.kml</href>
                <refreshMode>onChange</refreshMode>
            </Link>
        </NetworkLink>
        <NetworkLink id="425623">
            <name>Flood_005</name>
            <Link id="425624">
                <href>https://raw.githubusercontent.com/robmohammedmahid-stack/Horry-County-Data/Flood-Layers/KML_Output/Flood/Flood_005.kml</href>
                <refreshMode>onChange</refreshMode>
            </Link>
        </NetworkLink>
        <NetworkLink id="425625">
            <name>Flood_006</name>
            <Link id="425626">
                <href>https://raw.githubusercontent.com/robmohammedmahid-stack/Horry-County-Data/Flood-Layers/KML_Output/Flood/Flood_006.kml</href>
                <refreshMode>onChange</refreshMode>
            </Link>
        </NetworkLink>
        <NetworkLink id="425627">
            <name>Flood_007</name>
            <Link id="425628">
                <href>https://raw.githubusercontent.com/robmohammedmahid-stack/Horry-County-Data/Flood-Layers/KML_Output/Flood/Flood_007.kml</href>
                <refreshMode>onChange</refreshMode>
            </Link>
        </NetworkLink>
        <NetworkLink id="425629">
            <name>Flood_008</name>
            <Link id="425630">
                <href>https://raw.githubusercontent.com/robmohammedmahid-stack/Horry-County-Data/Flood-Layers/KML_Output/Flood/Flood_008.kml</href>
                <refreshMode>onChange</refreshMode>
            </Link>
        </NetworkLink>
        <NetworkLink id="425631">
            <name>Flood_009</name>
            <Link id="425632">
                <href>https://raw.githubusercontent.com/robmohammedmahid-stack/Horry-County-Data/Flood-Layers/KML_Output/Flood/Flood_009.kml</href>
                <refreshMode>onChange</refreshMode>
            </Link>
        </NetworkLink>
        <NetworkLink id="425633">
            <name>Flood_010</name>
            <Link id="425634">
                <href>https://raw.githubusercontent.com/robmohammedmahid-stack/Horry-County-Data/Flood-Layers/KML_Output/Flood/Flood_010.kml</href>
                <refreshMode>onChange</refreshMode>
            </Link>
        </NetworkLink>
        <NetworkLink id="425635">
            <name>Flood_011</name>
            <Link id="425636">
                <href>https://raw.githubusercontent.com/robmohammedmahid-stack/Horry-County-Data/Flood-Layers/KML_Output/Flood/Flood_011.kml</href>
                <refreshMode>onChange</refreshMode>
            </Link>
        </NetworkLink>
        <NetworkLink id="425637">
            <name>Flood_012</name>
            <Link id="425638">
                <href>https://raw.githubusercontent.com/robmohammedmahid-stack/Horry-County-Data/Flood-Layers/KML_Output/Flood/Flood_012.kml</href>
                <refreshMode>onChange</refreshMode>
            </Link>
        </NetworkLink>
        <NetworkLink id="425639">
            <name>Flood_013</name>
            <Link id="425640">
                <href>https://raw.githubusercontent.com/robmohammedmahid-stack/Horry-County-Data/Flood-Layers/KML_Output/Flood/Flood_013.kml</href>
                <refreshMode>onChange</refreshMode>
            </Link>
        </NetworkLink>
        <NetworkLink id="425641">
            <name>Flood_014</name>
            <Link id="425642">
                <href>https://raw.githubusercontent.com/robmohammedmahid-stack/Horry-County-Data/Flood-Layers/KML_Output/Flood/Flood_014.kml</href>
                <refreshMode>onChange</refreshMode>
            </Link>
        </NetworkLink>
        <NetworkLink id="425643">
            <name>Flood_015</name>
            <Link id="425644">
                <href>https://raw.githubusercontent.com/robmohammedmahid-stack/Horry-County-Data/Flood-Layers/KML_Output/Flood/Flood_015.kml</href>
                <refreshMode>onChange</refreshMode>
            </Link>
        </NetworkLink>
        <NetworkLink id="425645">
            <name>Flood_016</name>
            <Link id="425646">
                <href>https://raw.githubusercontent.com/robmohammedmahid-stack/Horry-County-Data/Flood-Layers/KML_Output/Flood/Flood_016.kml</href>
                <refreshMode>onChange</refreshMode>
            </Link>
        </NetworkLink>
        <NetworkLink id="425647">
            <name>Flood_017</name>
            <Link id="425648">
                <href>https://raw.githubusercontent.com/robmohammedmahid-stack/Horry-County-Data/Flood-Layers/KML_Output/Flood/Flood_017.kml</href>
                <refreshMode>onChange</refreshMode>
            </Link>
        </NetworkLink>
        <NetworkLink id="425649">
            <name>Flood_018</name>
            <Link id="425650">
                <href>https://raw.githubusercontent.com/robmohammedmahid-stack/Horry-County-Data/Flood-Layers/KML_Output/Flood/Flood_018.kml</href>
                <refreshMode>onChange</refreshMode>
            </Link>
        </NetworkLink>
        <NetworkLink id="425651">
            <name>Flood_019</name>
            <Link id="425652">
                <href>https://raw.githubusercontent.com/robmohammedmahid-stack/Horry-County-Data/Flood-Layers/KML_Output/Flood/Flood_019.kml</href>
                <refreshMode>onChange</refreshMode>
            </Link>
        </NetworkLink>
        <NetworkLink id="425653">
            <name>Flood_020</name>
            <Link id="425654">
                <href>https://raw.githubusercontent.com/robmohammedmahid-stack/Horry-County-Data/Flood-Layers/KML_Output/Flood/Flood_020.kml</href>
                <refreshMode>onChange</refreshMode>
            </Link>
        </NetworkLink>
        <NetworkLink id="425655">
            <name>Flood_021</name>
            <Link id="425656">
                <href>https://raw.githubusercontent.com/robmohammedmahid-stack/Horry-County-Data/Flood-Layers/KML_Output/Flood/Flood_021.kml</href>
                <refreshMode>onChange</refreshMode>
            </Link>
        </NetworkLink>
        <NetworkLink id="425657">
            <name>Flood_022</name>
            <Link id="425658">
                <href>https://raw.githubusercontent.com/robmohammedmahid-stack/Horry-County-Data/Flood-Layers/KML_Output/Flood/Flood_022.kml</href>
                <refreshMode>onChange</refreshMode>
            </Link>
        </NetworkLink>
        <NetworkLink id="425659">
            <name>Flood_023</name>
            <Link id="425660">
                <href>https://raw.githubusercontent.com/robmohammedmahid-stack/Horry-County-Data/Flood-Layers/KML_Output/Flood/Flood_023.kml</href>
                <refreshMode>onChange</refreshMode>
            </Link>
        </NetworkLink>
        <NetworkLink id="425661">
            <name>Flood_024</name>
            <Link id="425662">
                <href>https://raw.githubusercontent.com/robmohammedmahid-stack/Horry-County-Data/Flood-Layers/KML_Output/Flood/Flood_024.kml</href>
                <refreshMode>onChange</refreshMode>
            </Link>
        </NetworkLink>
        <NetworkLink id="425663">
            <name>Flood_025</name>
            <Link id="425664">
                <href>https://raw.githubusercontent.com/robmohammedmahid-stack/Horry-County-Data/Flood-Layers/KML_Output/Flood/Flood_025.kml</href>
                <refreshMode>onChange</refreshMode>
            </Link>
        </NetworkLink>
        <NetworkLink id="425665">
            <name>Flood_026</name>
            <Link id="425666">
                <href>https://raw.githubusercontent.com/robmohammedmahid-stack/Horry-County-Data/Flood-Layers/KML_Output/Flood/Flood_026.kml</href>
                <refreshMode>onChange</refreshMode>
            </Link>
        </NetworkLink>
        <NetworkLink id="425667">
            <name>Flood_027</name>
            <Link id="425668">
                <href>https://raw.githubusercontent.com/robmohammedmahid-stack/Horry-County-Data/Flood-Layers/KML_Output/Flood/Flood_027.kml</href>
                <refreshMode>onChange</refreshMode>
            </Link>
        </NetworkLink>
        <NetworkLink id="425669">
            <name>Flood_028</name>
            <Link id="425670">
                <href>https://raw.githubusercontent.com/robmohammedmahid-stack/Horry-County-Data/Flood-Layers/KML_Output/Flood/Flood_028.kml</href>
                <refreshMode>onChange</refreshMode>
            </Link>
        </NetworkLink>
        <NetworkLink id="425671">
            <name>Flood_029</name>
            <Link id="425672">
                <href>https://raw.githubusercontent.com/robmohammedmahid-stack/Horry-County-Data/Flood-Layers/KML_Output/Flood/Flood_029.kml</href>
                <refreshMode>onChange</refreshMode>
            </Link>
        </NetworkLink>
        <NetworkLink id="425673">
            <name>Flood_030</name>
            <Link id="425674">
                <href>https://raw.githubusercontent.com/robmohammedmahid-stack/Horry-County-Data/Flood-Layers/KML_Output/Flood/Flood_030.kml</href>
                <refreshMode>onChange</refreshMode>
            </Link>
        </NetworkLink>
        <NetworkLink id="425675">
            <name>Flood_031</name>
            <Link id="425676">
                <href>https://raw.githubusercontent.com/robmohammedmahid-stack/Horry-County-Data/Flood-Layers/KML_Output/Flood/Flood_031.kml</href>
                <refreshMode>onChange</refreshMode>
            </Link>
        </NetworkLink>
        <NetworkLink id="425677">
            <name>Flood_032</name>
            <Link id="425678">
                <href>https://raw.githubusercontent.com/robmohammedmahid-stack/Horry-County-Data/Flood-Layers/KML_Output/Flood/Flood_032.kml</href>
                <refreshMode>onChange</refreshMode>
            </Link>
        </NetworkLink>
        <NetworkLink id="425679">
            <name>Flood_033</name>
            <Link id="425680">
                <href>https://raw.githubusercontent.com/robmohammedmahid-stack/Horry-County-Data/Flood-Layers/KML_Output/Flood/Flood_033.kml</href>
                <refreshMode>onChange</refreshMode>
            </Link>
        </NetworkLink>
        <NetworkLink id="425681">
            <name>Flood_034</name>
            <Link id="425682">
                <href>https://raw.githubusercontent.com/robmohammedmahid-stack/Horry-County-Data/Flood-Layers/KML_Output/Flood/Flood_034.kml</href>
                <refreshMode>onChange</refreshMode>
            </Link>
        </NetworkLink>
        <NetworkLink id="425683">
            <name>Flood_035</name>
            <Link id="425684">
                <href>https://raw.githubusercontent.com/robmohammedmahid-stack/Horry-County-Data/Flood-Layers/KML_Output/Flood/Flood_035.kml</href>
                <refreshMode>onChange</refreshMode>
            </Link>
        </NetworkLink>
        <NetworkLink id="425685">
            <name>Flood_036</name>
            <Link id="425686">
                <href>https://raw.githubusercontent.com/robmohammedmahid-stack/Horry-County-Data/Flood-Layers/KML_Output/Flood/Flood_036.kml</href>
                <refreshMode>onChange</refreshMode>
            </Link>
        </NetworkLink>
        <NetworkLink id="425687">
            <name>Flood_037</name>
            <Link id="425688">
                <href>https://raw.githubusercontent.com/robmohammedmahid-stack/Horry-County-Data/Flood-Layers/KML_Output/Flood/Flood_037.kml</href>
                <refreshMode>onChange</refreshMode>
            </Link>
        </NetworkLink>
        <NetworkLink id="425689">
            <name>Flood_038</name>
            <Link id="425690">
                <href>https://raw.githubusercontent.com/robmohammedmahid-stack/Horry-County-Data/Flood-Layers/KML_Output/Flood/Flood_038.kml</href>
                <refreshMode>onChange</refreshMode>
            </Link>
        </NetworkLink>
        <NetworkLink id="425691">
            <name>Flood_039</name>
            <Link id="425692">
                <href>https://raw.githubusercontent.com/robmohammedmahid-stack/Horry-County-Data/Flood-Layers/KML_Output/Flood/Flood_039.kml</href>
                <refreshMode>onChange</refreshMode>
            </Link>
        </NetworkLink>
        <NetworkLink id="425693">
            <name>Flood_040</name>
            <Link id="425694">
                <href>https://raw.githubusercontent.com/robmohammedmahid-stack/Horry-County-Data/Flood-Layers/KML_Output/Flood/Flood_040.kml</href>
                <refreshMode>onChange</refreshMode>
            </Link>
        </NetworkLink>
        <NetworkLink id="425695">
            <name>Flood_041</name>
            <Link id="425696">
                <href>https://raw.githubusercontent.com/robmohammedmahid-stack/Horry-County-Data/Flood-Layers/KML_Output/Flood/Flood_041.kml</href>
                <refreshMode>onChange</refreshMode>
            </Link>
        </NetworkLink>
        <NetworkLink id="425697">
            <name>Flood_042</name>
            <Link id="425698">
                <href>https://raw.githubusercontent.com/robmohammedmahid-stack/Horry-County-Data/Flood-Layers/KML_Output/Flood/Flood_042.kml</href>
                <refreshMode>onChange</refreshMode>
            </Link>
        </NetworkLink>
        <NetworkLink id="425699">
            <name>Flood_043</name>
            <Link id="425700">
                <href>https://raw.githubusercontent.com/robmohammedmahid-stack/Horry-County-Data/Flood-Layers/KML_Output/Flood/Flood_043.kml</href>
                <refreshMode>onChange</refreshMode>
            </Link>
        </NetworkLink>
        <NetworkLink id="425701">
            <name>Flood_044</name>
            <Link id="425702">
                <href>https://raw.githubusercontent.com/robmohammedmahid-stack/Horry-County-Data/Flood-Layers/KML_Output/Flood/Flood_044.kml</href>
                <refreshMode>onChange</refreshMode>
            </Link>
        </NetworkLink>
        <NetworkLink id="425703">
            <name>Flood_045</name>
            <Link id="425704">
                <href>https://raw.githubusercontent.com/robmohammedmahid-stack/Horry-County-Data/Flood-Layers/KML_Output/Flood/Flood_045.kml</href>
                <refreshMode>onChange</refreshMode>
            </Link>
        </NetworkLink>
        <NetworkLink id="425705">
            <name>Flood_046</name>
            <Link id="425706">
                <href>https://raw.githubusercontent.com/robmohammedmahid-stack/Horry-County-Data/Flood-Layers/KML_Output/Flood/Flood_046.kml</href>
                <refreshMode>onChange</refreshMode>
            </Link>
        </NetworkLink>
        <NetworkLink id="425707">
            <name>Flood_047</name>
            <Link id="425708">
                <href>https://raw.githubusercontent.com/robmohammedmahid-stack/Horry-County-Data/Flood-Layers/KML_Output/Flood/Flood_047.kml</href>
                <refreshMode>onChange</refreshMode>
            </Link>
        </NetworkLink>
        <NetworkLink id="425709">
            <name>Flood_048</name>
            <Link id="425710">
                <href>https://raw.githubusercontent.com/robmohammedmahid-stack/Horry-County-Data/Flood-Layers/KML_Output/Flood/Flood_048.kml</href>
                <refreshMode>onChange</refreshMode>
            </Link>
        </NetworkLink>
        <NetworkLink id="425711">
            <name>Flood_049</name>
            <Link id="425712">
                <href>https://raw.githubusercontent.com/robmohammedmahid-stack/Horry-County-Data/Flood-Layers/KML_Output/Flood/Flood_049.kml</href>
                <refreshMode>onChange</refreshMode>
            </Link>
        </NetworkLink>
        <NetworkLink id="425713">
            <name>Flood_050</name>
            <Link id="425714">
                <href>https://raw.githubusercontent.com/robmohammedmahid-stack/Horry-County-Data/Flood-Layers/KML_Output/Flood/Flood_050.kml</href>
                <refreshMode>onChange</refreshMode>
            </Link>
        </NetworkLink>
        <NetworkLink id="425715">
            <name>Flood_051</name>
            <Link id="425716">
                <href>https://raw.githubusercontent.com/robmohammedmahid-stack/Horry-County-Data/Flood-Layers/KML_Output/Flood/Flood_051.kml</href>
                <refreshMode>onChange</refreshMode>
            </Link>
        </NetworkLink>
        <NetworkLink id="425717">
            <name>Flood_052</name>
            <Link id="425718">
                <href>https://raw.githubusercontent.com/robmohammedmahid-stack/Horry-County-Data/Flood-Layers/KML_Output/Flood/Flood_052.kml</href>
                <refreshMode>onChange</refreshMode>
            </Link>
        </NetworkLink>
        <NetworkLink id="425719">
            <name>Flood_053</name>
            <Link id="425720">
                <href>https://raw.githubusercontent.com/robmohammedmahid-stack/Horry-County-Data/Flood-Layers/KML_Output/Flood/Flood_053.kml</href>
                <refreshMode>onChange</refreshMode>
            </Link>
        </NetworkLink>
        <NetworkLink id="425721">
            <name>Flood_054</name>
            <Link id="425722">
                <href>https://raw.githubusercontent.com/robmohammedmahid-stack/Horry-County-Data/Flood-Layers/KML_Output/Flood/Flood_054.kml</href>
                <refreshMode>onChange</refreshMode>
            </Link>
        </NetworkLink>
        <NetworkLink id="425723">
            <name>Flood_055</name>
            <Link id="425724">
                <href>https://raw.githubusercontent.com/robmohammedmahid-stack/Horry-County-Data/Flood-Layers/KML_Output/Flood/Flood_055.kml</href>
                <refreshMode>onChange</refreshMode>
            </Link>
        </NetworkLink>
        <NetworkLink id="425725">
            <name>Flood_056</name>
            <Link id="425726">
                <href>https://raw.githubusercontent.com/robmohammedmahid-stack/Horry-County-Data/Flood-Layers/KML_Output/Flood/Flood_056.kml</href>
                <refreshMode>onChange</refreshMode>
            </Link>
        </NetworkLink>
    </Document>
</kml>
