<?xml version="1.0" encoding="UTF-8"?>
<kml xmlns="http://www.opengis.net/kml/2.2" xmlns:gx="http://www.google.com/kml/ext/2.2">
    <Document id="117">
        <NetworkLink id="118">
            <name>Wetland_001</name>
            <Link id="119">
                <href>https://raw.githubusercontent.com/robmohammedmahid-stack/Horry-County-Data/Wetlands/KML-Output/Wetlands/Wetland_001.kml</href>
                <refreshMode>onChange</refreshMode>
            </Link>
        </NetworkLink>
        <NetworkLink id="120">
            <name>Wetland_002</name>
            <Link id="121">
                <href>https://raw.githubusercontent.com/robmohammedmahid-stack/Horry-County-Data/Wetlands/KML-Output/Wetlands/Wetland_002.kml</href>
                <refreshMode>onChange</refreshMode>
            </Link>
        </NetworkLink>
        <NetworkLink id="122">
            <name>Wetland_003</name>
            <Link id="123">
                <href>https://raw.githubusercontent.com/robmohammedmahid-stack/Horry-County-Data/Wetlands/KML-Output/Wetlands/Wetland_003.kml</href>
                <refreshMode>onChange</refreshMode>
            </Link>
        </NetworkLink>
        <NetworkLink id="124">
            <name>Wetland_004</name>
            <Link id="125">
                <href>https://raw.githubusercontent.com/robmohammedmahid-stack/Horry-County-Data/Wetlands/KML-Output/Wetlands/Wetland_004.kml</href>
                <refreshMode>onChange</refreshMode>
            </Link>
        </NetworkLink>
        <NetworkLink id="126">
            <name>Wetland_005</name>
            <Link id="127">
                <href>https://raw.githubusercontent.com/robmohammedmahid-stack/Horry-County-Data/Wetlands/KML-Output/Wetlands/Wetland_005.kml</href>
                <refreshMode>onChange</refreshMode>
            </Link>
        </NetworkLink>
        <NetworkLink id="128">
            <name>Wetland_006</name>
            <Link id="129">
                <href>https://raw.githubusercontent.com/robmohammedmahid-stack/Horry-County-Data/Wetlands/KML-Output/Wetlands/Wetland_006.kml</href>
                <refreshMode>onChange</refreshMode>
            </Link>
        </NetworkLink>
        <NetworkLink id="130">
            <name>Wetland_007</name>
            <Link id="131">
                <href>https://raw.githubusercontent.com/robmohammedmahid-stack/Horry-County-Data/Wetlands/KML-Output/Wetlands/Wetland_007.kml</href>
                <refreshMode>onChange</refreshMode>
            </Link>
        </NetworkLink>
        <NetworkLink id="132">
            <name>Wetland_008</name>
            <Link id="133">
                <href>https://raw.githubusercontent.com/robmohammedmahid-stack/Horry-County-Data/Wetlands/KML-Output/Wetlands/Wetland_008.kml</href>
                <refreshMode>onChange</refreshMode>
            </Link>
        </NetworkLink>
        <NetworkLink id="134">
            <name>Wetland_009</name>
            <Link id="135">
                <href>https://raw.githubusercontent.com/robmohammedmahid-stack/Horry-County-Data/Wetlands/KML-Output/Wetlands/Wetland_009.kml</href>
                <refreshMode>onChange</refreshMode>
            </Link>
        </NetworkLink>
        <NetworkLink id="136">
            <name>Wetland_010</name>
            <Link id="137">
                <href>https://raw.githubusercontent.com/robmohammedmahid-stack/Horry-County-Data/Wetlands/KML-Output/Wetlands/Wetland_010.kml</href>
                <refreshMode>onChange</refreshMode>
            </Link>
        </NetworkLink>
        <NetworkLink id="138">
            <name>Wetland_011</name>
            <Link id="139">
                <href>https://raw.githubusercontent.com/robmohammedmahid-stack/Horry-County-Data/Wetlands/KML-Output/Wetlands/Wetland_011.kml</href>
                <refreshMode>onChange</refreshMode>
            </Link>
        </NetworkLink>
        <NetworkLink id="140">
            <name>Wetland_012</name>
            <Link id="141">
                <href>https://raw.githubusercontent.com/robmohammedmahid-stack/Horry-County-Data/Wetlands/KML-Output/Wetlands/Wetland_012.kml</href>
                <refreshMode>onChange</refreshMode>
            </Link>
        </NetworkLink>
        <NetworkLink id="142">
            <name>Wetland_013</name>
            <Link id="143">
                <href>https://raw.githubusercontent.com/robmohammedmahid-stack/Horry-County-Data/Wetlands/KML-Output/Wetlands/Wetland_013.kml</href>
                <refreshMode>onChange</refreshMode>
            </Link>
        </NetworkLink>
        <NetworkLink id="144">
            <name>Wetland_014</name>
            <Link id="145">
                <href>https://raw.githubusercontent.com/robmohammedmahid-stack/Horry-County-Data/Wetlands/KML-Output/Wetlands/Wetland_014.kml</href>
                <refreshMode>onChange</refreshMode>
            </Link>
        </NetworkLink>
        <NetworkLink id="146">
            <name>Wetland_015</name>
            <Link id="147">
                <href>https://raw.githubusercontent.com/robmohammedmahid-stack/Horry-County-Data/Wetlands/KML-Output/Wetlands/Wetland_015.kml</href>
                <refreshMode>onChange</refreshMode>
            </Link>
        </NetworkLink>
        <NetworkLink id="148">
            <name>Wetland_016</name>
            <Link id="149">
                <href>https://raw.githubusercontent.com/robmohammedmahid-stack/Horry-County-Data/Wetlands/KML-Output/Wetlands/Wetland_016.kml</href>
                <refreshMode>onChange</refreshMode>
            </Link>
        </NetworkLink>
        <NetworkLink id="150">
            <name>Wetland_017</name>
            <Link id="151">
                <href>https://raw.githubusercontent.com/robmohammedmahid-stack/Horry-County-Data/Wetlands/KML-Output/Wetlands/Wetland_017.kml</href>
                <refreshMode>onChange</refreshMode>
            </Link>
        </NetworkLink>
        <NetworkLink id="152">
            <name>Wetland_018</name>
            <Link id="153">
                <href>https://raw.githubusercontent.com/robmohammedmahid-stack/Horry-County-Data/Wetlands/KML-Output/Wetlands/Wetland_018.kml</href>
                <refreshMode>onChange</refreshMode>
            </Link>
        </NetworkLink>
        <NetworkLink id="154">
            <name>Wetland_019</name>
            <Link id="155">
                <href>https://raw.githubusercontent.com/robmohammedmahid-stack/Horry-County-Data/Wetlands/KML-Output/Wetlands/Wetland_019.kml</href>
                <refreshMode>onChange</refreshMode>
            </Link>
        </NetworkLink>
        <NetworkLink id="156">
            <name>Wetland_020</name>
            <Link id="157">
                <href>https://raw.githubusercontent.com/robmohammedmahid-stack/Horry-County-Data/Wetlands/KML-Output/Wetlands/Wetland_020.kml</href>
                <refreshMode>onChange</refreshMode>
            </Link>
        </NetworkLink>
        <NetworkLink id="158">
            <name>Wetland_021</name>
            <Link id="159">
                <href>https://raw.githubusercontent.com/robmohammedmahid-stack/Horry-County-Data/Wetlands/KML-Output/Wetlands/Wetland_021.kml</href>
                <refreshMode>onChange</refreshMode>
            </Link>
        </NetworkLink>
        <NetworkLink id="160">
            <name>Wetland_022</name>
            <Link id="161">
                <href>https://raw.githubusercontent.com/robmohammedmahid-stack/Horry-County-Data/Wetlands/KML-Output/Wetlands/Wetland_022.kml</href>
                <refreshMode>onChange</refreshMode>
            </Link>
        </NetworkLink>
        <NetworkLink id="162">
            <name>Wetland_023</name>
            <Link id="163">
                <href>https://raw.githubusercontent.com/robmohammedmahid-stack/Horry-County-Data/Wetlands/KML-Output/Wetlands/Wetland_023.kml</href>
                <refreshMode>onChange</refreshMode>
            </Link>
        </NetworkLink>
        <NetworkLink id="164">
            <name>Wetland_024</name>
            <Link id="165">
                <href>https://raw.githubusercontent.com/robmohammedmahid-stack/Horry-County-Data/Wetlands/KML-Output/Wetlands/Wetland_024.kml</href>
                <refreshMode>onChange</refreshMode>
            </Link>
        </NetworkLink>
        <NetworkLink id="166">
            <name>Wetland_025</name>
            <Link id="167">
                <href>https://raw.githubusercontent.com/robmohammedmahid-stack/Horry-County-Data/Wetlands/KML-Output/Wetlands/Wetland_025.kml</href>
                <refreshMode>onChange</refreshMode>
            </Link>
        </NetworkLink>
        <NetworkLink id="168">
            <name>Wetland_026</name>
            <Link id="169">
                <href>https://raw.githubusercontent.com/robmohammedmahid-stack/Horry-County-Data/Wetlands/KML-Output/Wetlands/Wetland_026.kml</href>
                <refreshMode>onChange</refreshMode>
            </Link>
        </NetworkLink>
        <NetworkLink id="170">
            <name>Wetland_027</name>
            <Link id="171">
                <href>https://raw.githubusercontent.com/robmohammedmahid-stack/Horry-County-Data/Wetlands/KML-Output/Wetlands/Wetland_027.kml</href>
                <refreshMode>onChange</refreshMode>
            </Link>
        </NetworkLink>
        <NetworkLink id="172">
            <name>Wetland_028</name>
            <Link id="173">
                <href>https://raw.githubusercontent.com/robmohammedmahid-stack/Horry-County-Data/Wetlands/KML-Output/Wetlands/Wetland_028.kml</href>
                <refreshMode>onChange</refreshMode>
            </Link>
        </NetworkLink>
        <NetworkLink id="174">
            <name>Wetland_029</name>
            <Link id="175">
                <href>https://raw.githubusercontent.com/robmohammedmahid-stack/Horry-County-Data/Wetlands/KML-Output/Wetlands/Wetland_029.kml</href>
                <refreshMode>onChange</refreshMode>
            </Link>
        </NetworkLink>
        <NetworkLink id="176">
            <name>Wetland_030</name>
            <Link id="177">
                <href>https://raw.githubusercontent.com/robmohammedmahid-stack/Horry-County-Data/Wetlands/KML-Output/Wetlands/Wetland_030.kml</href>
                <refreshMode>onChange</refreshMode>
            </Link>
        </NetworkLink>
        <NetworkLink id="178">
            <name>Wetland_031</name>
            <Link id="179">
                <href>https://raw.githubusercontent.com/robmohammedmahid-stack/Horry-County-Data/Wetlands/KML-Output/Wetlands/Wetland_031.kml</href>
                <refreshMode>onChange</refreshMode>
            </Link>
        </NetworkLink>
        <NetworkLink id="180">
            <name>Wetland_032</name>
            <Link id="181">
                <href>https://raw.githubusercontent.com/robmohammedmahid-stack/Horry-County-Data/Wetlands/KML-Output/Wetlands/Wetland_032.kml</href>
                <refreshMode>onChange</refreshMode>
            </Link>
        </NetworkLink>
        <NetworkLink id="182">
            <name>Wetland_033</name>
            <Link id="183">
                <href>https://raw.githubusercontent.com/robmohammedmahid-stack/Horry-County-Data/Wetlands/KML-Output/Wetlands/Wetland_033.kml</href>
                <refreshMode>onChange</refreshMode>
            </Link>
        </NetworkLink>
        <NetworkLink id="184">
            <name>Wetland_034</name>
            <Link id="185">
                <href>https://raw.githubusercontent.com/robmohammedmahid-stack/Horry-County-Data/Wetlands/KML-Output/Wetlands/Wetland_034.kml</href>
                <refreshMode>onChange</refreshMode>
            </Link>
        </NetworkLink>
        <NetworkLink id="186">
            <name>Wetland_035</name>
            <Link id="187">
                <href>https://raw.githubusercontent.com/robmohammedmahid-stack/Horry-County-Data/Wetlands/KML-Output/Wetlands/Wetland_035.kml</href>
                <refreshMode>onChange</refreshMode>
            </Link>
        </NetworkLink>
        <NetworkLink id="188">
            <name>Wetland_036</name>
            <Link id="189">
                <href>https://raw.githubusercontent.com/robmohammedmahid-stack/Horry-County-Data/Wetlands/KML-Output/Wetlands/Wetland_036.kml</href>
                <refreshMode>onChange</refreshMode>
            </Link>
        </NetworkLink>
        <NetworkLink id="190">
            <name>Wetland_037</name>
            <Link id="191">
                <href>https://raw.githubusercontent.com/robmohammedmahid-stack/Horry-County-Data/Wetlands/KML-Output/Wetlands/Wetland_037.kml</href>
                <refreshMode>onChange</refreshMode>
            </Link>
        </NetworkLink>
        <NetworkLink id="192">
            <name>Wetland_038</name>
            <Link id="193">
                <href>https://raw.githubusercontent.com/robmohammedmahid-stack/Horry-County-Data/Wetlands/KML-Output/Wetlands/Wetland_038.kml</href>
                <refreshMode>onChange</refreshMode>
            </Link>
        </NetworkLink>
        <NetworkLink id="194">
            <name>Wetland_039</name>
            <Link id="195">
                <href>https://raw.githubusercontent.com/robmohammedmahid-stack/Horry-County-Data/Wetlands/KML-Output/Wetlands/Wetland_039.kml</href>
                <refreshMode>onChange</refreshMode>
            </Link>
        </NetworkLink>
        <NetworkLink id="196">
            <name>Wetland_040</name>
            <Link id="197">
                <href>https://raw.githubusercontent.com/robmohammedmahid-stack/Horry-County-Data/Wetlands/KML-Output/Wetlands/Wetland_040.kml</href>
                <refreshMode>onChange</refreshMode>
            </Link>
        </NetworkLink>
        <NetworkLink id="198">
            <name>Wetland_041</name>
            <Link id="199">
                <href>https://raw.githubusercontent.com/robmohammedmahid-stack/Horry-County-Data/Wetlands/KML-Output/Wetlands/Wetland_041.kml</href>
                <refreshMode>onChange</refreshMode>
            </Link>
        </NetworkLink>
        <NetworkLink id="200">
            <name>Wetland_042</name>
            <Link id="201">
                <href>https://raw.githubusercontent.com/robmohammedmahid-stack/Horry-County-Data/Wetlands/KML-Output/Wetlands/Wetland_042.kml</href>
                <refreshMode>onChange</refreshMode>
            </Link>
        </NetworkLink>
        <NetworkLink id="202">
            <name>Wetland_043</name>
            <Link id="203">
                <href>https://raw.githubusercontent.com/robmohammedmahid-stack/Horry-County-Data/Wetlands/KML-Output/Wetlands/Wetland_043.kml</href>
                <refreshMode>onChange</refreshMode>
            </Link>
        </NetworkLink>
        <NetworkLink id="204">
            <name>Wetland_044</name>
            <Link id="205">
                <href>https://raw.githubusercontent.com/robmohammedmahid-stack/Horry-County-Data/Wetlands/KML-Output/Wetlands/Wetland_044.kml</href>
                <refreshMode>onChange</refreshMode>
            </Link>
        </NetworkLink>
        <NetworkLink id="206">
            <name>Wetland_045</name>
            <Link id="207">
                <href>https://raw.githubusercontent.com/robmohammedmahid-stack/Horry-County-Data/Wetlands/KML-Output/Wetlands/Wetland_045.kml</href>
                <refreshMode>onChange</refreshMode>
            </Link>
        </NetworkLink>
        <NetworkLink id="208">
            <name>Wetland_046</name>
            <Link id="209">
                <href>https://raw.githubusercontent.com/robmohammedmahid-stack/Horry-County-Data/Wetlands/KML-Output/Wetlands/Wetland_046.kml</href>
                <refreshMode>onChange</refreshMode>
            </Link>
        </NetworkLink>
        <NetworkLink id="210">
            <name>Wetland_047</name>
            <Link id="211">
                <href>https://raw.githubusercontent.com/robmohammedmahid-stack/Horry-County-Data/Wetlands/KML-Output/Wetlands/Wetland_047.kml</href>
                <refreshMode>onChange</refreshMode>
            </Link>
        </NetworkLink>
        <NetworkLink id="212">
            <name>Wetland_048</name>
            <Link id="213">
                <href>https://raw.githubusercontent.com/robmohammedmahid-stack/Horry-County-Data/Wetlands/KML-Output/Wetlands/Wetland_048.kml</href>
                <refreshMode>onChange</refreshMode>
            </Link>
        </NetworkLink>
        <NetworkLink id="214">
            <name>Wetland_049</name>
            <Link id="215">
                <href>https://raw.githubusercontent.com/robmohammedmahid-stack/Horry-County-Data/Wetlands/KML-Output/Wetlands/Wetland_049.kml</href>
                <refreshMode>onChange</refreshMode>
            </Link>
        </NetworkLink>
        <NetworkLink id="216">
            <name>Wetland_050</name>
            <Link id="217">
                <href>https://raw.githubusercontent.com/robmohammedmahid-stack/Horry-County-Data/Wetlands/KML-Output/Wetlands/Wetland_050.kml</href>
                <refreshMode>onChange</refreshMode>
            </Link>
        </NetworkLink>
        <NetworkLink id="218">
            <name>Wetland_051</name>
            <Link id="219">
                <href>https://raw.githubusercontent.com/robmohammedmahid-stack/Horry-County-Data/Wetlands/KML-Output/Wetlands/Wetland_051.kml</href>
                <refreshMode>onChange</refreshMode>
            </Link>
        </NetworkLink>
        <NetworkLink id="220">
            <name>Wetland_052</name>
            <Link id="221">
                <href>https://raw.githubusercontent.com/robmohammedmahid-stack/Horry-County-Data/Wetlands/KML-Output/Wetlands/Wetland_052.kml</href>
                <refreshMode>onChange</refreshMode>
            </Link>
        </NetworkLink>
        <NetworkLink id="222">
            <name>Wetland_053</name>
            <Link id="223">
                <href>https://raw.githubusercontent.com/robmohammedmahid-stack/Horry-County-Data/Wetlands/KML-Output/Wetlands/Wetland_053.kml</href>
                <refreshMode>onChange</refreshMode>
            </Link>
        </NetworkLink>
        <NetworkLink id="224">
            <name>Wetland_054</name>
            <Link id="225">
                <href>https://raw.githubusercontent.com/robmohammedmahid-stack/Horry-County-Data/Wetlands/KML-Output/Wetlands/Wetland_054.kml</href>
                <refreshMode>onChange</refreshMode>
            </Link>
        </NetworkLink>
        <NetworkLink id="226">
            <name>Wetland_055</name>
            <Link id="227">
                <href>https://raw.githubusercontent.com/robmohammedmahid-stack/Horry-County-Data/Wetlands/KML-Output/Wetlands/Wetland_055.kml</href>
                <refreshMode>onChange</refreshMode>
            </Link>
        </NetworkLink>
        <NetworkLink id="228">
            <name>Wetland_056</name>
            <Link id="229">
                <href>https://raw.githubusercontent.com/robmohammedmahid-stack/Horry-County-Data/Wetlands/KML-Output/Wetlands/Wetland_056.kml</href>
                <refreshMode>onChange</refreshMode>
            </Link>
        </NetworkLink>
        <NetworkLink id="230">
            <name>Wetland_057</name>
            <Link id="231">
                <href>https://raw.githubusercontent.com/robmohammedmahid-stack/Horry-County-Data/Wetlands/KML-Output/Wetlands/Wetland_057.kml</href>
                <refreshMode>onChange</refreshMode>
            </Link>
        </NetworkLink>
        <NetworkLink id="232">
            <name>Wetland_058</name>
            <Link id="233">
                <href>https://raw.githubusercontent.com/robmohammedmahid-stack/Horry-County-Data/Wetlands/KML-Output/Wetlands/Wetland_058.kml</href>
                <refreshMode>onChange</refreshMode>
            </Link>
        </NetworkLink>
        <NetworkLink id="234">
            <name>Wetland_059</name>
            <Link id="235">
                <href>https://raw.githubusercontent.com/robmohammedmahid-stack/Horry-County-Data/Wetlands/KML-Output/Wetlands/Wetland_059.kml</href>
                <refreshMode>onChange</refreshMode>
            </Link>
        </NetworkLink>
        <NetworkLink id="236">
            <name>Wetland_060</name>
            <Link id="237">
                <href>https://raw.githubusercontent.com/robmohammedmahid-stack/Horry-County-Data/Wetlands/KML-Output/Wetlands/Wetland_060.kml</href>
                <refreshMode>onChange</refreshMode>
            </Link>
        </NetworkLink>
        <NetworkLink id="238">
            <name>Wetland_061</name>
            <Link id="239">
                <href>https://raw.githubusercontent.com/robmohammedmahid-stack/Horry-County-Data/Wetlands/KML-Output/Wetlands/Wetland_061.kml</href>
                <refreshMode>onChange</refreshMode>
            </Link>
        </NetworkLink>
        <NetworkLink id="240">
            <name>Wetland_062</name>
            <Link id="241">
                <href>https://raw.githubusercontent.com/robmohammedmahid-stack/Horry-County-Data/Wetlands/KML-Output/Wetlands/Wetland_062.kml</href>
                <refreshMode>onChange</refreshMode>
            </Link>
        </NetworkLink>
        <NetworkLink id="242">
            <name>Wetland_063</name>
            <Link id="243">
                <href>https://raw.githubusercontent.com/robmohammedmahid-stack/Horry-County-Data/Wetlands/KML-Output/Wetlands/Wetland_063.kml</href>
                <refreshMode>onChange</refreshMode>
            </Link>
        </NetworkLink>
        <NetworkLink id="244">
            <name>Wetland_064</name>
            <Link id="245">
                <href>https://raw.githubusercontent.com/robmohammedmahid-stack/Horry-County-Data/Wetlands/KML-Output/Wetlands/Wetland_064.kml</href>
                <refreshMode>onChange</refreshMode>
            </Link>
        </NetworkLink>
        <NetworkLink id="246">
            <name>Wetland_065</name>
            <Link id="247">
                <href>https://raw.githubusercontent.com/robmohammedmahid-stack/Horry-County-Data/Wetlands/KML-Output/Wetlands/Wetland_065.kml</href>
                <refreshMode>onChange</refreshMode>
            </Link>
        </NetworkLink>
        <NetworkLink id="248">
            <name>Wetland_066</name>
            <Link id="249">
                <href>https://raw.githubusercontent.com/robmohammedmahid-stack/Horry-County-Data/Wetlands/KML-Output/Wetlands/Wetland_066.kml</href>
                <refreshMode>onChange</refreshMode>
            </Link>
        </NetworkLink>
        <NetworkLink id="250">
            <name>Wetland_067</name>
            <Link id="251">
                <href>https://raw.githubusercontent.com/robmohammedmahid-stack/Horry-County-Data/Wetlands/KML-Output/Wetlands/Wetland_067.kml</href>
                <refreshMode>onChange</refreshMode>
            </Link>
        </NetworkLink>
        <NetworkLink id="252">
            <name>Wetland_068</name>
            <Link id="253">
                <href>https://raw.githubusercontent.com/robmohammedmahid-stack/Horry-County-Data/Wetlands/KML-Output/Wetlands/Wetland_068.kml</href>
                <refreshMode>onChange</refreshMode>
            </Link>
        </NetworkLink>
        <NetworkLink id="254">
            <name>Wetland_069</name>
            <Link id="255">
                <href>https://raw.githubusercontent.com/robmohammedmahid-stack/Horry-County-Data/Wetlands/KML-Output/Wetlands/Wetland_069.kml</href>
                <refreshMode>onChange</refreshMode>
            </Link>
        </NetworkLink>
        <NetworkLink id="256">
            <name>Wetland_070</name>
            <Link id="257">
                <href>https://raw.githubusercontent.com/robmohammedmahid-stack/Horry-County-Data/Wetlands/KML-Output/Wetlands/Wetland_070.kml</href>
                <refreshMode>onChange</refreshMode>
            </Link>
        </NetworkLink>
        <NetworkLink id="258">
            <name>Wetland_071</name>
            <Link id="259">
                <href>https://raw.githubusercontent.com/robmohammedmahid-stack/Horry-County-Data/Wetlands/KML-Output/Wetlands/Wetland_071.kml</href>
                <refreshMode>onChange</refreshMode>
            </Link>
        </NetworkLink>
        <NetworkLink id="260">
            <name>Wetland_072</name>
            <Link id="261">
                <href>https://raw.githubusercontent.com/robmohammedmahid-stack/Horry-County-Data/Wetlands/KML-Output/Wetlands/Wetland_072.kml</href>
                <refreshMode>onChange</refreshMode>
            </Link>
        </NetworkLink>
        <NetworkLink id="262">
            <name>Wetland_073</name>
            <Link id="263">
                <href>https://raw.githubusercontent.com/robmohammedmahid-stack/Horry-County-Data/Wetlands/KML-Output/Wetlands/Wetland_073.kml</href>
                <refreshMode>onChange</refreshMode>
            </Link>
        </NetworkLink>
        <NetworkLink id="264">
            <name>Wetland_074</name>
            <Link id="265">
                <href>https://raw.githubusercontent.com/robmohammedmahid-stack/Horry-County-Data/Wetlands/KML-Output/Wetlands/Wetland_074.kml</href>
                <refreshMode>onChange</refreshMode>
            </Link>
        </NetworkLink>
        <NetworkLink id="266">
            <name>Wetland_075</name>
            <Link id="267">
                <href>https://raw.githubusercontent.com/robmohammedmahid-stack/Horry-County-Data/Wetlands/KML-Output/Wetlands/Wetland_075.kml</href>
                <refreshMode>onChange</refreshMode>
            </Link>
        </NetworkLink>
        <NetworkLink id="268">
            <name>Wetland_076</name>
            <Link id="269">
                <href>https://raw.githubusercontent.com/robmohammedmahid-stack/Horry-County-Data/Wetlands/KML-Output/Wetlands/Wetland_076.kml</href>
                <refreshMode>onChange</refreshMode>
            </Link>
        </NetworkLink>
        <NetworkLink id="270">
            <name>Wetland_077</name>
            <Link id="271">
                <href>https://raw.githubusercontent.com/robmohammedmahid-stack/Horry-County-Data/Wetlands/KML-Output/Wetlands/Wetland_077.kml</href>
                <refreshMode>onChange</refreshMode>
            </Link>
        </NetworkLink>
        <NetworkLink id="272">
            <name>Wetland_078</name>
            <Link id="273">
                <href>https://raw.githubusercontent.com/robmohammedmahid-stack/Horry-County-Data/Wetlands/KML-Output/Wetlands/Wetland_078.kml</href>
                <refreshMode>onChange</refreshMode>
            </Link>
        </NetworkLink>
        <NetworkLink id="274">
            <name>Wetland_079</name>
            <Link id="275">
                <href>https://raw.githubusercontent.com/robmohammedmahid-stack/Horry-County-Data/Wetlands/KML-Output/Wetlands/Wetland_079.kml</href>
                <refreshMode>onChange</refreshMode>
            </Link>
        </NetworkLink>
        <NetworkLink id="276">
            <name>Wetland_080</name>
            <Link id="277">
                <href>https://raw.githubusercontent.com/robmohammedmahid-stack/Horry-County-Data/Wetlands/KML-Output/Wetlands/Wetland_080.kml</href>
                <refreshMode>onChange</refreshMode>
            </Link>
        </NetworkLink>
        <NetworkLink id="278">
            <name>Wetland_081</name>
            <Link id="279">
                <href>https://raw.githubusercontent.com/robmohammedmahid-stack/Horry-County-Data/Wetlands/KML-Output/Wetlands/Wetland_081.kml</href>
                <refreshMode>onChange</refreshMode>
            </Link>
        </NetworkLink>
        <NetworkLink id="280">
            <name>Wetland_082</name>
            <Link id="281">
                <href>https://raw.githubusercontent.com/robmohammedmahid-stack/Horry-County-Data/Wetlands/KML-Output/Wetlands/Wetland_082.kml</href>
                <refreshMode>onChange</refreshMode>
            </Link>
        </NetworkLink>
        <NetworkLink id="282">
            <name>Wetland_083</name>
            <Link id="283">
                <href>https://raw.githubusercontent.com/robmohammedmahid-stack/Horry-County-Data/Wetlands/KML-Output/Wetlands/Wetland_083.kml</href>
                <refreshMode>onChange</refreshMode>
            </Link>
        </NetworkLink>
        <NetworkLink id="284">
            <name>Wetland_084</name>
            <Link id="285">
                <href>https://raw.githubusercontent.com/robmohammedmahid-stack/Horry-County-Data/Wetlands/KML-Output/Wetlands/Wetland_084.kml</href>
                <refreshMode>onChange</refreshMode>
            </Link>
        </NetworkLink>
        <NetworkLink id="286">
            <name>Wetland_085</name>
            <Link id="287">
                <href>https://raw.githubusercontent.com/robmohammedmahid-stack/Horry-County-Data/Wetlands/KML-Output/Wetlands/Wetland_085.kml</href>
                <refreshMode>onChange</refreshMode>
            </Link>
        </NetworkLink>
        <NetworkLink id="288">
            <name>Wetland_086</name>
            <Link id="289">
                <href>https://raw.githubusercontent.com/robmohammedmahid-stack/Horry-County-Data/Wetlands/KML-Output/Wetlands/Wetland_086.kml</href>
                <refreshMode>onChange</refreshMode>
            </Link>
        </NetworkLink>
        <NetworkLink id="290">
            <name>Wetland_087</name>
            <Link id="291">
                <href>https://raw.githubusercontent.com/robmohammedmahid-stack/Horry-County-Data/Wetlands/KML-Output/Wetlands/Wetland_087.kml</href>
                <refreshMode>onChange</refreshMode>
            </Link>
        </NetworkLink>
        <NetworkLink id="292">
            <name>Wetland_088</name>
            <Link id="293">
                <href>https://raw.githubusercontent.com/robmohammedmahid-stack/Horry-County-Data/Wetlands/KML-Output/Wetlands/Wetland_088.kml</href>
                <refreshMode>onChange</refreshMode>
            </Link>
        </NetworkLink>
        <NetworkLink id="294">
            <name>Wetland_089</name>
            <Link id="295">
                <href>https://raw.githubusercontent.com/robmohammedmahid-stack/Horry-County-Data/Wetlands/KML-Output/Wetlands/Wetland_089.kml</href>
                <refreshMode>onChange</refreshMode>
            </Link>
        </NetworkLink>
        <NetworkLink id="296">
            <name>Wetland_090</name>
            <Link id="297">
                <href>https://raw.githubusercontent.com/robmohammedmahid-stack/Horry-County-Data/Wetlands/KML-Output/Wetlands/Wetland_090.kml</href>
                <refreshMode>onChange</refreshMode>
            </Link>
        </NetworkLink>
        <NetworkLink id="298">
            <name>Wetland_091</name>
            <Link id="299">
                <href>https://raw.githubusercontent.com/robmohammedmahid-stack/Horry-County-Data/Wetlands/KML-Output/Wetlands/Wetland_091.kml</href>
                <refreshMode>onChange</refreshMode>
            </Link>
        </NetworkLink>
        <NetworkLink id="300">
            <name>Wetland_092</name>
            <Link id="301">
                <href>https://raw.githubusercontent.com/robmohammedmahid-stack/Horry-County-Data/Wetlands/KML-Output/Wetlands/Wetland_092.kml</href>
                <refreshMode>onChange</refreshMode>
            </Link>
        </NetworkLink>
        <NetworkLink id="302">
            <name>Wetland_093</name>
            <Link id="303">
                <href>https://raw.githubusercontent.com/robmohammedmahid-stack/Horry-County-Data/Wetlands/KML-Output/Wetlands/Wetland_093.kml</href>
                <refreshMode>onChange</refreshMode>
            </Link>
        </NetworkLink>
        <NetworkLink id="304">
            <name>Wetland_094</name>
            <Link id="305">
                <href>https://raw.githubusercontent.com/robmohammedmahid-stack/Horry-County-Data/Wetlands/KML-Output/Wetlands/Wetland_094.kml</href>
                <refreshMode>onChange</refreshMode>
            </Link>
        </NetworkLink>
        <NetworkLink id="306">
            <name>Wetland_095</name>
            <Link id="307">
                <href>https://raw.githubusercontent.com/robmohammedmahid-stack/Horry-County-Data/Wetlands/KML-Output/Wetlands/Wetland_095.kml</href>
                <refreshMode>onChange</refreshMode>
            </Link>
        </NetworkLink>
        <NetworkLink id="308">
            <name>Wetland_096</name>
            <Link id="309">
                <href>https://raw.githubusercontent.com/robmohammedmahid-stack/Horry-County-Data/Wetlands/KML-Output/Wetlands/Wetland_096.kml</href>
                <refreshMode>onChange</refreshMode>
            </Link>
        </NetworkLink>
        <NetworkLink id="310">
            <name>Wetland_097</name>
            <Link id="311">
                <href>https://raw.githubusercontent.com/robmohammedmahid-stack/Horry-County-Data/Wetlands/KML-Output/Wetlands/Wetland_097.kml</href>
                <refreshMode>onChange</refreshMode>
            </Link>
        </NetworkLink>
        <NetworkLink id="312">
            <name>Wetland_098</name>
            <Link id="313">
                <href>https://raw.githubusercontent.com/robmohammedmahid-stack/Horry-County-Data/Wetlands/KML-Output/Wetlands/Wetland_098.kml</href>
                <refreshMode>onChange</refreshMode>
            </Link>
        </NetworkLink>
        <NetworkLink id="314">
            <name>Wetland_099</name>
            <Link id="315">
                <href>https://raw.githubusercontent.com/robmohammedmahid-stack/Horry-County-Data/Wetlands/KML-Output/Wetlands/Wetland_099.kml</href>
                <refreshMode>onChange</refreshMode>
            </Link>
        </NetworkLink>
        <NetworkLink id="316">
            <name>Wetland_100</name>
            <Link id="317">
                <href>https://raw.githubusercontent.com/robmohammedmahid-stack/Horry-County-Data/Wetlands/KML-Output/Wetlands/Wetland_100.kml</href>
                <refreshMode>onChange</refreshMode>
            </Link>
        </NetworkLink>
    </Document>
</kml>
