<?xml version="1.0" encoding="UTF-8"?>
<kml xmlns="http://www.opengis.net/kml/2.2" xmlns:gx="http://www.google.com/kml/ext/2.2">
    <Document id="5125">
        <NetworkLink id="5126">
            <name>Parcel_1901</name>
            <Link id="5127">
                <href>https://raw.githubusercontent.com/robmohammedmahid-stack/Horry-County-Data/Parcels/KML-Output/Parcels/Set_020/Parcel_1901.kml</href>
                <refreshMode>onChange</refreshMode>
            </Link>
        </NetworkLink>
        <NetworkLink id="5128">
            <name>Parcel_1902</name>
            <Link id="5129">
                <href>https://raw.githubusercontent.com/robmohammedmahid-stack/Horry-County-Data/Parcels/KML-Output/Parcels/Set_020/Parcel_1902.kml</href>
                <refreshMode>onChange</refreshMode>
            </Link>
        </NetworkLink>
        <NetworkLink id="5130">
            <name>Parcel_1903</name>
            <Link id="5131">
                <href>https://raw.githubusercontent.com/robmohammedmahid-stack/Horry-County-Data/Parcels/KML-Output/Parcels/Set_020/Parcel_1903.kml</href>
                <refreshMode>onChange</refreshMode>
            </Link>
        </NetworkLink>
        <NetworkLink id="5132">
            <name>Parcel_1904</name>
            <Link id="5133">
                <href>https://raw.githubusercontent.com/robmohammedmahid-stack/Horry-County-Data/Parcels/KML-Output/Parcels/Set_020/Parcel_1904.kml</href>
                <refreshMode>onChange</refreshMode>
            </Link>
        </NetworkLink>
        <NetworkLink id="5134">
            <name>Parcel_1905</name>
            <Link id="5135">
                <href>https://raw.githubusercontent.com/robmohammedmahid-stack/Horry-County-Data/Parcels/KML-Output/Parcels/Set_020/Parcel_1905.kml</href>
                <refreshMode>onChange</refreshMode>
            </Link>
        </NetworkLink>
        <NetworkLink id="5136">
            <name>Parcel_1906</name>
            <Link id="5137">
                <href>https://raw.githubusercontent.com/robmohammedmahid-stack/Horry-County-Data/Parcels/KML-Output/Parcels/Set_020/Parcel_1906.kml</href>
                <refreshMode>onChange</refreshMode>
            </Link>
        </NetworkLink>
        <NetworkLink id="5138">
            <name>Parcel_1907</name>
            <Link id="5139">
                <href>https://raw.githubusercontent.com/robmohammedmahid-stack/Horry-County-Data/Parcels/KML-Output/Parcels/Set_020/Parcel_1907.kml</href>
                <refreshMode>onChange</refreshMode>
            </Link>
        </NetworkLink>
        <NetworkLink id="5140">
            <name>Parcel_1908</name>
            <Link id="5141">
                <href>https://raw.githubusercontent.com/robmohammedmahid-stack/Horry-County-Data/Parcels/KML-Output/Parcels/Set_020/Parcel_1908.kml</href>
                <refreshMode>onChange</refreshMode>
            </Link>
        </NetworkLink>
        <NetworkLink id="5142">
            <name>Parcel_1909</name>
            <Link id="5143">
                <href>https://raw.githubusercontent.com/robmohammedmahid-stack/Horry-County-Data/Parcels/KML-Output/Parcels/Set_020/Parcel_1909.kml</href>
                <refreshMode>onChange</refreshMode>
            </Link>
        </NetworkLink>
        <NetworkLink id="5144">
            <name>Parcel_1910</name>
            <Link id="5145">
                <href>https://raw.githubusercontent.com/robmohammedmahid-stack/Horry-County-Data/Parcels/KML-Output/Parcels/Set_020/Parcel_1910.kml</href>
                <refreshMode>onChange</refreshMode>
            </Link>
        </NetworkLink>
        <NetworkLink id="5146">
            <name>Parcel_1911</name>
            <Link id="5147">
                <href>https://raw.githubusercontent.com/robmohammedmahid-stack/Horry-County-Data/Parcels/KML-Output/Parcels/Set_020/Parcel_1911.kml</href>
                <refreshMode>onChange</refreshMode>
            </Link>
        </NetworkLink>
        <NetworkLink id="5148">
            <name>Parcel_1912</name>
            <Link id="5149">
                <href>https://raw.githubusercontent.com/robmohammedmahid-stack/Horry-County-Data/Parcels/KML-Output/Parcels/Set_020/Parcel_1912.kml</href>
                <refreshMode>onChange</refreshMode>
            </Link>
        </NetworkLink>
        <NetworkLink id="5150">
            <name>Parcel_1913</name>
            <Link id="5151">
                <href>https://raw.githubusercontent.com/robmohammedmahid-stack/Horry-County-Data/Parcels/KML-Output/Parcels/Set_020/Parcel_1913.kml</href>
                <refreshMode>onChange</refreshMode>
            </Link>
        </NetworkLink>
        <NetworkLink id="5152">
            <name>Parcel_1914</name>
            <Link id="5153">
                <href>https://raw.githubusercontent.com/robmohammedmahid-stack/Horry-County-Data/Parcels/KML-Output/Parcels/Set_020/Parcel_1914.kml</href>
                <refreshMode>onChange</refreshMode>
            </Link>
        </NetworkLink>
        <NetworkLink id="5154">
            <name>Parcel_1915</name>
            <Link id="5155">
                <href>https://raw.githubusercontent.com/robmohammedmahid-stack/Horry-County-Data/Parcels/KML-Output/Parcels/Set_020/Parcel_1915.kml</href>
                <refreshMode>onChange</refreshMode>
            </Link>
        </NetworkLink>
        <NetworkLink id="5156">
            <name>Parcel_1916</name>
            <Link id="5157">
                <href>https://raw.githubusercontent.com/robmohammedmahid-stack/Horry-County-Data/Parcels/KML-Output/Parcels/Set_020/Parcel_1916.kml</href>
                <refreshMode>onChange</refreshMode>
            </Link>
        </NetworkLink>
        <NetworkLink id="5158">
            <name>Parcel_1917</name>
            <Link id="5159">
                <href>https://raw.githubusercontent.com/robmohammedmahid-stack/Horry-County-Data/Parcels/KML-Output/Parcels/Set_020/Parcel_1917.kml</href>
                <refreshMode>onChange</refreshMode>
            </Link>
        </NetworkLink>
        <NetworkLink id="5160">
            <name>Parcel_1918</name>
            <Link id="5161">
                <href>https://raw.githubusercontent.com/robmohammedmahid-stack/Horry-County-Data/Parcels/KML-Output/Parcels/Set_020/Parcel_1918.kml</href>
                <refreshMode>onChange</refreshMode>
            </Link>
        </NetworkLink>
        <NetworkLink id="5162">
            <name>Parcel_1919</name>
            <Link id="5163">
                <href>https://raw.githubusercontent.com/robmohammedmahid-stack/Horry-County-Data/Parcels/KML-Output/Parcels/Set_020/Parcel_1919.kml</href>
                <refreshMode>onChange</refreshMode>
            </Link>
        </NetworkLink>
        <NetworkLink id="5164">
            <name>Parcel_1920</name>
            <Link id="5165">
                <href>https://raw.githubusercontent.com/robmohammedmahid-stack/Horry-County-Data/Parcels/KML-Output/Parcels/Set_020/Parcel_1920.kml</href>
                <refreshMode>onChange</refreshMode>
            </Link>
        </NetworkLink>
        <NetworkLink id="5166">
            <name>Parcel_1921</name>
            <Link id="5167">
                <href>https://raw.githubusercontent.com/robmohammedmahid-stack/Horry-County-Data/Parcels/KML-Output/Parcels/Set_020/Parcel_1921.kml</href>
                <refreshMode>onChange</refreshMode>
            </Link>
        </NetworkLink>
        <NetworkLink id="5168">
            <name>Parcel_1922</name>
            <Link id="5169">
                <href>https://raw.githubusercontent.com/robmohammedmahid-stack/Horry-County-Data/Parcels/KML-Output/Parcels/Set_020/Parcel_1922.kml</href>
                <refreshMode>onChange</refreshMode>
            </Link>
        </NetworkLink>
        <NetworkLink id="5170">
            <name>Parcel_1923</name>
            <Link id="5171">
                <href>https://raw.githubusercontent.com/robmohammedmahid-stack/Horry-County-Data/Parcels/KML-Output/Parcels/Set_020/Parcel_1923.kml</href>
                <refreshMode>onChange</refreshMode>
            </Link>
        </NetworkLink>
        <NetworkLink id="5172">
            <name>Parcel_1924</name>
            <Link id="5173">
                <href>https://raw.githubusercontent.com/robmohammedmahid-stack/Horry-County-Data/Parcels/KML-Output/Parcels/Set_020/Parcel_1924.kml</href>
                <refreshMode>onChange</refreshMode>
            </Link>
        </NetworkLink>
        <NetworkLink id="5174">
            <name>Parcel_1925</name>
            <Link id="5175">
                <href>https://raw.githubusercontent.com/robmohammedmahid-stack/Horry-County-Data/Parcels/KML-Output/Parcels/Set_020/Parcel_1925.kml</href>
                <refreshMode>onChange</refreshMode>
            </Link>
        </NetworkLink>
        <NetworkLink id="5176">
            <name>Parcel_1926</name>
            <Link id="5177">
                <href>https://raw.githubusercontent.com/robmohammedmahid-stack/Horry-County-Data/Parcels/KML-Output/Parcels/Set_020/Parcel_1926.kml</href>
                <refreshMode>onChange</refreshMode>
            </Link>
        </NetworkLink>
        <NetworkLink id="5178">
            <name>Parcel_1927</name>
            <Link id="5179">
                <href>https://raw.githubusercontent.com/robmohammedmahid-stack/Horry-County-Data/Parcels/KML-Output/Parcels/Set_020/Parcel_1927.kml</href>
                <refreshMode>onChange</refreshMode>
            </Link>
        </NetworkLink>
        <NetworkLink id="5180">
            <name>Parcel_1928</name>
            <Link id="5181">
                <href>https://raw.githubusercontent.com/robmohammedmahid-stack/Horry-County-Data/Parcels/KML-Output/Parcels/Set_020/Parcel_1928.kml</href>
                <refreshMode>onChange</refreshMode>
            </Link>
        </NetworkLink>
        <NetworkLink id="5182">
            <name>Parcel_1929</name>
            <Link id="5183">
                <href>https://raw.githubusercontent.com/robmohammedmahid-stack/Horry-County-Data/Parcels/KML-Output/Parcels/Set_020/Parcel_1929.kml</href>
                <refreshMode>onChange</refreshMode>
            </Link>
        </NetworkLink>
        <NetworkLink id="5184">
            <name>Parcel_1930</name>
            <Link id="5185">
                <href>https://raw.githubusercontent.com/robmohammedmahid-stack/Horry-County-Data/Parcels/KML-Output/Parcels/Set_020/Parcel_1930.kml</href>
                <refreshMode>onChange</refreshMode>
            </Link>
        </NetworkLink>
        <NetworkLink id="5186">
            <name>Parcel_1931</name>
            <Link id="5187">
                <href>https://raw.githubusercontent.com/robmohammedmahid-stack/Horry-County-Data/Parcels/KML-Output/Parcels/Set_020/Parcel_1931.kml</href>
                <refreshMode>onChange</refreshMode>
            </Link>
        </NetworkLink>
        <NetworkLink id="5188">
            <name>Parcel_1932</name>
            <Link id="5189">
                <href>https://raw.githubusercontent.com/robmohammedmahid-stack/Horry-County-Data/Parcels/KML-Output/Parcels/Set_020/Parcel_1932.kml</href>
                <refreshMode>onChange</refreshMode>
            </Link>
        </NetworkLink>
        <NetworkLink id="5190">
            <name>Parcel_1933</name>
            <Link id="5191">
                <href>https://raw.githubusercontent.com/robmohammedmahid-stack/Horry-County-Data/Parcels/KML-Output/Parcels/Set_020/Parcel_1933.kml</href>
                <refreshMode>onChange</refreshMode>
            </Link>
        </NetworkLink>
        <NetworkLink id="5192">
            <name>Parcel_1934</name>
            <Link id="5193">
                <href>https://raw.githubusercontent.com/robmohammedmahid-stack/Horry-County-Data/Parcels/KML-Output/Parcels/Set_020/Parcel_1934.kml</href>
                <refreshMode>onChange</refreshMode>
            </Link>
        </NetworkLink>
        <NetworkLink id="5194">
            <name>Parcel_1935</name>
            <Link id="5195">
                <href>https://raw.githubusercontent.com/robmohammedmahid-stack/Horry-County-Data/Parcels/KML-Output/Parcels/Set_020/Parcel_1935.kml</href>
                <refreshMode>onChange</refreshMode>
            </Link>
        </NetworkLink>
        <NetworkLink id="5196">
            <name>Parcel_1936</name>
            <Link id="5197">
                <href>https://raw.githubusercontent.com/robmohammedmahid-stack/Horry-County-Data/Parcels/KML-Output/Parcels/Set_020/Parcel_1936.kml</href>
                <refreshMode>onChange</refreshMode>
            </Link>
        </NetworkLink>
        <NetworkLink id="5198">
            <name>Parcel_1937</name>
            <Link id="5199">
                <href>https://raw.githubusercontent.com/robmohammedmahid-stack/Horry-County-Data/Parcels/KML-Output/Parcels/Set_020/Parcel_1937.kml</href>
                <refreshMode>onChange</refreshMode>
            </Link>
        </NetworkLink>
        <NetworkLink id="5200">
            <name>Parcel_1938</name>
            <Link id="5201">
                <href>https://raw.githubusercontent.com/robmohammedmahid-stack/Horry-County-Data/Parcels/KML-Output/Parcels/Set_020/Parcel_1938.kml</href>
                <refreshMode>onChange</refreshMode>
            </Link>
        </NetworkLink>
        <NetworkLink id="5202">
            <name>Parcel_1939</name>
            <Link id="5203">
                <href>https://raw.githubusercontent.com/robmohammedmahid-stack/Horry-County-Data/Parcels/KML-Output/Parcels/Set_020/Parcel_1939.kml</href>
                <refreshMode>onChange</refreshMode>
            </Link>
        </NetworkLink>
        <NetworkLink id="5204">
            <name>Parcel_1940</name>
            <Link id="5205">
                <href>https://raw.githubusercontent.com/robmohammedmahid-stack/Horry-County-Data/Parcels/KML-Output/Parcels/Set_020/Parcel_1940.kml</href>
                <refreshMode>onChange</refreshMode>
            </Link>
        </NetworkLink>
        <NetworkLink id="5206">
            <name>Parcel_1941</name>
            <Link id="5207">
                <href>https://raw.githubusercontent.com/robmohammedmahid-stack/Horry-County-Data/Parcels/KML-Output/Parcels/Set_020/Parcel_1941.kml</href>
                <refreshMode>onChange</refreshMode>
            </Link>
        </NetworkLink>
        <NetworkLink id="5208">
            <name>Parcel_1942</name>
            <Link id="5209">
                <href>https://raw.githubusercontent.com/robmohammedmahid-stack/Horry-County-Data/Parcels/KML-Output/Parcels/Set_020/Parcel_1942.kml</href>
                <refreshMode>onChange</refreshMode>
            </Link>
        </NetworkLink>
        <NetworkLink id="5210">
            <name>Parcel_1943</name>
            <Link id="5211">
                <href>https://raw.githubusercontent.com/robmohammedmahid-stack/Horry-County-Data/Parcels/KML-Output/Parcels/Set_020/Parcel_1943.kml</href>
                <refreshMode>onChange</refreshMode>
            </Link>
        </NetworkLink>
        <NetworkLink id="5212">
            <name>Parcel_1944</name>
            <Link id="5213">
                <href>https://raw.githubusercontent.com/robmohammedmahid-stack/Horry-County-Data/Parcels/KML-Output/Parcels/Set_020/Parcel_1944.kml</href>
                <refreshMode>onChange</refreshMode>
            </Link>
        </NetworkLink>
        <NetworkLink id="5214">
            <name>Parcel_1945</name>
            <Link id="5215">
                <href>https://raw.githubusercontent.com/robmohammedmahid-stack/Horry-County-Data/Parcels/KML-Output/Parcels/Set_020/Parcel_1945.kml</href>
                <refreshMode>onChange</refreshMode>
            </Link>
        </NetworkLink>
        <NetworkLink id="5216">
            <name>Parcel_1946</name>
            <Link id="5217">
                <href>https://raw.githubusercontent.com/robmohammedmahid-stack/Horry-County-Data/Parcels/KML-Output/Parcels/Set_020/Parcel_1946.kml</href>
                <refreshMode>onChange</refreshMode>
            </Link>
        </NetworkLink>
        <NetworkLink id="5218">
            <name>Parcel_1947</name>
            <Link id="5219">
                <href>https://raw.githubusercontent.com/robmohammedmahid-stack/Horry-County-Data/Parcels/KML-Output/Parcels/Set_020/Parcel_1947.kml</href>
                <refreshMode>onChange</refreshMode>
            </Link>
        </NetworkLink>
        <NetworkLink id="5220">
            <name>Parcel_1948</name>
            <Link id="5221">
                <href>https://raw.githubusercontent.com/robmohammedmahid-stack/Horry-County-Data/Parcels/KML-Output/Parcels/Set_020/Parcel_1948.kml</href>
                <refreshMode>onChange</refreshMode>
            </Link>
        </NetworkLink>
        <NetworkLink id="5222">
            <name>Parcel_1949</name>
            <Link id="5223">
                <href>https://raw.githubusercontent.com/robmohammedmahid-stack/Horry-County-Data/Parcels/KML-Output/Parcels/Set_020/Parcel_1949.kml</href>
                <refreshMode>onChange</refreshMode>
            </Link>
        </NetworkLink>
        <NetworkLink id="5224">
            <name>Parcel_1950</name>
            <Link id="5225">
                <href>https://raw.githubusercontent.com/robmohammedmahid-stack/Horry-County-Data/Parcels/KML-Output/Parcels/Set_020/Parcel_1950.kml</href>
                <refreshMode>onChange</refreshMode>
            </Link>
        </NetworkLink>
        <NetworkLink id="5226">
            <name>Parcel_1951</name>
            <Link id="5227">
                <href>https://raw.githubusercontent.com/robmohammedmahid-stack/Horry-County-Data/Parcels/KML-Output/Parcels/Set_020/Parcel_1951.kml</href>
                <refreshMode>onChange</refreshMode>
            </Link>
        </NetworkLink>
        <NetworkLink id="5228">
            <name>Parcel_1952</name>
            <Link id="5229">
                <href>https://raw.githubusercontent.com/robmohammedmahid-stack/Horry-County-Data/Parcels/KML-Output/Parcels/Set_020/Parcel_1952.kml</href>
                <refreshMode>onChange</refreshMode>
            </Link>
        </NetworkLink>
        <NetworkLink id="5230">
            <name>Parcel_1953</name>
            <Link id="5231">
                <href>https://raw.githubusercontent.com/robmohammedmahid-stack/Horry-County-Data/Parcels/KML-Output/Parcels/Set_020/Parcel_1953.kml</href>
                <refreshMode>onChange</refreshMode>
            </Link>
        </NetworkLink>
        <NetworkLink id="5232">
            <name>Parcel_1954</name>
            <Link id="5233">
                <href>https://raw.githubusercontent.com/robmohammedmahid-stack/Horry-County-Data/Parcels/KML-Output/Parcels/Set_020/Parcel_1954.kml</href>
                <refreshMode>onChange</refreshMode>
            </Link>
        </NetworkLink>
        <NetworkLink id="5234">
            <name>Parcel_1955</name>
            <Link id="5235">
                <href>https://raw.githubusercontent.com/robmohammedmahid-stack/Horry-County-Data/Parcels/KML-Output/Parcels/Set_020/Parcel_1955.kml</href>
                <refreshMode>onChange</refreshMode>
            </Link>
        </NetworkLink>
        <NetworkLink id="5236">
            <name>Parcel_1956</name>
            <Link id="5237">
                <href>https://raw.githubusercontent.com/robmohammedmahid-stack/Horry-County-Data/Parcels/KML-Output/Parcels/Set_020/Parcel_1956.kml</href>
                <refreshMode>onChange</refreshMode>
            </Link>
        </NetworkLink>
        <NetworkLink id="5238">
            <name>Parcel_1957</name>
            <Link id="5239">
                <href>https://raw.githubusercontent.com/robmohammedmahid-stack/Horry-County-Data/Parcels/KML-Output/Parcels/Set_020/Parcel_1957.kml</href>
                <refreshMode>onChange</refreshMode>
            </Link>
        </NetworkLink>
        <NetworkLink id="5240">
            <name>Parcel_1958</name>
            <Link id="5241">
                <href>https://raw.githubusercontent.com/robmohammedmahid-stack/Horry-County-Data/Parcels/KML-Output/Parcels/Set_020/Parcel_1958.kml</href>
                <refreshMode>onChange</refreshMode>
            </Link>
        </NetworkLink>
        <NetworkLink id="5242">
            <name>Parcel_1959</name>
            <Link id="5243">
                <href>https://raw.githubusercontent.com/robmohammedmahid-stack/Horry-County-Data/Parcels/KML-Output/Parcels/Set_020/Parcel_1959.kml</href>
                <refreshMode>onChange</refreshMode>
            </Link>
        </NetworkLink>
        <NetworkLink id="5244">
            <name>Parcel_1960</name>
            <Link id="5245">
                <href>https://raw.githubusercontent.com/robmohammedmahid-stack/Horry-County-Data/Parcels/KML-Output/Parcels/Set_020/Parcel_1960.kml</href>
                <refreshMode>onChange</refreshMode>
            </Link>
        </NetworkLink>
        <NetworkLink id="5246">
            <name>Parcel_1961</name>
            <Link id="5247">
                <href>https://raw.githubusercontent.com/robmohammedmahid-stack/Horry-County-Data/Parcels/KML-Output/Parcels/Set_020/Parcel_1961.kml</href>
                <refreshMode>onChange</refreshMode>
            </Link>
        </NetworkLink>
        <NetworkLink id="5248">
            <name>Parcel_1962</name>
            <Link id="5249">
                <href>https://raw.githubusercontent.com/robmohammedmahid-stack/Horry-County-Data/Parcels/KML-Output/Parcels/Set_020/Parcel_1962.kml</href>
                <refreshMode>onChange</refreshMode>
            </Link>
        </NetworkLink>
        <NetworkLink id="5250">
            <name>Parcel_1963</name>
            <Link id="5251">
                <href>https://raw.githubusercontent.com/robmohammedmahid-stack/Horry-County-Data/Parcels/KML-Output/Parcels/Set_020/Parcel_1963.kml</href>
                <refreshMode>onChange</refreshMode>
            </Link>
        </NetworkLink>
        <NetworkLink id="5252">
            <name>Parcel_1964</name>
            <Link id="5253">
                <href>https://raw.githubusercontent.com/robmohammedmahid-stack/Horry-County-Data/Parcels/KML-Output/Parcels/Set_020/Parcel_1964.kml</href>
                <refreshMode>onChange</refreshMode>
            </Link>
        </NetworkLink>
        <NetworkLink id="5254">
            <name>Parcel_1965</name>
            <Link id="5255">
                <href>https://raw.githubusercontent.com/robmohammedmahid-stack/Horry-County-Data/Parcels/KML-Output/Parcels/Set_020/Parcel_1965.kml</href>
                <refreshMode>onChange</refreshMode>
            </Link>
        </NetworkLink>
        <NetworkLink id="5256">
            <name>Parcel_1966</name>
            <Link id="5257">
                <href>https://raw.githubusercontent.com/robmohammedmahid-stack/Horry-County-Data/Parcels/KML-Output/Parcels/Set_020/Parcel_1966.kml</href>
                <refreshMode>onChange</refreshMode>
            </Link>
        </NetworkLink>
        <NetworkLink id="5258">
            <name>Parcel_1967</name>
            <Link id="5259">
                <href>https://raw.githubusercontent.com/robmohammedmahid-stack/Horry-County-Data/Parcels/KML-Output/Parcels/Set_020/Parcel_1967.kml</href>
                <refreshMode>onChange</refreshMode>
            </Link>
        </NetworkLink>
        <NetworkLink id="5260">
            <name>Parcel_1968</name>
            <Link id="5261">
                <href>https://raw.githubusercontent.com/robmohammedmahid-stack/Horry-County-Data/Parcels/KML-Output/Parcels/Set_020/Parcel_1968.kml</href>
                <refreshMode>onChange</refreshMode>
            </Link>
        </NetworkLink>
        <NetworkLink id="5262">
            <name>Parcel_1969</name>
            <Link id="5263">
                <href>https://raw.githubusercontent.com/robmohammedmahid-stack/Horry-County-Data/Parcels/KML-Output/Parcels/Set_020/Parcel_1969.kml</href>
                <refreshMode>onChange</refreshMode>
            </Link>
        </NetworkLink>
        <NetworkLink id="5264">
            <name>Parcel_1970</name>
            <Link id="5265">
                <href>https://raw.githubusercontent.com/robmohammedmahid-stack/Horry-County-Data/Parcels/KML-Output/Parcels/Set_020/Parcel_1970.kml</href>
                <refreshMode>onChange</refreshMode>
            </Link>
        </NetworkLink>
        <NetworkLink id="5266">
            <name>Parcel_1971</name>
            <Link id="5267">
                <href>https://raw.githubusercontent.com/robmohammedmahid-stack/Horry-County-Data/Parcels/KML-Output/Parcels/Set_020/Parcel_1971.kml</href>
                <refreshMode>onChange</refreshMode>
            </Link>
        </NetworkLink>
        <NetworkLink id="5268">
            <name>Parcel_1972</name>
            <Link id="5269">
                <href>https://raw.githubusercontent.com/robmohammedmahid-stack/Horry-County-Data/Parcels/KML-Output/Parcels/Set_020/Parcel_1972.kml</href>
                <refreshMode>onChange</refreshMode>
            </Link>
        </NetworkLink>
        <NetworkLink id="5270">
            <name>Parcel_1973</name>
            <Link id="5271">
                <href>https://raw.githubusercontent.com/robmohammedmahid-stack/Horry-County-Data/Parcels/KML-Output/Parcels/Set_020/Parcel_1973.kml</href>
                <refreshMode>onChange</refreshMode>
            </Link>
        </NetworkLink>
        <NetworkLink id="5272">
            <name>Parcel_1974</name>
            <Link id="5273">
                <href>https://raw.githubusercontent.com/robmohammedmahid-stack/Horry-County-Data/Parcels/KML-Output/Parcels/Set_020/Parcel_1974.kml</href>
                <refreshMode>onChange</refreshMode>
            </Link>
        </NetworkLink>
        <NetworkLink id="5274">
            <name>Parcel_1975</name>
            <Link id="5275">
                <href>https://raw.githubusercontent.com/robmohammedmahid-stack/Horry-County-Data/Parcels/KML-Output/Parcels/Set_020/Parcel_1975.kml</href>
                <refreshMode>onChange</refreshMode>
            </Link>
        </NetworkLink>
        <NetworkLink id="5276">
            <name>Parcel_1976</name>
            <Link id="5277">
                <href>https://raw.githubusercontent.com/robmohammedmahid-stack/Horry-County-Data/Parcels/KML-Output/Parcels/Set_020/Parcel_1976.kml</href>
                <refreshMode>onChange</refreshMode>
            </Link>
        </NetworkLink>
        <NetworkLink id="5278">
            <name>Parcel_1977</name>
            <Link id="5279">
                <href>https://raw.githubusercontent.com/robmohammedmahid-stack/Horry-County-Data/Parcels/KML-Output/Parcels/Set_020/Parcel_1977.kml</href>
                <refreshMode>onChange</refreshMode>
            </Link>
        </NetworkLink>
        <NetworkLink id="5280">
            <name>Parcel_1978</name>
            <Link id="5281">
                <href>https://raw.githubusercontent.com/robmohammedmahid-stack/Horry-County-Data/Parcels/KML-Output/Parcels/Set_020/Parcel_1978.kml</href>
                <refreshMode>onChange</refreshMode>
            </Link>
        </NetworkLink>
        <NetworkLink id="5282">
            <name>Parcel_1979</name>
            <Link id="5283">
                <href>https://raw.githubusercontent.com/robmohammedmahid-stack/Horry-County-Data/Parcels/KML-Output/Parcels/Set_020/Parcel_1979.kml</href>
                <refreshMode>onChange</refreshMode>
            </Link>
        </NetworkLink>
        <NetworkLink id="5284">
            <name>Parcel_1980</name>
            <Link id="5285">
                <href>https://raw.githubusercontent.com/robmohammedmahid-stack/Horry-County-Data/Parcels/KML-Output/Parcels/Set_020/Parcel_1980.kml</href>
                <refreshMode>onChange</refreshMode>
            </Link>
        </NetworkLink>
        <NetworkLink id="5286">
            <name>Parcel_1981</name>
            <Link id="5287">
                <href>https://raw.githubusercontent.com/robmohammedmahid-stack/Horry-County-Data/Parcels/KML-Output/Parcels/Set_020/Parcel_1981.kml</href>
                <refreshMode>onChange</refreshMode>
            </Link>
        </NetworkLink>
        <NetworkLink id="5288">
            <name>Parcel_1982</name>
            <Link id="5289">
                <href>https://raw.githubusercontent.com/robmohammedmahid-stack/Horry-County-Data/Parcels/KML-Output/Parcels/Set_020/Parcel_1982.kml</href>
                <refreshMode>onChange</refreshMode>
            </Link>
        </NetworkLink>
        <NetworkLink id="5290">
            <name>Parcel_1983</name>
            <Link id="5291">
                <href>https://raw.githubusercontent.com/robmohammedmahid-stack/Horry-County-Data/Parcels/KML-Output/Parcels/Set_020/Parcel_1983.kml</href>
                <refreshMode>onChange</refreshMode>
            </Link>
        </NetworkLink>
        <NetworkLink id="5292">
            <name>Parcel_1984</name>
            <Link id="5293">
                <href>https://raw.githubusercontent.com/robmohammedmahid-stack/Horry-County-Data/Parcels/KML-Output/Parcels/Set_020/Parcel_1984.kml</href>
                <refreshMode>onChange</refreshMode>
            </Link>
        </NetworkLink>
        <NetworkLink id="5294">
            <name>Parcel_1985</name>
            <Link id="5295">
                <href>https://raw.githubusercontent.com/robmohammedmahid-stack/Horry-County-Data/Parcels/KML-Output/Parcels/Set_020/Parcel_1985.kml</href>
                <refreshMode>onChange</refreshMode>
            </Link>
        </NetworkLink>
        <NetworkLink id="5296">
            <name>Parcel_1986</name>
            <Link id="5297">
                <href>https://raw.githubusercontent.com/robmohammedmahid-stack/Horry-County-Data/Parcels/KML-Output/Parcels/Set_020/Parcel_1986.kml</href>
                <refreshMode>onChange</refreshMode>
            </Link>
        </NetworkLink>
        <NetworkLink id="5298">
            <name>Parcel_1987</name>
            <Link id="5299">
                <href>https://raw.githubusercontent.com/robmohammedmahid-stack/Horry-County-Data/Parcels/KML-Output/Parcels/Set_020/Parcel_1987.kml</href>
                <refreshMode>onChange</refreshMode>
            </Link>
        </NetworkLink>
        <NetworkLink id="5300">
            <name>Parcel_1988</name>
            <Link id="5301">
                <href>https://raw.githubusercontent.com/robmohammedmahid-stack/Horry-County-Data/Parcels/KML-Output/Parcels/Set_020/Parcel_1988.kml</href>
                <refreshMode>onChange</refreshMode>
            </Link>
        </NetworkLink>
        <NetworkLink id="5302">
            <name>Parcel_1989</name>
            <Link id="5303">
                <href>https://raw.githubusercontent.com/robmohammedmahid-stack/Horry-County-Data/Parcels/KML-Output/Parcels/Set_020/Parcel_1989.kml</href>
                <refreshMode>onChange</refreshMode>
            </Link>
        </NetworkLink>
        <NetworkLink id="5304">
            <name>Parcel_1990</name>
            <Link id="5305">
                <href>https://raw.githubusercontent.com/robmohammedmahid-stack/Horry-County-Data/Parcels/KML-Output/Parcels/Set_020/Parcel_1990.kml</href>
                <refreshMode>onChange</refreshMode>
            </Link>
        </NetworkLink>
        <NetworkLink id="5306">
            <name>Parcel_1991</name>
            <Link id="5307">
                <href>https://raw.githubusercontent.com/robmohammedmahid-stack/Horry-County-Data/Parcels/KML-Output/Parcels/Set_020/Parcel_1991.kml</href>
                <refreshMode>onChange</refreshMode>
            </Link>
        </NetworkLink>
        <NetworkLink id="5308">
            <name>Parcel_1992</name>
            <Link id="5309">
                <href>https://raw.githubusercontent.com/robmohammedmahid-stack/Horry-County-Data/Parcels/KML-Output/Parcels/Set_020/Parcel_1992.kml</href>
                <refreshMode>onChange</refreshMode>
            </Link>
        </NetworkLink>
        <NetworkLink id="5310">
            <name>Parcel_1993</name>
            <Link id="5311">
                <href>https://raw.githubusercontent.com/robmohammedmahid-stack/Horry-County-Data/Parcels/KML-Output/Parcels/Set_020/Parcel_1993.kml</href>
                <refreshMode>onChange</refreshMode>
            </Link>
        </NetworkLink>
        <NetworkLink id="5312">
            <name>Parcel_1994</name>
            <Link id="5313">
                <href>https://raw.githubusercontent.com/robmohammedmahid-stack/Horry-County-Data/Parcels/KML-Output/Parcels/Set_020/Parcel_1994.kml</href>
                <refreshMode>onChange</refreshMode>
            </Link>
        </NetworkLink>
        <NetworkLink id="5314">
            <name>Parcel_1995</name>
            <Link id="5315">
                <href>https://raw.githubusercontent.com/robmohammedmahid-stack/Horry-County-Data/Parcels/KML-Output/Parcels/Set_020/Parcel_1995.kml</href>
                <refreshMode>onChange</refreshMode>
            </Link>
        </NetworkLink>
        <NetworkLink id="5316">
            <name>Parcel_1996</name>
            <Link id="5317">
                <href>https://raw.githubusercontent.com/robmohammedmahid-stack/Horry-County-Data/Parcels/KML-Output/Parcels/Set_020/Parcel_1996.kml</href>
                <refreshMode>onChange</refreshMode>
            </Link>
        </NetworkLink>
        <NetworkLink id="5318">
            <name>Parcel_1997</name>
            <Link id="5319">
                <href>https://raw.githubusercontent.com/robmohammedmahid-stack/Horry-County-Data/Parcels/KML-Output/Parcels/Set_020/Parcel_1997.kml</href>
                <refreshMode>onChange</refreshMode>
            </Link>
        </NetworkLink>
        <NetworkLink id="5320">
            <name>Parcel_1998</name>
            <Link id="5321">
                <href>https://raw.githubusercontent.com/robmohammedmahid-stack/Horry-County-Data/Parcels/KML-Output/Parcels/Set_020/Parcel_1998.kml</href>
                <refreshMode>onChange</refreshMode>
            </Link>
        </NetworkLink>
        <NetworkLink id="5322">
            <name>Parcel_1999</name>
            <Link id="5323">
                <href>https://raw.githubusercontent.com/robmohammedmahid-stack/Horry-County-Data/Parcels/KML-Output/Parcels/Set_020/Parcel_1999.kml</href>
                <refreshMode>onChange</refreshMode>
            </Link>
        </NetworkLink>
        <NetworkLink id="5324">
            <name>Parcel_2000</name>
            <Link id="5325">
                <href>https://raw.githubusercontent.com/robmohammedmahid-stack/Horry-County-Data/Parcels/KML-Output/Parcels/Set_020/Parcel_2000.kml</href>
                <refreshMode>onChange</refreshMode>
            </Link>
        </NetworkLink>
    </Document>
</kml>
