<?xml version="1.0" encoding="UTF-8"?>
<kml xmlns="http://www.opengis.net/kml/2.2" xmlns:gx="http://www.google.com/kml/ext/2.2">
    <Document id="521">
        <NetworkLink id="522">
            <name>Wetland_201</name>
            <Link id="523">
                <href>https://raw.githubusercontent.com/robmohammedmahid-stack/Horry-County-Data/Wetlands/KML-Output/Wetlands/Wetland_201.kml</href>
                <refreshMode>onChange</refreshMode>
            </Link>
        </NetworkLink>
        <NetworkLink id="524">
            <name>Wetland_202</name>
            <Link id="525">
                <href>https://raw.githubusercontent.com/robmohammedmahid-stack/Horry-County-Data/Wetlands/KML-Output/Wetlands/Wetland_202.kml</href>
                <refreshMode>onChange</refreshMode>
            </Link>
        </NetworkLink>
        <NetworkLink id="526">
            <name>Wetland_203</name>
            <Link id="527">
                <href>https://raw.githubusercontent.com/robmohammedmahid-stack/Horry-County-Data/Wetlands/KML-Output/Wetlands/Wetland_203.kml</href>
                <refreshMode>onChange</refreshMode>
            </Link>
        </NetworkLink>
        <NetworkLink id="528">
            <name>Wetland_204</name>
            <Link id="529">
                <href>https://raw.githubusercontent.com/robmohammedmahid-stack/Horry-County-Data/Wetlands/KML-Output/Wetlands/Wetland_204.kml</href>
                <refreshMode>onChange</refreshMode>
            </Link>
        </NetworkLink>
        <NetworkLink id="530">
            <name>Wetland_205</name>
            <Link id="531">
                <href>https://raw.githubusercontent.com/robmohammedmahid-stack/Horry-County-Data/Wetlands/KML-Output/Wetlands/Wetland_205.kml</href>
                <refreshMode>onChange</refreshMode>
            </Link>
        </NetworkLink>
        <NetworkLink id="532">
            <name>Wetland_206</name>
            <Link id="533">
                <href>https://raw.githubusercontent.com/robmohammedmahid-stack/Horry-County-Data/Wetlands/KML-Output/Wetlands/Wetland_206.kml</href>
                <refreshMode>onChange</refreshMode>
            </Link>
        </NetworkLink>
        <NetworkLink id="534">
            <name>Wetland_207</name>
            <Link id="535">
                <href>https://raw.githubusercontent.com/robmohammedmahid-stack/Horry-County-Data/Wetlands/KML-Output/Wetlands/Wetland_207.kml</href>
                <refreshMode>onChange</refreshMode>
            </Link>
        </NetworkLink>
        <NetworkLink id="536">
            <name>Wetland_208</name>
            <Link id="537">
                <href>https://raw.githubusercontent.com/robmohammedmahid-stack/Horry-County-Data/Wetlands/KML-Output/Wetlands/Wetland_208.kml</href>
                <refreshMode>onChange</refreshMode>
            </Link>
        </NetworkLink>
        <NetworkLink id="538">
            <name>Wetland_209</name>
            <Link id="539">
                <href>https://raw.githubusercontent.com/robmohammedmahid-stack/Horry-County-Data/Wetlands/KML-Output/Wetlands/Wetland_209.kml</href>
                <refreshMode>onChange</refreshMode>
            </Link>
        </NetworkLink>
        <NetworkLink id="540">
            <name>Wetland_210</name>
            <Link id="541">
                <href>https://raw.githubusercontent.com/robmohammedmahid-stack/Horry-County-Data/Wetlands/KML-Output/Wetlands/Wetland_210.kml</href>
                <refreshMode>onChange</refreshMode>
            </Link>
        </NetworkLink>
        <NetworkLink id="542">
            <name>Wetland_211</name>
            <Link id="543">
                <href>https://raw.githubusercontent.com/robmohammedmahid-stack/Horry-County-Data/Wetlands/KML-Output/Wetlands/Wetland_211.kml</href>
                <refreshMode>onChange</refreshMode>
            </Link>
        </NetworkLink>
        <NetworkLink id="544">
            <name>Wetland_212</name>
            <Link id="545">
                <href>https://raw.githubusercontent.com/robmohammedmahid-stack/Horry-County-Data/Wetlands/KML-Output/Wetlands/Wetland_212.kml</href>
                <refreshMode>onChange</refreshMode>
            </Link>
        </NetworkLink>
        <NetworkLink id="546">
            <name>Wetland_213</name>
            <Link id="547">
                <href>https://raw.githubusercontent.com/robmohammedmahid-stack/Horry-County-Data/Wetlands/KML-Output/Wetlands/Wetland_213.kml</href>
                <refreshMode>onChange</refreshMode>
            </Link>
        </NetworkLink>
        <NetworkLink id="548">
            <name>Wetland_214</name>
            <Link id="549">
                <href>https://raw.githubusercontent.com/robmohammedmahid-stack/Horry-County-Data/Wetlands/KML-Output/Wetlands/Wetland_214.kml</href>
                <refreshMode>onChange</refreshMode>
            </Link>
        </NetworkLink>
        <NetworkLink id="550">
            <name>Wetland_215</name>
            <Link id="551">
                <href>https://raw.githubusercontent.com/robmohammedmahid-stack/Horry-County-Data/Wetlands/KML-Output/Wetlands/Wetland_215.kml</href>
                <refreshMode>onChange</refreshMode>
            </Link>
        </NetworkLink>
        <NetworkLink id="552">
            <name>Wetland_216</name>
            <Link id="553">
                <href>https://raw.githubusercontent.com/robmohammedmahid-stack/Horry-County-Data/Wetlands/KML-Output/Wetlands/Wetland_216.kml</href>
                <refreshMode>onChange</refreshMode>
            </Link>
        </NetworkLink>
        <NetworkLink id="554">
            <name>Wetland_217</name>
            <Link id="555">
                <href>https://raw.githubusercontent.com/robmohammedmahid-stack/Horry-County-Data/Wetlands/KML-Output/Wetlands/Wetland_217.kml</href>
                <refreshMode>onChange</refreshMode>
            </Link>
        </NetworkLink>
        <NetworkLink id="556">
            <name>Wetland_218</name>
            <Link id="557">
                <href>https://raw.githubusercontent.com/robmohammedmahid-stack/Horry-County-Data/Wetlands/KML-Output/Wetlands/Wetland_218.kml</href>
                <refreshMode>onChange</refreshMode>
            </Link>
        </NetworkLink>
        <NetworkLink id="558">
            <name>Wetland_219</name>
            <Link id="559">
                <href>https://raw.githubusercontent.com/robmohammedmahid-stack/Horry-County-Data/Wetlands/KML-Output/Wetlands/Wetland_219.kml</href>
                <refreshMode>onChange</refreshMode>
            </Link>
        </NetworkLink>
        <NetworkLink id="560">
            <name>Wetland_220</name>
            <Link id="561">
                <href>https://raw.githubusercontent.com/robmohammedmahid-stack/Horry-County-Data/Wetlands/KML-Output/Wetlands/Wetland_220.kml</href>
                <refreshMode>onChange</refreshMode>
            </Link>
        </NetworkLink>
        <NetworkLink id="562">
            <name>Wetland_221</name>
            <Link id="563">
                <href>https://raw.githubusercontent.com/robmohammedmahid-stack/Horry-County-Data/Wetlands/KML-Output/Wetlands/Wetland_221.kml</href>
                <refreshMode>onChange</refreshMode>
            </Link>
        </NetworkLink>
        <NetworkLink id="564">
            <name>Wetland_222</name>
            <Link id="565">
                <href>https://raw.githubusercontent.com/robmohammedmahid-stack/Horry-County-Data/Wetlands/KML-Output/Wetlands/Wetland_222.kml</href>
                <refreshMode>onChange</refreshMode>
            </Link>
        </NetworkLink>
        <NetworkLink id="566">
            <name>Wetland_223</name>
            <Link id="567">
                <href>https://raw.githubusercontent.com/robmohammedmahid-stack/Horry-County-Data/Wetlands/KML-Output/Wetlands/Wetland_223.kml</href>
                <refreshMode>onChange</refreshMode>
            </Link>
        </NetworkLink>
        <NetworkLink id="568">
            <name>Wetland_224</name>
            <Link id="569">
                <href>https://raw.githubusercontent.com/robmohammedmahid-stack/Horry-County-Data/Wetlands/KML-Output/Wetlands/Wetland_224.kml</href>
                <refreshMode>onChange</refreshMode>
            </Link>
        </NetworkLink>
        <NetworkLink id="570">
            <name>Wetland_225</name>
            <Link id="571">
                <href>https://raw.githubusercontent.com/robmohammedmahid-stack/Horry-County-Data/Wetlands/KML-Output/Wetlands/Wetland_225.kml</href>
                <refreshMode>onChange</refreshMode>
            </Link>
        </NetworkLink>
        <NetworkLink id="572">
            <name>Wetland_226</name>
            <Link id="573">
                <href>https://raw.githubusercontent.com/robmohammedmahid-stack/Horry-County-Data/Wetlands/KML-Output/Wetlands/Wetland_226.kml</href>
                <refreshMode>onChange</refreshMode>
            </Link>
        </NetworkLink>
        <NetworkLink id="574">
            <name>Wetland_227</name>
            <Link id="575">
                <href>https://raw.githubusercontent.com/robmohammedmahid-stack/Horry-County-Data/Wetlands/KML-Output/Wetlands/Wetland_227.kml</href>
                <refreshMode>onChange</refreshMode>
            </Link>
        </NetworkLink>
        <NetworkLink id="576">
            <name>Wetland_228</name>
            <Link id="577">
                <href>https://raw.githubusercontent.com/robmohammedmahid-stack/Horry-County-Data/Wetlands/KML-Output/Wetlands/Wetland_228.kml</href>
                <refreshMode>onChange</refreshMode>
            </Link>
        </NetworkLink>
        <NetworkLink id="578">
            <name>Wetland_229</name>
            <Link id="579">
                <href>https://raw.githubusercontent.com/robmohammedmahid-stack/Horry-County-Data/Wetlands/KML-Output/Wetlands/Wetland_229.kml</href>
                <refreshMode>onChange</refreshMode>
            </Link>
        </NetworkLink>
        <NetworkLink id="580">
            <name>Wetland_230</name>
            <Link id="581">
                <href>https://raw.githubusercontent.com/robmohammedmahid-stack/Horry-County-Data/Wetlands/KML-Output/Wetlands/Wetland_230.kml</href>
                <refreshMode>onChange</refreshMode>
            </Link>
        </NetworkLink>
        <NetworkLink id="582">
            <name>Wetland_231</name>
            <Link id="583">
                <href>https://raw.githubusercontent.com/robmohammedmahid-stack/Horry-County-Data/Wetlands/KML-Output/Wetlands/Wetland_231.kml</href>
                <refreshMode>onChange</refreshMode>
            </Link>
        </NetworkLink>
        <NetworkLink id="584">
            <name>Wetland_232</name>
            <Link id="585">
                <href>https://raw.githubusercontent.com/robmohammedmahid-stack/Horry-County-Data/Wetlands/KML-Output/Wetlands/Wetland_232.kml</href>
                <refreshMode>onChange</refreshMode>
            </Link>
        </NetworkLink>
        <NetworkLink id="586">
            <name>Wetland_233</name>
            <Link id="587">
                <href>https://raw.githubusercontent.com/robmohammedmahid-stack/Horry-County-Data/Wetlands/KML-Output/Wetlands/Wetland_233.kml</href>
                <refreshMode>onChange</refreshMode>
            </Link>
        </NetworkLink>
        <NetworkLink id="588">
            <name>Wetland_234</name>
            <Link id="589">
                <href>https://raw.githubusercontent.com/robmohammedmahid-stack/Horry-County-Data/Wetlands/KML-Output/Wetlands/Wetland_234.kml</href>
                <refreshMode>onChange</refreshMode>
            </Link>
        </NetworkLink>
        <NetworkLink id="590">
            <name>Wetland_235</name>
            <Link id="591">
                <href>https://raw.githubusercontent.com/robmohammedmahid-stack/Horry-County-Data/Wetlands/KML-Output/Wetlands/Wetland_235.kml</href>
                <refreshMode>onChange</refreshMode>
            </Link>
        </NetworkLink>
        <NetworkLink id="592">
            <name>Wetland_236</name>
            <Link id="593">
                <href>https://raw.githubusercontent.com/robmohammedmahid-stack/Horry-County-Data/Wetlands/KML-Output/Wetlands/Wetland_236.kml</href>
                <refreshMode>onChange</refreshMode>
            </Link>
        </NetworkLink>
        <NetworkLink id="594">
            <name>Wetland_237</name>
            <Link id="595">
                <href>https://raw.githubusercontent.com/robmohammedmahid-stack/Horry-County-Data/Wetlands/KML-Output/Wetlands/Wetland_237.kml</href>
                <refreshMode>onChange</refreshMode>
            </Link>
        </NetworkLink>
        <NetworkLink id="596">
            <name>Wetland_238</name>
            <Link id="597">
                <href>https://raw.githubusercontent.com/robmohammedmahid-stack/Horry-County-Data/Wetlands/KML-Output/Wetlands/Wetland_238.kml</href>
                <refreshMode>onChange</refreshMode>
            </Link>
        </NetworkLink>
        <NetworkLink id="598">
            <name>Wetland_239</name>
            <Link id="599">
                <href>https://raw.githubusercontent.com/robmohammedmahid-stack/Horry-County-Data/Wetlands/KML-Output/Wetlands/Wetland_239.kml</href>
                <refreshMode>onChange</refreshMode>
            </Link>
        </NetworkLink>
        <NetworkLink id="600">
            <name>Wetland_240</name>
            <Link id="601">
                <href>https://raw.githubusercontent.com/robmohammedmahid-stack/Horry-County-Data/Wetlands/KML-Output/Wetlands/Wetland_240.kml</href>
                <refreshMode>onChange</refreshMode>
            </Link>
        </NetworkLink>
        <NetworkLink id="602">
            <name>Wetland_241</name>
            <Link id="603">
                <href>https://raw.githubusercontent.com/robmohammedmahid-stack/Horry-County-Data/Wetlands/KML-Output/Wetlands/Wetland_241.kml</href>
                <refreshMode>onChange</refreshMode>
            </Link>
        </NetworkLink>
        <NetworkLink id="604">
            <name>Wetland_242</name>
            <Link id="605">
                <href>https://raw.githubusercontent.com/robmohammedmahid-stack/Horry-County-Data/Wetlands/KML-Output/Wetlands/Wetland_242.kml</href>
                <refreshMode>onChange</refreshMode>
            </Link>
        </NetworkLink>
        <NetworkLink id="606">
            <name>Wetland_243</name>
            <Link id="607">
                <href>https://raw.githubusercontent.com/robmohammedmahid-stack/Horry-County-Data/Wetlands/KML-Output/Wetlands/Wetland_243.kml</href>
                <refreshMode>onChange</refreshMode>
            </Link>
        </NetworkLink>
        <NetworkLink id="608">
            <name>Wetland_244</name>
            <Link id="609">
                <href>https://raw.githubusercontent.com/robmohammedmahid-stack/Horry-County-Data/Wetlands/KML-Output/Wetlands/Wetland_244.kml</href>
                <refreshMode>onChange</refreshMode>
            </Link>
        </NetworkLink>
        <NetworkLink id="610">
            <name>Wetland_245</name>
            <Link id="611">
                <href>https://raw.githubusercontent.com/robmohammedmahid-stack/Horry-County-Data/Wetlands/KML-Output/Wetlands/Wetland_245.kml</href>
                <refreshMode>onChange</refreshMode>
            </Link>
        </NetworkLink>
        <NetworkLink id="612">
            <name>Wetland_246</name>
            <Link id="613">
                <href>https://raw.githubusercontent.com/robmohammedmahid-stack/Horry-County-Data/Wetlands/KML-Output/Wetlands/Wetland_246.kml</href>
                <refreshMode>onChange</refreshMode>
            </Link>
        </NetworkLink>
        <NetworkLink id="614">
            <name>Wetland_247</name>
            <Link id="615">
                <href>https://raw.githubusercontent.com/robmohammedmahid-stack/Horry-County-Data/Wetlands/KML-Output/Wetlands/Wetland_247.kml</href>
                <refreshMode>onChange</refreshMode>
            </Link>
        </NetworkLink>
        <NetworkLink id="616">
            <name>Wetland_248</name>
            <Link id="617">
                <href>https://raw.githubusercontent.com/robmohammedmahid-stack/Horry-County-Data/Wetlands/KML-Output/Wetlands/Wetland_248.kml</href>
                <refreshMode>onChange</refreshMode>
            </Link>
        </NetworkLink>
        <NetworkLink id="618">
            <name>Wetland_249</name>
            <Link id="619">
                <href>https://raw.githubusercontent.com/robmohammedmahid-stack/Horry-County-Data/Wetlands/KML-Output/Wetlands/Wetland_249.kml</href>
                <refreshMode>onChange</refreshMode>
            </Link>
        </NetworkLink>
        <NetworkLink id="620">
            <name>Wetland_250</name>
            <Link id="621">
                <href>https://raw.githubusercontent.com/robmohammedmahid-stack/Horry-County-Data/Wetlands/KML-Output/Wetlands/Wetland_250.kml</href>
                <refreshMode>onChange</refreshMode>
            </Link>
        </NetworkLink>
        <NetworkLink id="622">
            <name>Wetland_251</name>
            <Link id="623">
                <href>https://raw.githubusercontent.com/robmohammedmahid-stack/Horry-County-Data/Wetlands/KML-Output/Wetlands/Wetland_251.kml</href>
                <refreshMode>onChange</refreshMode>
            </Link>
        </NetworkLink>
        <NetworkLink id="624">
            <name>Wetland_252</name>
            <Link id="625">
                <href>https://raw.githubusercontent.com/robmohammedmahid-stack/Horry-County-Data/Wetlands/KML-Output/Wetlands/Wetland_252.kml</href>
                <refreshMode>onChange</refreshMode>
            </Link>
        </NetworkLink>
        <NetworkLink id="626">
            <name>Wetland_253</name>
            <Link id="627">
                <href>https://raw.githubusercontent.com/robmohammedmahid-stack/Horry-County-Data/Wetlands/KML-Output/Wetlands/Wetland_253.kml</href>
                <refreshMode>onChange</refreshMode>
            </Link>
        </NetworkLink>
        <NetworkLink id="628">
            <name>Wetland_254</name>
            <Link id="629">
                <href>https://raw.githubusercontent.com/robmohammedmahid-stack/Horry-County-Data/Wetlands/KML-Output/Wetlands/Wetland_254.kml</href>
                <refreshMode>onChange</refreshMode>
            </Link>
        </NetworkLink>
        <NetworkLink id="630">
            <name>Wetland_255</name>
            <Link id="631">
                <href>https://raw.githubusercontent.com/robmohammedmahid-stack/Horry-County-Data/Wetlands/KML-Output/Wetlands/Wetland_255.kml</href>
                <refreshMode>onChange</refreshMode>
            </Link>
        </NetworkLink>
        <NetworkLink id="632">
            <name>Wetland_256</name>
            <Link id="633">
                <href>https://raw.githubusercontent.com/robmohammedmahid-stack/Horry-County-Data/Wetlands/KML-Output/Wetlands/Wetland_256.kml</href>
                <refreshMode>onChange</refreshMode>
            </Link>
        </NetworkLink>
        <NetworkLink id="634">
            <name>Wetland_257</name>
            <Link id="635">
                <href>https://raw.githubusercontent.com/robmohammedmahid-stack/Horry-County-Data/Wetlands/KML-Output/Wetlands/Wetland_257.kml</href>
                <refreshMode>onChange</refreshMode>
            </Link>
        </NetworkLink>
        <NetworkLink id="636">
            <name>Wetland_258</name>
            <Link id="637">
                <href>https://raw.githubusercontent.com/robmohammedmahid-stack/Horry-County-Data/Wetlands/KML-Output/Wetlands/Wetland_258.kml</href>
                <refreshMode>onChange</refreshMode>
            </Link>
        </NetworkLink>
        <NetworkLink id="638">
            <name>Wetland_259</name>
            <Link id="639">
                <href>https://raw.githubusercontent.com/robmohammedmahid-stack/Horry-County-Data/Wetlands/KML-Output/Wetlands/Wetland_259.kml</href>
                <refreshMode>onChange</refreshMode>
            </Link>
        </NetworkLink>
        <NetworkLink id="640">
            <name>Wetland_260</name>
            <Link id="641">
                <href>https://raw.githubusercontent.com/robmohammedmahid-stack/Horry-County-Data/Wetlands/KML-Output/Wetlands/Wetland_260.kml</href>
                <refreshMode>onChange</refreshMode>
            </Link>
        </NetworkLink>
        <NetworkLink id="642">
            <name>Wetland_261</name>
            <Link id="643">
                <href>https://raw.githubusercontent.com/robmohammedmahid-stack/Horry-County-Data/Wetlands/KML-Output/Wetlands/Wetland_261.kml</href>
                <refreshMode>onChange</refreshMode>
            </Link>
        </NetworkLink>
        <NetworkLink id="644">
            <name>Wetland_262</name>
            <Link id="645">
                <href>https://raw.githubusercontent.com/robmohammedmahid-stack/Horry-County-Data/Wetlands/KML-Output/Wetlands/Wetland_262.kml</href>
                <refreshMode>onChange</refreshMode>
            </Link>
        </NetworkLink>
        <NetworkLink id="646">
            <name>Wetland_263</name>
            <Link id="647">
                <href>https://raw.githubusercontent.com/robmohammedmahid-stack/Horry-County-Data/Wetlands/KML-Output/Wetlands/Wetland_263.kml</href>
                <refreshMode>onChange</refreshMode>
            </Link>
        </NetworkLink>
        <NetworkLink id="648">
            <name>Wetland_264</name>
            <Link id="649">
                <href>https://raw.githubusercontent.com/robmohammedmahid-stack/Horry-County-Data/Wetlands/KML-Output/Wetlands/Wetland_264.kml</href>
                <refreshMode>onChange</refreshMode>
            </Link>
        </NetworkLink>
        <NetworkLink id="650">
            <name>Wetland_265</name>
            <Link id="651">
                <href>https://raw.githubusercontent.com/robmohammedmahid-stack/Horry-County-Data/Wetlands/KML-Output/Wetlands/Wetland_265.kml</href>
                <refreshMode>onChange</refreshMode>
            </Link>
        </NetworkLink>
        <NetworkLink id="652">
            <name>Wetland_266</name>
            <Link id="653">
                <href>https://raw.githubusercontent.com/robmohammedmahid-stack/Horry-County-Data/Wetlands/KML-Output/Wetlands/Wetland_266.kml</href>
                <refreshMode>onChange</refreshMode>
            </Link>
        </NetworkLink>
        <NetworkLink id="654">
            <name>Wetland_267</name>
            <Link id="655">
                <href>https://raw.githubusercontent.com/robmohammedmahid-stack/Horry-County-Data/Wetlands/KML-Output/Wetlands/Wetland_267.kml</href>
                <refreshMode>onChange</refreshMode>
            </Link>
        </NetworkLink>
        <NetworkLink id="656">
            <name>Wetland_268</name>
            <Link id="657">
                <href>https://raw.githubusercontent.com/robmohammedmahid-stack/Horry-County-Data/Wetlands/KML-Output/Wetlands/Wetland_268.kml</href>
                <refreshMode>onChange</refreshMode>
            </Link>
        </NetworkLink>
        <NetworkLink id="658">
            <name>Wetland_269</name>
            <Link id="659">
                <href>https://raw.githubusercontent.com/robmohammedmahid-stack/Horry-County-Data/Wetlands/KML-Output/Wetlands/Wetland_269.kml</href>
                <refreshMode>onChange</refreshMode>
            </Link>
        </NetworkLink>
        <NetworkLink id="660">
            <name>Wetland_270</name>
            <Link id="661">
                <href>https://raw.githubusercontent.com/robmohammedmahid-stack/Horry-County-Data/Wetlands/KML-Output/Wetlands/Wetland_270.kml</href>
                <refreshMode>onChange</refreshMode>
            </Link>
        </NetworkLink>
        <NetworkLink id="662">
            <name>Wetland_271</name>
            <Link id="663">
                <href>https://raw.githubusercontent.com/robmohammedmahid-stack/Horry-County-Data/Wetlands/KML-Output/Wetlands/Wetland_271.kml</href>
                <refreshMode>onChange</refreshMode>
            </Link>
        </NetworkLink>
        <NetworkLink id="664">
            <name>Wetland_272</name>
            <Link id="665">
                <href>https://raw.githubusercontent.com/robmohammedmahid-stack/Horry-County-Data/Wetlands/KML-Output/Wetlands/Wetland_272.kml</href>
                <refreshMode>onChange</refreshMode>
            </Link>
        </NetworkLink>
        <NetworkLink id="666">
            <name>Wetland_273</name>
            <Link id="667">
                <href>https://raw.githubusercontent.com/robmohammedmahid-stack/Horry-County-Data/Wetlands/KML-Output/Wetlands/Wetland_273.kml</href>
                <refreshMode>onChange</refreshMode>
            </Link>
        </NetworkLink>
        <NetworkLink id="668">
            <name>Wetland_274</name>
            <Link id="669">
                <href>https://raw.githubusercontent.com/robmohammedmahid-stack/Horry-County-Data/Wetlands/KML-Output/Wetlands/Wetland_274.kml</href>
                <refreshMode>onChange</refreshMode>
            </Link>
        </NetworkLink>
        <NetworkLink id="670">
            <name>Wetland_275</name>
            <Link id="671">
                <href>https://raw.githubusercontent.com/robmohammedmahid-stack/Horry-County-Data/Wetlands/KML-Output/Wetlands/Wetland_275.kml</href>
                <refreshMode>onChange</refreshMode>
            </Link>
        </NetworkLink>
        <NetworkLink id="672">
            <name>Wetland_276</name>
            <Link id="673">
                <href>https://raw.githubusercontent.com/robmohammedmahid-stack/Horry-County-Data/Wetlands/KML-Output/Wetlands/Wetland_276.kml</href>
                <refreshMode>onChange</refreshMode>
            </Link>
        </NetworkLink>
        <NetworkLink id="674">
            <name>Wetland_277</name>
            <Link id="675">
                <href>https://raw.githubusercontent.com/robmohammedmahid-stack/Horry-County-Data/Wetlands/KML-Output/Wetlands/Wetland_277.kml</href>
                <refreshMode>onChange</refreshMode>
            </Link>
        </NetworkLink>
        <NetworkLink id="676">
            <name>Wetland_278</name>
            <Link id="677">
                <href>https://raw.githubusercontent.com/robmohammedmahid-stack/Horry-County-Data/Wetlands/KML-Output/Wetlands/Wetland_278.kml</href>
                <refreshMode>onChange</refreshMode>
            </Link>
        </NetworkLink>
        <NetworkLink id="678">
            <name>Wetland_279</name>
            <Link id="679">
                <href>https://raw.githubusercontent.com/robmohammedmahid-stack/Horry-County-Data/Wetlands/KML-Output/Wetlands/Wetland_279.kml</href>
                <refreshMode>onChange</refreshMode>
            </Link>
        </NetworkLink>
        <NetworkLink id="680">
            <name>Wetland_280</name>
            <Link id="681">
                <href>https://raw.githubusercontent.com/robmohammedmahid-stack/Horry-County-Data/Wetlands/KML-Output/Wetlands/Wetland_280.kml</href>
                <refreshMode>onChange</refreshMode>
            </Link>
        </NetworkLink>
        <NetworkLink id="682">
            <name>Wetland_281</name>
            <Link id="683">
                <href>https://raw.githubusercontent.com/robmohammedmahid-stack/Horry-County-Data/Wetlands/KML-Output/Wetlands/Wetland_281.kml</href>
                <refreshMode>onChange</refreshMode>
            </Link>
        </NetworkLink>
        <NetworkLink id="684">
            <name>Wetland_282</name>
            <Link id="685">
                <href>https://raw.githubusercontent.com/robmohammedmahid-stack/Horry-County-Data/Wetlands/KML-Output/Wetlands/Wetland_282.kml</href>
                <refreshMode>onChange</refreshMode>
            </Link>
        </NetworkLink>
        <NetworkLink id="686">
            <name>Wetland_283</name>
            <Link id="687">
                <href>https://raw.githubusercontent.com/robmohammedmahid-stack/Horry-County-Data/Wetlands/KML-Output/Wetlands/Wetland_283.kml</href>
                <refreshMode>onChange</refreshMode>
            </Link>
        </NetworkLink>
        <NetworkLink id="688">
            <name>Wetland_284</name>
            <Link id="689">
                <href>https://raw.githubusercontent.com/robmohammedmahid-stack/Horry-County-Data/Wetlands/KML-Output/Wetlands/Wetland_284.kml</href>
                <refreshMode>onChange</refreshMode>
            </Link>
        </NetworkLink>
        <NetworkLink id="690">
            <name>Wetland_285</name>
            <Link id="691">
                <href>https://raw.githubusercontent.com/robmohammedmahid-stack/Horry-County-Data/Wetlands/KML-Output/Wetlands/Wetland_285.kml</href>
                <refreshMode>onChange</refreshMode>
            </Link>
        </NetworkLink>
        <NetworkLink id="692">
            <name>Wetland_286</name>
            <Link id="693">
                <href>https://raw.githubusercontent.com/robmohammedmahid-stack/Horry-County-Data/Wetlands/KML-Output/Wetlands/Wetland_286.kml</href>
                <refreshMode>onChange</refreshMode>
            </Link>
        </NetworkLink>
        <NetworkLink id="694">
            <name>Wetland_287</name>
            <Link id="695">
                <href>https://raw.githubusercontent.com/robmohammedmahid-stack/Horry-County-Data/Wetlands/KML-Output/Wetlands/Wetland_287.kml</href>
                <refreshMode>onChange</refreshMode>
            </Link>
        </NetworkLink>
        <NetworkLink id="696">
            <name>Wetland_288</name>
            <Link id="697">
                <href>https://raw.githubusercontent.com/robmohammedmahid-stack/Horry-County-Data/Wetlands/KML-Output/Wetlands/Wetland_288.kml</href>
                <refreshMode>onChange</refreshMode>
            </Link>
        </NetworkLink>
        <NetworkLink id="698">
            <name>Wetland_289</name>
            <Link id="699">
                <href>https://raw.githubusercontent.com/robmohammedmahid-stack/Horry-County-Data/Wetlands/KML-Output/Wetlands/Wetland_289.kml</href>
                <refreshMode>onChange</refreshMode>
            </Link>
        </NetworkLink>
        <NetworkLink id="700">
            <name>Wetland_290</name>
            <Link id="701">
                <href>https://raw.githubusercontent.com/robmohammedmahid-stack/Horry-County-Data/Wetlands/KML-Output/Wetlands/Wetland_290.kml</href>
                <refreshMode>onChange</refreshMode>
            </Link>
        </NetworkLink>
        <NetworkLink id="702">
            <name>Wetland_291</name>
            <Link id="703">
                <href>https://raw.githubusercontent.com/robmohammedmahid-stack/Horry-County-Data/Wetlands/KML-Output/Wetlands/Wetland_291.kml</href>
                <refreshMode>onChange</refreshMode>
            </Link>
        </NetworkLink>
        <NetworkLink id="704">
            <name>Wetland_292</name>
            <Link id="705">
                <href>https://raw.githubusercontent.com/robmohammedmahid-stack/Horry-County-Data/Wetlands/KML-Output/Wetlands/Wetland_292.kml</href>
                <refreshMode>onChange</refreshMode>
            </Link>
        </NetworkLink>
        <NetworkLink id="706">
            <name>Wetland_293</name>
            <Link id="707">
                <href>https://raw.githubusercontent.com/robmohammedmahid-stack/Horry-County-Data/Wetlands/KML-Output/Wetlands/Wetland_293.kml</href>
                <refreshMode>onChange</refreshMode>
            </Link>
        </NetworkLink>
        <NetworkLink id="708">
            <name>Wetland_294</name>
            <Link id="709">
                <href>https://raw.githubusercontent.com/robmohammedmahid-stack/Horry-County-Data/Wetlands/KML-Output/Wetlands/Wetland_294.kml</href>
                <refreshMode>onChange</refreshMode>
            </Link>
        </NetworkLink>
        <NetworkLink id="710">
            <name>Wetland_295</name>
            <Link id="711">
                <href>https://raw.githubusercontent.com/robmohammedmahid-stack/Horry-County-Data/Wetlands/KML-Output/Wetlands/Wetland_295.kml</href>
                <refreshMode>onChange</refreshMode>
            </Link>
        </NetworkLink>
        <NetworkLink id="712">
            <name>Wetland_296</name>
            <Link id="713">
                <href>https://raw.githubusercontent.com/robmohammedmahid-stack/Horry-County-Data/Wetlands/KML-Output/Wetlands/Wetland_296.kml</href>
                <refreshMode>onChange</refreshMode>
            </Link>
        </NetworkLink>
        <NetworkLink id="714">
            <name>Wetland_297</name>
            <Link id="715">
                <href>https://raw.githubusercontent.com/robmohammedmahid-stack/Horry-County-Data/Wetlands/KML-Output/Wetlands/Wetland_297.kml</href>
                <refreshMode>onChange</refreshMode>
            </Link>
        </NetworkLink>
        <NetworkLink id="716">
            <name>Wetland_298</name>
            <Link id="717">
                <href>https://raw.githubusercontent.com/robmohammedmahid-stack/Horry-County-Data/Wetlands/KML-Output/Wetlands/Wetland_298.kml</href>
                <refreshMode>onChange</refreshMode>
            </Link>
        </NetworkLink>
        <NetworkLink id="718">
            <name>Wetland_299</name>
            <Link id="719">
                <href>https://raw.githubusercontent.com/robmohammedmahid-stack/Horry-County-Data/Wetlands/KML-Output/Wetlands/Wetland_299.kml</href>
                <refreshMode>onChange</refreshMode>
            </Link>
        </NetworkLink>
        <NetworkLink id="720">
            <name>Wetland_300</name>
            <Link id="721">
                <href>https://raw.githubusercontent.com/robmohammedmahid-stack/Horry-County-Data/Wetlands/KML-Output/Wetlands/Wetland_300.kml</href>
                <refreshMode>onChange</refreshMode>
            </Link>
        </NetworkLink>
    </Document>
</kml>
