<?xml version="1.0" encoding="UTF-8"?>
<kml xmlns="http://www.opengis.net/kml/2.2" xmlns:gx="http://www.google.com/kml/ext/2.2">
    <Document id="425718">
        <Style id="425725">
            <LineStyle id="425727">
                <colorMode>normal</colorMode>
                <width>1</width>
            </LineStyle>
            <PolyStyle id="425726">
                <color>80ee82ee</color>
                <colorMode>normal</colorMode>
                <fill>1</fill>
                <outline>1</outline>
            </PolyStyle>
        </Style>
        <Style id="425734">
            <LineStyle id="425736">
                <colorMode>normal</colorMode>
                <width>1</width>
            </LineStyle>
            <PolyStyle id="425735">
                <color>80ee82ee</color>
                <colorMode>normal</colorMode>
                <fill>1</fill>
                <outline>1</outline>
            </PolyStyle>
        </Style>
        <Style id="425743">
            <LineStyle id="425745">
                <colorMode>normal</colorMode>
                <width>1</width>
            </LineStyle>
            <PolyStyle id="425744">
                <color>80ee82ee</color>
                <colorMode>normal</colorMode>
                <fill>1</fill>
                <outline>1</outline>
            </PolyStyle>
        </Style>
        <Style id="425752">
            <LineStyle id="425754">
                <colorMode>normal</colorMode>
                <width>1</width>
            </LineStyle>
            <PolyStyle id="425753">
                <color>80ee82ee</color>
                <colorMode>normal</colorMode>
                <fill>1</fill>
                <outline>1</outline>
            </PolyStyle>
        </Style>
        <Style id="425761">
            <LineStyle id="425763">
                <colorMode>normal</colorMode>
                <width>1</width>
            </LineStyle>
            <PolyStyle id="425762">
                <color>80ee82ee</color>
                <colorMode>normal</colorMode>
                <fill>1</fill>
                <outline>1</outline>
            </PolyStyle>
        </Style>
        <Style id="425770">
            <LineStyle id="425772">
                <colorMode>normal</colorMode>
                <width>1</width>
            </LineStyle>
            <PolyStyle id="425771">
                <color>80ee82ee</color>
                <colorMode>normal</colorMode>
                <fill>1</fill>
                <outline>1</outline>
            </PolyStyle>
        </Style>
        <Style id="425779">
            <LineStyle id="425781">
                <colorMode>normal</colorMode>
                <width>1</width>
            </LineStyle>
            <PolyStyle id="425780">
                <color>80ee82ee</color>
                <colorMode>normal</colorMode>
                <fill>1</fill>
                <outline>1</outline>
            </PolyStyle>
        </Style>
        <Style id="425788">
            <LineStyle id="425790">
                <colorMode>normal</colorMode>
                <width>1</width>
            </LineStyle>
            <PolyStyle id="425789">
                <color>80ee82ee</color>
                <colorMode>normal</colorMode>
                <fill>1</fill>
                <outline>1</outline>
            </PolyStyle>
        </Style>
        <Style id="425797">
            <LineStyle id="425799">
                <colorMode>normal</colorMode>
                <width>1</width>
            </LineStyle>
            <PolyStyle id="425798">
                <color>80ee82ee</color>
                <colorMode>normal</colorMode>
                <fill>1</fill>
                <outline>1</outline>
            </PolyStyle>
        </Style>
        <Style id="425806">
            <LineStyle id="425808">
                <colorMode>normal</colorMode>
                <width>1</width>
            </LineStyle>
            <PolyStyle id="425807">
                <color>80ee82ee</color>
                <colorMode>normal</colorMode>
                <fill>1</fill>
                <outline>1</outline>
            </PolyStyle>
        </Style>
        <Style id="425815">
            <LineStyle id="425817">
                <colorMode>normal</colorMode>
                <width>1</width>
            </LineStyle>
            <PolyStyle id="425816">
                <color>80ee82ee</color>
                <colorMode>normal</colorMode>
                <fill>1</fill>
                <outline>1</outline>
            </PolyStyle>
        </Style>
        <Style id="425824">
            <LineStyle id="425826">
                <colorMode>normal</colorMode>
                <width>1</width>
            </LineStyle>
            <PolyStyle id="425825">
                <color>80ee82ee</color>
                <colorMode>normal</colorMode>
                <fill>1</fill>
                <outline>1</outline>
            </PolyStyle>
        </Style>
        <Style id="425833">
            <LineStyle id="425835">
                <colorMode>normal</colorMode>
                <width>1</width>
            </LineStyle>
            <PolyStyle id="425834">
                <color>80ee82ee</color>
                <colorMode>normal</colorMode>
                <fill>1</fill>
                <outline>1</outline>
            </PolyStyle>
        </Style>
        <Style id="425842">
            <LineStyle id="425844">
                <colorMode>normal</colorMode>
                <width>1</width>
            </LineStyle>
            <PolyStyle id="425843">
                <color>80ee82ee</color>
                <colorMode>normal</colorMode>
                <fill>1</fill>
                <outline>1</outline>
            </PolyStyle>
        </Style>
        <Placemark id="425720">
            <name>Wetland_46240</name>
            <styleUrl>#425725</styleUrl>
            <Polygon id="425719">
                <outerBoundaryIs>
                    <LinearRing id="425723">
                        <coordinates>-79.03080630589824,33.81234602471385,0.0 -79.03086116490395,33.81228879266488,0.0 -79.03087149596959,33.81229365154683,0.0 -79.0311792393043,33.812360882940276,0.0 -79.03141296642384,33.81240022301308,0.0 -79.03156099859747,33.812456000113606,0.0 -79.03167369849963,33.81251974050876,0.0 -79.03165205518069,33.81267111185997,0.0 -79.03155223163073,33.81283866405265,0.0 -79.03154937595839,33.812963250661106,0.0 -79.03150448895026,33.813060460227,0.0 -79.03135482511274,33.813075876812356,0.0 -79.03121745337202,33.81302026814772,0.0 -79.03109359929574,33.81284024314695,0.0 -79.03105401280223,33.812706075549066,0.0 -79.03093959558458,33.81257961555754,0.0 -79.03082517873722,33.81245315543169,0.0 -79.03080630589824,33.81234602471385,0.0</coordinates>
                    </LinearRing>
                </outerBoundaryIs>
            </Polygon>
        </Placemark>
        <Placemark id="425729">
            <name>Wetland_46241</name>
            <styleUrl>#425734</styleUrl>
            <Polygon id="425728">
                <outerBoundaryIs>
                    <LinearRing id="425732">
                        <coordinates>-79.03114278863666,33.81441674759011,0.0 -79.03087747865717,33.81435909788351,0.0 -79.03070709928073,33.814347474005096,0.0 -79.03051580862507,33.81431771169845,0.0 -79.03035670550457,33.8142795607553,0.0 -79.03022103712317,33.81421575789148,0.0 -79.03021953603003,33.81421505118329,0.0 -79.03008175572056,33.81417724086959,0.0 -79.02993331539177,33.8141392600152,0.0 -79.02991184749361,33.814132265517166,0.0 -79.02973217738527,33.81407372999479,0.0 -79.02955257141885,33.81399964086326,0.0 -79.02918310077605,33.81383349424418,0.0 -79.02883352662569,33.81372997900106,0.0 -79.02851675027077,33.81359137967991,0.0 -79.02804067575494,33.813423523097235,0.0 -79.02780898964201,33.81329518491064,0.0 -79.02750145019054,33.81321904672699,0.0 -79.02700405526517,33.81305084659582,0.0 -79.02700435132384,33.81304895338412,0.0 -79.02692573295154,33.813056427134924,0.0 -79.02681837575386,33.813040875966784,0.0 -79.02671197560178,33.81298384475759,0.0 -79.02663822932115,33.81294808424923,0.0 -79.02654839441823,33.81289131835567,0.0 -79.02644072149279,33.81288959483981,0.0 -79.02643542410179,33.812892781618125,0.0 -79.02632720447163,33.81284542850324,0.0 -79.02618357266766,33.812793349987096,0.0 -79.0260482943216,33.812748517127595,0.0 -79.02593070104683,33.812675522109366,0.0 -79.02588975583868,33.812603754259534,0.0 -79.02589236801599,33.81249001574797,0.0 -79.02592004128974,33.81239801317306,0.0 -79.02596376418177,33.812348934997715,0.0 -79.02601583867379,33.812307099687686,0.0 -79.0260841317467,33.8123010817306,0.0 -79.02620515348224,33.81222479617398,0.0 -79.02627377390498,33.81220456070197,0.0 -79.02640167790388,33.8121994967477,0.0 -79.0264953542944,33.81220099531701,0.0 -79.02658788700293,33.81225225503891,0.0 -79.02667960570837,33.812339058822936,0.0 -79.02673807364962,33.81238977226415,0.0 -79.02683994205147,33.81240562536351,0.0 -79.02692412385899,33.81244964021669,0.0 -79.02701665607246,33.812500899419405,0.0 -79.02712606000497,33.81255954064962,0.0 -79.02726101264774,33.81261858893421,0.0 -79.02731441367504,33.81264061869924,0.0 -79.02737613671695,33.81263838810551,0.0 -79.02759078777133,33.812579505914385,0.0 -79.0278070754952,33.812449430081315,0.0 -79.02800983896896,33.812443770436666,0.0 -79.02819209866219,33.81240217286315,0.0 -79.0284184314194,33.812298963793616,0.0 -79.0285490195236,33.812185320437806,0.0 -79.0286890412486,33.81212524415337,0.0 -79.02883707202815,33.81218102492308,0.0 -79.02891888700655,33.81233367227102,0.0 -79.02906385512186,33.812522938296595,0.0 -79.02916415422911,33.812543233632134,0.0 -79.03005626955309,33.81342020627375,0.0 -79.03005975858457,33.81342325536034,0.0 -79.03006629656927,33.81342833597955,0.0 -79.03120718291187,33.81431493575626,0.0 -79.0311971141284,33.81437310448981,0.0 -79.03122281168554,33.81442985774776,0.0 -79.03114278863666,33.81441674759011,0.0</coordinates>
                    </LinearRing>
                </outerBoundaryIs>
            </Polygon>
        </Placemark>
        <Placemark id="425738">
            <name>Wetland_46242</name>
            <styleUrl>#425743</styleUrl>
            <Polygon id="425737">
                <outerBoundaryIs>
                    <LinearRing id="425741">
                        <coordinates>-79.03254914128175,33.81372094002567,0.0 -79.03269432422002,33.81372932382807,0.0 -79.03284194879888,33.8138028981901,0.0 -79.03299983407462,33.813894440395046,0.0 -79.03308017867327,33.813974879918,0.0 -79.03308328866765,33.81397589272483,0.0 -79.03310346798166,33.813998196172726,0.0 -79.0331087893278,33.81400407637131,0.0 -79.0331977099407,33.81410235196403,0.0 -79.03326989520997,33.81421033174298,0.0 -79.03335213042651,33.814345178158476,0.0 -79.03352990888592,33.8144993547734,0.0 -79.03371957483819,33.814600306004984,0.0 -79.0338885269715,33.81467421874985,0.0 -79.0340025423301,33.81481847461282,0.0 -79.03414711838415,33.815025534697966,0.0 -79.03404143028453,33.81511044552483,0.0 -79.03403846700658,33.81511282589472,0.0 -79.03392180312026,33.815084258556745,0.0 -79.03381579941204,33.81505586199778,0.0 -79.03167536726279,33.81458026357499,0.0 -79.03122303512184,33.81422875834202,0.0 -79.0312883195414,33.81411639242387,0.0 -79.0314291578249,33.81402071388025,0.0 -79.03144781124617,33.8140078777217,0.0 -79.0315808643733,33.81391630811826,0.0 -79.03168951488414,33.813829017896744,0.0 -79.031872183498,33.81376961688131,0.0 -79.03206551514494,33.813710386228074,0.0 -79.03235336643732,33.81371498129605,0.0 -79.03248130340253,33.81371702174955,0.0 -79.03254914128175,33.81372094002567,0.0</coordinates>
                    </LinearRing>
                </outerBoundaryIs>
            </Polygon>
        </Placemark>
        <Placemark id="425747">
            <name>Wetland_46243</name>
            <styleUrl>#425752</styleUrl>
            <Polygon id="425746">
                <outerBoundaryIs>
                    <LinearRing id="425750">
                        <coordinates>-79.0308094164569,33.81472187887604,0.0 -79.030614058251,33.81468427728814,0.0 -79.03045454704439,33.814663926106185,0.0 -79.03026345830733,33.81462526343095,0.0 -79.0301039455576,33.81460490968384,0.0 -79.0299874873734,33.814567439430775,0.0 -79.02983135292432,33.814499128677234,0.0 -79.02981853701884,33.81449352065328,0.0 -79.02958562010382,33.81441858016331,0.0 -79.02936438850561,33.81429931419195,0.0 -79.02885611696571,33.814139849572804,0.0 -79.02860249078662,33.814037868134854,0.0 -79.02822195553141,33.81388934596873,0.0 -79.02802184291009,33.81377931717846,0.0 -79.02772516753019,33.81369445069691,0.0 -79.02746026922827,33.813618994188474,0.0 -79.02725873021878,33.81357125815529,0.0 -79.02702520679281,33.81352301008613,0.0 -79.026580910664,33.81336455993428,0.0 -79.02648969927395,33.81335723329214,0.0 -79.02647511692868,33.81332725780374,0.0 -79.02636029536151,33.81321858988968,0.0 -79.02631290521755,33.81318090724397,0.0 -79.02632653998728,33.81317132634851,0.0 -79.02633609050905,33.813116149940875,0.0 -79.02632095476723,33.81305366400831,0.0 -79.02632159310077,33.81302600983703,0.0 -79.02637351145806,33.81293001562772,0.0 -79.02643542410179,33.812892781618125,0.0 -79.02644072149279,33.81288959483981,0.0 -79.02654839441823,33.81289131835567,0.0 -79.02663822932115,33.81294808424923,0.0 -79.02671197560178,33.81298384475759,0.0 -79.02681837575386,33.813040875966784,0.0 -79.02692573295154,33.813056427134924,0.0 -79.02700435132384,33.81304895338412,0.0 -79.02700405526517,33.81305084659582,0.0 -79.02750145019054,33.81321904672699,0.0 -79.02780898964201,33.81329518491064,0.0 -79.02804067575494,33.813423523097235,0.0 -79.02851675027077,33.81359137967991,0.0 -79.02883352662569,33.81372997900106,0.0 -79.02918310077605,33.81383349424418,0.0 -79.02955257141885,33.81399964086326,0.0 -79.02973217738527,33.81407372999479,0.0 -79.02991184749361,33.814132265517166,0.0 -79.02993331539177,33.8141392600152,0.0 -79.03008175572056,33.81417724086959,0.0 -79.03021953603003,33.81421505118329,0.0 -79.03022103712317,33.81421575789148,0.0 -79.03021190931797,33.814277782442296,0.0 -79.03020251746938,33.81432604485272,0.0 -79.03030860576686,33.81439689969662,0.0 -79.03047298583422,33.814454854700244,0.0 -79.03061268068583,33.814505498393025,0.0 -79.03071080531384,33.814562393328934,0.0 -79.03078408173674,33.81461889218198,0.0 -79.03081673301428,33.81464016112104,0.0 -79.0308094164569,33.81472187887604,0.0</coordinates>
                    </LinearRing>
                </outerBoundaryIs>
            </Polygon>
        </Placemark>
        <Placemark id="425756">
            <name>Wetland_46244</name>
            <styleUrl>#425761</styleUrl>
            <Polygon id="425755">
                <outerBoundaryIs>
                    <LinearRing id="425759">
                        <coordinates>-79.02532869299225,33.8144840138933,0.0 -79.0253541069696,33.814306373616446,0.0 -79.02533442144559,33.81423483922862,0.0 -79.0252077140474,33.81417939550091,0.0 -79.02513594893644,33.81405361388128,0.0 -79.02520339363272,33.81390335388592,0.0 -79.02531061939553,33.81387836341017,0.0 -79.02541045746052,33.81371081772444,0.0 -79.0255219764804,33.813498947338736,0.0 -79.02558019154964,33.81328622243681,0.0 -79.0256250871264,33.81318901536246,0.0 -79.02567079963556,33.813056212684984,0.0 -79.02572574191898,33.8129858729538,0.0 -79.02583276082426,33.81296978249984,0.0 -79.02597033318384,33.813016495993914,0.0 -79.02608658318518,33.81306286930628,0.0 -79.02623461388315,33.81311865334178,0.0 -79.02631290521755,33.81318090724397,0.0 -79.02636029536151,33.81321858988968,0.0 -79.02647511692868,33.81332725780374,0.0 -79.02648969927395,33.81335723329214,0.0 -79.026580910664,33.81336455993428,0.0 -79.02702520679281,33.81352301008613,0.0 -79.02725873021878,33.81357125815529,0.0 -79.02746026922827,33.813618994188474,0.0 -79.02772516753019,33.81369445069691,0.0 -79.02802184291009,33.81377931717846,0.0 -79.02822195553141,33.81388934596873,0.0 -79.02860249078662,33.814037868134854,0.0 -79.02885611696571,33.814139849572804,0.0 -79.02936438850561,33.81429931419195,0.0 -79.02958562010382,33.81441858016331,0.0 -79.02981853701884,33.81449352065328,0.0 -79.02983135292432,33.814499128677234,0.0 -79.0299874873734,33.814567439430775,0.0 -79.0301039455576,33.81460490968384,0.0 -79.03026345830733,33.81462526343095,0.0 -79.03045454704439,33.814663926106185,0.0 -79.030614058251,33.81468427728814,0.0 -79.0308094164569,33.81472187887604,0.0 -79.03081580753981,33.81472310967453,0.0 -79.03104913331279,33.814780249809495,0.0 -79.03129291846132,33.8148464589592,0.0 -79.03150492316699,33.81490325838535,0.0 -79.03170492412579,33.814950622186615,0.0 -79.03170647015273,33.81495098812681,0.0 -79.03172697511783,33.814986924796756,0.0 -79.03162898478013,33.81507438353635,0.0 -79.03150043454025,33.815099038742765,0.0 -79.03139259796991,33.81515073152164,0.0 -79.03133664035451,33.815265568018404,0.0 -79.0313874998801,33.81537320959978,0.0 -79.03145003931355,33.81543652447769,0.0 -79.03156670408612,33.815465093576606,0.0 -79.03170509946348,33.81547620562712,0.0 -79.03187527708512,33.8154967267737,0.0 -79.03213053964767,33.81552750878736,0.0 -79.0322999009142,33.81558362625316,0.0 -79.03236244339662,33.8156469409376,0.0 -79.03243088077183,33.81570959640731,0.0 -79.03255047681553,33.81581908677138,0.0 -79.03248614560104,33.81590482008639,0.0 -79.0324844686241,33.81590705669487,0.0 -79.0321642136526,33.81591974993477,0.0 -79.03204206176969,33.815922653783744,0.0 -79.0320428746998,33.815887134508316,0.0 -79.0319770937516,33.81583720545208,0.0 -79.0319357610781,33.815815596770676,0.0 -79.03186949690532,33.815786607180414,0.0 -79.03180704495222,33.81575039577065,0.0 -79.03179519449931,33.81574352532607,0.0 -79.03169596429795,33.81569306120499,0.0 -79.03158032726563,33.81562837098284,0.0 -79.03151470745921,33.81557146081434,0.0 -79.031374141901,33.815499387953636,0.0 -79.03124146120662,33.81544839089198,0.0 -79.03115847430992,33.815419134472464,0.0 -79.03104188042612,33.815396325078886,0.0 -79.03087542869144,33.81535875222244,0.0 -79.03073390604627,33.81532856083555,0.0 -79.03060894820804,33.815305616924384,0.0 -79.0304920327246,33.815296765837886,0.0 -79.03037527634679,33.815280936283266,0.0 -79.03029197207675,33.81526563961683,0.0 -79.03016749311458,33.81522175401078,0.0 -79.03010139475141,33.815185784947694,0.0 -79.0299844773633,33.815176933028226,0.0 -79.02986772340873,33.81516110327615,0.0 -79.02975064958169,33.8151592325892,0.0 -79.02968673951099,33.81515821152756,0.0 -79.02961684843918,33.81515709362658,0.0 -79.0294489560332,33.815182341553225,0.0 -79.0292805857063,33.81522853060571,0.0 -79.02917991569919,33.81524088713063,0.0 -79.02908728856275,33.81526733766617,0.0 -79.02900270211366,33.81530788191229,0.0 -79.0288590973953,33.815368431172764,0.0 -79.02874830038931,33.81545743509964,0.0 -79.02873881634956,33.8155061630714,0.0 -79.02871180769849,33.815589524322505,0.0 -79.02860985421114,33.81565772303788,0.0 -79.02849197828496,33.81569075112546,0.0 -79.02839130560965,33.81570310575678,0.0 -79.02828195197449,33.8157292893732,0.0 -79.02817275938668,33.815748491178795,0.0 -79.02805311952656,33.815858302519146,0.0 -79.02797673454451,33.81590595915722,0.0 -79.02783344819797,33.81595254793111,0.0 -79.02771557130573,33.815985576094256,0.0 -79.02762246151069,33.816032965413335,0.0 -79.02745520889657,33.816030289607525,0.0 -79.02722105749557,33.816026543950905,0.0 -79.0270621681224,33.81602400174872,0.0 -79.0269450909285,33.816022127902514,0.0 -79.02685230145057,33.81605555567818,0.0 -79.02678411859038,33.81611032757468,0.0 -79.02676759415885,33.81616722023875,0.0 -79.02671887712926,33.816179913140154,0.0 -79.02569394016339,33.81622582215427,0.0 -79.02565264933651,33.81619511614046,0.0 -79.02562053673665,33.816171233636155,0.0 -79.02553688054205,33.816098673691876,0.0 -79.02553851821897,33.81602748242424,0.0 -79.02549750829253,33.81595560530608,0.0 -79.02538248087394,33.81585583761678,0.0 -79.02542778408723,33.81574083282823,0.0 -79.0254409022979,33.81563421366292,0.0 -79.02547616024343,33.815492341796805,0.0 -79.02551060004284,33.81538606431791,0.0 -79.02556799690804,33.81520893686756,0.0 -79.0255699381909,33.81512450866733,0.0 -79.02555249460232,33.81511003852889,0.0 -79.02527042007345,33.81498661206751,0.0 -79.02525404772224,33.814978051567465,0.0 -79.02531887421617,33.814911169845644,0.0 -79.02532194324488,33.81477768288029,0.0 -79.02532562632128,33.81461750034777,0.0 -79.02532869299225,33.8144840138933,0.0</coordinates>
                    </LinearRing>
                </outerBoundaryIs>
            </Polygon>
        </Placemark>
        <Placemark id="425765">
            <name>Wetland_46245</name>
            <styleUrl>#425770</styleUrl>
            <Polygon id="425764">
                <outerBoundaryIs>
                    <LinearRing id="425768">
                        <coordinates>-79.0311971141284,33.81437310448981,0.0 -79.03120718291187,33.81431493575626,0.0 -79.03149785945415,33.8145408198867,0.0 -79.03126909011883,33.8144899848102,0.0 -79.03123771979186,33.814462776390194,0.0 -79.03122281168554,33.81442985774776,0.0 -79.0311971141284,33.81437310448981,0.0</coordinates>
                    </LinearRing>
                </outerBoundaryIs>
            </Polygon>
        </Placemark>
        <Placemark id="425774">
            <name>Wetland_46246</name>
            <styleUrl>#425779</styleUrl>
            <Polygon id="425773">
                <outerBoundaryIs>
                    <LinearRing id="425777">
                        <coordinates>-79.03212183390572,33.815025702373184,0.0 -79.03172779282849,33.814951328865334,0.0 -79.03170492412579,33.814950622186615,0.0 -79.03150492316699,33.81490325838535,0.0 -79.03129291846132,33.8148464589592,0.0 -79.03104913331279,33.814780249809495,0.0 -79.03081580753981,33.81472310967453,0.0 -79.0308094164569,33.81472187887604,0.0 -79.03081673301428,33.81464016112104,0.0 -79.03078408173674,33.81461889218198,0.0 -79.03071080531384,33.814562393328934,0.0 -79.03061268068583,33.814505498393025,0.0 -79.03047298583422,33.814454854700244,0.0 -79.03030860576686,33.81439689969662,0.0 -79.03020251746938,33.81432604485272,0.0 -79.03021190931797,33.814277782442296,0.0 -79.03022103712317,33.81421575789148,0.0 -79.03035670550457,33.8142795607553,0.0 -79.03051580862507,33.81431771169845,0.0 -79.03070709928073,33.814347474005096,0.0 -79.03087747865717,33.81435909788351,0.0 -79.03114278863666,33.81441674759011,0.0 -79.03122281168554,33.81442985774776,0.0 -79.03123771979186,33.814462776390194,0.0 -79.03126909011883,33.8144899848102,0.0 -79.03149785945415,33.8145408198867,0.0 -79.03212183390572,33.815025702373184,0.0</coordinates>
                    </LinearRing>
                </outerBoundaryIs>
            </Polygon>
        </Placemark>
        <Placemark id="425783">
            <name>Wetland_46247</name>
            <styleUrl>#425788</styleUrl>
            <Polygon id="425782">
                <outerBoundaryIs>
                    <LinearRing id="425786">
                        <coordinates>-79.03348787488571,33.81586965008022,0.0 -79.03376602275979,33.81536665008191,0.0 -79.03311893620956,33.81521389213508,0.0 -79.03228924878346,33.81505730031896,0.0 -79.03167536726279,33.81458026357499,0.0 -79.03381579941204,33.81505586199778,0.0 -79.03392180312026,33.815084258556745,0.0 -79.03403846700658,33.81511282589472,0.0 -79.03404143028453,33.81511044552483,0.0 -79.03413415498281,33.81522563661878,0.0 -79.03420680001126,33.81530978754357,0.0 -79.03430397808896,33.81540816147974,0.0 -79.03437662239918,33.815492312118664,0.0 -79.03437603133496,33.815518080260375,0.0 -79.03437535781596,33.81554762132397,0.0 -79.03437377557495,33.815616757146145,0.0 -79.03431310682818,33.81573336339372,0.0 -79.0342497149684,33.81578429184695,0.0 -79.03427164879409,33.815808095847906,0.0 -79.0343241458233,33.8158435411201,0.0 -79.03438312847007,33.81585436964917,0.0 -79.03446010030247,33.81585559610554,0.0 -79.03453126564057,33.81585178714769,0.0 -79.03462053229363,33.81583343437115,0.0 -79.0346976175444,33.81582971824024,0.0 -79.03478309374758,33.815823448721844,0.0 -79.03479925541866,33.81585176890777,0.0 -79.03479767373967,33.815920903827276,0.0 -79.0347707699885,33.81601038444295,0.0 -79.0347875511781,33.8161056170383,0.0 -79.03480808061094,33.81611869276067,0.0 -79.03469015411449,33.816155902859094,0.0 -79.03458357747148,33.816154203021924,0.0 -79.03447062619036,33.81617217881666,0.0 -79.03435812849314,33.8161703856751,0.0 -79.0342334480348,33.816183229805134,0.0 -79.03420976611442,33.816182852243315,0.0 -79.03413279435007,33.816181623859045,0.0 -79.0340616297629,33.81618543272869,0.0 -79.0340549168444,33.81618532574664,0.0 -79.03404262604512,33.816218801034054,0.0 -79.0340079261352,33.81626731469118,0.0 -79.03399490481578,33.81627777595161,0.0 -79.03341661085011,33.815872154142006,0.0 -79.03342697513277,33.81587178913164,0.0 -79.03345068235889,33.815870957407256,0.0 -79.03348787488571,33.81586965008022,0.0</coordinates>
                    </LinearRing>
                </outerBoundaryIs>
            </Polygon>
        </Placemark>
        <Placemark id="425792">
            <name>Wetland_46248</name>
            <styleUrl>#425797</styleUrl>
            <Polygon id="425791">
                <outerBoundaryIs>
                    <LinearRing id="425795">
                        <coordinates>-79.0322999009142,33.81558362625316,0.0 -79.03213053964767,33.81552750878736,0.0 -79.03187527708512,33.8154967267737,0.0 -79.03170509946348,33.81547620562712,0.0 -79.03156670408612,33.815465093576606,0.0 -79.03145003931355,33.81543652447769,0.0 -79.0313874998801,33.81537320959978,0.0 -79.03133664035451,33.815265568018404,0.0 -79.03139259796991,33.81515073152164,0.0 -79.03150043454025,33.815099038742765,0.0 -79.03162898478013,33.81507438353635,0.0 -79.03172697511783,33.814986924796756,0.0 -79.03170647015273,33.81495098812681,0.0 -79.03170492412579,33.814950622186615,0.0 -79.03172779282849,33.814951328865334,0.0 -79.03212183390572,33.815025702373184,0.0 -79.03254876235958,33.815357455670934,0.0 -79.03255041028109,33.815358672518606,0.0 -79.03328885537871,33.81587663937242,0.0 -79.03248614560104,33.81590482008639,0.0 -79.03255047681553,33.81581908677138,0.0 -79.03243088077183,33.81570959640731,0.0 -79.03236244339662,33.8156469409376,0.0 -79.0322999009142,33.81558362625316,0.0</coordinates>
                    </LinearRing>
                </outerBoundaryIs>
            </Polygon>
        </Placemark>
        <Placemark id="425801">
            <name>Wetland_46249</name>
            <styleUrl>#425806</styleUrl>
            <Polygon id="425800">
                <outerBoundaryIs>
                    <LinearRing id="425804">
                        <coordinates>-79.03260772534406,33.81530477737257,0.0 -79.03228924878346,33.81505730031896,0.0 -79.03311893620956,33.81521389213508,0.0 -79.03376602275979,33.81536665008191,0.0 -79.03348787488571,33.81586965008022,0.0 -79.03345068235889,33.815870957407256,0.0 -79.03342697513277,33.81587178913164,0.0 -79.03341661085011,33.815872154142006,0.0 -79.03260772534406,33.81530477737257,0.0</coordinates>
                    </LinearRing>
                </outerBoundaryIs>
            </Polygon>
        </Placemark>
        <Placemark id="425810">
            <name>Wetland_46250</name>
            <styleUrl>#425815</styleUrl>
            <Polygon id="425809">
                <outerBoundaryIs>
                    <LinearRing id="425813">
                        <coordinates>-79.03437603133496,33.815518080260375,0.0 -79.03440083642579,33.81552036250707,0.0 -79.03442552917781,33.815527672833355,0.0 -79.03451521372678,33.815591347037625,0.0 -79.03458020970254,33.81564771239675,0.0 -79.03465380326413,33.815690381459575,0.0 -79.03471911828164,33.81573291939206,0.0 -79.03476739019173,33.81579593318827,0.0 -79.03478309374758,33.815823448721844,0.0 -79.0346976175444,33.81582971824024,0.0 -79.03462053229363,33.81583343437115,0.0 -79.03453126564057,33.81585178714769,0.0 -79.03446010030247,33.81585559610554,0.0 -79.03438312847007,33.81585436964917,0.0 -79.0343241458233,33.8158435411201,0.0 -79.03427164879409,33.815808095847906,0.0 -79.0342497149684,33.81578429184695,0.0 -79.03431310682818,33.81573336339372,0.0 -79.03437377557495,33.815616757146145,0.0 -79.03437535781596,33.81554762132397,0.0 -79.03437603133496,33.815518080260375,0.0</coordinates>
                    </LinearRing>
                </outerBoundaryIs>
            </Polygon>
        </Placemark>
        <Placemark id="425819">
            <name>Wetland_46251</name>
            <styleUrl>#425824</styleUrl>
            <Polygon id="425818">
                <outerBoundaryIs>
                    <LinearRing id="425822">
                        <coordinates>-79.0294489560332,33.815182341553225,0.0 -79.02961684843918,33.81515709362658,0.0 -79.02968673951099,33.81515821152756,0.0 -79.02975064958169,33.8151592325892,0.0 -79.02986772340873,33.81516110327615,0.0 -79.0299844773633,33.815176933028226,0.0 -79.03010139475141,33.815185784947694,0.0 -79.03016749311458,33.81522175401078,0.0 -79.03029197207675,33.81526563961683,0.0 -79.03037527634679,33.815280936283266,0.0 -79.0304920327246,33.815296765837886,0.0 -79.03060894820804,33.815305616924384,0.0 -79.03073390604627,33.81532856083555,0.0 -79.03087542869144,33.81535875222244,0.0 -79.03104188042612,33.815396325078886,0.0 -79.03115847430992,33.815419134472464,0.0 -79.03124146120662,33.81544839089198,0.0 -79.031374141901,33.815499387953636,0.0 -79.03151470745921,33.81557146081434,0.0 -79.03158032726563,33.81562837098284,0.0 -79.03169596429795,33.81569306120499,0.0 -79.03179519449931,33.81574352532607,0.0 -79.03180704495222,33.81575039577065,0.0 -79.03186949690532,33.815786607180414,0.0 -79.0319357610781,33.815815596770676,0.0 -79.0319770937516,33.81583720545208,0.0 -79.0320428746998,33.815887134508316,0.0 -79.03204206176969,33.815922653783744,0.0 -79.0320417528557,33.815935995189896,0.0 -79.03141608597988,33.815964100378665,0.0 -79.02949094018531,33.81605055781361,0.0 -79.02676594917568,33.81617288205543,0.0 -79.02676759415885,33.81616722023875,0.0 -79.02678411859038,33.81611032757468,0.0 -79.02685230145057,33.81605555567818,0.0 -79.0269450909285,33.816022127902514,0.0 -79.0270621681224,33.81602400174872,0.0 -79.02722105749557,33.816026543950905,0.0 -79.02745520889657,33.816030289607525,0.0 -79.02762246151069,33.816032965413335,0.0 -79.02771557130573,33.815985576094256,0.0 -79.02783344819797,33.81595254793111,0.0 -79.02797673454451,33.81590595915722,0.0 -79.02805311952656,33.815858302519146,0.0 -79.02817275938668,33.815748491178795,0.0 -79.02828195197449,33.8157292893732,0.0 -79.02839130560965,33.81570310575678,0.0 -79.02849197828496,33.81569075112546,0.0 -79.02860985421114,33.81565772303788,0.0 -79.02871180769849,33.815589524322505,0.0 -79.02873881634956,33.8155061630714,0.0 -79.02874830038931,33.81545743509964,0.0 -79.0288590973953,33.815368431172764,0.0 -79.02900270211366,33.81530788191229,0.0 -79.02908728856275,33.81526733766617,0.0 -79.02917991569919,33.81524088713063,0.0 -79.0292805857063,33.81522853060571,0.0 -79.0294489560332,33.815182341553225,0.0</coordinates>
                    </LinearRing>
                </outerBoundaryIs>
            </Polygon>
        </Placemark>
        <Placemark id="425828">
            <name>Wetland_46252</name>
            <styleUrl>#425833</styleUrl>
            <Polygon id="425827">
                <outerBoundaryIs>
                    <LinearRing id="425831">
                        <coordinates>-79.02638044968639,33.80368322993484,0.0 -79.02637921238473,33.80368230947563,0.0 -79.02637803367872,33.80368133860303,0.0 -79.02637691765734,33.8036803188339,0.0 -79.02637586568855,33.803679254009374,0.0 -79.02637488186133,33.80367814564614,0.0 -79.0263739675436,33.80367699758549,0.0 -79.0263731266311,33.80367581222496,0.0 -79.02637236049178,33.80367459340564,0.0 -79.02637167068694,33.80367334408794,0.0 -79.0263710598484,33.80367206739118,0.0 -79.02637052953747,33.80367076627576,0.0 -79.02637008005163,33.803669444423775,0.0 -79.02636971382944,33.80366810583537,0.0 -79.0263694313616,33.803666753311944,0.0 -79.0263692329456,33.80366539053555,0.0 -79.02636911994945,33.80366402134736,0.0 -79.02636909160015,33.803662649270485,0.0 -79.02636914926563,33.80366127814605,0.0 -79.02636929236608,33.80365991061643,0.0 -79.02636951993523,33.80365855108546,0.0 -79.0263698312,33.80365720307633,0.0 -79.02637022665111,33.80365586939035,0.0 -79.02637070405841,33.8036545551531,0.0 -79.02637126303536,33.80365326212633,0.0 -79.02637190173837,33.80365199367403,0.0 -79.02637261793727,33.80365075492187,0.0 -79.02637341124557,33.80364954763144,0.0 -79.0263742776785,33.803648374848784,0.0 -79.0263752164631,33.80364724009711,0.0 -79.02637622361456,33.80364614642243,0.0 -79.0263772983599,33.80364509734789,0.0 -79.02637843710096,33.80364409415803,0.0 -79.02637963585296,33.80364313989899,0.0 -79.02638089277237,33.80364223793479,0.0 -79.02638220406773,33.803641390430755,0.0 -79.02638356721144,33.803640598830455,0.0 -79.02638497627098,33.80363986498125,0.0 -79.02638643047331,33.80363919240621,0.0 -79.02638792427244,33.80363858119101,0.0 -79.02638945368368,33.80363803438181,0.0 -79.02642657612844,33.803625707694195,0.0 -79.0268140239154,33.80349705646136,0.0 -79.0268152016559,33.80349668660521,0.0 -79.02681881316829,33.80349580966969,0.0 -79.02793141393241,33.80328187439488,0.0 -79.02793330349725,33.8032815602246,0.0 -79.0279361604382,33.803281260579176,0.0 -79.02825702825032,33.803259511675435,0.0 -79.0287428027055,33.80318293812392,0.0 -79.02874425188199,33.803182746802115,0.0 -79.02910865793226,33.8031420569149,0.0 -79.029727770397,33.80307292380039,0.0 -79.02992278690967,33.80305114661084,0.0 -79.02992422245066,33.8030510123663,0.0 -79.0316806880209,33.80291958368967,0.0 -79.03201343036993,33.80287062378795,0.0 -79.03233306630949,33.802795982369545,0.0 -79.03233299602796,33.80279755260396,0.0 -79.03233300854872,33.80279912330949,0.0 -79.03233310552193,33.802800692002776,0.0 -79.0323332864566,33.80280225588247,0.0 -79.03233355086185,33.80280381214721,0.0 -79.03233389863308,33.80280535623419,0.0 -79.03233432782244,33.80280688694461,0.0 -79.03233483813212,33.80280840059638,0.0 -79.03233542907124,33.802809894388204,0.0 -79.03233610014877,33.802811365518735,0.0 -79.03233684873275,33.80281281086879,0.0 -79.03233767306844,33.80281422835877,0.0 -79.03233857305138,33.80281561342589,0.0 -79.03233954546981,33.802816965593216,0.0 -79.03234058914867,33.80281828013894,0.0 -79.03234170301748,33.802819556904026,0.0 -79.03234288356681,33.80282079172961,0.0 -79.03234412904195,33.80282198253611,0.0 -79.03234543661772,33.80282312708511,0.0 -79.03234680453939,33.80282422329718,0.0 -79.03234822891115,33.80282526877487,0.0 -79.03234970885569,33.80282626247846,0.0 -79.03235123959986,33.80282720097077,0.0 -79.03235281919582,33.80282808305313,0.0 -79.0323544444319,33.80282890824871,0.0 -79.03235611179865,33.802829672398516,0.0 -79.0323578189619,33.802830376065415,0.0 -79.03235956183262,33.802831017732814,0.0 -79.03236133758551,33.80283159516232,0.0 -79.03236314281581,33.802832108757805,0.0 -79.03236497255719,33.802832555962944,0.0 -79.03236682573906,33.802832936618785,0.0 -79.03236869700872,33.80283324993056,0.0 -79.0323705822772,33.802833494381694,0.0 -79.03237248008755,33.802833671574845,0.0 -79.03237438420969,33.802833779675396,0.0 -79.03237629357304,33.80283381852445,0.0 -79.0323792791986,33.80283381890878,0.0 -79.03237320313957,33.8028388820025,0.0 -79.0323719911515,33.802839841622635,0.0 -79.03237072099256,33.802840748950864,0.0 -79.03236939450613,33.80284160062293,0.0 -79.03236801743124,33.80284239567203,0.0 -79.03236659287501,33.80284313001206,0.0 -79.03236512297859,33.80284380396098,0.0 -79.03236361279684,33.80284441463139,0.0 -79.03236206719157,33.802844960016735,0.0 -79.03236048869029,33.80284543867341,0.0 -79.03235888283888,33.8028458505153,0.0 -79.03202968338974,33.8029226508205,0.0 -79.03202652561505,33.802923248767726,0.0 -79.03169068838864,33.80297266504055,0.0 -79.03168800202883,33.802972958272015,0.0 -79.02993085532475,33.80310443796201,0.0 -79.02963738001455,33.80313721035228,0.0 -79.02914783391361,33.803191874586446,0.0 -79.02875390580292,33.8032358618107,0.0 -79.028267280156,33.80331257005868,0.0 -79.02826412165417,33.803312914055695,0.0 -79.02794392093696,33.80333461929547,0.0 -79.02683611990449,33.80354762968441,0.0 -79.0264138825948,33.803687833732965,0.0 -79.02641236453995,33.803688298556686,0.0 -79.02641081924402,33.8036887011272,0.0 -79.02640925263951,33.8036890395972,0.0 -79.02640766706074,33.803689313403964,0.0 -79.02640606698317,33.80368952230269,0.0 -79.02640445581171,33.803689665889664,0.0 -79.02640283821509,33.80368974303933,0.0 -79.0264012174049,33.803689754228735,0.0 -79.02639959912041,33.80368969849132,0.0 -79.02639798530949,33.80368957702596,0.0 -79.02639638151805,33.80368938974679,0.0 -79.02639479095781,33.803689137130924,0.0 -79.02639321684028,33.80368881965534,0.0 -79.02639166451833,33.803688438115074,0.0 -79.0263901370102,33.803687993867975,0.0 -79.0263886375276,33.80368748739105,0.0 -79.02638717122997,33.80368692036003,0.0 -79.02638574113564,33.80368629413284,0.0 -79.02638435026299,33.803685610067255,0.0 -79.02638300250771,33.803684870560765,0.0 -79.02638170108139,33.803684076090526,0.0 -79.02638044968639,33.80368322993484,0.0</coordinates>
                    </LinearRing>
                </outerBoundaryIs>
            </Polygon>
        </Placemark>
        <Placemark id="425837">
            <name>Wetland_46253</name>
            <styleUrl>#425842</styleUrl>
            <Polygon id="425836">
                <outerBoundaryIs>
                    <LinearRing id="425840">
                        <coordinates>-78.74098319310518,33.7263452424258,0.0 -78.74754918468633,33.72269922123996,0.0 -78.74973818198535,33.721485214258024,0.0 -78.75187319513063,33.72032522248208,0.0 -78.75828024088301,33.71684425308318,0.0 -78.7604162560475,33.715685263182806,0.0 -78.76097526000832,33.71538226581755,0.0 -78.76433528464865,33.71320128151782,0.0 -78.7724123433558,33.70796331864057,0.0 -78.77564936842089,33.705135333060774,0.0 -78.77914639531572,33.70208334842753,0.0 -78.78035040453602,33.70103135366681,0.0 -78.78079940774785,33.700733355646335,0.0 -78.78614844580686,33.69719537902129,0.0 -78.7879324584237,33.696017386731135,0.0 -78.79117848129374,33.69387140064663,0.0 -78.7925894914854,33.692810406590894,0.0 -78.80610558779938,33.6826534619669,0.0 -78.80615658815765,33.682615462170666,0.0 -78.80855160493797,33.68083447169709,0.0 -78.81065361978668,33.67918447992867,0.0 -78.81132662452976,33.67865548254858,0.0 -78.8133486387386,33.677068490377216,0.0 -78.81402264346062,33.67654049297275,0.0 -78.81654566109178,33.67455950262001,0.0 -78.82205669929981,33.67023552333557,0.0 -78.82397071303551,33.66844953019028,0.0 -78.82631672978746,33.66626253849746,0.0 -78.82798374164138,33.66470654433421,0.0 -78.8329847769329,33.66004056152436,0.0 -78.8341307849615,33.6589725653967,0.0 -78.83463478855228,33.658467567059944,0.0 -78.83518279245328,33.65791756886158,0.0 -78.83682680412349,33.65626857422999,0.0 -78.83737580800721,33.655719576011826,0.0 -78.8389288189747,33.65416158101363,0.0 -78.84109883422468,33.65198758792182,0.0 -78.84388585255903,33.64982359727684,0.0 -78.84562486394269,33.64847560305322,0.0 -78.8483968820113,33.646323612157225,0.0 -78.85105390003483,33.64380162027624,0.0 -78.85326691495627,33.6417026269345,0.0 -78.85902895290147,33.63655564418681,0.0 -78.86425498651725,33.63210865957087,0.0 -78.86710800502095,33.629481667520345,0.0 -78.8685890145714,33.62812067158921,0.0 -78.87282104021651,33.62516668419749,0.0 -78.87287404055346,33.625118684339526,0.0 -78.87303604157884,33.624974684776774,0.0 -78.873090041919,33.6249276849237,0.0 -78.87342104401222,33.624633685815525,0.0 -78.87441505028683,33.623751688482855,0.0 -78.87474705237679,33.62345868937184,0.0 -78.87474705239681,33.6234456893547,0.0 -78.87474705241682,33.62343268933762,0.0 -78.8770730670928,33.621326695437276,0.0 -78.88405211061797,33.61501171313653,0.0 -78.88637912496193,33.612906718836285,0.0 -78.88741313130822,33.611971721336985,0.0 -78.89260616346488,33.606890733016044,0.0 -78.91053927103418,33.58934776915804,0.0 -78.91114727465954,33.58869377016924,0.0 -78.91704730947659,33.58235577956939,0.0 -78.91877331954315,33.580499782169895,0.0 -78.92395334941955,33.57493478958601,0.0 -78.92568035927019,33.57307979192674,0.0 -78.92589636049945,33.572846792212985,0.0 -78.9260733615073,33.57265479244482,0.0 -78.93865941812096,33.57266083411649,0.0 -78.95497949153756,33.57266288814115,0.0 -78.9878036392036,33.572660996786716,0.0 -78.9924786602349,33.572661012261314,0.0 -78.99828868637216,33.572661031492835,0.0 -78.99975569297125,33.5726620363513,0.0 -79.00146531165811,33.57267129099984,0.0 -79.00089069933979,33.57325724555098,0.0 -78.99975574717146,33.57427601309019,0.0 -78.99897980579725,33.57499298219303,0.0 -78.99764468696253,33.576197871421016,0.0 -78.99658862959245,33.57778245248113,0.0 -78.9954780145094,33.578968831464515,0.0 -78.99274302756513,33.58203195980043,0.0 -78.99180676139231,33.58299731212334,0.0 -78.99052704463527,33.58437943718608,0.0 -78.98888988760484,33.58609822820026,0.0 -78.9871570553635,33.587893725628895,0.0 -78.98558353284791,33.58960898291469,0.0 -78.9840763496013,33.59116511227891,0.0 -78.98149410071336,33.59388681554609,0.0 -78.98022507082696,33.59521844884758,0.0 -78.979302434741,33.59626377530866,0.0 -78.97787417386351,33.59796165327897,0.0 -78.97616016831113,33.59966883270175,0.0 -78.97382509345987,33.60176425571099,0.0 -78.97204170997755,33.60364304783676,0.0 -78.97042729367291,33.6053260422578,0.0 -78.96890568628558,33.606944882435194,0.0 -78.96771241545531,33.60814471978554,0.0 -78.9665677551133,33.6094818324899,0.0 -78.96572393547362,33.61066888183445,0.0 -78.96466492030149,33.61161572712251,0.0 -78.96354361289332,33.612774282932754,0.0 -78.96272030290382,33.61365233992743,0.0 -78.96240977828658,33.61391795748222,0.0 -78.96172501627665,33.61459569083909,0.0 -78.9612718099861,33.6151520198938,0.0 -78.96094887740234,33.615545798697454,0.0 -78.96047610729715,33.615904172892705,0.0 -78.95999360428262,33.616235085545405,0.0 -78.95964719643558,33.61680737788033,0.0 -78.95936030125017,33.61718053994931,0.0 -78.95892919277736,33.617636150306396,0.0 -78.95810711602702,33.61843635560831,0.0 -78.95793952374366,33.61884035653859,0.0 -78.95757497320994,33.61927991309095,0.0 -78.95694697075017,33.6199141051735,0.0 -78.95666977943714,33.62031471758293,0.0 -78.95608763038993,33.62109878440168,0.0 -78.95545540912485,33.62168033293372,0.0 -78.95495499251487,33.622307594027944,0.0 -78.95433667200244,33.62296922881461,0.0 -78.95380982575219,33.62350152127487,0.0 -78.9531540857129,33.62426156975799,0.0 -78.95277556399937,33.62462101602646,0.0 -78.95245950864859,33.62505481124474,0.0 -78.95225424260616,33.62518301148665,0.0 -78.95233350391945,33.6251830025823,0.0 -78.95200423970714,33.62542204673685,0.0 -78.95161201629419,33.625698817742034,0.0 -78.95130592644482,33.6259263526924,0.0 -78.95100920250884,33.62631679715506,0.0 -78.95076544660644,33.62660335019738,0.0 -78.95056679509243,33.626958767791955,0.0 -78.95026734808349,33.62722456669494,0.0 -78.95004081182302,33.62750126979447,0.0 -78.94975594326394,33.627769248496975,0.0 -78.94942603651023,33.62810503023727,0.0 -78.94924060190377,33.628400306312365,0.0 -78.94891454945741,33.628513037191865,0.0 -78.94857255533181,33.62856126524296,0.0 -78.9485050709843,33.62879964289758,0.0 -78.94827601955522,33.62936171274412,0.0 -78.94773935454546,33.62981564448546,0.0 -78.94737361512965,33.630108790805274,0.0 -78.9469787737229,33.630534242364945,0.0 -78.94636394886581,33.631137983611204,0.0 -78.94587630167318,33.63157439507184,0.0 -78.94542575535094,33.63197908459995,0.0 -78.94457233652838,33.63270862899086,0.0 -78.9443696417386,33.63301374006662,0.0 -78.94396683160298,33.633475262459825,0.0 -78.94366733514708,33.633741041487006,0.0 -78.94332002383483,33.63381330953052,0.0 -78.94320212096261,33.634006869566925,0.0 -78.94300070879557,33.63423762881886,0.0 -78.94290809377824,33.634658598877245,0.0 -78.94261652881255,33.63488829220317,0.0 -78.94225997749724,33.63507098790834,0.0 -78.9422706827439,33.635296216176435,0.0 -78.94184797214334,33.63577960307316,0.0 -78.94142260752176,33.63627501645915,0.0 -78.94072418571207,33.636915919574776,0.0 -78.94043001618724,33.63729430340924,0.0 -78.9401159081934,33.63755788912119,0.0 -78.93976339267088,33.637927538115925,0.0 -78.93925049511843,33.63840984485987,0.0 -78.9389284401979,33.638709509501055,0.0 -78.93856397640367,33.63906494559703,0.0 -78.93822997607323,33.63935039621936,0.0 -78.93795031698127,33.63959428670742,0.0 -78.93765342426914,33.639848018426264,0.0 -78.93734594159173,33.640149860908885,0.0 -78.93708485998172,33.6404462241005,0.0 -78.93677207595016,33.64077211973775,0.0 -78.93645659407903,33.640973374031894,0.0 -78.93610669337194,33.64133098248971,0.0 -78.93549169994263,33.64193465669586,0.0 -78.9350755068324,33.642319612268075,0.0 -78.93479183241625,33.64251320053817,0.0 -78.93442603273773,33.642942968687,0.0 -78.9340694703848,33.643262304709864,0.0 -78.93374867720254,33.64348760431973,0.0 -78.93328606047253,33.6438780294156,0.0 -78.93276908997852,33.64431001161164,0.0 -78.93231709907887,33.64478898922218,0.0 -78.93195917862343,33.6450459993839,0.0 -78.93169536822735,33.64521770799359,0.0 -78.93148590942089,33.64534785780273,0.0 -78.9313029717641,33.645494401928225,0.0 -78.93114391245652,33.64566936781555,0.0 -78.93092650416656,33.645835598428626,0.0 -78.93068257412837,33.645985433907136,0.0 -78.9305380976354,33.64616258256562,0.0 -78.93033128163171,33.646280703440326,0.0 -78.93021463047718,33.64639989921578,0.0 -78.93001311263932,33.646493965050745,0.0 -78.92985535135571,33.646594581300015,0.0 -78.9296260023792,33.646746597332296,0.0 -78.92945895193601,33.64682097531358,0.0 -78.92926403281567,33.64681663837384,0.0 -78.92929327940594,33.6470943406722,0.0 -78.92907187283629,33.647210274192105,0.0 -78.92886639567523,33.647390712303945,0.0 -78.92865028720772,33.647482591511775,0.0 -78.928458052803,33.64760289134525,0.0 -78.92823795105876,33.64764447704881,0.0 -78.92801919029164,33.64774838114845,0.0 -78.92788007097842,33.648174806969514,0.0 -78.92761620907262,33.648209837134374,0.0 -78.92755793131968,33.64847443561964,0.0 -78.92718274052957,33.64874127231241,0.0 -78.92679299272864,33.64914258904389,0.0 -78.9263475764553,33.649659806141806,0.0 -78.92581198434083,33.65017594336736,0.0 -78.92538638234416,33.650397953419954,0.0 -78.92493696113141,33.65086487366336,0.0 -78.92438941313513,33.651366790604605,0.0 -78.92401684774332,33.65162158700396,0.0 -78.92372251342036,33.6518632541021,0.0 -78.92343213889649,33.65201854392962,0.0 -78.92311264399173,33.652442797751256,0.0 -78.9228408398309,33.65265056477802,0.0 -78.922623396668,33.65281677843913,0.0 -78.92228663046534,33.65311420554416,0.0 -78.92195649807944,33.653449896684364,0.0 -78.92162237546364,33.65373529524387,0.0 -78.92130546577395,33.65387418414938,0.0 -78.92099256369475,33.65420003018282,0.0 -78.92066638713885,33.65444934578182,0.0 -78.92031368195279,33.65468226093123,0.0 -78.92003921453454,33.65490204715429,0.0 -78.91974752793062,33.65526834178926,0.0 -78.91961494445945,33.65545968727432,0.0 -78.91925294493778,33.65566635963208,0.0 -78.91899967534974,33.65578992909225,0.0 -78.91876366117344,33.65604032258702,0.0 -78.91850508739721,33.65618794375842,0.0 -78.91824386067154,33.65634759197717,0.0 -78.91816432272233,33.65657173124992,0.0 -78.91767104259273,33.65689539491427,0.0 -78.91746683094668,33.65700146330734,0.0 -78.91738330545138,33.65717530957256,0.0 -78.91712207421253,33.65733495519045,0.0 -78.91689401702907,33.65768592866062,0.0 -78.91656782622687,33.658071895356265,0.0 -78.91647236090533,33.658231526437795,0.0 -78.91624161984011,33.65832119533646,0.0 -78.9158809305995,33.65859017623401,0.0 -78.91575231681118,33.658831808771815,0.0 -78.91572050298993,33.65897612905501,0.0 -78.91535053718992,33.65935553454344,0.0 -78.91508664322724,33.659527201884536,0.0 -78.91474451592204,33.659848656767466,0.0 -78.91459864724246,33.65996346324903,0.0 -78.91458008745906,33.66004765079666,0.0 -78.9147577976535,33.6600618541724,0.0 -78.91434934726014,33.660273979006654,0.0 -78.91395547562185,33.66035162412801,0.0 -78.91371147583634,33.660638085845555,0.0 -78.91363856238816,33.66103715116632,0.0 -78.91308423143292,33.66136407625044,0.0 -78.91231507047077,33.662118494972525,0.0 -78.91187478146594,33.662474929234705,0.0 -78.91140266073542,33.66283901695835,0.0 -78.91107906794362,33.663076273697506,0.0 -78.91075945351442,33.6633638232884,0.0 -78.91040137650825,33.66362075884042,0.0 -78.90993985130292,33.66407339784895,0.0 -78.90961094542804,33.6643347034507,0.0 -78.9092568387614,33.664641927851356,0.0 -78.90894782223431,33.66488136472091,0.0 -78.90858442521692,33.665162346925186,0.0 -78.9083085612381,33.66531978433224,0.0 -78.90814542955391,33.66558108504738,0.0 -78.90784170972599,33.66579646714526,0.0 -78.90746902268872,33.66605120600236,0.0 -78.90716529917601,33.66626658617793,0.0 -78.90711091902244,33.66644479447206,0.0 -78.90676077336272,33.66666563792947,0.0 -78.90657906671063,33.66687445903979,0.0 -78.90574745730913,33.66743312190997,0.0 -78.90532567516593,33.66784200922307,0.0 -78.90478982133811,33.668358035075045,0.0 -78.90420090904978,33.66884125673155,0.0 -78.90375391288171,33.669159392608144,0.0 -78.90345945279485,33.66940099977848,0.0 -78.90287185339704,33.66980986900043,0.0 -78.90261717980073,33.67000774448348,0.0 -78.90219670986298,33.67020561256932,0.0 -78.90185448296215,33.67052702445665,0.0 -78.90162766432574,33.67066695356396,0.0 -78.9013278808032,33.67093260869603,0.0 -78.9010599554479,33.67091728503139,0.0 -78.90110636754363,33.67104848496961,0.0 -78.90092728883286,33.67124526769217,0.0 -78.90086360953526,33.67139723270169,0.0 -78.90059433446051,33.67159291553302,0.0 -78.90037413854158,33.671771109300856,0.0 -78.90013405482755,33.671834503751455,0.0 -78.8999708822815,33.672095790557975,0.0 -78.89970027037626,33.672365816649794,0.0 -78.89939783561447,33.67250682928869,0.0 -78.89915376232774,33.672656591607726,0.0 -78.89886326155634,33.672811816814125,0.0 -78.89859661461298,33.67313213154314,0.0 -78.89844670676018,33.673333285745585,0.0 -78.89809518587683,33.67349178349842,0.0 -78.89774231228571,33.673861285902255,0.0 -78.89748098531233,33.674020883316004,0.0 -78.8972024121677,33.674190318217704,0.0 -78.89716790354056,33.674346655615125,0.0 -78.8970073891339,33.67445925004711,0.0 -78.89680442224301,33.67462759821204,0.0 -78.89667442401529,33.67467022410083,0.0 -78.89645420983695,33.674848407703536,0.0 -78.8963547099199,33.674957726510264,0.0 -78.89617297698369,33.67502986517082,0.0 -78.89612255766457,33.675121697777904,0.0 -78.89596599128302,33.67542124425551,0.0 -78.89583599361217,33.67546386859155,0.0 -78.89574313944865,33.67547479148454,0.0 -78.89562904784223,33.675581922385916,0.0 -78.89554148284529,33.67570545487703,0.0 -78.89519255838563,33.67612524095662,0.0 -78.89493916000204,33.676385415389234,0.0 -78.89467650265723,33.67648268898567,0.0 -78.89424533459203,33.67686528859026,0.0 -78.89389642018376,33.6771484082518,0.0 -78.89357137600791,33.67745995594172,0.0 -78.89326888385439,33.677737613648105,0.0 -78.89296242205548,33.67796497733084,0.0 -78.8927210009757,33.677966038432544,0.0 -78.89244771450899,33.67811140805961,0.0 -78.89232827536853,33.678379249292696,0.0 -78.89207486356757,33.678639416223284,0.0 -78.8918453458875,33.67879135192065,0.0 -78.89166756806257,33.67891377459443,0.0 -78.89155083888402,33.678896264844674,0.0 -78.89141817636997,33.67895090978251,0.0 -78.89147651278304,33.67909632686704,0.0 -78.89129739145089,33.679293092452845,0.0 -78.89113817172203,33.6794679955225,0.0 -78.89088343810894,33.67966584260856,0.0 -78.8905424652916,33.67991287311148,0.0 -78.89042173707769,33.67998173176618,0.0 -78.88983533467014,33.68031618619678,0.0 -78.8896933561587,33.68048124905613,0.0 -78.8892528628028,33.68083758907746,0.0 -78.88899680624142,33.68097311383371,0.0 -78.88873547101412,33.68099602906883,0.0 -78.88844492115781,33.681151224789986,0.0 -78.88815171144176,33.68131844701924,0.0 -78.88785715473414,33.68156001260623,0.0 -78.88769130000168,33.6816966428251,0.0 -78.88760368033776,33.68195682888216,0.0 -78.88728393969743,33.68210764459588,0.0 -78.88698541113135,33.68229891523199,0.0 -78.88669223215092,33.68232947222757,0.0 -78.88651709470109,33.682439860580814,0.0 -78.88635785983156,33.68261475749273,0.0 -78.88618141102273,33.68266282689552,0.0 -78.88585762129037,33.68303666764356,0.0 -78.88568648640668,33.683060685959674,0.0 -78.88564798508274,33.68316672731463,0.0 -78.88554183839385,33.683237769869066,0.0 -78.88565988060283,33.68331760275673,0.0 -78.88559612177376,33.6836062178618,0.0 -78.88545016393239,33.68372098336882,0.0 -78.88522863042196,33.6837001668008,0.0 -78.88504952367451,33.683760261325304,0.0 -78.88515689968814,33.68402485779531,0.0 -78.88503477000692,33.68430471413767,0.0 -78.88486755803929,33.684515683909886,0.0 -78.88461540506933,33.684838150565014,0.0 -78.88439378574115,33.68509065238284,0.0 -78.88408326216381,33.68540435851249,0.0 -78.88371968147909,33.6856852554159,0.0 -78.88365857059657,33.68596184286435,0.0 -78.88342901763207,33.68611375883311,0.0 -78.88312780743638,33.68631704318811,0.0 -78.88275224110264,33.68672038117175,0.0 -78.88251074654728,33.6868580802586,0.0 -78.88225857738868,33.687180540886104,0.0 -78.88219881119664,33.687382784398004,0.0 -78.88209792664755,33.68756643104614,0.0 -78.88185111359728,33.68772817976798,0.0 -78.88157642210814,33.68794786525136,0.0 -78.88117696836834,33.688322765944974,0.0 -78.880871733781,33.68861241269272,0.0 -78.88062090495727,33.68886052565113,0.0 -78.88062085853117,33.68899718513138,0.0 -78.88040718726594,33.68921360214071,0.0 -78.88003294398982,33.68954258698802,0.0 -78.87981395323702,33.689783052709465,0.0 -78.87971436288622,33.690029015082395,0.0 -78.8794622227706,33.69021480840837,0.0 -78.8794277210248,33.69023447888875,0.0 -78.87915431784482,33.69051647462104,0.0 -78.8788517251483,33.69079408968129,0.0 -78.87868979624452,33.690980998261274,0.0 -78.87860614874485,33.69115480655645,0.0 -78.87842165161568,33.691375598900315,0.0 -78.87822521890801,33.69158217697249,0.0 -78.8780261260016,33.69180077991907,0.0 -78.87784829807688,33.6919231792526,0.0 -78.87762137237526,33.69206305667424,0.0 -78.8774090399048,33.692205126043056,0.0 -78.877203325527,33.69238546083445,0.0 -78.87697504213463,33.69259967995575,0.0 -78.87676536467457,33.69272972072462,0.0 -78.87665252389209,33.69289914690964,0.0 -78.87649720396092,33.69312431770644,0.0 -78.87642016640363,33.69333639134067,0.0 -78.87628079546451,33.693489409536426,0.0 -78.87604192903726,33.69361506963588,0.0 -78.8759303857403,33.69384681127975,0.0 -78.87568224126423,33.693946228323135,0.0 -78.87541684286745,33.69405547924537,0.0 -78.8752310288584,33.69421394998749,0.0 -78.87502530437565,33.69439427951611,0.0 -78.87474708314625,33.69465534055954,0.0 -78.87474708318709,33.69468584616034,0.0 -78.87418856143248,33.6951994147572,0.0 -78.87400707188237,33.69536358675128,0.0 -78.87365939440355,33.69575404479026,0.0 -78.87319923530629,33.696259216816586,0.0 -78.87285154962267,33.69664967282289,0.0 -78.87249873930074,33.69706328678814,0.0 -78.87198366291163,33.69748842693432,0.0 -78.87060584861375,33.698597559533006,0.0 -78.86968682666966,33.699404695871344,0.0 -78.86919476696056,33.69972561075625,0.0 -78.86855442191198,33.7001917485431,0.0 -78.86815429119417,33.700622173541596,0.0 -78.867792509175,33.701010501854235,0.0 -78.86645929625821,33.70211433137853,0.0 -78.86553125965736,33.702896161318165,0.0 -78.86450987659511,33.70377164097877,0.0 -78.86369306242314,33.704378746174854,0.0 -78.862289463969,33.705471966129956,0.0 -78.8613063693212,33.70630532036743,0.0 -78.8601353412934,33.70726596665894,0.0 -78.85998578662627,33.70738865011844,0.0 -78.85896428596855,33.70822659819652,0.0 -78.85811538716139,33.70891260001237,0.0 -78.85697115178176,33.709817425901356,0.0 -78.85646235686892,33.7101477493194,0.0 -78.85619770553518,33.71035922467505,0.0 -78.85539339806824,33.71117154998048,0.0 -78.85387835794785,33.7123077692459,0.0 -78.85337969744234,33.71272335028411,0.0 -78.85227239040607,33.71365762014613,0.0 -78.85133267753999,33.714294046024264,0.0 -78.84998238802943,33.71540712995593,0.0 -78.84873054771276,33.71640339833379,0.0 -78.84722546582978,33.71762479502974,0.0 -78.84686237284212,33.717821456698466,0.0 -78.84610919390747,33.71840214289866,0.0 -78.84554273902323,33.71879554391589,0.0 -78.84458361662088,33.719584540696275,0.0 -78.84307718124856,33.720745873559636,0.0 -78.84223313880791,33.72140859046889,0.0 -78.84122419582265,33.722094363477474,0.0 -78.84053887863989,33.7224339818599,0.0 -78.83998397070636,33.72270946003128,0.0 -78.83945950951977,33.72324075738897,0.0 -78.83886341427893,33.72383306424294,0.0 -78.83735669296433,33.72512590245416,0.0 -78.83581300543044,33.7262576345011,0.0 -78.8347859743754,33.727024391375764,0.0 -78.83374229892533,33.72780060305878,0.0 -78.83183397483427,33.729200474208795,0.0 -78.82975283986605,33.73078967765215,0.0 -78.82932557541433,33.73114413924525,0.0 -78.82821650205153,33.73201814980694,0.0 -78.82706779850722,33.73287422667193,0.0 -78.82533969723339,33.734049887510984,0.0 -78.82305755843821,33.735692499532504,0.0 -78.82173083112825,33.73676102680747,0.0 -78.8205386011123,33.73755068132644,0.0 -78.81965956833453,33.738303722234875,0.0 -78.81832833950409,33.739137867546404,0.0 -78.81790447918324,33.73940345065761,0.0 -78.81717521876817,33.73993973654007,0.0 -78.81623626764201,33.74050427282142,0.0 -78.81567584973288,33.7409343647677,0.0 -78.8148863871017,33.74154532578015,0.0 -78.81477927103928,33.74160731135459,0.0 -78.81385276262897,33.7421434507714,0.0 -78.81274472542123,33.74294571971379,0.0 -78.81188235360916,33.743557651499984,0.0 -78.810866510925,33.74420629010318,0.0 -78.81001182218593,33.74478347583851,0.0 -78.80881404038992,33.74572773664335,0.0 -78.80829211853839,33.74598413363478,0.0 -78.80743876241287,33.7464897197047,0.0 -78.8066576276692,33.747012587471644,0.0 -78.80653412623647,33.74709525512774,0.0 -78.80605796921812,33.74753800301542,0.0 -78.80541171247147,33.74802691255132,0.0 -78.80458386138622,33.74854828881181,0.0 -78.80393776235013,33.74890560780369,0.0 -78.8032148352846,33.74934706566574,0.0 -78.80262101650256,33.749796006356284,0.0 -78.8019135099054,33.750185153395435,0.0 -78.80192100723866,33.7501851536762,0.0 -78.8019452437123,33.75018515708727,0.0 -78.80160695508664,33.75037960597943,0.0 -78.80113338848071,33.75070794119759,0.0 -78.80073731303759,33.75103765505771,0.0 -78.80054669442993,33.751215596565736,0.0 -78.80019843571257,33.75149434976453,0.0 -78.7998508378288,33.75174720825366,0.0 -78.79930008981165,33.752061206166246,0.0 -78.79833973444671,33.7526269474724,0.0 -78.79758516400209,33.75302796872004,0.0 -78.79645031540304,33.753746014255036,0.0 -78.7954856137851,33.754480043182774,0.0 -78.79542633885639,33.75475893364303,0.0 -78.7954043915122,33.75477564041593,0.0 -78.7954020776249,33.75478151939719,0.0 -78.79465698717705,33.75512603976548,0.0 -78.79462927182198,33.755129769319694,0.0 -78.79462466104047,33.75513451046883,0.0 -78.79453258610668,33.7552128372043,0.0 -78.79441837754901,33.755264776290076,0.0 -78.79435008777037,33.755362054887414,0.0 -78.79425063426045,33.755431584874835,0.0 -78.79413642587507,33.7554835255894,0.0 -78.79402794101,33.75555169335903,0.0 -78.79394324213403,33.75563881505915,0.0 -78.7938437868426,33.7557083445104,0.0 -78.7937353042286,33.75577651422993,0.0 -78.79365963388224,33.75586499653923,0.0 -78.79354377182027,33.75592436936529,0.0 -78.79344431542061,33.75599390020797,0.0 -78.79333417938759,33.75606950224748,0.0 -78.79321259255272,33.75611264561025,0.0 -78.79309838355653,33.756164585414545,0.0 -78.79298252062661,33.75622395765501,0.0 -78.79286500547347,33.7562907644081,0.0 -78.7927474899242,33.75635757191642,0.0 -78.79264638039288,33.756434535783356,0.0 -78.79252721148379,33.7565087766418,0.0 -78.79241299824794,33.75656071525871,0.0 -78.79231354169453,33.75663024259093,0.0 -78.79220505520846,33.7566984115121,0.0 -78.79207685650091,33.75677129003924,0.0 -78.79195361467062,33.75682186649427,0.0 -78.79182871945346,33.75687987726624,0.0 -78.79172926178101,33.75694940494747,0.0 -78.79162077454082,33.757017572411634,0.0 -78.79151966431694,33.75709453450793,0.0 -78.79141117455471,33.75716270144017,0.0 -78.7913100635462,33.75723966509951,0.0 -78.79120895292654,33.75731662602137,0.0 -78.79108570948296,33.75736720239584,0.0 -78.7909772191617,33.757435368016196,0.0 -78.79086873059481,33.757503534731605,0.0 -78.79075286292723,33.757562904472934,0.0 -78.79065340450313,33.757632431328105,0.0 -78.79054326201465,33.757708032147484,0.0 -78.79043477249714,33.757776199311984,0.0 -78.79032628017,33.75784436324368,0.0 -78.79021613813762,33.75791996389183,0.0 -78.79012405679147,33.75799828611331,0.0 -78.79001556563398,33.758066451817044,0.0 -78.78992182814508,33.75815220883407,0.0 -78.78982974302362,33.758230530313774,0.0 -78.7897376585918,33.758308852753885,0.0 -78.7896201384206,33.7583756570693,0.0 -78.78951902341088,33.75845261711876,0.0 -78.78942693733816,33.75853093912756,0.0 -78.78932747650947,33.75860046475457,0.0 -78.78920588480828,33.7586436030423,0.0 -78.78909739176316,33.758711768707684,0.0 -78.78899462207369,33.75879616353945,0.0 -78.78889350717253,33.758873122280576,0.0 -78.78877191354422,33.75891626081584,0.0 -78.78866341887066,33.75898442500819,0.0 -78.7885606472869,33.7590688192631,0.0 -78.78846118821555,33.75913834457994,0.0 -78.78834366357377,33.75920514720337,0.0 -78.78824419878971,33.75927467151505,0.0 -78.78814308214272,33.75935163131291,0.0 -78.78804361806431,33.75942115560008,0.0 -78.78796793777384,33.7595096337647,0.0 -78.78785206581695,33.75956900148578,0.0 -78.78772881686135,33.75961957325331,0.0 -78.78762032371127,33.759687736007784,0.0 -78.78750444908883,33.759747103044226,0.0 -78.78739023334884,33.75979903640622,0.0 -78.78737954611323,33.75980510790885,0.0 -78.78727766816729,33.759843533929875,0.0 -78.78719295608072,33.759930650037134,0.0 -78.78709018381178,33.760015043203616,0.0 -78.78699809493737,33.76009336151918,0.0 -78.78688387602251,33.76014529491562,0.0 -78.78677537927096,33.76021345650814,0.0 -78.78667591268977,33.76028298042124,0.0 -78.78655673334353,33.76035721491531,0.0 -78.78645561150401,33.760434172806576,0.0 -78.78635614455493,33.7605036955442,0.0 -78.78625336956406,33.76058808774275,0.0 -78.78615390418331,33.7606576114954,0.0 -78.78603637442323,33.76072441059992,0.0 -78.78591884319746,33.760791210298294,0.0 -78.78581937638856,33.760860732703165,0.0 -78.78571088053755,33.760928895478,0.0 -78.78560238080749,33.760997054858755,0.0 -78.7855029130649,33.76106657873365,0.0 -78.78538868999381,33.761118508503905,0.0 -78.78527281603944,33.76117787295795,0.0 -78.78517334670556,33.761247396371715,0.0 -78.78505912422204,33.76129932596543,0.0 -78.78495965474036,33.76136884830394,0.0 -78.78486018634754,33.761438369831495,0.0 -78.78476809211121,33.76151668782562,0.0 -78.78466862336084,33.761586209175,0.0 -78.7845601235616,33.7616543696028,0.0 -78.78444424497899,33.76171373270138,0.0 -78.78434477316056,33.761783255192675,0.0 -78.7842346212845,33.761858848155796,0.0 -78.7841499036372,33.761945961805274,0.0 -78.78404140055399,33.76201412227236,0.0 -78.78392552425501,33.76207348530718,0.0 -78.78381130081026,33.762125413773695,0.0 -78.78368804503143,33.76217598194615,0.0 -78.78357954375883,33.762244140521155,0.0 -78.78345628803557,33.762294706677864,0.0 -78.7833404072783,33.762354070381576,0.0 -78.78322618303696,33.762405998251054,0.0 -78.78312505742271,33.76248295334714,0.0 -78.78300917759748,33.76254231510478,0.0 -78.78289329652725,33.76260167658044,0.0 -78.782775764959,33.762668474607636,0.0 -78.78265823056965,33.762735269384464,0.0 -78.78254400172045,33.762787197831265,0.0 -78.78241502306632,33.76282153349505,0.0 -78.78229342188557,33.762864665317856,0.0 -78.78217754086609,33.76292402621249,0.0 -78.78206903637073,33.76299218226203,0.0 -78.78197528536518,33.76307793244857,0.0 -78.7818725033509,33.763162320632105,0.0 -78.78174924381683,33.76321288562773,0.0 -78.78163501600419,33.7632648125864,0.0 -78.78150196643878,33.763275481338965,0.0 -78.78138443267422,33.76334227789331,0.0 -78.78128495753596,33.76341179600561,0.0 -78.78118548309479,33.763481315067764,0.0 -78.78107697463021,33.76354947069486,0.0 -78.78098322294208,33.76363522017627,0.0 -78.78089849762168,33.76372233092021,0.0 -78.78079902497439,33.76379184818355,0.0 -78.78068148555835,33.7638586433334,0.0 -78.78057297934156,33.763926798938,0.0 -78.78047350361516,33.76399631734109,0.0 -78.7803649948879,33.76406447241576,0.0 -78.78025076579044,33.76411639899115,0.0 -78.78016604059708,33.764203507544366,0.0 -78.78007394162923,33.764281822002275,0.0 -78.77995971134452,33.76433374635341,0.0 -78.77986760880889,33.764412060149816,0.0 -78.7797591021876,33.76448021510301,0.0 -78.7796505939162,33.76454837154782,0.0 -78.77953305404411,33.76461516298468,0.0 -78.77943357418658,33.76468468098878,0.0 -78.77930128207966,33.76473388061112,0.0 -78.77917229880119,33.76476821257061,0.0 -78.77905806614064,33.764820135836764,0.0 -78.77894955678896,33.764888291593635,0.0 -78.77885745512314,33.76496660309086,0.0 -78.77873991229046,33.765033396165094,0.0 -78.77864043353347,33.76510291289127,0.0 -78.77854833218012,33.76518122516221,0.0 -78.77842506859155,33.76523178576239,0.0 -78.77831655510687,33.765299939524404,0.0 -78.7782154198681,33.76537688987596,0.0 -78.7781290395498,33.76547143145205,0.0 -78.77804431121089,33.765558540219466,0.0 -78.77793579674666,33.76562669447566,0.0 -78.77782728802919,33.765694846789444,0.0 -78.77771877532656,33.76576300115256,0.0 -78.77761763929522,33.76583994917415,0.0 -78.77752387894304,33.76592569527295,0.0 -78.77743177424152,33.766004007289865,0.0 -78.77733229435766,33.76607352208392,0.0 -78.77721309395115,33.766147746784505,0.0 -78.77709720422926,33.766207102334455,0.0 -78.77698131500942,33.76626645968577,0.0 -78.77688017847788,33.76634340805379,0.0 -78.77677166211048,33.76641156026764,0.0 -78.77666315002847,33.766479712138576,0.0 -78.77654725706414,33.766539067669484,0.0 -78.77643709039474,33.76661465537827,0.0 -78.77632857472794,33.76668280555281,0.0 -78.77621433933568,33.766734727083616,0.0 -78.77611320125075,33.76681167561443,0.0 -78.77568183551072,33.76694637907428,0.0 -78.77556428826767,33.76701316802952,0.0 -78.77546480184574,33.7670826824026,0.0 -78.77534725761794,33.76714947072906,0.0 -78.7752166105979,33.76719123092,0.0 -78.77509741076565,33.767265453977245,0.0 -78.77499626895606,33.767342400275034,0.0 -78.77487299928465,33.767392958707376,0.0 -78.77475876208892,33.76744487787174,0.0 -78.7746445258113,33.767496797081044,0.0 -78.77454503795954,33.76756631061921,0.0 -78.7744455515889,33.76763582158567,0.0 -78.7743280020621,33.76770261010472,0.0 -78.77422851619943,33.76777212191391,0.0 -78.77411999875638,33.7678402719969,0.0 -78.77402051039536,33.76790978329201,0.0 -78.77390296136097,33.76797657063619,0.0 -78.77379444354776,33.76804471951521,0.0 -78.77367854696988,33.76810407309189,0.0 -78.77356430580704,33.76815599070552,0.0 -78.77345578852041,33.76822413941223,0.0 -78.77333823532459,33.768290925670925,0.0 -78.77322068747219,33.76835771173085,0.0 -78.77310478999689,33.768417064708366,0.0 -78.77298724088278,33.768483849478244,0.0 -78.77286065757347,33.76854927382946,0.0 -78.77274310678744,33.7686160590587,0.0 -78.77262886406255,33.76866797659396,0.0 -78.7725055909748,33.76871853153493,0.0 -78.77238969709454,33.768777882652536,0.0 -78.77227214429867,33.768844668102226,0.0 -78.77217265302353,33.768914177716916,0.0 -78.77207316244538,33.76898368828143,0.0 -78.77197036221915,33.76906806613532,0.0 -78.77185280649154,33.76913485081082,0.0 -78.77175166102657,33.76921179528719,0.0 -78.7716521709628,33.769281304743664,0.0 -78.77153055490507,33.769324425046136,0.0 -78.77141465491606,33.769383775374706,0.0 -78.77131516433504,33.76945328452573,0.0 -78.77121567124235,33.76952279414251,0.0 -78.77109239696783,33.76957334768218,0.0 -78.77097815301944,33.76962526280302,0.0 -78.77087865940949,33.76969477211434,0.0 -78.77076441815508,33.76974668838042,0.0 -78.77067230006902,33.769824994302176,0.0 -78.77056377688675,33.76989313998582,0.0 -78.7704405018052,33.76994369192582,0.0 -78.77032460094824,33.77000304215589,0.0 -78.77021607527399,33.77007118629429,0.0 -78.77010017512814,33.77013053645104,0.0 -78.76971288906195,33.7704024972803,0.0 -78.76957982536386,33.770413153974545,0.0 -78.76945820339674,33.77045627066927,0.0 -78.76934230036034,33.77051561795312,0.0 -78.7692337768121,33.77058376441111,0.0 -78.76911952802023,33.77063567730471,0.0 -78.76900528335531,33.77068759072748,0.0 -78.7688836602539,33.770730708563335,0.0 -78.76876941295897,33.770782622304246,0.0 -78.76865185426662,33.770849403019376,0.0 -78.7685507045154,33.770926344686245,0.0 -78.76844217601996,33.770994487078234,0.0 -78.76832627316506,33.77105383538579,0.0 -78.76820299588384,33.77110438502546,0.0 -78.76808709093825,33.77116373100123,0.0 -78.76798759368418,33.771233238728165,0.0 -78.7678733441895,33.77128515050814,0.0 -78.76775171973395,33.77132826623941,0.0 -78.76763747383062,33.7713801801863,0.0 -78.76752894284294,33.77144832151968,0.0 -78.76740972798859,33.771522536960816,0.0 -78.767310231336,33.77159204159287,0.0 -78.7672074202245,33.77167641548468,0.0 -78.76711529845485,33.771754718699974,0.0 -78.76700511360892,33.77183029482718,0.0 -78.76691299038667,33.77190859770424,0.0 -78.76681921106106,33.77199433444806,0.0 -78.76670496075235,33.772046245183844,0.0 -78.76660546261361,33.7721157500427,0.0 -78.76649693252635,33.77218389258753,0.0 -78.76641218186111,33.7722709917502,0.0 -78.76631840262348,33.77235672820903,0.0 -78.76621559304178,33.772441099858874,0.0 -78.76611443543908,33.772518039632004,0.0 -78.76599687168469,33.77258481837811,0.0 -78.7658735894228,33.77263536527273,0.0 -78.7656986766802,33.77262433313204,0.0 -78.76558442578026,33.7726762428797,0.0 -78.76549967677704,33.77276334180242,0.0 -78.76539114483133,33.77283148325222,0.0 -78.76526379734344,33.7728583643731,0.0 -78.7651331375718,33.77290011318343,0.0 -78.76501150870986,33.77294322770295,0.0 -78.76488822417888,33.772993773361875,0.0 -78.76477397006424,33.773045681960966,0.0 -78.76465972007661,33.773097591089424,0.0 -78.7645675917552,33.77317589268842,0.0 -78.76449021677561,33.773271787089875,0.0 -78.76440546591213,33.773358885143615,0.0 -78.76428383526041,33.77340199694992,0.0 -78.76416220574059,33.773445107906845,0.0 -78.76403892181528,33.773495653830736,0.0 -78.7639213537559,33.77356243022059,0.0 -78.76379475506656,33.77362784245509,0.0 -78.76368622044095,33.77369598222838,0.0 -78.76357031038077,33.77375532380026,0.0 -78.7634617741177,33.77382346407054,0.0 -78.76334420546699,33.77389023808452,0.0 -78.76322829699967,33.77394957962155,0.0 -78.76312879082903,33.77401908275535,0.0 -78.76301453512356,33.774070989708456,0.0 -78.76291503094451,33.77414049208996,0.0 -78.76281552571552,33.77420999333781,0.0 -78.76269223757896,33.77426053745282,0.0 -78.76258370111833,33.77432867613545,0.0 -78.76245710007447,33.77439408684054,0.0 -78.76234118785472,33.77445342800706,0.0 -78.76222527458594,33.774512768010936,0.0 -78.76210364308294,33.77455587778225,0.0 -78.76197463503512,33.77459018995622,0.0 -78.76184397062346,33.774631934955956,0.0 -78.76174446449771,33.77470143716015,0.0 -78.76163020474114,33.774753342376506,0.0 -78.76151429369916,33.77481268212903,0.0 -78.76141313075439,33.7748896169959,0.0 -78.76131362284968,33.77495911864468,0.0 -78.76122148958467,33.77503741474805,0.0 -78.7611072307386,33.7750893215088,0.0 -78.76101510012694,33.775167618799316,0.0 -78.76092296592614,33.775245916404444,0.0 -78.76083083514244,33.775324212651924,0.0 -78.7607387005734,33.775402510094295,0.0 -78.76062278536443,33.7754618503412,0.0 -78.76049543196609,33.77548872611841,0.0 -78.76048640011399,33.77548736255212,0.0 -78.76021015658377,33.775637755072324,0.0 -78.76000964111756,33.77569968735954,0.0 -78.75983290830453,33.775780579693915,0.0 -78.75965932555584,33.77593110279957,0.0 -78.75937645455811,33.77611122702862,0.0 -78.75902148585638,33.77619594359561,0.0 -78.75872476963866,33.77631250549029,0.0 -78.75837370095533,33.77650538348714,0.0 -78.75814757915923,33.77664028712985,0.0 -78.75787207702001,33.77682920591831,0.0 -78.75767305041501,33.77696820003971,0.0 -78.75742223657122,33.77713011000838,0.0 -78.75713769681698,33.777317662801345,0.0 -78.75689350865628,33.77744983652204,0.0 -78.75662943542537,33.777671215563856,0.0 -78.75649213514481,33.77774268845736,0.0 -78.75635499818846,33.7777296659228,0.0 -78.75622192169436,33.777740305542345,0.0 -78.75608719004794,33.777758379950996,0.0 -78.75596389218474,33.77780891577925,0.0 -78.75583893707748,33.77786688520732,0.0 -78.75571729665842,33.77790998895369,0.0 -78.75560303017384,33.77796188920207,0.0 -78.75548710661252,33.7780212221818,0.0 -78.75537855867752,33.77808935376988,0.0 -78.755260976542,33.77815612007681,0.0 -78.75516145815895,33.77822561509585,0.0 -78.75504387991253,33.77829238181642,0.0 -78.75493533102028,33.77836051384493,0.0 -78.75483581462063,33.77843000712771,0.0 -78.75473629531639,33.77849950263662,0.0 -78.75464249477989,33.77858522877384,0.0 -78.75454297783513,33.77865472178444,0.0 -78.75444345798577,33.7787242170211,0.0 -78.75432753348821,33.7787835489415,0.0 -78.75420423287699,33.7788340828265,0.0 -78.75407596008849,33.77890691855539,0.0 -78.75395100183347,33.77896488586105,0.0 -78.7538367337103,33.77901678445484,0.0 -78.75371509147439,33.779059886192414,0.0 -78.75359916378936,33.77911921703375,0.0 -78.753464425958,33.77913728786925,0.0 -78.75334684489754,33.77920405278552,0.0 -78.75323091672037,33.779263383246615,0.0 -78.75312236510283,33.77933151260739,0.0 -78.75300643763676,33.779390842995234,0.0 -78.75288479349,33.77943394279654,0.0 -78.75276886529997,33.77949327469897,0.0 -78.75265459581952,33.77954517120879,0.0 -78.75255507549994,33.779614664183136,0.0 -78.7524408022956,33.77966656086921,0.0 -78.75232487702678,33.77972589103273,0.0 -78.75220894710738,33.77978522130953,0.0 -78.75208398607052,33.77984318653177,0.0 -78.75196639956549,33.77990994949885,0.0 -78.7518578468261,33.77997807865764,0.0 -78.7517435749656,33.78002997407302,0.0 -78.75165142685269,33.7801082639604,0.0 -78.75155927962533,33.78018655392791,0.0 -78.75146713134046,33.78026484277217,0.0 -78.7513749837448,33.78034313257699,0.0 -78.75126642707463,33.78041125889706,0.0 -78.75113906222678,33.78043812507664,0.0 -78.7510026671703,33.780463627139596,0.0 -78.7508753010772,33.78049049286508,0.0 -78.75076674590774,33.780558619026245,0.0 -78.75065819035319,33.7806267459599,0.0 -78.75055866601593,33.78069623607711,0.0 -78.75046651700521,33.780774525114445,0.0 -78.75039077366476,33.7808629762296,0.0 -78.75029124879028,33.780932466095464,0.0 -78.75018269123468,33.78100059238823,0.0 -78.750090540617,33.78107888005322,0.0 -78.74999101612265,33.78114837072898,0.0 -78.74986033518066,33.78119010366636,0.0 -78.74982826653999,33.781208310867676,0.0 -78.74973851739828,33.78123319983238,0.0 -78.74973851777044,33.78120957723736,0.0 -78.74938732604755,33.78140460004615,0.0 -78.74772562529353,33.78227895007089,0.0 -78.74763913131169,33.782366582555134,0.0 -78.74749591840495,33.782549602344844,0.0 -78.74732063799412,33.782679624902784,0.0 -78.74699229680901,33.782774484833546,0.0 -78.74665096522831,33.7829275753084,0.0 -78.74633130428413,33.783180247146035,0.0 -78.7460413779222,33.78336517826198,0.0 -78.74532260930565,33.78370201323603,0.0 -78.74501333252121,33.78390809742679,0.0 -78.74483622047059,33.78400526218549,0.0 -78.74467082918338,33.78400081207179,0.0 -78.7444132362788,33.7841063551666,0.0 -78.74411954206164,33.784242559326636,0.0 -78.74376288625568,33.784333133252865,0.0 -78.74352319922019,33.784489534953416,0.0 -78.74352297616205,33.78449009366294,0.0 -78.7418875194949,33.78535048138601,0.0 -78.74156904583324,33.78551801923894,0.0 -78.74128820559216,33.78566575957754,0.0 -78.74108389798363,33.78577323720193,0.0 -78.74097232525547,33.785825601661614,0.0 -78.74081146040515,33.78582536963182,0.0 -78.7405746446691,33.785837735574084,0.0 -78.74034937991924,33.78586388701904,0.0 -78.74014837878067,33.78597797454483,0.0 -78.73989568252782,33.78619259677113,0.0 -78.73968313041881,33.786292900373695,0.0 -78.73925281762511,33.786516794655924,0.0 -78.73904661523335,33.78665417254514,0.0 -78.738935716752,33.78675779989304,0.0 -78.73869745447232,33.786842175029214,0.0 -78.7385672057868,33.78696695554515,0.0 -78.73837024232478,33.78699737927426,0.0 -78.73828995648238,33.787226019263635,0.0 -78.73830644105416,33.787249677610774,0.0 -78.73813801670529,33.78734080240969,0.0 -78.73809414673524,33.78731681243954,0.0 -78.73801703489485,33.787269040109805,0.0 -78.73782266828151,33.78728781789595,0.0 -78.73767595287482,33.78728972056094,0.0 -78.73749544931778,33.78744301908047,0.0 -78.73743595627964,33.78757849132133,0.0 -78.73747581247105,33.78759655402922,0.0 -78.73753617304298,33.7876538315363,0.0 -78.73752875173612,33.78767044050648,0.0 -78.73465703995795,33.78922407553471,0.0 -78.73442074236524,33.789289688306006,0.0 -78.73428932778846,33.789354094176005,0.0 -78.73409090872417,33.789456524128994,0.0 -78.73388498487108,33.78946151043692,0.0 -78.7336958102948,33.78945698987868,0.0 -78.7336556593223,33.78957130788009,0.0 -78.73349449500512,33.78970344807881,0.0 -78.73331802419547,33.78977307920146,0.0 -78.73314010728578,33.7899147249837,0.0 -78.7328771125224,33.790186971565774,0.0 -78.73181979772616,33.790758928351934,0.0 -78.73174188929758,33.790738669717236,0.0 -78.73159486817853,33.79087294532755,0.0 -78.73157540275255,33.79089113201444,0.0 -78.73119958720454,33.79109442237804,0.0 -78.7311607578419,33.791048087535096,0.0 -78.73102818941946,33.791052120888914,0.0 -78.73086846764276,33.79111224269102,0.0 -78.73048836184616,33.7913075858969,0.0 -78.73036704403104,33.791457786266555,0.0 -78.73023859837419,33.79161424628662,0.0 -78.73020560233427,33.791632094122726,0.0 -78.72993927840511,33.79166999996415,0.0 -78.72955686895347,33.791744602986206,0.0 -78.72934168492323,33.79185653086142,0.0 -78.72913805152884,33.79198224459645,0.0 -78.7287333835807,33.79222202461674,0.0 -78.72849578899597,33.792396294205915,0.0 -78.7284575329353,33.79240904910258,0.0 -78.72822819303674,33.79251883652011,0.0 -78.728062116396,33.79254187713863,0.0 -78.72784317576873,33.79260507990357,0.0 -78.7276562932231,33.792721285052544,0.0 -78.72748875958136,33.79281633861388,0.0 -78.72726201856779,33.79291447602129,0.0 -78.72702227299935,33.79307084264976,0.0 -78.72696795610211,33.793183017224294,0.0 -78.72691677435421,33.7933085709543,0.0 -78.72677778454154,33.793376988661855,0.0 -78.7265130146946,33.7934513043373,0.0 -78.72633798412994,33.79344891217308,0.0 -78.72617190495257,33.79347195004154,0.0 -78.72592695206818,33.793651605686954,0.0 -78.72559593547331,33.79375804831134,0.0 -78.72546336109147,33.79376207509398,0.0 -78.72531778151084,33.793824330271896,0.0 -78.72513463736855,33.79398925340916,0.0 -78.72503005858502,33.79412994274423,0.0 -78.72485991980234,33.79423663706085,0.0 -78.72474149685318,33.79424280348593,0.0 -78.72462047366261,33.79426061525329,0.0 -78.72447863610078,33.794371591431485,0.0 -78.72437665929654,33.79450063424982,0.0 -78.7241744649572,33.7945543252868,0.0 -78.72405344329388,33.79457213677535,0.0 -78.72392575777093,33.79468525296122,0.0 -78.72382637912973,33.79480264875674,0.0 -78.72372470991665,33.79479931049965,0.0 -78.72355227613869,33.79478526675636,0.0 -78.72340669312568,33.794847519436104,0.0 -78.72327006047941,33.79493520239929,0.0 -78.72298638313704,33.795157150807654,0.0 -78.72281884179021,33.79525219775814,0.0 -78.72260509490948,33.795292099303154,0.0 -78.72245690747391,33.795365995818635,0.0 -78.72213971919327,33.79560695022279,0.0 -78.7220004807965,33.79570627753354,0.0 -78.72185749464052,33.795756881757484,0.0 -78.72167465350594,33.79578941905291,0.0 -78.7213190630711,33.79594029011138,0.0 -78.72116306865605,33.79604912065955,0.0 -78.72104318366146,33.796127296246866,0.0 -78.72078145528405,33.79631644352639,0.0 -78.72073891388943,33.79634931126509,0.0 -78.71993448423538,33.79674520900283,0.0 -78.71985765453691,33.796718443795854,0.0 -78.71970946305908,33.79679233592074,0.0 -78.71919297763326,33.796942938704724,0.0 -78.71899826261722,33.79709406598428,0.0 -78.71880874961971,33.79722190057268,0.0 -78.71864900600443,33.797282004072095,0.0 -78.71852537294501,33.79731145608977,0.0 -78.71837717781357,33.79738534716231,0.0 -78.71807818579427,33.797544772217826,0.0 -78.71794990291959,33.79772187214447,0.0 -78.71754429339998,33.79792147680833,0.0 -78.71748394120529,33.797912345287685,0.0 -78.717308899845,33.797909939278114,0.0 -78.71706277232133,33.7980292045609,0.0 -78.71687585927768,33.798145392988154,0.0 -78.71673660790837,33.79824471151912,0.0 -78.71658578400206,33.79839315532457,0.0 -78.71625415034887,33.79855634657752,0.0 -78.71622612953334,33.798564758870285,0.0 -78.71583586329197,33.79867425331864,0.0 -78.71531789593884,33.79889685044892,0.0 -78.71458062852652,33.79931500326347,0.0 -78.71407420305401,33.79955138220932,0.0 -78.71367986222766,33.79974452617003,0.0 -78.71321214912541,33.79993860394697,0.0 -78.7130278295834,33.800043138245194,0.0 -78.71267740833574,33.80017069262201,0.0 -78.71229981536801,33.80035432751461,0.0 -78.71205514053788,33.80040157120561,0.0 -78.71173302154872,33.80053340478254,0.0 -78.71134127326049,33.80071489646426,0.0 -78.71107316581637,33.80086694317671,0.0 -78.71083075553766,33.80103491870745,0.0 -78.71046210293986,33.8012439806733,0.0 -78.71031129031269,33.80132950514299,0.0 -78.71018651332987,33.80129857972706,0.0 -78.71002414956163,33.8013703174144,0.0 -78.70998286199838,33.8014954573354,0.0 -78.70972160054899,33.80161346105753,0.0 -78.70965028460876,33.801602666242225,0.0 -78.70941975639835,33.801652046421765,0.0 -78.70906671943379,33.80179123367566,0.0 -78.70873417573435,33.80196964003286,0.0 -78.7085408989742,33.802048734641595,0.0 -78.70835916769875,33.802141616600096,0.0 -78.70828260312499,33.80226339638737,0.0 -78.708061584773,33.80236321886976,0.0 -78.70805492854014,33.80232430602567,0.0 -78.70792754787978,33.802305023171826,0.0 -78.70776631264793,33.80243712497464,0.0 -78.70751494889791,33.80257965977821,0.0 -78.70725116739557,33.80272923637719,0.0 -78.7071670391228,33.8027672311093,0.0 -78.7069492621605,33.80281908069319,0.0 -78.7066978931548,33.8029616150795,0.0 -78.70644426237588,33.80298341274812,0.0 -78.70628449598497,33.80304350025645,0.0 -78.70599066633334,33.803179603267836,0.0 -78.7059221310982,33.80326707662542,0.0 -78.70585399720129,33.80326726516798,0.0 -78.70557952718265,33.803382220239996,0.0 -78.70542870380704,33.80346773879764,0.0 -78.70516578226409,33.80359648144896,0.0 -78.70502017387633,33.80368602254553,0.0 -78.70483582778502,33.80376323070278,0.0 -78.7043978509674,33.80388954653741,0.0 -78.70398930883758,33.80408051207781,0.0 -78.70399857163711,33.80411650651712,0.0 -78.70390664735352,33.80418838858172,0.0 -78.7036966006679,33.80427697721411,0.0 -78.70342993917048,33.80435699404845,0.0 -78.70323925614233,33.8044244339773,0.0 -78.7029800614687,33.804601894963284,0.0 -78.70274952164364,33.80465126001728,0.0 -78.70254433259814,33.80484893602145,0.0 -78.70240591146079,33.8049173529563,0.0 -78.70221264794212,33.80500462301512,0.0 -78.70186911714998,33.805119909099275,0.0 -78.70171976335493,33.805133410768235,0.0 -78.70159463708387,33.805234853847196,0.0 -78.70147158281102,33.80533925611839,0.0 -78.70129543661892,33.80541879335717,0.0 -78.70114995763356,33.80545645884337,0.0 -78.70095405915656,33.80554718584312,0.0 -78.70079949413518,33.8055839746103,0.0 -78.70049670093653,33.80569463132011,0.0 -78.70012947499411,33.8058316468721,0.0 -78.69991942173861,33.80592022875532,0.0 -78.69967809953157,33.806148546147206,0.0 -78.69934587003841,33.806194544813785,0.0 -78.69915630256111,33.80632234641914,0.0 -78.69892167077299,33.80645536184998,0.0 -78.69836226545732,33.80673181644021,0.0 -78.69808057805426,33.80687039071368,0.0 -78.69738537849062,33.8071842739192,0.0 -78.69721809715034,33.80713640812151,0.0 -78.69709704768985,33.807154190706115,0.0 -78.69692050456841,33.80722376625812,0.0 -78.69680578881503,33.80727862636853,0.0 -78.69666389379375,33.80738956543393,0.0 -78.69643298109789,33.80757129862357,0.0 -78.69633763287247,33.80760501181961,0.0 -78.69621918806646,33.807611150780275,0.0 -78.69601546042252,33.807736802473684,0.0 -78.69587652278935,33.80770371755499,0.0 -78.69574504988641,33.807768077670296,0.0 -78.69561262840529,33.807912658727815,0.0 -78.69516796098858,33.80808578306935,0.0 -78.69506717727576,33.80805065398088,0.0 -78.6947669717175,33.80814964982843,0.0 -78.69437029500806,33.80822199058404,0.0 -78.69396170634086,33.80841292142014,0.0 -78.69384923402897,33.80858851303689,0.0 -78.69382034535927,33.80861044197982,0.0 -78.69283618649979,33.80899358276921,0.0 -78.68963719167729,33.810238891563,0.0 -78.68956543494403,33.81033532190949,0.0 -78.68926260884807,33.810445946829404,0.0 -78.68898547965735,33.810572506110596,0.0 -78.6886994130975,33.81067363098636,0.0 -78.68843904906711,33.8107906903591,0.0 -78.6882237525012,33.81090253847521,0.0 -78.68796077539233,33.81103124029876,0.0 -78.6877056239859,33.81112500866549,0.0 -78.6874892072267,33.81117648833402,0.0 -78.6872727921248,33.811227968797674,0.0 -78.6868630560252,33.811358506311244,0.0 -78.68656915886535,33.811494558884974,0.0 -78.68622125183501,33.81161038604374,0.0 -78.68615228032844,33.81159535538896,0.0 -78.68167647785093,33.81333728312079,0.0 -78.67939151155228,33.81422646564767,0.0 -78.67196741574838,33.81690108815815,0.0 -78.6673650242309,33.81855881964847,0.0 -78.66313108033371,33.82008361187707,0.0 -78.66291205846898,33.82007313821548,0.0 -78.66263485450018,33.82019963288745,0.0 -78.66244409732082,33.82026700483273,0.0 -78.66221980607125,33.820353368135855,0.0 -78.66199028916185,33.82046301761178,0.0 -78.66183804387525,33.820549237481714,0.0 -78.66143279331412,33.820695164124196,0.0 -78.6614101780197,33.82070006046046,0.0 -78.66118107760195,33.820677333206,0.0 -78.66083048026006,33.820804725828175,0.0 -78.66044895823029,33.820939464040634,0.0 -78.66016804030247,33.821017229915796,0.0 -78.6599269758939,33.82111308448153,0.0 -78.65966914382051,33.821218432667884,0.0 -78.65937777425052,33.82134276988637,0.0 -78.65933994357763,33.82138403251941,0.0 -78.65334872632548,33.823238476932126,0.0 -78.65160388434867,33.82377847589976,0.0 -78.64235023572046,33.82664175451484,0.0 -78.63626262837319,33.8283929965101,0.0 -78.63503751917074,33.82874538028347,0.0 -78.6349678701609,33.82880882804646,0.0 -78.63464550588772,33.82894044164062,0.0 -78.63429744383723,33.82905611040939,0.0 -78.63411187246876,33.82910014931029,0.0 -78.63398400049968,33.829213158837504,0.0 -78.63360239207628,33.82934780694121,0.0 -78.63342466570403,33.82935691633538,0.0 -78.63320293465863,33.829431578952374,0.0 -78.63288579588789,33.829539902889884,0.0 -78.6327017637379,33.829511930960805,0.0 -78.63253448388326,33.82948650502097,0.0 -78.63155650913124,33.82983836935294,0.0 -78.63152491848118,33.829862831361595,0.0 -78.63138919279935,33.83001076858782,0.0 -78.63114437519171,33.83005783777966,0.0 -78.63094532422693,33.83005826125483,0.0 -78.63087677158143,33.83008292400185,0.0 -78.63073444510111,33.83018817340187,0.0 -78.63061546250425,33.83026947839492,0.0 -78.63056148209604,33.83030636687493,0.0 -78.63041837436124,33.83035685555594,0.0 -78.63022649142053,33.83036380750892,0.0 -78.63005875941248,33.83045871485293,0.0 -78.62986378624576,33.83060968355595,0.0 -78.62970806731828,33.83058601125398,0.0 -78.62951987302226,33.8306416852607,0.0 -78.62943446053224,33.83076114656231,0.0 -78.62934120166297,33.83091553700968,0.0 -78.6290665193993,33.83103030630927,0.0 -78.6289081839442,33.83101827654185,0.0 -78.62872105892767,33.8311343148275,0.0 -78.62842222558768,33.831161126664384,0.0 -78.62817847519564,33.83126855542592,0.0 -78.62802905990507,33.83128196054067,0.0 -78.62773915006909,33.831334209108704,0.0 -78.62752156561896,33.831325208991515,0.0 -78.62738816868483,33.831337960562664,0.0 -78.62716941294352,33.831416654220575,0.0 -78.62699520037468,33.831479322473754,0.0 -78.62700313063502,33.83154740078821,0.0 -78.62705975501784,33.83155601007488,0.0 -78.62718454719638,33.83158702494565,0.0 -78.6270734365504,33.83169053747922,0.0 -78.62698064581963,33.83171255064274,0.0 -78.62685323619196,33.831693178933506,0.0 -78.62675521090343,33.8317384777879,0.0 -78.62661364490731,33.83171695341854,0.0 -78.62651192986117,33.83171352848471,0.0 -78.62654238640184,33.831838565305645,0.0 -78.62634895219973,33.83191751990123,0.0 -78.62618275956316,33.83194041232466,0.0 -78.62593269780558,33.8320107570551,0.0 -78.62570202724676,33.832059966193604,0.0 -78.62556260109284,33.832159172155656,0.0 -78.62536024340874,33.83221268760182,0.0 -78.62526745157356,33.83223469937295,0.0 -78.62519666725068,33.83222393614261,0.0 -78.62502634207644,33.83218755005584,0.0 -78.62473355620848,33.832292865309476,0.0 -78.62473355657737,33.83232577569598,0.0 -78.62304806487876,33.83299905471451,0.0 -78.61866998736825,33.834349820433786,0.0 -78.6168222821166,33.83502035382935,0.0 -78.61602847678859,33.835096130536165,0.0 -78.6149225093973,33.83559872139207,0.0 -78.61313249073855,33.836156403379896,0.0 -78.61181644253995,33.83635872905244,0.0 -78.61044772341046,33.83649167485738,0.0 -78.60934868459884,33.83674374574805,0.0 -78.60691073206235,33.83703816141922,0.0 -78.60606423580118,33.83704450391827,0.0 -78.6055946597527,33.83724041973766,0.0 -78.60514792165134,33.83759625293141,0.0 -78.60486680110196,33.837886957868065,0.0 -78.60409198596959,33.838259191440095,0.0 -78.60336346989158,33.83892848815281,0.0 -78.60243439285603,33.83993560794064,0.0 -78.60198190144675,33.8404963548286,0.0 -78.60194570457728,33.840814599880275,0.0 -78.60195579665812,33.84090630574621,0.0 -78.59935962394697,33.84128527982932,0.0 -78.59938683394552,33.84088495370222,0.0 -78.59928949564049,33.840620889033346,0.0 -78.59910695680554,33.840407597449,0.0 -78.59885965984827,33.840262957462556,0.0 -78.59848334211769,33.84023814670128,0.0 -78.59798093328438,33.84022835552055,0.0 -78.59749456541405,33.840393652465316,0.0 -78.59599211957251,33.840941123239816,0.0 -78.5940914207039,33.84149827892174,0.0 -78.59265516507274,33.84192465232658,0.0 -78.5895776959266,33.84261604415701,0.0 -78.58604974721752,33.843683044362066,0.0 -78.58368787910437,33.84424847714677,0.0 -78.58227394601853,33.84462273247781,0.0 -78.57989737542157,33.84515990612629,0.0 -78.5794280697083,33.84526597426427,0.0 -78.57713435149998,33.84564036361052,0.0 -78.5758464759577,33.845999544845135,0.0 -78.57517261108279,33.84612610800345,0.0 -78.57279610827383,33.84646383058775,0.0 -78.57075553234074,33.84677317290238,0.0 -78.56756055147706,33.84716456424796,0.0 -78.5650130468541,33.84762110387778,0.0 -78.56356257659651,33.847802164121454,0.0 -78.56155132331139,33.84781481165322,0.0 -78.55963729252257,33.848091517588834,0.0 -78.5572659112466,33.84824552144427,0.0 -78.55586276663568,33.84823517540472,0.0 -78.55498299545496,33.84823519865118,0.0 -78.55427020966057,33.848256009032426,0.0 -78.5533281349266,33.848237305826814,0.0 -78.55206007198522,33.847897522515716,0.0 -78.55141507948997,33.847744886298955,0.0 -78.55126454730694,33.847881716976225,0.0 -78.5492591250386,33.84719033994831,0.0 -78.54759301381043,33.84215988430336,0.0 -78.54447887020387,33.842894143220136,0.0 -78.54559520584367,33.84643097169123,0.0 -78.54410390364993,33.84870283204311,0.0 -78.54407050369636,33.848685765578985,0.0 -78.5438783190673,33.84893460538492,0.0 -78.54349394311872,33.849432282419365,0.0 -78.54309797713273,33.84974724293252,0.0 -78.54282211594463,33.84998037483487,0.0 -78.54256306984783,33.85021384107261,0.0 -78.54224375537606,33.85045367790626,0.0 -78.54132509292039,33.851143673427,0.0 -78.541202299372,33.85121230876944,0.0 -78.5411933540829,33.851217308655194,0.0 -78.54107782672493,33.85111717531061,0.0 -78.54024582652612,33.85036217470554,0.0 -78.53426682593647,33.84493217101906,0.0 -78.53227382606985,33.84312317005502,0.0 -78.53061682630751,33.84162116935802,0.0 -78.52564882770002,33.83711716780934,0.0 -78.5244778281773,33.836056167564216,0.0 -78.52399582838639,33.83561316746259,0.0 -78.51914183103092,33.83114416685582,0.0 -78.50458084490106,33.81774016977299,0.0 -78.49972785107127,33.813272171808826,0.0 -78.49964185105905,33.813187171687076,0.0 -78.49938385102264,33.81293317132367,0.0 -78.49929885101069,33.81284917120351,0.0 -78.49938385101534,33.81281917112204,0.0 -78.49964185102951,33.812730170878496,0.0 -78.49972785103425,33.81270117079849,0.0 -78.50369184530808,33.812061161251165,0.0 -78.51162883131896,33.80682813299588,0.0 -78.5174318205618,33.804448114399456,0.0 -78.52294980974982,33.80218709625498,0.0 -78.53319578939123,33.79948006490006,0.0 -78.54168177316237,33.79880304212386,0.0 -78.54972975683916,33.79758601879246,0.0 -78.55695174378015,33.79793700160141,0.0 -78.56483972701962,33.79661797790969,0.0 -78.57547170222091,33.79402494281576,0.0 -78.57807669595549,33.79339093406847,0.0 -78.58989866631087,33.79038889319191,0.0 -78.59467065394786,33.789204876423156,0.0 -78.59989664011445,33.78790885782559,0.0 -78.60006763964111,33.78785985718923,0.0 -78.61054661000504,33.78489581775738,0.0 -78.61591459244951,33.78270379450774,0.0 -78.62106557510295,33.780601771801145,0.0 -78.62120957461025,33.780542771159766,0.0 -78.62179157298874,33.78043576908821,0.0 -78.62399656681794,33.780029761216895,0.0 -78.62473256475354,33.77989575858841,0.0 -78.62773755528339,33.779014746452745,0.0 -78.63402353508563,33.777172720759296,0.0 -78.63572052954325,33.77667571375192,0.0 -78.63672952597014,33.776298709224044,0.0 -78.63966451548974,33.77520569599028,0.0 -78.64224550614973,33.7742436842526,0.0 -78.64739448718235,33.77232566057175,0.0 -78.6500104775945,33.77141464868828,0.0 -78.6526124679541,33.770509636787565,0.0 -78.66173543330132,33.76733559438077,0.0 -78.66231443098002,33.767113591556814,0.0 -78.66465942153044,33.766217580086376,0.0 -78.67799036599651,33.76112551343451,0.0 -78.68384033929271,33.75857248177782,0.0 -78.68777532094401,33.75685446017464,0.0 -78.69087730627241,33.75550244298338,0.0 -78.69137930388362,33.75528444019115,0.0 -78.69585028018322,33.75285641255335,0.0 -78.69963925679863,33.750168385417766,0.0 -78.70123725277507,33.74928337880102,0.0 -78.70603424433185,33.74662836164549,0.0 -78.7076342415707,33.74574435596712,0.0 -78.7087772396193,33.74511135192332,0.0 -78.71220723385173,33.74321233985475,0.0 -78.71335123195489,33.74258033585204,0.0 -78.71836222383259,33.7398073184477,0.0 -78.72136921909369,33.738144308105575,0.0 -78.73299220395188,33.73080926870573,0.0 -78.73333420353094,33.73059426756621,0.0 -78.73798819710693,33.72800925221068,0.0 -78.73814919689056,33.72791925168269,0.0 -78.73863319624051,33.72764925009679,0.0 -78.73879519602013,33.72756024956664,0.0 -78.74098319310518,33.7263452424258,0.0</coordinates>
                    </LinearRing>
                </outerBoundaryIs>
            </Polygon>
        </Placemark>
    </Document>
</kml>
