<?xml version="1.0" encoding="UTF-8"?>
<kml xmlns="http://www.opengis.net/kml/2.2" xmlns:gx="http://www.google.com/kml/ext/2.2">
    <Document id="4877">
        <Style id="4884">
            <LineStyle id="4886">
                <colorMode>normal</colorMode>
                <width>1</width>
            </LineStyle>
            <PolyStyle id="4885">
                <color>80ebce87</color>
                <colorMode>normal</colorMode>
                <fill>1</fill>
                <outline>1</outline>
            </PolyStyle>
        </Style>
        <Style id="4893">
            <LineStyle id="4895">
                <colorMode>normal</colorMode>
                <width>1</width>
            </LineStyle>
            <PolyStyle id="4894">
                <color>80ebce87</color>
                <colorMode>normal</colorMode>
                <fill>1</fill>
                <outline>1</outline>
            </PolyStyle>
        </Style>
        <Style id="4902">
            <LineStyle id="4904">
                <colorMode>normal</colorMode>
                <width>1</width>
            </LineStyle>
            <PolyStyle id="4903">
                <color>80ebce87</color>
                <colorMode>normal</colorMode>
                <fill>1</fill>
                <outline>1</outline>
            </PolyStyle>
        </Style>
        <Style id="4911">
            <LineStyle id="4913">
                <colorMode>normal</colorMode>
                <width>1</width>
            </LineStyle>
            <PolyStyle id="4912">
                <color>80ebce87</color>
                <colorMode>normal</colorMode>
                <fill>1</fill>
                <outline>1</outline>
            </PolyStyle>
        </Style>
        <Style id="4920">
            <LineStyle id="4922">
                <colorMode>normal</colorMode>
                <width>1</width>
            </LineStyle>
            <PolyStyle id="4921">
                <color>80ebce87</color>
                <colorMode>normal</colorMode>
                <fill>1</fill>
                <outline>1</outline>
            </PolyStyle>
        </Style>
        <Style id="4929">
            <LineStyle id="4931">
                <colorMode>normal</colorMode>
                <width>1</width>
            </LineStyle>
            <PolyStyle id="4930">
                <color>80ebce87</color>
                <colorMode>normal</colorMode>
                <fill>1</fill>
                <outline>1</outline>
            </PolyStyle>
        </Style>
        <Style id="4938">
            <LineStyle id="4940">
                <colorMode>normal</colorMode>
                <width>1</width>
            </LineStyle>
            <PolyStyle id="4939">
                <color>80ebce87</color>
                <colorMode>normal</colorMode>
                <fill>1</fill>
                <outline>1</outline>
            </PolyStyle>
        </Style>
        <Style id="4947">
            <LineStyle id="4949">
                <colorMode>normal</colorMode>
                <width>1</width>
            </LineStyle>
            <PolyStyle id="4948">
                <color>80ebce87</color>
                <colorMode>normal</colorMode>
                <fill>1</fill>
                <outline>1</outline>
            </PolyStyle>
        </Style>
        <Style id="4956">
            <LineStyle id="4958">
                <colorMode>normal</colorMode>
                <width>1</width>
            </LineStyle>
            <PolyStyle id="4957">
                <color>80ebce87</color>
                <colorMode>normal</colorMode>
                <fill>1</fill>
                <outline>1</outline>
            </PolyStyle>
        </Style>
        <Style id="4965">
            <LineStyle id="4967">
                <colorMode>normal</colorMode>
                <width>1</width>
            </LineStyle>
            <PolyStyle id="4966">
                <color>80ebce87</color>
                <colorMode>normal</colorMode>
                <fill>1</fill>
                <outline>1</outline>
            </PolyStyle>
        </Style>
        <Placemark id="4879">
            <name>Flood_530</name>
            <styleUrl>#4884</styleUrl>
            <Polygon id="4878">
                <outerBoundaryIs>
                    <LinearRing id="4882">
                        <coordinates>-78.8181325829189,33.98515704543243,0.0 -78.8180901467664,33.98513257275555,0.0 -78.8180811257136,33.985127865766145,0.0 -78.81806339793613,33.98511994351227,0.0 -78.81802747083881,33.98508989946034,0.0 -78.81802731345527,33.98503687316109,0.0 -78.81803970805056,33.984999378351986,0.0 -78.8180555522972,33.98495490164283,0.0 -78.81806347571262,33.98492846576578,0.0 -78.81808332096601,33.98487285154375,0.0 -78.81809720474311,33.984855045145366,0.0 -78.81814222990633,33.98482837484276,0.0 -78.81817282242365,33.98479197754871,0.0 -78.81819870797834,33.984756757655504,0.0 -78.81824773411458,33.98471086911854,0.0 -78.81826914848608,33.98468592365939,0.0 -78.81836594493406,33.984630465304555,0.0 -78.81837794543718,33.984621445544974,0.0 -78.81839120324138,33.9846157969004,0.0 -78.81842391232765,33.984611797145845,0.0 -78.81849913872111,33.98462144556853,0.0 -78.81853843815293,33.984633446168246,0.0 -78.81859726878939,33.98465486074722,0.0 -78.81865829570977,33.98466694124161,0.0 -78.81869524302941,33.98469376872103,0.0 -78.81871108756825,33.98471894861976,0.0 -78.81869328147341,33.98477393550493,0.0 -78.81867178852909,33.98480076297311,0.0 -78.81866355223944,33.98486022241523,0.0 -78.81866622014083,33.9848831273983,0.0 -78.81861240964449,33.984899992129534,0.0 -78.81859279885852,33.984964314409126,0.0 -78.81859005378847,33.984965804823666,0.0 -78.81850133651227,33.98497200221001,0.0 -78.81848894206748,33.98504550141448,0.0 -78.81842399284162,33.98507327053437,0.0 -78.81838838024377,33.98508558544309,0.0 -78.81834327639602,33.9850873901729,0.0 -78.81831652908369,33.98512441480417,0.0 -78.81829770255499,33.9851320227283,0.0 -78.81828805420894,33.985136965456526,0.0 -78.818201611793,33.98513280720865,0.0 -78.81818851253824,33.985157202604206,0.0 -78.8181325829189,33.98515704543243,0.0</coordinates>
                    </LinearRing>
                </outerBoundaryIs>
            </Polygon>
        </Placemark>
        <Placemark id="4888">
            <name>Flood_531</name>
            <styleUrl>#4893</styleUrl>
            <Polygon id="4887">
                <outerBoundaryIs>
                    <LinearRing id="4891">
                        <coordinates>-78.82589988824934,33.99089483514352,0.0 -78.82586490290585,33.99088675573053,0.0 -78.82579665844403,33.990889343652285,0.0 -78.82576590992021,33.990887618802944,0.0 -78.82568276125821,33.990861732988655,0.0 -78.82571476557737,33.990818275216114,0.0 -78.82574975047336,33.99071504630542,0.0 -78.8257014299935,33.99069716132328,0.0 -78.82567201467783,33.99068563090579,0.0 -78.82566550431278,33.990691199661306,0.0 -78.82566181760261,33.990696455403594,0.0 -78.82562141957423,33.990737166778324,0.0 -78.82557223730961,33.99071441895739,0.0 -78.82550132635238,33.99071708545954,0.0 -78.8254729300559,33.990728694454056,0.0 -78.82540390104064,33.990716693859014,0.0 -78.82539111606495,33.990731126522924,0.0 -78.82537330982346,33.99075120783275,0.0 -78.82532655816023,33.990690572302476,0.0 -78.82527666863301,33.99065825465544,0.0 -78.82523133014281,33.990606404453054,0.0 -78.82521289624525,33.9905465534223,0.0 -78.82527988468031,33.99053149211618,0.0 -78.82530898691275,33.990525294716335,0.0 -78.8252804333419,33.99050874429835,0.0 -78.82520544377684,33.99044104828515,0.0 -78.82518355775898,33.99042567395947,0.0 -78.82517657723591,33.99043493077163,0.0 -78.82516457540873,33.990440342365154,0.0 -78.82514229799368,33.990473367234166,0.0 -78.82513547332535,33.990483485815126,0.0 -78.82508354468408,33.99046309017731,0.0 -78.82505405073442,33.99043838176747,0.0 -78.82498635614478,33.99039390505692,0.0 -78.82493756557135,33.99039578706244,0.0 -78.82488689173981,33.99041069120814,0.0 -78.82485606463618,33.99040920079088,0.0 -78.82478844741622,33.99038927663628,0.0 -78.82469808370523,33.99034966407235,0.0 -78.82479103622431,33.99028620488288,0.0 -78.82481103886799,33.99028581198063,0.0 -78.82483331621239,33.99023537361675,0.0 -78.8247933895115,33.990237648526545,0.0 -78.82474020626682,33.99023317727765,0.0 -78.82469306199921,33.99024651242775,0.0 -78.82465023313264,33.99026635799357,0.0 -78.82467462870419,33.99033578016129,0.0 -78.8246764335353,33.9903607243117,0.0 -78.82469008165336,33.990362999225525,0.0 -78.82471494870724,33.99043242008346,0.0 -78.82471628205144,33.99045626672251,0.0 -78.82468780711042,33.99045202990823,0.0 -78.82461658313736,33.990453834641144,0.0 -78.82458787392896,33.99049015335331,0.0 -78.82456386998635,33.99042975356574,0.0 -78.82449405594019,33.99028549894358,0.0 -78.82439341563202,33.990347624879426,0.0 -78.82432548556903,33.99036943103344,0.0 -78.82429363827436,33.99037900085717,0.0 -78.8242461035192,33.99034174178953,0.0 -78.82419613545177,33.990319619994125,0.0 -78.82415691473913,33.99034017278728,0.0 -78.82419480241278,33.990371078600376,0.0 -78.82425167258647,33.99042434063901,0.0 -78.82424280888466,33.99046607094745,0.0 -78.82418986156537,33.99050693948392,0.0 -78.82408812219172,33.99050741096126,0.0 -78.82407863097202,33.99050372421356,0.0 -78.82399399191983,33.990482779817356,0.0 -78.8239708526054,33.99048254407349,0.0 -78.82389468596936,33.99049548762795,0.0 -78.82388966470084,33.99050042904738,0.0 -78.82388574356702,33.99050756679887,0.0 -78.82385797486118,33.990582321977826,0.0 -78.82382746220074,33.99061071844088,0.0 -78.82379231979978,33.99062821051432,0.0 -78.82371795772617,33.99059981535379,0.0 -78.82369426831546,33.990591343037124,0.0 -78.82366383275982,33.9905789495404,0.0 -78.8236489284957,33.990535100168884,0.0 -78.82359715701816,33.99051556891883,0.0 -78.82357221297474,33.990515646188086,0.0 -78.82349714395784,33.99055620171024,0.0 -78.82345737439037,33.9905516518818,0.0 -78.82342991968953,33.990548513888484,0.0 -78.82339862105769,33.99053580606856,0.0 -78.82336967587959,33.99051580333542,0.0 -78.82335085052968,33.990490937763944,0.0 -78.82336497000126,33.9904615996401,0.0 -78.82338552118587,33.99040912210391,0.0 -78.82334018137767,33.99035586006503,0.0 -78.82332763065197,33.99032558158961,0.0 -78.82335014375695,33.990280321695856,0.0 -78.8233414368961,33.99024337564365,0.0 -78.823407091966,33.99019952627782,0.0 -78.823457921896,33.990245414823036,0.0 -78.82344654757387,33.990292872359305,0.0 -78.82350412469472,33.9902779682138,0.0 -78.82359284189978,33.99025678808787,0.0 -78.82361166714013,33.99025474891864,0.0 -78.8236140991773,33.990248159922594,0.0 -78.82365261395476,33.99022250985762,0.0 -78.8236632812175,33.990215370796925,0.0 -78.82370422809029,33.99019740854925,0.0 -78.82374642972746,33.990203291631694,0.0 -78.82375144956353,33.99016814900916,0.0 -78.82372281852774,33.99010406247285,0.0 -78.82371881743838,33.99009511998272,0.0 -78.82372823137182,33.99009496282194,0.0 -78.82380580988608,33.99009417833026,0.0 -78.82381357491069,33.990086726255974,0.0 -78.82380612284949,33.99008225501053,0.0 -78.82375772501995,33.99004530895538,0.0 -78.82370822849512,33.99003809261883,0.0 -78.82370516896542,33.99000561781227,0.0 -78.82360978416429,33.990015266211486,0.0 -78.82358907554416,33.99000036206012,0.0 -78.82356138494345,33.98995831742525,0.0 -78.82357370094853,33.9899176060471,0.0 -78.82360021369445,33.9898470863706,0.0 -78.82351432017784,33.989876345907334,0.0 -78.82342481824169,33.98983963428098,0.0 -78.82341611155053,33.989844341267386,0.0 -78.8233930497191,33.98989627004752,0.0 -78.82336692835034,33.98991391928294,0.0 -78.82341305264295,33.989964592086345,0.0 -78.82342105357282,33.98999738121655,0.0 -78.82341203257467,33.9900056963694,0.0 -78.8233256687686,33.990006245117996,0.0 -78.82331225521118,33.990035660512795,0.0 -78.823283859038,33.99007747071087,0.0 -78.82328848750046,33.9900960616082,0.0 -78.82327170188671,33.990212076923704,0.0 -78.82320910466969,33.99019827028026,0.0 -78.8231845533644,33.990158187544885,0.0 -78.82318447469463,33.99013630149493,0.0 -78.82319090625512,33.99007582312698,0.0 -78.82321334078738,33.99003244524235,0.0 -78.8232844873448,33.989994949131166,0.0 -78.82321632111787,33.989913134772586,0.0 -78.82321655551718,33.98990521252284,0.0 -78.82325161921545,33.9898576764077,0.0 -78.82323208662638,33.98982912408876,0.0 -78.82321930146277,33.9897973538884,0.0 -78.82318996325358,33.989745896588175,0.0 -78.82312273882482,33.98969922354283,0.0 -78.82308069421791,33.9896614929895,0.0 -78.82306931951268,33.98961505569123,0.0 -78.82311732676543,33.989579678639494,0.0 -78.82312587629929,33.98957583473164,0.0 -78.82322235997175,33.9895795214874,0.0 -78.82316407659957,33.989511982632834,0.0 -78.82315176168068,33.98949786297969,0.0 -78.82316227300737,33.98946993799968,0.0 -78.82312901377593,33.98945299467612,0.0 -78.82309402842564,33.989443660588904,0.0 -78.8230990482853,33.98941440104508,0.0 -78.82308838084832,33.98937886682662,0.0 -78.82307457407556,33.98933156644943,0.0 -78.82309026251221,33.98929626797561,0.0 -78.82308579109448,33.989249280612626,0.0 -78.82307920193519,33.9892024517206,0.0 -78.82313583737537,33.98918103716063,0.0 -78.82314854381863,33.98917844792601,0.0 -78.82314924968982,33.98916793644037,0.0 -78.82315450513008,33.98909930008038,0.0 -78.82319584361633,33.98908627925337,0.0 -78.82313889497797,33.98906211828487,0.0 -78.82311222453954,33.98900234583074,0.0 -78.82314085654775,33.98898336334259,0.0 -78.82317270385623,33.98897700878208,0.0 -78.82318666639563,33.98900360051109,0.0 -78.82323765357462,33.98907066919066,0.0 -78.82327051967582,33.98903160539098,0.0 -78.82333154774547,33.9890061897617,0.0 -78.82329146369675,33.988962890451994,0.0 -78.82330346542399,33.988932924992056,0.0 -78.82330730927686,33.98892327658547,0.0 -78.82330950549246,33.98889699918124,0.0 -78.82334111707972,33.98889550876954,0.0 -78.82341100914695,33.988900998952225,0.0 -78.82344018863522,33.98889095895417,0.0 -78.82351384474356,33.98890601896346,0.0 -78.82349337167243,33.988844050178294,0.0 -78.82347823293787,33.98879086672197,0.0 -78.82348686094815,33.988761451327115,0.0 -78.8235430249089,33.98874058552346,0.0 -78.82356043973003,33.988762784588445,0.0 -78.82364029333783,33.988808202963284,0.0 -78.82373622709005,33.988846560858974,0.0 -78.82371975368501,33.98876552969322,0.0 -78.82372022509801,33.98874842921147,0.0 -78.82374195239984,33.98870309073803,0.0 -78.82379090006738,33.988684342685126,0.0 -78.82383012082843,33.98867540019951,0.0 -78.82384165119738,33.98867587168534,0.0 -78.82385749692509,33.988672419372534,0.0 -78.82393915533865,33.988736428644145,0.0 -78.8239694335593,33.98870567868875,0.0 -78.82397531640696,33.98865484872888,0.0 -78.82399163218582,33.988621432265134,0.0 -78.82401006566822,33.98857844597552,0.0 -78.82421958209885,33.98859687973382,0.0 -78.82446471257926,33.9886384542179,0.0 -78.82483762388641,33.98865430006746,0.0 -78.8249752891783,33.988717053361476,0.0 -78.82509059835745,33.98878404215516,0.0 -78.82525626707405,33.98884263852965,0.0 -78.82543770310231,33.98893865113012,0.0 -78.82555144355251,33.98907059084237,0.0 -78.82560431291058,33.98918284083118,0.0 -78.82567271518607,33.98934184243906,0.0 -78.82567012768146,33.98944389526002,0.0 -78.82565059565547,33.98955496914971,0.0 -78.82562078779866,33.98963333249125,0.0 -78.82548131937023,33.989640157217174,0.0 -78.82546814175095,33.98971883488353,0.0 -78.82567969860658,33.98972722732608,0.0 -78.82574009827016,33.98976072237642,0.0 -78.82575492407548,33.989835241813296,0.0 -78.82570903595143,33.9898901514188,0.0 -78.8256404001604,33.98995855333747,0.0 -78.82560643517566,33.989981222571686,0.0 -78.82556603720381,33.99003613217795,0.0 -78.82564698985716,33.990139675420615,0.0 -78.82571366536494,33.99014547992388,0.0 -78.8257152341113,33.99008515741068,0.0 -78.82579932292906,33.9900634298398,0.0 -78.8258424664248,33.99011990713837,0.0 -78.82584074055454,33.99018948515422,0.0 -78.82582826873693,33.990240316421485,0.0 -78.82584787866924,33.99028738105387,0.0 -78.82587964749293,33.99030495171211,0.0 -78.82594985257964,33.99031295254735,0.0 -78.82597440527675,33.99037413814092,0.0 -78.82594836273783,33.990454070478435,0.0 -78.82593542074578,33.99050450753217,0.0 -78.82592749865705,33.990536120567555,0.0 -78.82597173960693,33.99057973419674,0.0 -78.82601221509582,33.99058616603391,0.0 -78.82604727938767,33.99068586536332,0.0 -78.82596899365264,33.990687121340436,0.0 -78.82595456105943,33.990689630684756,0.0 -78.82584701725128,33.99069967198791,0.0 -78.82593636339901,33.99075293402651,0.0 -78.82600460648206,33.990733087152826,0.0 -78.82606673217991,33.99073818704758,0.0 -78.82609724635533,33.99076062054402,0.0 -78.8261022664388,33.990786663514655,0.0 -78.82608587201292,33.990803685413844,0.0 -78.82606508618206,33.990803449670196,0.0 -78.8259167527998,33.990865811344335,0.0 -78.82589988824934,33.99089483514352,0.0</coordinates>
                    </LinearRing>
                </outerBoundaryIs>
            </Polygon>
        </Placemark>
        <Placemark id="4897">
            <name>Flood_532</name>
            <styleUrl>#4902</styleUrl>
            <Polygon id="4896">
                <outerBoundaryIs>
                    <LinearRing id="4900">
                        <coordinates>-78.78731316032452,33.990265727846555,0.0 -78.78727448825131,33.99025953174643,0.0 -78.78726774214023,33.990263139914944,0.0 -78.78726240782575,33.990260316243926,0.0 -78.78726452559027,33.990264864763624,0.0 -78.78722334443775,33.99031067606577,0.0 -78.78716702332602,33.99032957998628,0.0 -78.78709854437055,33.99031922564914,0.0 -78.78706905038682,33.99029200656235,0.0 -78.78704410498358,33.9902818866612,0.0 -78.78696935030055,33.990318049546715,0.0 -78.78691499091927,33.990304242893444,0.0 -78.78687129877873,33.990280083218536,0.0 -78.78679638673935,33.99027647504377,0.0 -78.78677136431125,33.99031632337346,0.0 -78.78676148027385,33.99033044303548,0.0 -78.78674226216059,33.99033805227644,0.0 -78.78667064549909,33.99038299918802,0.0 -78.78664789786298,33.99040025553347,0.0 -78.78657173106835,33.99037876236517,0.0 -78.7865164300576,33.990370212768376,0.0 -78.78647360099183,33.990346053093305,0.0 -78.78637609703347,33.990332482179255,0.0 -78.78637468524904,33.990341346095214,0.0 -78.78635852644594,33.990331227504214,0.0 -78.78637507807456,33.9903258145969,0.0 -78.78641257234568,33.99024972610521,0.0 -78.78637821544713,33.990202974446106,0.0 -78.7863300520158,33.99016571403882,0.0 -78.78633546340428,33.99012861210683,0.0 -78.78636613443064,33.990083899624864,0.0 -78.78628353569857,33.990036129030514,0.0 -78.78620509392074,33.98999855429715,0.0 -78.78624941313335,33.989969531786016,0.0 -78.78625772684913,33.98995078371356,0.0 -78.78627239633832,33.98991728864186,0.0 -78.78626627745717,33.98989987513246,0.0 -78.7862869074614,33.989904973719426,0.0 -78.78631624421544,33.989918073144004,0.0 -78.78631695024478,33.98994144962711,0.0 -78.78631702883791,33.98994403755536,0.0 -78.78634511114117,33.99000106496557,0.0 -78.78638190148354,33.990062014868876,0.0 -78.78639939325613,33.99001565480815,0.0 -78.78640182525315,33.990002085211096,0.0 -78.78648450193948,33.98992278014879,0.0 -78.78653345008408,33.990004438717165,0.0 -78.78658067181762,33.99003306964124,0.0 -78.78663816921593,33.990054719970175,0.0 -78.7866219316424,33.99000600641162,0.0 -78.7866260110487,33.989959883402186,0.0 -78.78665479880871,33.989924113417246,0.0 -78.78665754370591,33.98988779467419,0.0 -78.78665942558104,33.98986222316731,0.0 -78.78653282193797,33.98983947532015,0.0 -78.7866245198036,33.989789977272125,0.0 -78.78661989126253,33.98975860126171,0.0 -78.78658953398416,33.98968690543251,0.0 -78.78650222850398,33.98968368885014,0.0 -78.78649077537166,33.98967631534933,0.0 -78.78648701006277,33.98967686410499,0.0 -78.78647728441,33.98967357025826,0.0 -78.78648756009622,33.98967090244042,0.0 -78.78649195255498,33.98963301601018,0.0 -78.78653760514456,33.98963011376271,0.0 -78.7865914941929,33.989611208532935,0.0 -78.7865962796609,33.98959504969831,0.0 -78.78678830432078,33.989658117368215,0.0 -78.78683889954046,33.98963929071899,0.0 -78.78688808166117,33.98962838763523,0.0 -78.78691985039998,33.989625406805764,0.0 -78.7869660529411,33.989599833993275,0.0 -78.78698801612225,33.98959049990416,0.0 -78.78701735417174,33.98960069707714,0.0 -78.78708606895331,33.98962807332951,0.0 -78.78711917096467,33.989630113814286,0.0 -78.7871853748976,33.98961591557666,0.0 -78.78719667081965,33.98961324775897,0.0 -78.78719847550416,33.98960391366809,0.0 -78.78722820355281,33.98955637751657,0.0 -78.78728625084459,33.98954343526158,0.0 -78.78730154648582,33.989535826020784,0.0 -78.7873857152408,33.989527432287744,0.0 -78.78738995073037,33.98952845252904,0.0 -78.787390813788,33.98952492294088,0.0 -78.7874115220437,33.98946295411256,0.0 -78.78742862235521,33.98944310721986,0.0 -78.78744297619646,33.989406005289645,0.0 -78.78748792285985,33.98940059238543,0.0 -78.78750604338656,33.989376509986954,0.0 -78.78752957553387,33.989362468907316,0.0 -78.78756322730372,33.98930238340075,0.0 -78.78753600693736,33.9892801057373,0.0 -78.7875645603381,33.98925884701049,0.0 -78.78759044607287,33.98926598607993,0.0 -78.7876521787757,33.989250767601604,0.0 -78.78768975333215,33.9892546900975,0.0 -78.78771061770544,33.98924700227653,0.0 -78.78773462136117,33.989238216943896,0.0 -78.78778890344896,33.989247159445746,0.0 -78.78783879152476,33.98924449294164,0.0 -78.78788891518363,33.989209507458625,0.0 -78.78789362214269,33.98920785988133,0.0 -78.78789785760884,33.98920409455113,0.0 -78.78793292127523,33.98915781438442,0.0 -78.78796421971286,33.98912847755056,0.0 -78.78797018001033,33.989122907481146,0.0 -78.78799065403393,33.9891014929018,0.0 -78.78799488948512,33.989094668158636,0.0 -78.7880346586676,33.989019442750006,0.0 -78.78802077447638,33.98894978609625,0.0 -78.78802140169307,33.98892586216775,0.0 -78.78801198887653,33.988886641173096,0.0 -78.78803199119527,33.98881972961264,0.0 -78.78802030341153,33.98876740919624,0.0 -78.78798476916204,33.98872991304764,0.0 -78.78793927213903,33.9886748475376,0.0 -78.78789863930795,33.9886328814497,0.0 -78.78788373509292,33.98860660271435,0.0 -78.78792907447745,33.98856400929914,0.0 -78.78796813811728,33.988564636640234,0.0 -78.78801441948646,33.98858934638215,0.0 -78.78806815165359,33.988627232817635,0.0 -78.78813035598338,33.988641352486816,0.0 -78.78816290899108,33.98859201290758,0.0 -78.78817726276115,33.988540162669295,0.0 -78.78821522859776,33.98848007585483,0.0 -78.78827225577658,33.98849192060918,0.0 -78.78833987294607,33.988497490686754,0.0 -78.78839470372773,33.98849411695669,0.0 -78.78844019944077,33.988549183775994,0.0 -78.78847589080874,33.9885780504415,0.0 -78.78850930722012,33.988596012709245,0.0 -78.78854546867629,33.98860754444743,0.0 -78.78860092666454,33.988578129036135,0.0 -78.7887242362114,33.98854557563866,0.0 -78.78874557202265,33.988528632308245,0.0 -78.78880048136378,33.98852094449167,0.0 -78.78885994062783,33.98853718191339,0.0 -78.78888778707031,33.988570205502725,0.0 -78.78889108256926,33.98864409765989,0.0 -78.78886472543701,33.988654451988694,0.0 -78.78880354164983,33.9887032441178,0.0 -78.7887922458933,33.98873995445264,0.0 -78.78884033083077,33.98879509854268,0.0 -78.78887343297298,33.988823886626605,0.0 -78.78886425634253,33.98887581544553,0.0 -78.78883499703706,33.988899191924375,0.0 -78.78883005564143,33.98889981926061,0.0 -78.7888469990065,33.98892382177138,0.0 -78.78888567117244,33.988948845834976,0.0 -78.78889531966284,33.988974417341886,0.0 -78.78890520254484,33.98899175357968,0.0 -78.78888496552267,33.989003126840466,0.0 -78.78883978312615,33.98901034317375,0.0 -78.78878448226673,33.98903309231322,0.0 -78.7887094917623,33.98905356522656,0.0 -78.78869490203788,33.98906180180389,0.0 -78.7886847821761,33.98905905671312,0.0 -78.78861363685338,33.989075371392325,0.0 -78.78858461331589,33.989104160779725,0.0 -78.78854311758735,33.98909835496323,0.0 -78.78855378504954,33.98913326187081,0.0 -78.78850907419701,33.9891530288698,0.0 -78.78848397307596,33.98917028652339,0.0 -78.78843400510534,33.98917201267706,0.0 -78.78838427430011,33.98919719258395,0.0 -78.78836772265174,33.989198682998335,0.0 -78.7883701547832,33.989212488337756,0.0 -78.78834787749437,33.989265750410496,0.0 -78.78834983821682,33.989294617072204,0.0 -78.78832779662227,33.98933823073094,0.0 -78.78837972535838,33.98937423515463,0.0 -78.78838090146445,33.989378157646954,0.0 -78.78837894100248,33.98940263164093,0.0 -78.7883678024675,33.989451658208914,0.0 -78.78835744822668,33.98945965904441,0.0 -78.78828787053737,33.989466405200766,0.0 -78.78827806505632,33.989475739290775,0.0 -78.7882404919939,33.98950947010125,0.0 -78.7881778176405,33.98952562893013,0.0 -78.78816950255353,33.98953198218802,0.0 -78.78816314935925,33.98953864976947,0.0 -78.78813004625991,33.98958195041392,0.0 -78.78810478808032,33.9896200725835,0.0 -78.78811043678563,33.989637015916934,0.0 -78.78811608418201,33.98965411641208,0.0 -78.78807553013262,33.98965309616761,0.0 -78.7880283085835,33.98966203866007,0.0 -78.78799536262213,33.98970063231392,0.0 -78.7879882249541,33.98971153540116,0.0 -78.78797488987439,33.98971506629791,0.0 -78.78792139243598,33.98973765696741,0.0 -78.78787495541417,33.98975326704203,0.0 -78.78785879667849,33.98975687520971,0.0 -78.78784828524857,33.98975907154253,0.0 -78.78783824528506,33.989757974029615,0.0 -78.78777604098595,33.98974981602617,0.0 -78.78775195875163,33.989758914372615,0.0 -78.78774795910515,33.989778682685625,0.0 -78.7876746163784,33.98984127884606,0.0 -78.7875865264579,33.98984904524244,0.0 -78.78757546625641,33.9898474762446,0.0 -78.78752596980831,33.989857203235566,0.0 -78.78752220468806,33.98989626706761,0.0 -78.78747584605345,33.989872420406066,0.0 -78.78744015500799,33.98990920932098,0.0 -78.78742015250262,33.98993776296782,0.0 -78.78744595991938,33.98999847712649,0.0 -78.7873734799851,33.99000333996335,0.0 -78.78736445899533,33.99001196813609,0.0 -78.78736281277146,33.990019263054855,0.0 -78.78737277420333,33.99003032461492,0.0 -78.78745302055563,33.990036363557,0.0 -78.78743466449674,33.99010296079563,0.0 -78.78746862981073,33.990151517193055,0.0 -78.7874895742825,33.99018642279244,0.0 -78.78748933863129,33.990204779270634,0.0 -78.78746706243412,33.99021325028065,0.0 -78.78736987312651,33.99026674809174,0.0 -78.78739269953893,33.99028933876786,0.0 -78.78744439265724,33.99035060299397,0.0 -78.78739505344569,33.99037562574092,0.0 -78.78738116987192,33.99043194722903,0.0 -78.78736179467934,33.990456185479815,0.0 -78.78735010707959,33.99044143847945,0.0 -78.78726319315147,33.99042967230593,0.0 -78.78734045857205,33.990412493235766,0.0 -78.78732837782846,33.99034848392275,0.0 -78.78727448830676,33.99027082642879,0.0 -78.78731316032452,33.990265727846555,0.0</coordinates>
                    </LinearRing>
                </outerBoundaryIs>
            </Polygon>
        </Placemark>
        <Placemark id="4906">
            <name>Flood_533</name>
            <styleUrl>#4911</styleUrl>
            <Polygon id="4905">
                <outerBoundaryIs>
                    <LinearRing id="4909">
                        <coordinates>-78.7920773864098,33.99056976913309,0.0 -78.79203604760833,33.99051485948195,0.0 -78.79203392978664,33.99049830905421,0.0 -78.79201439725824,33.99048662146748,0.0 -78.79196380319388,33.99047352073371,0.0 -78.79196364582933,33.990431084478644,0.0 -78.79197007745005,33.990392255083194,0.0 -78.79201777035561,33.99035703516906,0.0 -78.79202247599599,33.99035350558151,0.0 -78.79202137847102,33.990349661670294,0.0 -78.79201941630669,33.990292712849836,0.0 -78.79201549502072,33.990267061454816,0.0 -78.79201525925993,33.990262983110966,0.0 -78.79196136973833,33.99018359946622,0.0 -78.79196333007982,33.990133632550645,0.0 -78.7919881966994,33.9901016278997,0.0 -78.79196223227282,33.99007103507988,0.0 -78.79194513161154,33.99001840165407,0.0 -78.79195736761146,33.989959883837926,0.0 -78.79196693728375,33.98993635150644,0.0 -78.79195391641167,33.98991619159937,0.0 -78.79196442755288,33.989853829871954,0.0 -78.79199823521031,33.989800097628816,0.0 -78.79199658750571,33.98977193688686,0.0 -78.79201588416974,33.98975789580808,0.0 -78.79202882734872,33.98969004390197,0.0 -78.79203510195293,33.989681257258646,0.0 -78.79203886727676,33.989683767915764,0.0 -78.79208185341957,33.98969098425693,0.0 -78.79213346772897,33.98970580984026,0.0 -78.79218618090327,33.989730832592976,0.0 -78.79222751965875,33.98977601525055,0.0 -78.79223065764275,33.98977727123402,0.0 -78.7922330897108,33.98977813300378,0.0 -78.79232878771772,33.989810294826164,0.0 -78.79238008918774,33.98986120340584,0.0 -78.79242456606957,33.98993744905601,0.0 -78.79251563685519,33.98993956681616,0.0 -78.79252355905071,33.98993533131141,0.0 -78.79255940604217,33.989917446322885,0.0 -78.7926233363985,33.98990646466062,0.0 -78.79262663171937,33.98994450955795,0.0 -78.79266177290216,33.98994866648546,0.0 -78.79264396666649,33.98996686448896,0.0 -78.79262067040435,33.99001126264228,0.0 -78.79258568504082,33.990000438133414,0.0 -78.79261651228182,33.990030325035704,0.0 -78.79262004318299,33.99003471770301,0.0 -78.7926665590335,33.99007072212227,0.0 -78.79271723179188,33.99010751104008,0.0 -78.79272680161199,33.99011480595891,0.0 -78.79278265277861,33.990142966704646,0.0 -78.79275770768714,33.99019779776938,0.0 -78.7927639838435,33.99023968526827,0.0 -78.79276366971649,33.99028039667387,0.0 -78.79275127650979,33.99032950181828,0.0 -78.7927366869028,33.99036236954875,0.0 -78.79272954794845,33.99037837121965,0.0 -78.79266507019199,33.99039829537826,0.0 -78.7926103966179,33.99041100320021,0.0 -78.79258223605294,33.99041876829143,0.0 -78.7925109322364,33.99043006427721,0.0 -78.7924990875516,33.990430770193925,0.0 -78.79249336170514,33.99044049718762,0.0 -78.7924686523232,33.99048858209069,0.0 -78.79244543459006,33.99052215573836,0.0 -78.7924751631416,33.99057855449465,0.0 -78.7923442442143,33.99057361306258,0.0 -78.7923089459343,33.99058263413674,0.0 -78.79225788033344,33.99055823872185,0.0 -78.79224203610701,33.99060098929881,0.0 -78.79222093469043,33.990610323387514,0.0 -78.79220838424577,33.99064319111858,0.0 -78.79214869074055,33.99066578178678,0.0 -78.79204820725916,33.99064844685406,0.0 -78.79204977469422,33.99059753827867,0.0 -78.7920773864098,33.99056976913309,0.0</coordinates>
                    </LinearRing>
                </outerBoundaryIs>
            </Polygon>
        </Placemark>
        <Placemark id="4915">
            <name>Flood_534</name>
            <styleUrl>#4920</styleUrl>
            <Polygon id="4914">
                <outerBoundaryIs>
                    <LinearRing id="4918">
                        <coordinates>-78.82283910421506,33.991966428931136,0.0 -78.82281094346993,33.99193120903531,0.0 -78.82276921204114,33.99193364110799,0.0 -78.82269845811622,33.99190438156079,0.0 -78.82268904573553,33.99196384099905,0.0 -78.82268912307465,33.991980548577374,0.0 -78.82266786594873,33.99202596694377,0.0 -78.82265374610124,33.99196321366118,0.0 -78.82264974615418,33.991913402629535,0.0 -78.82264856870025,33.99189936155813,0.0 -78.8226287231385,33.99188030048524,0.0 -78.82264041055795,33.99185402177127,0.0 -78.82261978034923,33.99179770032324,0.0 -78.82260056194292,33.991735104201815,0.0 -78.82261389683313,33.99168474441522,0.0 -78.82257773540252,33.99167658642147,0.0 -78.82252384607698,33.99163101219984,0.0 -78.82255718374509,33.99161320580197,0.0 -78.82257961709253,33.99160065514666,0.0 -78.82263201710538,33.99159398757195,0.0 -78.82267892435293,33.9915887318313,0.0 -78.82273304926908,33.99159751716233,0.0 -78.82277831017747,33.99157280744583,0.0 -78.82283274783588,33.9915156242326,0.0 -78.8228620856556,33.991472010604966,0.0 -78.82288044064215,33.9914502817173,0.0 -78.82289385436356,33.99146118479781,0.0 -78.82292177919757,33.99145475296431,0.0 -78.82297966933469,33.99144133923234,0.0 -78.82301488909289,33.99144526172347,0.0 -78.82301967476093,33.9914748342813,0.0 -78.82303183264571,33.99152009548726,0.0 -78.8230530901117,33.991557826037976,0.0 -78.82307505475858,33.99158504510296,0.0 -78.82313059169812,33.9916416795655,0.0 -78.8231575751964,33.99171361108028,0.0 -78.82314926019413,33.99174185038394,0.0 -78.82309113583263,33.99180593691632,0.0 -78.82309584289139,33.991828450302904,0.0 -78.82306877981708,33.991833470302254,0.0 -78.82301606680562,33.9918433544494,0.0 -78.82297370951844,33.991886339430486,0.0 -78.82296829665383,33.99189034050043,0.0 -78.8228931505186,33.99196744917341,0.0 -78.82294554952388,33.9920348308636,0.0 -78.82286695057259,33.99198549000422,0.0 -78.82283910421506,33.991966428931136,0.0</coordinates>
                    </LinearRing>
                </outerBoundaryIs>
            </Polygon>
        </Placemark>
        <Placemark id="4924">
            <name>Flood_535</name>
            <styleUrl>#4929</styleUrl>
            <Polygon id="4923">
                <outerBoundaryIs>
                    <LinearRing id="4927">
                        <coordinates>-78.8218482330163,33.99268221184233,0.0 -78.82176084887436,33.992657109217255,0.0 -78.82169087945228,33.99262973429898,0.0 -78.82166271882052,33.992622203642306,0.0 -78.82162663593341,33.992604945997286,0.0 -78.8216643661129,33.99255490053312,0.0 -78.82167887721417,33.9925350536535,0.0 -78.82168421146673,33.99252344465642,0.0 -78.82171935244855,33.99247990960808,0.0 -78.8216655420096,33.99250869766705,0.0 -78.82159062996404,33.99250195150692,0.0 -78.82156686329311,33.99249591126532,0.0 -78.82155023310585,33.992507442991105,0.0 -78.82149971643007,33.992520229388674,0.0 -78.82148763738122,33.99253732856124,0.0 -78.82146716320159,33.9925244648906,0.0 -78.82145806487897,33.992519522160684,0.0 -78.8214171963483,33.99247888935926,0.0 -78.8213701317864,33.992446650292244,0.0 -78.82132847887945,33.99243472697065,0.0 -78.82127160889469,33.99242751063601,0.0 -78.82125442987136,33.99241895973938,0.0 -78.8211733989601,33.99239511440577,0.0 -78.82111990253226,33.992348598524245,0.0 -78.82113370765877,33.992314083236124,0.0 -78.82117559492798,33.99230914181749,0.0 -78.82120438409868,33.99229133541857,0.0 -78.82127247131508,33.99226882203354,0.0 -78.8212756865449,33.99226427351746,0.0 -78.82128972752771,33.992257605940566,0.0 -78.8213716984591,33.99220246058664,0.0 -78.82137640541296,33.99219932259516,0.0 -78.82139813416279,33.992188576677265,0.0 -78.82144700322532,33.99216504436133,0.0 -78.82147720283741,33.99212848990354,0.0 -78.82150112664193,33.992127862567905,0.0 -78.82157533288844,33.99216237654909,0.0 -78.82166389310832,33.992185047100804,0.0 -78.82167377720764,33.99218332094385,0.0 -78.82173041143068,33.99218551727799,0.0 -78.82176288741127,33.99218677195192,0.0 -78.82177269163536,33.992188655270986,0.0 -78.82177834028452,33.992195244267755,0.0 -78.82177802612607,33.99223493540827,0.0 -78.82177779053616,33.992271724299506,0.0 -78.82179904918355,33.99227807886416,0.0 -78.82181999234865,33.9923206722547,0.0 -78.82184650685733,33.992361383636194,0.0 -78.82186713687034,33.99236993453283,0.0 -78.82188313848485,33.99237550328972,0.0 -78.82191741789643,33.99237934719949,0.0 -78.82196573701533,33.992384838686164,0.0 -78.8220329613996,33.992421391837034,0.0 -78.82206378981645,33.992424059654674,0.0 -78.82206998595643,33.992442179067716,0.0 -78.82207077047411,33.99244782640483,0.0 -78.82209571589722,33.992465084049385,0.0 -78.82210544156041,33.992471751626915,0.0 -78.822160586832,33.99250995235368,0.0 -78.82219666974053,33.99253246574149,0.0 -78.8221813741368,33.99255042930208,0.0 -78.8221623134102,33.99261435867624,0.0 -78.8221683523517,33.99262330116641,0.0 -78.82215776362939,33.992620477497695,0.0 -78.82215015442542,33.992620320335966,0.0 -78.82211556203396,33.99262424282451,0.0 -78.82209163692879,33.99262698791172,0.0 -78.82206873205901,33.99262965572778,0.0 -78.82205853494543,33.9926308318195,0.0 -78.8220186869452,33.99266181621102,0.0 -78.8219584433163,33.992672719289565,0.0 -78.82192094862454,33.99266111029148,0.0 -78.82185921463157,33.992682839179,0.0 -78.8218482330163,33.99268221184233,0.0</coordinates>
                    </LinearRing>
                </outerBoundaryIs>
            </Polygon>
        </Placemark>
        <Placemark id="4933">
            <name>Flood_536</name>
            <styleUrl>#4938</styleUrl>
            <Polygon id="4932">
                <outerBoundaryIs>
                    <LinearRing id="4936">
                        <coordinates>-78.82392834722187,33.99307936295178,0.0 -78.8238340611237,33.99305951738088,0.0 -78.8238297457625,33.993062732643295,0.0 -78.82381766665588,33.993065792053855,0.0 -78.8238020566152,33.993055516310264,0.0 -78.82378574054785,33.993017550018656,0.0 -78.82374346017278,33.992972288813256,0.0 -78.82374848010393,33.99296060123583,0.0 -78.82373349872759,33.99295550265432,0.0 -78.82371223983597,33.9928889840455,0.0 -78.8237032973165,33.992872119305744,0.0 -78.82369294295825,33.99285266533021,0.0 -78.82373640049191,33.992839408757874,0.0 -78.82376354072989,33.99280818862482,0.0 -78.82383853102523,33.99273382634926,0.0 -78.82392975766997,33.992739709430566,0.0 -78.82393807278699,33.99273963084995,0.0 -78.82394599500003,33.99273908209448,0.0 -78.82394968170367,33.992732335936864,0.0 -78.82393870003354,33.99271821628491,0.0 -78.8238562586812,33.99271288195944,0.0 -78.82383868678652,33.99271170586707,0.0 -78.82378848427209,33.992685192719456,0.0 -78.82378150365311,33.9926706801637,0.0 -78.82376801128156,33.99264251944043,0.0 -78.82375569637622,33.99263145919896,0.0 -78.82374236116783,33.99260384723132,0.0 -78.82369655122305,33.99255882176765,0.0 -78.82365121144758,33.9925129332253,0.0 -78.82361253947666,33.992530112286794,0.0 -78.82354696269294,33.992500854050775,0.0 -78.82347291363402,33.99247237900252,0.0 -78.82344883132662,33.99246500550776,0.0 -78.82340670813164,33.992424687030926,0.0 -78.82337972477895,33.99238828973426,0.0 -78.82335211287693,33.992374954579354,0.0 -78.82331171590639,33.99235299125712,0.0 -78.82332944378813,33.992387426654105,0.0 -78.82325178686045,33.99242813803116,0.0 -78.82317240370723,33.99245025851139,0.0 -78.82315216532528,33.992451121589426,0.0 -78.82305584019188,33.99246265200278,0.0 -78.82305285937677,33.992463123487184,0.0 -78.82297465215323,33.99244672892002,0.0 -78.82295512085561,33.992413469614625,0.0 -78.8228689916812,33.99246179022838,0.0 -78.82286248132023,33.992468222062996,0.0 -78.82285471626501,33.99246806490134,0.0 -78.82279360961627,33.99249253887589,0.0 -78.82275446750245,33.992516934270384,0.0 -78.82268332055743,33.99245857365073,0.0 -78.8227570563071,33.9924142541066,0.0 -78.82279227590026,33.99237801397286,0.0 -78.82275909514227,33.99233440034268,0.0 -78.82272834515305,33.992294394878925,0.0 -78.82271030422511,33.99225172290856,0.0 -78.82272199158868,33.99221179471718,0.0 -78.8227627027074,33.992191243231616,0.0 -78.82281533710969,33.99217445707435,0.0 -78.82282027833072,33.99213107918775,0.0 -78.82282294599565,33.992096799642866,0.0 -78.82286389166083,33.99210433030014,0.0 -78.82296178725872,33.99213319694423,0.0 -78.82296233599459,33.99212896013184,0.0 -78.82305576025561,33.992130607711644,0.0 -78.82306132900585,33.992135078956856,0.0 -78.82315891037021,33.99218559590849,0.0 -78.82324166583126,33.99213845269708,0.0 -78.82325939351703,33.99212480322059,0.0 -78.8233437967532,33.992128098376575,0.0 -78.82335838782093,33.992126763813914,0.0 -78.82341541485309,33.992106133748585,0.0 -78.82345824374511,33.99209311291908,0.0 -78.82348711022372,33.99208417043029,0.0 -78.8235578639709,33.9920699722002,0.0 -78.8235710419178,33.99207279586915,0.0 -78.82365669982393,33.99207671836162,0.0 -78.82367089798973,33.992075385108784,0.0 -78.82368117364098,33.99206369753161,0.0 -78.82365826856227,33.99201514117299,0.0 -78.82363763844313,33.991980470033674,0.0 -78.8236151262798,33.99193520882809,0.0 -78.82361606647251,33.9918976354404,0.0 -78.82366203326512,33.99186555353969,0.0 -78.82374855433011,33.991890026209475,0.0 -78.82372274691522,33.99181699718451,0.0 -78.82373992582765,33.99179832770765,0.0 -78.82376283069885,33.99179589694405,0.0 -78.82383374166419,33.991795661204854,0.0 -78.8238624509122,33.99176946107302,0.0 -78.82389006286992,33.99179644570508,0.0 -78.82392449821513,33.99182052677862,0.0 -78.82392677322899,33.991847825732584,0.0 -78.82395877783952,33.99187669237384,0.0 -78.82400921625965,33.99194352399725,0.0 -78.82402914050185,33.99198737336828,0.0 -78.82403510240951,33.992054755054994,0.0 -78.8239546216016,33.99204063540029,0.0 -78.8239295977802,33.99206809020502,0.0 -78.82389704467715,33.99210331009771,0.0 -78.82385366703461,33.9921170381538,0.0 -78.82380825014786,33.992110447846244,0.0 -78.82382252574506,33.9921486498803,0.0 -78.8237520079782,33.992221600320946,0.0 -78.82374071203829,33.9922202670671,0.0 -78.82373490760298,33.99222960115084,0.0 -78.82369576557394,33.992275019515745,0.0 -78.82366430997217,33.992308906155245,0.0 -78.8236675268407,33.99238515175154,0.0 -78.8237478504337,33.992386093413415,0.0 -78.82381907568896,33.99237832701773,0.0 -78.82384394110301,33.99236648227947,0.0 -78.82393407030645,33.99238821117045,0.0 -78.82394568058615,33.9923940156691,0.0 -78.82397729219628,33.99239880123793,0.0 -78.82394520917885,33.99241252798499,0.0 -78.82389132014903,33.99243911971046,0.0 -78.82383923585729,33.99246767333558,0.0 -78.82383366587113,33.992481321502765,0.0 -78.8238078588577,33.99250689429865,0.0 -78.82383915736268,33.992488773577726,0.0 -78.82391093148263,33.992508461987605,0.0 -78.82394262184769,33.99255623384808,0.0 -78.82395399509883,33.992567529831824,0.0 -78.82398568675822,33.99261153505474,0.0 -78.82405738237173,33.99264950134772,0.0 -78.82410209340179,33.992670367158155,0.0 -78.82410742771238,33.99267287650376,0.0 -78.82412766608756,33.99267036715879,0.0 -78.824136764385,33.992669189757464,0.0 -78.82415904193653,33.99267028857884,0.0 -78.8242086955997,33.99267271934472,0.0 -78.82423575868444,33.99267036716144,0.0 -78.82428996109265,33.992734139373155,0.0 -78.82433192846875,33.992782695731115,0.0 -78.82435608815874,33.9928177584637,0.0 -78.82437907178745,33.99285909717902,0.0 -78.82437169849315,33.992900514474506,0.0 -78.82432855528168,33.99291392820824,0.0 -78.82429074646339,33.99295024692195,0.0 -78.82425882067614,33.99298099687982,0.0 -78.82424791771228,33.99299786161892,0.0 -78.8242272091966,33.993008294523236,0.0 -78.82413755013621,33.9929788791263,0.0 -78.82412931353277,33.992962484561566,0.0 -78.82411331195259,33.99296522964889,0.0 -78.82403055625105,33.99295299331444,0.0 -78.82400788713143,33.99295785615298,0.0 -78.82401400469335,33.992976760063094,0.0 -78.82397760902398,33.993015746593755,0.0 -78.82396952982126,33.99305841856217,0.0 -78.82395721374816,33.993082265201394,0.0 -78.82392834722187,33.99307936295178,0.0</coordinates>
                    </LinearRing>
                </outerBoundaryIs>
            </Polygon>
        </Placemark>
        <Placemark id="4942">
            <name>Flood_537</name>
            <styleUrl>#4947</styleUrl>
            <Polygon id="4941">
                <outerBoundaryIs>
                    <LinearRing id="4945">
                        <coordinates>-78.78610674168597,33.99271837255556,0.0 -78.78604108502705,33.992697192404556,0.0 -78.7860170826422,33.99269766388892,0.0 -78.78594130754215,33.99269609489016,0.0 -78.78592640314413,33.99263271291263,0.0 -78.78591997128807,33.992622751484205,0.0 -78.78585862974354,33.99254901648276,0.0 -78.78582372284833,33.99251544282773,0.0 -78.78579571916109,33.99246539732394,0.0 -78.78575077215778,33.99240138800846,0.0 -78.78576371425805,33.99238240550281,0.0 -78.78580850501943,33.99236734418088,0.0 -78.78582419327105,33.99230098268143,0.0 -78.78581768152483,33.99229101994331,0.0 -78.78582944764771,33.99229415793769,0.0 -78.78591306635354,33.9922896866919,0.0 -78.78595981771105,33.992277607512214,0.0 -78.78602806214893,33.992271095784155,0.0 -78.78604837788704,33.99228764752414,0.0 -78.78604806496055,33.992304983761954,0.0 -78.78612501636569,33.99235063659947,0.0 -78.78616564893917,33.99234075244368,0.0 -78.78622440217313,33.99233432060576,0.0 -78.78625656252287,33.992335496699646,0.0 -78.78632386525209,33.99231816177367,0.0 -78.7863378277001,33.99232184852417,0.0 -78.7864222310273,33.99234310594721,0.0 -78.78649047563093,33.99237024645351,0.0 -78.78652028385602,33.99238138528506,0.0 -78.78654703139287,33.99239636802808,0.0 -78.78655087541509,33.992422802614584,0.0 -78.78658687993011,33.99247951700978,0.0 -78.7865820959622,33.99253426950269,0.0 -78.78651424452367,33.99256046834482,0.0 -78.78644450975725,33.992583137598665,0.0 -78.78641580045894,33.99259443359019,0.0 -78.78634065292516,33.99264008773268,0.0 -78.78631500308425,33.99266354148632,0.0 -78.78630566896193,33.99264753850288,0.0 -78.78621577438932,33.992669894742875,0.0 -78.78611811489223,33.992718606988625,0.0 -78.78611858638715,33.99272111764574,0.0 -78.78611544841277,33.99272182356332,0.0 -78.78610674168597,33.99271837255556,0.0</coordinates>
                    </LinearRing>
                </outerBoundaryIs>
            </Polygon>
        </Placemark>
        <Placemark id="4951">
            <name>Flood_538</name>
            <styleUrl>#4956</styleUrl>
            <Polygon id="4950">
                <outerBoundaryIs>
                    <LinearRing id="4954">
                        <coordinates>-78.79066717599376,33.992799872749,0.0 -78.79063273918244,33.992747082160705,0.0 -78.79050856625578,33.99271437158631,0.0 -78.79048958377683,33.992699781749025,0.0 -78.79053656929949,33.99263240001596,0.0 -78.79056692585995,33.992557330460066,0.0 -78.79056873055717,33.99255050702651,0.0 -78.7905648080413,33.99254148594957,0.0 -78.7905004071026,33.992466809295074,0.0 -78.79050911353221,33.99240884023236,0.0 -78.79053037072808,33.99238491499599,0.0 -78.79051632957571,33.992355499579325,0.0 -78.79048832587547,33.9923016887499,0.0 -78.79054339225688,33.99226999842108,0.0 -78.79062379419284,33.992221599193776,0.0 -78.79060536037822,33.99218865418888,0.0 -78.79066285766227,33.992187633950124,0.0 -78.79068403762552,33.99217155369797,0.0 -78.79075400666801,33.99211609529461,0.0 -78.79078538365653,33.99208071821562,0.0 -78.79083488024858,33.992101191137465,0.0 -78.79088398381892,33.99209687705294,0.0 -78.79093583362831,33.99206220589239,0.0 -78.79092493035282,33.99201184607113,0.0 -78.7910412593429,33.99198164616126,0.0 -78.79096532677372,33.991916382177536,0.0 -78.79098297715636,33.991898105591886,0.0 -78.79098078080351,33.99189182960457,0.0 -78.79102329506324,33.99181636845606,0.0 -78.79106212415768,33.99179401221774,0.0 -78.79109075475779,33.99175792922149,0.0 -78.79112526861779,33.991764596804614,0.0 -78.79118919909868,33.99178012830408,0.0 -78.79121673244533,33.99179652288124,0.0 -78.79126418889548,33.99188539777701,0.0 -78.79127015061532,33.99190320418842,0.0 -78.79128482030983,33.99191167520006,0.0 -78.79134239630831,33.99193842410937,0.0 -78.79138279324636,33.991950190277265,0.0 -78.79142679977235,33.99198846960981,0.0 -78.79142538812236,33.99202549426703,0.0 -78.791379813007,33.99207020674493,0.0 -78.79147676719815,33.99214637381564,0.0 -78.79152014471109,33.99210785874407,0.0 -78.79157701593849,33.99210001507186,0.0 -78.79163851299882,33.99210589815723,0.0 -78.79166604651515,33.99215766981342,0.0 -78.79166385037131,33.992194850322356,0.0 -78.791635455554,33.99223964138154,0.0 -78.79168322657863,33.99238138544332,0.0 -78.79168448132916,33.992398721679116,0.0 -78.79168338391705,33.99241833151955,0.0 -78.79166761680341,33.9924279799325,0.0 -78.79158988118597,33.99243974609642,0.0 -78.79156736937951,33.99247559466019,0.0 -78.79149904649921,33.992510893156975,0.0 -78.7915249324694,33.99256752896507,0.0 -78.79146563052414,33.992582746136904,0.0 -78.7913959742608,33.99258988389171,0.0 -78.79136569605123,33.99261757445793,0.0 -78.79130451207756,33.992627065708234,0.0 -78.79126584014874,33.99265028502631,0.0 -78.79118849743527,33.99266236420425,0.0 -78.79116614138069,33.99267750410607,0.0 -78.79108667986998,33.99274237518069,0.0 -78.79103992987382,33.99276535875648,0.0 -78.79096588092644,33.99276433982361,0.0 -78.79089340127607,33.99282717172684,0.0 -78.79086492642264,33.99284144723977,0.0 -78.79077542489168,33.99289314031329,0.0 -78.79076460042853,33.99289078812756,0.0 -78.79075150103927,33.99288364906084,0.0 -78.79066717599376,33.992799872749,0.0</coordinates>
                    </LinearRing>
                </outerBoundaryIs>
            </Polygon>
        </Placemark>
        <Placemark id="4960">
            <name>Flood_539</name>
            <styleUrl>#4965</styleUrl>
            <Polygon id="4959">
                <outerBoundaryIs>
                    <LinearRing id="4963">
                        <coordinates>-78.81086752057087,33.99340520971627,0.0 -78.81085159609563,33.993369754070315,0.0 -78.81082547480844,33.99340442521787,0.0 -78.81078484230706,33.99343188003079,0.0 -78.81075079868354,33.99343878335165,0.0 -78.8107236581614,33.99340270036888,0.0 -78.8107200498926,33.993375637149676,0.0 -78.8107507195872,33.99332064894262,0.0 -78.810749622065,33.99331704077529,0.0 -78.81075401469151,33.993312805271465,0.0 -78.81077417417228,33.99323859882595,0.0 -78.81080766758137,33.99319694708629,0.0 -78.81082429764164,33.99315702019443,0.0 -78.81085732099965,33.993143213552635,0.0 -78.8108841483205,33.993135918637755,0.0 -78.81095709835414,33.99311481839096,0.0 -78.81104456081371,33.99307842108686,0.0 -78.81104793449924,33.9930707332678,0.0 -78.81101475359169,33.99299542931038,0.0 -78.81096117728997,33.992954953661744,0.0 -78.81087991185284,33.992910555522045,0.0 -78.8108833627735,33.99289470970876,0.0 -78.81089293237085,33.992851801986234,0.0 -78.8109056400319,33.99282858398667,0.0 -78.81092964360174,33.992799481597025,0.0 -78.81096486338559,33.992809287168946,0.0 -78.81101702646593,33.99283054457939,0.0 -78.81102918559733,33.9928585481486,0.0 -78.8110419721381,33.992903966527216,0.0 -78.81104463867517,33.99291353635601,0.0 -78.8110607975047,33.992931264179155,0.0 -78.81111704026078,33.99296232716071,0.0 -78.81115877173843,33.992971504086235,0.0 -78.8111750088834,33.992928440512145,0.0 -78.8111903045067,33.99291604570491,0.0 -78.81119571737388,33.99291290902241,0.0 -78.81126019636777,33.99287533431653,0.0 -78.81132396825906,33.99286553005647,0.0 -78.81135911078735,33.992878865214614,0.0 -78.8114228842108,33.99292020394212,0.0 -78.8114481426076,33.992927734600094,0.0 -78.81145684932858,33.99293032252713,0.0 -78.81147034159395,33.99293228311773,0.0 -78.81147630321526,33.99292938086784,0.0 -78.81149261909344,33.992921380035696,0.0 -78.81155686237445,33.992890238476015,0.0 -78.81160455392208,33.99284089891856,0.0 -78.81165883566804,33.99277336005397,0.0 -78.81171515717126,33.99284285951121,0.0 -78.8117549269141,33.992887963566595,0.0 -78.81181830729786,33.99289769055801,0.0 -78.8118536842065,33.99289925955479,0.0 -78.81189337660929,33.99292844052588,0.0 -78.81189714203134,33.99295393343873,0.0 -78.81189902409244,33.99296781735174,0.0 -78.8118519596603,33.99296695558177,0.0 -78.81181038541847,33.992975034994245,0.0 -78.81178347963275,33.99300900022368,0.0 -78.81178818673402,33.993039984622804,0.0 -78.81179877697912,33.99309175625628,0.0 -78.81174904486507,33.99311921106823,0.0 -78.8117140594301,33.9930902658396,0.0 -78.81172590385206,33.99302916012019,0.0 -78.8116288716268,33.993070027359884,0.0 -78.81162761704067,33.99308869684205,0.0 -78.81162675424301,33.99315247037907,0.0 -78.81161200739909,33.99317090411884,0.0 -78.81161122336982,33.993277898391355,0.0 -78.81159278996546,33.99333555310521,0.0 -78.81157286600167,33.993358458091,0.0 -78.81154415677979,33.99338873657281,0.0 -78.81146312572722,33.993333200919366,0.0 -78.811446732517,33.99332708209615,0.0 -78.81143943632439,33.99332676777304,0.0 -78.81144069232758,33.99333280801517,0.0 -78.8113457779812,33.993404896707275,0.0 -78.81128012265114,33.993385049822315,0.0 -78.81125031423964,33.99332951416899,0.0 -78.81124874523745,33.993326454757586,0.0 -78.81118497164356,33.99324589505606,0.0 -78.8111711660781,33.99317780743375,0.0 -78.81115916416489,33.9931629032799,0.0 -78.81116230211299,33.993156078539684,0.0 -78.81115414414793,33.99315411794922,0.0 -78.81107601683969,33.99314423379623,0.0 -78.81105632703708,33.993105091402164,0.0 -78.81103452121515,33.99316070694547,0.0 -78.81103718777375,33.993175218195375,0.0 -78.81105381814206,33.9932058895818,0.0 -78.81112363055954,33.9932677798012,0.0 -78.8111513209741,33.99326479897078,0.0 -78.8112463917671,33.993329435588215,0.0 -78.8112068581707,33.99337736331215,0.0 -78.81120646541595,33.99341117138085,0.0 -78.81118356066712,33.99344137128215,0.0 -78.81116928545059,33.99349298706408,0.0 -78.8111674022214,33.9935116552368,0.0 -78.81114489026231,33.99351604790205,0.0 -78.81109994216126,33.99349180966161,0.0 -78.81104723029281,33.99346239425774,0.0 -78.81100040022915,33.99344694134792,0.0 -78.81094878597251,33.99344168560333,0.0 -78.81086752057087,33.99340520971627,0.0</coordinates>
                    </LinearRing>
                </outerBoundaryIs>
            </Polygon>
        </Placemark>
    </Document>
</kml>
