<?xml version="1.0" encoding="UTF-8"?>
<kml xmlns="http://www.opengis.net/kml/2.2" xmlns:gx="http://www.google.com/kml/ext/2.2">
    <Document id="3313">
        <Style id="3320">
            <LineStyle id="3322">
                <colorMode>normal</colorMode>
                <width>1</width>
            </LineStyle>
            <PolyStyle id="3321">
                <color>80ebce87</color>
                <colorMode>normal</colorMode>
                <fill>1</fill>
                <outline>1</outline>
            </PolyStyle>
        </Style>
        <Style id="3329">
            <LineStyle id="3331">
                <colorMode>normal</colorMode>
                <width>1</width>
            </LineStyle>
            <PolyStyle id="3330">
                <color>80ebce87</color>
                <colorMode>normal</colorMode>
                <fill>1</fill>
                <outline>1</outline>
            </PolyStyle>
        </Style>
        <Style id="3338">
            <LineStyle id="3340">
                <colorMode>normal</colorMode>
                <width>1</width>
            </LineStyle>
            <PolyStyle id="3339">
                <color>80ebce87</color>
                <colorMode>normal</colorMode>
                <fill>1</fill>
                <outline>1</outline>
            </PolyStyle>
        </Style>
        <Style id="3347">
            <LineStyle id="3349">
                <colorMode>normal</colorMode>
                <width>1</width>
            </LineStyle>
            <PolyStyle id="3348">
                <color>80ebce87</color>
                <colorMode>normal</colorMode>
                <fill>1</fill>
                <outline>1</outline>
            </PolyStyle>
        </Style>
        <Style id="3356">
            <LineStyle id="3358">
                <colorMode>normal</colorMode>
                <width>1</width>
            </LineStyle>
            <PolyStyle id="3357">
                <color>80ebce87</color>
                <colorMode>normal</colorMode>
                <fill>1</fill>
                <outline>1</outline>
            </PolyStyle>
        </Style>
        <Style id="3365">
            <LineStyle id="3367">
                <colorMode>normal</colorMode>
                <width>1</width>
            </LineStyle>
            <PolyStyle id="3366">
                <color>80ebce87</color>
                <colorMode>normal</colorMode>
                <fill>1</fill>
                <outline>1</outline>
            </PolyStyle>
        </Style>
        <Style id="3374">
            <LineStyle id="3376">
                <colorMode>normal</colorMode>
                <width>1</width>
            </LineStyle>
            <PolyStyle id="3375">
                <color>80ebce87</color>
                <colorMode>normal</colorMode>
                <fill>1</fill>
                <outline>1</outline>
            </PolyStyle>
        </Style>
        <Style id="3383">
            <LineStyle id="3385">
                <colorMode>normal</colorMode>
                <width>1</width>
            </LineStyle>
            <PolyStyle id="3384">
                <color>80ebce87</color>
                <colorMode>normal</colorMode>
                <fill>1</fill>
                <outline>1</outline>
            </PolyStyle>
        </Style>
        <Style id="3392">
            <LineStyle id="3394">
                <colorMode>normal</colorMode>
                <width>1</width>
            </LineStyle>
            <PolyStyle id="3393">
                <color>80ebce87</color>
                <colorMode>normal</colorMode>
                <fill>1</fill>
                <outline>1</outline>
            </PolyStyle>
        </Style>
        <Style id="3401">
            <LineStyle id="3403">
                <colorMode>normal</colorMode>
                <width>1</width>
            </LineStyle>
            <PolyStyle id="3402">
                <color>80ebce87</color>
                <colorMode>normal</colorMode>
                <fill>1</fill>
                <outline>1</outline>
            </PolyStyle>
        </Style>
        <Placemark id="3315">
            <name>Flood_360</name>
            <styleUrl>#3320</styleUrl>
            <Polygon id="3314">
                <outerBoundaryIs>
                    <LinearRing id="3318">
                        <coordinates>-78.6632505798471,33.852281289179096,0.0 -78.66324132308127,33.85228050469541,0.0 -78.66323904818003,33.85228034753726,0.0 -78.6632368518583,33.85227995463685,0.0 -78.66323277353682,33.85227932730679,0.0 -78.66322728207777,33.852278386965466,0.0 -78.66322508575576,33.85227791548425,0.0 -78.66322053594955,33.85227658223775,0.0 -78.66321622188492,33.85227540615241,0.0 -78.66321394698133,33.85227462165799,0.0 -78.66320837824604,33.85227218959222,0.0 -78.663203043942,33.85226975752608,0.0 -78.66319080633761,33.852262462631494,0.0 -78.66318021760866,33.852254697559644,0.0 -78.66317049064278,33.85224661685373,0.0 -78.66316876448941,33.852245205022136,0.0 -78.66316092083608,33.85223814586327,0.0 -78.6631588030887,33.8522361852767,0.0 -78.66314123115328,33.852219319254594,0.0 -78.66313950630874,33.85221767299047,0.0 -78.66311369912322,33.85219249313749,0.0 -78.66311126705273,33.852190061066864,0.0 -78.66310452090492,33.85218307917734,0.0 -78.66310303049183,33.852181432912865,0.0 -78.66309628434185,33.852173902267715,0.0 -78.66309440233407,33.852171548777044,0.0 -78.66308859783854,33.852164018130445,0.0 -78.66308349794649,33.85215648748278,0.0 -78.6630821646922,33.85215436973361,0.0 -78.66307314361626,33.852140092934356,0.0 -78.6630660844443,33.852129817202126,0.0 -78.66306451544932,33.852127778033925,0.0 -78.6630507101252,33.852109344320276,0.0 -78.66304929829113,33.85210738373265,0.0 -78.66302160774016,33.85206714257177,0.0 -78.66301980431206,33.85206463191939,0.0 -78.66301337117001,33.85205608234348,0.0 -78.66300646916525,33.852047532768196,0.0 -78.66300482159001,33.8520454922905,0.0 -78.66299101496395,33.85202909905702,0.0 -78.66298929011792,33.852027058579445,0.0 -78.66298309271953,33.852019214920155,0.0 -78.66298136787302,33.852017018590786,0.0 -78.66297462171576,33.852007527355966,0.0 -78.66296724821932,33.851996388545565,0.0 -78.66296583638415,33.851994113635,0.0 -78.66294716689224,33.8519636780286,0.0 -78.66294567647638,33.851961324537356,0.0 -78.66293916605805,33.85195128454656,0.0 -78.66293759706163,33.85194885247471,0.0 -78.6629312424981,33.85193983141407,0.0 -78.66292292865911,33.85192924267049,0.0 -78.6629144563549,33.85191998587084,0.0 -78.66291257434939,33.85191825971655,0.0 -78.66290857328762,33.85191473013714,0.0 -78.66290386630983,33.851910494641835,0.0 -78.66290206288622,33.85190916139118,0.0 -78.66289186444,33.851901473589926,0.0 -78.66288951226251,33.85189982601707,0.0 -78.66288009831501,33.85189347277767,0.0 -78.66287798057006,33.85189213952748,0.0 -78.66286731326541,33.851885550547685,0.0 -78.6628648026175,33.85188390297516,0.0 -78.6628287197584,33.85186240988504,0.0 -78.66281663931336,33.851854722086685,0.0 -78.66281467872936,33.85185346741697,0.0 -78.66280605058635,33.85184742718972,0.0 -78.66280401011177,33.851846015358625,0.0 -78.66279459746856,33.851838250285105,0.0 -78.66278942031522,33.85183315040224,0.0 -78.66278690966388,33.851830562479954,0.0 -78.66278455748262,33.85182789597672,0.0 -78.66278196824557,33.85182389491079,0.0 -78.66277930173793,33.85181989384489,0.0 -78.66277828149478,33.851817618933744,0.0 -78.66277710539637,33.851814246511545,0.0 -78.66277522206587,33.85180844201621,0.0 -78.66277459471341,33.85180326485538,0.0 -78.66277396735998,33.851797851952234,0.0 -78.6627743589099,33.8517867131301,0.0 -78.6627746732208,33.85178396804198,0.0 -78.6627760850109,33.85177431963322,0.0 -78.66277663375381,33.85177173039654,0.0 -78.66277906577645,33.85176153323067,0.0 -78.66278275245973,33.851749924228656,0.0 -78.66278745937616,33.85173792232124,0.0 -78.66278847829335,33.851735883149196,0.0 -78.6627928708997,33.85172686207213,0.0 -78.66279687192328,33.851720273069986,0.0 -78.66280008845882,33.85171517448399,0.0 -78.66280855937809,33.8517045058243,0.0 -78.66281310916288,33.85170019173395,0.0 -78.66281663871689,33.851696897885425,0.0 -78.66281899219007,33.851694857401625,0.0 -78.66282346339811,33.85169148497086,0.0 -78.66282950358915,33.85168701371679,0.0 -78.66284024942321,33.85168011038127,0.0 -78.6628422898876,33.85167885570553,0.0 -78.66285295714427,33.851672736867904,0.0 -78.66285499629966,33.851671639353675,0.0 -78.66286707669194,33.85166536335237,0.0 -78.66288025458866,33.85165885291694,0.0 -78.66288307823672,33.8516575196591,0.0 -78.66289398254818,33.8516524996421,0.0 -78.66289704062737,33.85165108780319,0.0 -78.66292120142016,33.85164073344236,0.0 -78.66292426080929,33.85163939887462,0.0 -78.66293688995891,33.851634378854875,0.0 -78.66293924212691,33.85163351577259,0.0 -78.66294967496079,33.851629671848215,0.0 -78.66295218559898,33.85162881007549,0.0 -78.662965127763,33.85162449466262,0.0 -78.66296803130294,33.851623632889286,0.0 -78.66297838555978,33.851620652043515,0.0 -78.66298105204984,33.851620024703074,0.0 -78.66299430854015,33.85161704385286,0.0 -78.66299689776021,33.85161657236442,0.0 -78.66300764361412,33.851614924771475,0.0 -78.6630099970941,33.85161469033525,0.0 -78.66304725594252,33.851610767788905,0.0 -78.66305047249517,33.85161021902842,0.0 -78.66305972925177,33.85160857143776,0.0 -78.66307016077899,33.85160551201115,0.0 -78.6630743189804,33.85160347283427,0.0 -78.6630769068875,33.85160213957687,0.0 -78.66307879019129,33.85160088359165,0.0 -78.66308373156619,33.85159609932591,0.0 -78.6630852219663,33.851594294585645,0.0 -78.66308890867056,33.85158825433958,0.0 -78.66309032048709,33.85158558783047,0.0 -78.66309290968637,33.85157962616681,0.0 -78.66309400718244,33.85157719409079,0.0 -78.66309965574646,33.851563467334465,0.0 -78.66310083182313,33.851561113839125,0.0 -78.66310451852563,33.851554603418144,0.0 -78.6631062446653,33.851552407083474,0.0 -78.66311040154682,33.85154770009002,0.0 -78.66311659889885,33.85154330741648,0.0 -78.66311942254609,33.85154173841639,0.0 -78.66312781622219,33.85153836597958,0.0 -78.66313071845269,33.851537581477245,0.0 -78.66313668007496,33.85153616963395,0.0 -78.66313918940531,33.851535776726344,0.0 -78.66314868059601,33.85153483636209,0.0 -78.66315809452028,33.851535070780244,0.0 -78.66316091817495,33.85153546367966,0.0 -78.66316711423896,33.85153679692357,0.0 -78.663170016476,33.851537738578514,0.0 -78.66317660675908,33.851541110992315,0.0 -78.66317825302269,33.85154260140473,0.0 -78.66318201834638,33.851546915482196,0.0 -78.66318335160165,33.851549268973685,0.0 -78.66318437184478,33.85155154388494,0.0 -78.66318531350713,33.85155366163471,0.0 -78.66318609801057,33.851556250869365,0.0 -78.66318719554043,33.85156276128293,0.0 -78.66318735271159,33.851565506370356,0.0 -78.6631871169857,33.85156950744063,0.0 -78.66318672541092,33.85157405726687,0.0 -78.66318539218705,33.85157994034782,0.0 -78.66318358748313,33.85158637218521,0.0 -78.66317950920111,33.85159617775965,0.0 -78.6631784889746,33.85159829551253,0.0 -78.66317315471849,33.85160849268302,0.0 -78.66316680153984,33.851619317191336,0.0 -78.66316554688161,33.85162135767348,0.0 -78.6631598197192,33.85163030017186,0.0 -78.66315840790088,33.851632496506134,0.0 -78.66312820833774,33.85167665893512,0.0 -78.66312656077994,33.85167924686378,0.0 -78.6631129127648,33.85169995553224,0.0 -78.66311142236655,33.85170223044735,0.0 -78.66310577378553,33.851711487268624,0.0 -78.66310428338751,33.85171384076444,0.0 -78.6630979302109,33.85172521402838,0.0 -78.6630882819259,33.85174364777796,0.0 -78.66308349641434,33.851751727196195,0.0 -78.66308216317552,33.851753689097734,0.0 -78.66307690748697,33.851760513844056,0.0 -78.66307228043213,33.851764985095976,0.0 -78.66306827939827,33.851768827700866,0.0 -78.66306647467592,33.85177039669937,0.0 -78.66305690492814,33.85177745719454,0.0 -78.66302278412212,33.8517993419862,0.0 -78.66301399755649,33.85180593099578,0.0 -78.6630118798234,33.851807735736905,0.0 -78.66300795867983,33.851811656922465,0.0 -78.66300568378814,33.85181401041948,0.0 -78.66300403622705,33.85181573657917,0.0 -78.66300270298791,33.85181761859028,0.0 -78.66299940787198,33.85182271848604,0.0 -78.66299634850195,33.85182907174462,0.0 -78.6629955640166,33.85183126807774,0.0 -78.66299383919761,33.85183636666156,0.0 -78.66299203449908,33.85184421033306,0.0 -78.66299117145807,33.851852918391344,0.0 -78.66299125004728,33.85185527188475,0.0 -78.6629914858022,33.85185895863144,0.0 -78.66299187740341,33.85186138939537,0.0 -78.66299415232498,33.851866959457524,0.0 -78.66299674155732,33.85186970454113,0.0 -78.6629992508948,33.85187119495224,0.0 -78.66300333052746,33.8518722151861,0.0 -78.66300583986022,33.851872449614866,0.0 -78.66301384195533,33.85187197942779,0.0 -78.66302411763571,33.85187001882229,0.0 -78.66305784690103,33.85186162503668,0.0 -78.66306051470109,33.85186107627705,0.0 -78.6630700058884,33.85185927152455,0.0 -78.66307243663887,33.851858958507606,0.0 -78.66307737933982,33.85185848701549,0.0 -78.66308177197878,33.85185809541465,0.0 -78.66308459563169,33.85185801682961,0.0 -78.66308930259426,33.851858251255024,0.0 -78.66309345949469,33.85185848699089,0.0 -78.66309636172997,33.85185895847101,0.0 -78.66310530418014,33.851861232060344,0.0 -78.66311487396949,33.851865154534906,0.0 -78.66311707029386,33.85186625335245,0.0 -78.66312569843276,33.85187119475884,0.0 -78.66313268031267,33.85187582315452,0.0 -78.66313503380009,33.85187754799838,0.0 -78.66314334893212,33.85188374538768,0.0 -78.66315236867136,33.85189088312549,0.0 -78.66315448641782,33.85189260927953,0.0 -78.66316350746885,33.85190029708261,0.0 -78.66317127385093,33.85190719908012,0.0 -78.6631734701788,33.85190923955705,0.0 -78.66318162815767,33.851917397536305,0.0 -78.66318970756004,33.85192657444615,0.0 -78.6631911193934,33.85192837918189,0.0 -78.66319323714494,33.85193143858926,0.0 -78.66319590365292,33.851935516926275,0.0 -78.66320014047812,33.851944929584235,0.0 -78.66320084640063,33.85194736165751,0.0 -78.66320123800175,33.851949793731166,0.0 -78.66320178807716,33.85195324473505,0.0 -78.6632020225207,33.85195646130683,0.0 -78.66320194396704,33.851963520477845,0.0 -78.66320084652037,33.85197897338447,0.0 -78.66320084652928,33.851981326878004,0.0 -78.6632017096279,33.85198783729203,0.0 -78.66320304288745,33.851991368185075,0.0 -78.66320445472212,33.85199348593422,0.0 -78.66320853305467,33.85199701551344,0.0 -78.66321135802346,33.85199858450479,0.0 -78.66321716250036,33.85200117242207,0.0 -78.6632354389971,33.85200689962135,0.0 -78.66323771390037,33.85200760553494,0.0 -78.66324712652705,33.85201097794451,0.0 -78.66325544165018,33.8520148218403,0.0 -78.66325771655555,33.85201607650954,0.0 -78.66325975571955,33.85201725390796,0.0 -78.6632625007999,33.85201921449356,0.0 -78.66326720777448,33.85202258691031,0.0 -78.66326909108871,33.852024077322476,0.0 -78.66327583592384,33.85203027471412,0.0 -78.66327803225208,33.852032392462085,0.0 -78.66330336927014,33.85205882698849,0.0 -78.66331333197994,33.852067690882194,0.0 -78.66331811622518,33.85207106460855,0.0 -78.6633237648558,33.85207490850833,0.0 -78.66332925501227,33.85207773216834,0.0 -78.6633339619833,33.85208016292579,0.0 -78.66333670706058,33.85208134032323,0.0 -78.66335874887604,33.852089968456276,0.0 -78.663361651114,33.852091145853386,0.0 -78.6633736529685,33.85209608725478,0.0 -78.66337600645328,33.8520971074913,0.0 -78.66338800830987,33.85210259764825,0.0 -78.66340001016803,33.85210848070896,0.0 -78.66340212791177,33.852109500945836,0.0 -78.66341201071799,33.85211475667341,0.0 -78.66341459994523,33.85211616850361,0.0 -78.66342550298957,33.852122364579415,0.0 -78.66342785647582,33.85212377771968,0.0 -78.66343828934936,33.85213036669986,0.0 -78.6634480163113,33.852137425855965,0.0 -78.66350347466619,33.85221296544908,0.0 -78.66346880380635,33.852237125154225,0.0 -78.66346590027095,33.85223916563887,0.0 -78.66343271981644,33.85226293243806,0.0 -78.66342981759097,33.852265051503416,0.0 -78.66340887468199,33.8522805830211,0.0 -78.66340628546762,33.852282543614834,0.0 -78.66337679173638,33.852305291477876,0.0 -78.66336635891727,33.85231305789146,0.0 -78.66336416260287,33.85231462689046,0.0 -78.663354828594,33.85232113732003,0.0 -78.66334361127912,33.85232835366953,0.0 -78.66334157212432,33.85232960834535,0.0 -78.66333207964207,33.8523353355869,0.0 -78.66332949173545,33.852336826005875,0.0 -78.66330705709831,33.85234929811507,0.0 -78.6632505798471,33.852281289179096,0.0</coordinates>
                    </LinearRing>
                </outerBoundaryIs>
            </Polygon>
        </Placemark>
        <Placemark id="3324">
            <name>Flood_361</name>
            <styleUrl>#3329</styleUrl>
            <Polygon id="3323">
                <outerBoundaryIs>
                    <LinearRing id="3327">
                        <coordinates>-78.89752474244013,33.87706401285962,0.0 -78.89747344083837,33.876961647053776,0.0 -78.89741962995676,33.876885322862854,0.0 -78.89742214049528,33.87683786540607,0.0 -78.89726721721017,33.87672098681063,0.0 -78.89720924819896,33.8766849823314,0.0 -78.89719316790848,33.87665313487099,0.0 -78.8971774791784,33.87660732494293,0.0 -78.89715300647683,33.87657532030045,0.0 -78.89710790239856,33.876528961544736,0.0 -78.89705377733094,33.87651052770405,0.0 -78.8970041234675,33.876478130096025,0.0 -78.89697988517324,33.876435693874974,0.0 -78.89692340643205,33.876340072892056,0.0 -78.89690787484584,33.87628720380376,0.0 -78.89684253225126,33.87620891768612,0.0 -78.89682205932849,33.87618758168389,0.0 -78.89678919159607,33.876155421168534,0.0 -78.89674808859739,33.876116200162784,0.0 -78.89671969207754,33.87607360546009,0.0 -78.89662532700387,33.87598088793644,0.0 -78.89657151621583,33.87594488215644,0.0 -78.89654382554481,33.87587428524652,0.0 -78.89650295696099,33.87582800377106,0.0 -78.89646608945756,33.875788861356014,0.0 -78.89643369316654,33.87573920748258,0.0 -78.89641565080088,33.875632919272505,0.0 -78.89640357152003,33.875578951372866,0.0 -78.89639345157612,33.875550084751815,0.0 -78.89639031487096,33.87553816144249,0.0 -78.89635909461823,33.875467014458806,0.0 -78.89636450609255,33.875420420085554,0.0 -78.8963418368051,33.87538425853087,0.0 -78.89629273160932,33.87531624948899,0.0 -78.896267238707,33.87530048222104,0.0 -78.89622739029849,33.87522823770589,0.0 -78.89622739027237,33.875217334642926,0.0 -78.89622574267685,33.87520823500139,0.0 -78.89628990748794,33.87512516495445,0.0 -78.89630183075766,33.8751123799152,0.0 -78.89631657766907,33.87509033808437,0.0 -78.89638882324691,33.875031741996395,0.0 -78.89641745404916,33.87501126788401,0.0 -78.89643431873641,33.87500091361818,0.0 -78.89650060139819,33.87496051679027,0.0 -78.89655292296449,33.87494624013002,0.0 -78.89661747949329,33.874914785774095,0.0 -78.89671263011726,33.87489917596998,0.0 -78.89672502358951,33.87489823434311,0.0 -78.89673765278043,33.874887567053904,0.0 -78.89684927507923,33.87481555735155,0.0 -78.89689218262173,33.8747739830658,0.0 -78.89691916705179,33.87470793480198,0.0 -78.89693171757717,33.8746615761892,0.0 -78.89696309349037,33.87465255521139,0.0 -78.89698615552825,33.87462463033187,0.0 -78.89704749682173,33.87460203986389,0.0 -78.89711479975979,33.874577094611375,0.0 -78.89712193880284,33.87457419238467,0.0 -78.89720037925646,33.874558190945834,0.0 -78.89731749305543,33.874495595218626,0.0 -78.89736644081971,33.87444986272353,0.0 -78.89742040863078,33.8744270364956,0.0 -78.89745005968847,33.87441338842414,0.0 -78.89746872903429,33.874370480826805,0.0 -78.89752089214444,33.874362008656476,0.0 -78.89756827094392,33.87432812218809,0.0 -78.89762168994662,33.87428246959509,0.0 -78.89764671261425,33.874272506943775,0.0 -78.89772099748441,33.874265526551675,0.0 -78.8978123815047,33.874260898383,0.0 -78.897819990724,33.87425885923483,0.0 -78.89782909035141,33.87425493677453,0.0 -78.897856466408,33.87420214506581,0.0 -78.89785411290062,33.874194692996696,0.0 -78.89797420633967,33.87418426041131,0.0 -78.89819854988508,33.87409154369134,0.0 -78.89852627919495,33.87393505250381,0.0 -78.89880364874553,33.87375448015688,0.0 -78.89901504866525,33.87362301268002,0.0 -78.89929241821991,33.873442440336866,0.0 -78.89958798707826,33.87327379134273,0.0 -78.8997909146292,33.87311126092641,0.0 -78.89986810146215,33.87298136210618,0.0 -78.89990041885116,33.87289280051123,0.0 -78.89991751929563,33.872888329317185,0.0 -78.89992999132538,33.87287711196435,0.0 -78.89999729416407,33.872807221216085,0.0 -78.90001141375652,33.87279114103633,0.0 -78.90003157355747,33.87276525531937,0.0 -78.90004867395241,33.872739291014035,0.0 -78.90013284149643,33.87266594800029,0.0 -78.9001435886784,33.872653397391844,0.0 -78.90015307988939,33.8726449251148,0.0 -78.90017496448341,33.87259652736225,0.0 -78.90020061574376,33.872563189596704,0.0 -78.90027183967523,33.872457841970586,0.0 -78.90029168513173,33.8724223078618,0.0 -78.90030666778762,33.87240010887299,0.0 -78.90033004412919,33.87236253560595,0.0 -78.90034518258594,33.87231829475167,0.0 -78.90039428753863,33.87228189764072,0.0 -78.90041962445035,33.87223702947733,0.0 -78.90044072458218,33.87220337737795,0.0 -78.9005063798333,33.872126740480276,0.0 -78.90054269837334,33.872075282050034,0.0 -78.90070162122882,33.87210862028907,0.0 -78.90073652817262,33.8721599217407,0.0 -78.900779514588,33.872243149211826,0.0 -78.9008294046735,33.872484356501424,0.0 -78.90084132665882,33.87248169002936,0.0 -78.9008341889406,33.87249149556356,0.0 -78.90087874425237,33.87253259858387,0.0 -78.90087325287223,33.87257464313388,0.0 -78.90086564507006,33.87262382672846,0.0 -78.9008751363769,33.872657164583394,0.0 -78.90092604493164,33.872697954606934,0.0 -78.90094063483313,33.87274070512415,0.0 -78.90096369704628,33.87278784832006,0.0 -78.90098573899563,33.87282393129018,0.0 -78.90098997455928,33.87285350380994,0.0 -78.9010133511091,33.872906922979205,0.0 -78.90101860702508,33.87298630645078,0.0 -78.90107681046625,33.873020586087534,0.0 -78.90110991284281,33.87314593536694,0.0 -78.90111242351169,33.87315370175852,0.0 -78.90111971842866,33.873160369343225,0.0 -78.90121714287542,33.87324022322304,0.0 -78.90123604819516,33.873297171960154,0.0 -78.90123424351883,33.87332297914284,0.0 -78.90130060642531,33.873434993373856,0.0 -78.9013233542869,33.873469743093935,0.0 -78.90134884719858,33.87348990301815,0.0 -78.9013739485168,33.87351006294133,0.0 -78.90139599184573,33.873577208832046,0.0 -78.9014439981489,33.87361556677637,0.0 -78.90143984001683,33.873656356658785,0.0 -78.90146298075885,33.87368122224664,0.0 -78.90149106297608,33.87373393551086,0.0 -78.90153263748829,33.873787118983344,0.0 -78.90153475531758,33.87382288888932,0.0 -78.90155813049115,33.87384752004549,0.0 -78.90161531505865,33.873906743787934,0.0 -78.90164167239176,33.873942278013196,0.0 -78.90167461742895,33.873990205729406,0.0 -78.90168230526075,33.874002129048996,0.0 -78.90174411701106,33.87410269145016,0.0 -78.90177784651617,33.87413806853266,0.0 -78.9017918103369,33.87415712960808,0.0 -78.9017947126151,33.874171955160016,0.0 -78.90181173464292,33.87423996411434,0.0 -78.90182318655485,33.87428193012587,0.0 -78.90187276180774,33.87430161993598,0.0 -78.90189684420118,33.874323897603716,0.0 -78.90192939764722,33.8743730799891,0.0 -78.90194626247894,33.87442579322414,0.0 -78.90193190725208,33.874489409442276,0.0 -78.90194296752023,33.87450925500683,0.0 -78.90199089529837,33.87457287138159,0.0 -78.90199968204136,33.874625506015676,0.0 -78.902023841724,33.87465594166192,0.0 -78.9020408636368,33.87467335517108,0.0 -78.90209647922535,33.87473963937709,0.0 -78.90211875690746,33.87477258435973,0.0 -78.90215727063816,33.87479729413373,0.0 -78.90217884238899,33.87482349296796,0.0 -78.90217460692745,33.87483863282425,0.0 -78.90218574589318,33.87491032850399,0.0 -78.90219280515552,33.8749558240837,0.0 -78.90227540525818,33.87499002519769,0.0 -78.90228128835305,33.875001242596525,0.0 -78.90229799597603,33.87503324721692,0.0 -78.90231627391996,33.87507325265833,0.0 -78.90233431474846,33.87508494026159,0.0 -78.90234741419648,33.87511051173914,0.0 -78.9023953433363,33.87519773897087,0.0 -78.90244311390316,33.87523978496281,0.0 -78.90248013859109,33.87529147800902,0.0 -78.90249598444694,33.87532371705914,0.0 -78.90250555432105,33.87535195633983,0.0 -78.90255285474304,33.87540710041055,0.0 -78.9025923101584,33.87544412507958,0.0 -78.90260721438798,33.8754904850652,0.0 -78.9026178830491,33.875504526139586,0.0 -78.9026338061619,33.87553064637847,0.0 -78.90269216685351,33.87560665756108,0.0 -78.90275892120997,33.875658036358324,0.0 -78.90275986299368,33.87571412197078,0.0 -78.9027871606534,33.875740949463484,0.0 -78.90281736051504,33.87574887177525,0.0 -78.90291353025653,33.8758172738276,0.0 -78.90292333582288,33.87582354851479,0.0 -78.90292992481342,33.875825823440174,0.0 -78.90293266991465,33.875833902844704,0.0 -78.90292294295614,33.87583978588979,0.0 -78.90288231049107,33.87595854730352,0.0 -78.90290121575087,33.87599031618669,0.0 -78.90291862927302,33.876015181758405,0.0 -78.90297738275447,33.87604114625191,0.0 -78.90303503739969,33.876059501518924,0.0 -78.9031139495012,33.87611707904685,0.0 -78.90313724735385,33.8761202943618,0.0 -78.90314179725927,33.876159358110186,0.0 -78.90318172413076,33.87618453806009,0.0 -78.90324071211758,33.87624344878944,0.0 -78.9032749916677,33.87627145238892,0.0 -78.90340402772839,33.87632871440822,0.0 -78.90340512657286,33.87634008895594,0.0 -78.90341744177994,33.87648073520319,0.0 -78.90349925611612,33.8765345461059,0.0 -78.9035172982893,33.87656239381331,0.0 -78.90359628894531,33.87660890980778,0.0 -78.90362390093301,33.87663871681558,0.0 -78.90369332178054,33.8766861744439,0.0 -78.90374117087671,33.87670641300127,0.0 -78.90378439293015,33.87674751601171,0.0 -78.90379051175663,33.876754419334425,0.0 -78.90379694357755,33.876753007518424,0.0 -78.9038909166991,33.87669174498854,0.0 -78.90392911752355,33.876765715641014,0.0 -78.90396355425138,33.876801562895785,0.0 -78.90398630210272,33.876833410367965,0.0 -78.90401336409084,33.87689263402955,0.0 -78.90401799254217,33.87691640205946,0.0 -78.9040046575724,33.876989430926805,0.0 -78.90413589114793,33.87699241207516,0.0 -78.90414883339582,33.87700111883985,0.0 -78.9042421008707,33.877061677225036,0.0 -78.90428869538268,33.87712129252765,0.0 -78.90429928553489,33.87716820125518,0.0 -78.90432838664134,33.877205617489196,0.0 -78.9043716086977,33.877248525233725,0.0 -78.90441788885958,33.877295825642356,0.0 -78.90447005329295,33.8772944925194,0.0 -78.90455861375159,33.877338733626225,0.0 -78.90455681034585,33.877347597515765,0.0 -78.90456763482571,33.877347205948894,0.0 -78.90465007784996,33.87742196120498,0.0 -78.9047065551553,33.87746863299318,0.0 -78.90475150204284,33.87750573625288,0.0 -78.90481151022216,33.87754550736142,0.0 -78.90485794876227,33.8775509976413,0.0 -78.90501702863044,33.87752730859408,0.0 -78.9050390705238,33.87754048661807,0.0 -78.90508237005453,33.87767666169881,0.0 -78.90511398179743,33.877707960436986,0.0 -78.90515069339236,33.87772545257272,0.0 -78.9052240364356,33.87764332421829,0.0 -78.90529039794681,33.87772396250245,0.0 -78.90537464427086,33.87774224056068,0.0 -78.90538499866915,33.877784206565515,0.0 -78.90544649716547,33.87778075440756,0.0 -78.90551042776198,33.877791031599315,0.0 -78.90554470597702,33.877808602309564,0.0 -78.90559679182829,33.877806876282705,0.0 -78.9055945171083,33.87789355462834,0.0 -78.90559388985832,33.87793269694254,0.0 -78.90563852252103,33.87801513990748,0.0 -78.90568919645825,33.8779757619738,0.0 -78.90573845733529,33.87797364434649,0.0 -78.90579540606657,33.87799466611066,0.0 -78.90579226954381,33.87806526424,0.0 -78.9057809736568,33.878100798367996,0.0 -78.90583329402361,33.87813750874107,0.0 -78.90587635888647,33.8781666897587,0.0 -78.905881221757,33.87818496631264,0.0 -78.90593056270683,33.87826701638515,0.0 -78.90601857459141,33.878396053832134,0.0 -78.90606916882369,33.8784421768488,0.0 -78.90609654516757,33.878518500959736,0.0 -78.906102115257,33.87853379669049,0.0 -78.90611984308536,33.87855246617867,0.0 -78.90617428120596,33.87859239312273,0.0 -78.90620871797194,33.878647381303246,0.0 -78.90623625018455,33.878731784811265,0.0 -78.9062543709185,33.87875170897083,0.0 -78.90625743036071,33.878768652269045,0.0 -78.90624872238287,33.87879846049541,0.0 -78.90627696175291,33.878851486764525,0.0 -78.90630951516003,33.878886550824625,0.0 -78.90638984037544,33.878935811898565,0.0 -78.90642733525844,33.879000840069416,0.0 -78.90645275097742,33.879059827980825,0.0 -78.90646898844402,33.87910210832106,0.0 -78.90647495014153,33.879124307359874,0.0 -78.90650020737712,33.87917756936316,0.0 -78.90653142753672,33.87921451542538,0.0 -78.90654837089924,33.87924761886082,0.0 -78.90655731341873,33.8792685619266,0.0 -78.90654539016228,33.8792883288519,0.0 -78.90658139593775,33.879351396432256,0.0 -78.9065456261709,33.87941195318866,0.0 -78.90660853666931,33.8794885131257,0.0 -78.90661081163933,33.879516830966175,0.0 -78.90663269644293,33.87956389556963,0.0 -78.90668595861518,33.879670341001365,0.0 -78.90676981343728,33.87973309437391,0.0 -78.90679028635432,33.879754823273316,0.0 -78.9067907578504,33.879760549182016,0.0 -78.90679177679372,33.879767373911044,0.0 -78.90679922891849,33.879796553531236,0.0 -78.90680644684073,33.87993249408605,0.0 -78.90687563199367,33.88000599332211,0.0 -78.90689069330114,33.880016426244765,0.0 -78.90688575059912,33.880025211545764,0.0 -78.90687500471171,33.880030781576,0.0 -78.90682974365038,33.88006074556602,0.0 -78.90677303092006,33.880158641162,0.0 -78.90675867556978,33.8801673478599,0.0 -78.90667372339198,33.88017542705328,0.0 -78.90647401110421,33.88033756589058,0.0 -78.90646922555315,33.880341488361566,0.0 -78.90644961593279,33.880421341937634,0.0 -78.90636984100311,33.880473270437975,0.0 -78.90634591584431,33.88048229012603,0.0 -78.90627524047817,33.88050088082139,0.0 -78.9062103684266,33.88058222470211,0.0 -78.90616738229696,33.88062230857237,0.0 -78.90620166187249,33.88066451037491,0.0 -78.90620832956564,33.88072349824097,0.0 -78.90619962288409,33.8807469532248,0.0 -78.90623107745515,33.88077472107072,0.0 -78.90628198602866,33.88083088537865,0.0 -78.90631446225056,33.880906267842235,0.0 -78.9063572129154,33.88099443670626,0.0 -78.90646114743886,33.88093537052315,0.0 -78.90678079745996,33.88083928028716,0.0 -78.90689367600551,33.88089065918249,0.0 -78.90695305544368,33.88088877731814,0.0 -78.90700710188021,33.8808882286923,0.0 -78.9070522058219,33.880877953074545,0.0 -78.90708711274608,33.880926899713764,0.0 -78.90705008825755,33.88096329685731,0.0 -78.90699384548644,33.880960864653275,0.0 -78.90699478724501,33.8810078519349,0.0 -78.9069783927604,33.88103161991298,0.0 -78.90694858460081,33.881072173988365,0.0 -78.90691312899902,33.8810590745153,0.0 -78.90689822493921,33.88108864698512,0.0 -78.90686394679072,33.88110057020246,0.0 -78.90685280813871,33.88117038250526,0.0 -78.90684535608703,33.8811750108859,0.0 -78.90674942240005,33.88124341115557,0.0 -78.90668078486736,33.881250471460994,0.0 -78.90661756145374,33.88121791798057,0.0 -78.90654994410613,33.8812002686134,0.0 -78.90652641183941,33.88120403387878,0.0 -78.90645126516974,33.88119132590485,0.0 -78.90638717749165,33.881215485363235,0.0 -78.90635266350034,33.88118057846146,0.0 -78.90634450549757,33.881168890884915,0.0 -78.90625390467959,33.88117438214503,0.0 -78.90624182552055,33.88117030247271,0.0 -78.90621774315818,33.88115963509664,0.0 -78.90619154432282,33.88113272903095,0.0 -78.90610415985394,33.881037971075784,0.0 -78.90610243360177,33.88099278852621,0.0 -78.9060617221954,33.8809470571291,0.0 -78.90604783822843,33.8809093266125,0.0 -78.90601183381334,33.8808693997149,0.0 -78.90592743027739,33.880824844303355,0.0 -78.90592060550246,33.88080256668196,0.0 -78.90589220904619,33.880783662736896,0.0 -78.90586961827428,33.8807125943721,0.0 -78.9056801025956,33.88062630847192,0.0 -78.90549497965971,33.880580026664866,0.0 -78.90545246490397,33.88056943782496,0.0 -78.90519133233872,33.88056496596381,0.0 -78.90517438904766,33.880564730181504,0.0 -78.90508143479687,33.88059657737478,0.0 -78.90499805166992,33.880630542338686,0.0 -78.90498432495681,33.88063548371715,0.0 -78.90497844189525,33.88063877885046,0.0 -78.90488289962937,33.880627954141936,0.0 -78.904870034656,33.880620266307226,0.0 -78.90478594537996,33.8805480989749,0.0 -78.90473699744425,33.880516330023,0.0 -78.90468789240988,33.88051303606796,0.0 -78.90459007647878,33.880472403105145,0.0 -78.90449249494515,33.88041608152192,0.0 -78.90440259999637,33.88040102002131,0.0 -78.90439412899653,33.880396784505635,0.0 -78.9043398468903,33.88043027936522,0.0 -78.9042937227525,33.88045953743928,0.0 -78.90414107580506,33.880382272678766,0.0 -78.90422186963994,33.880320931529816,0.0 -78.90422602782073,33.880301241855655,0.0 -78.90425332533503,33.88026406019068,0.0 -78.90429858645149,33.88025990338419,0.0 -78.90433325744245,33.88022060398931,0.0 -78.90430133127917,33.88014443702686,0.0 -78.90429615411091,33.880137533707014,0.0 -78.90429136984166,33.8801287483821,0.0 -78.90428768308682,33.88012231654949,0.0 -78.90424877505338,33.88005422896762,0.0 -78.9042241439228,33.8800379129523,0.0 -78.9042063374426,33.87998708303507,0.0 -78.90419574866843,33.87997084563401,0.0 -78.90419833657451,33.879963785171526,0.0 -78.90416931396534,33.87988793253809,0.0 -78.9041115020524,33.87981898183334,0.0 -78.90407753685679,33.879803920466,0.0 -78.90405219977436,33.879771445653695,0.0 -78.90401493935916,33.87972375367544,0.0 -78.90401140976532,33.87971724326256,0.0 -78.90399399612363,33.87963754544496,0.0 -78.90399564234721,33.879619347486795,0.0 -78.90396387329034,33.879518863750626,0.0 -78.90398089505892,33.879472426573564,0.0 -78.9039758749815,33.87943383299912,0.0 -78.90398026754065,33.87938990513285,0.0 -78.90394794980843,33.8793253471455,0.0 -78.90393947746695,33.87930675756942,0.0 -78.90395681350546,33.87923662964562,0.0 -78.90395202791883,33.87922447190224,0.0 -78.90397406970008,33.879187368805546,0.0 -78.90399179738857,33.879142656475,0.0 -78.90400136845616,33.87911928138267,0.0 -78.90402341019,33.87906076375729,0.0 -78.90403125383165,33.8790545663846,0.0 -78.90407220078909,33.87901236607087,0.0 -78.9040982436433,33.878979577060186,0.0 -78.90409910534869,33.8789515735483,0.0 -78.9041327574845,33.8789450632254,0.0 -78.90417362585157,33.87889839036477,0.0 -78.90423394685187,33.87885210914469,0.0 -78.90426351933556,33.87884183349069,0.0 -78.90426963809267,33.878817516732454,0.0 -78.90430477922058,33.8787608824547,0.0 -78.90429850450208,33.87873554542809,0.0 -78.90433631350285,33.87870644318707,0.0 -78.90436282653584,33.878675616074005,0.0 -78.90439671307225,33.87865475038224,0.0 -78.90439537974392,33.87861976497711,0.0 -78.90443773859013,33.87860305753045,0.0 -78.90444848444263,33.87858164302789,0.0 -78.90444934750089,33.878573092148784,0.0 -78.9044527984742,33.87856148318021,0.0 -78.9044387574217,33.878559051075904,0.0 -78.90438792748155,33.878529086852005,0.0 -78.90434109732324,33.8785119077048,0.0 -78.90432289934343,33.878503828263064,0.0 -78.90429654336874,33.878488060997405,0.0 -78.90427826545164,33.87845872418787,0.0 -78.90417338906626,33.87842687651675,0.0 -78.90414562127091,33.87841620782012,0.0 -78.90411228341246,33.878402481014156,0.0 -78.90404741115299,33.878389615898904,0.0 -78.90403791993205,33.87839338119718,0.0 -78.90394833934172,33.878396518965225,0.0 -78.90393304360177,33.87838647894394,0.0 -78.90388629208879,33.87839863656183,0.0 -78.90382887322754,33.87839769476429,0.0 -78.90375082300267,33.878386948674255,0.0 -78.90364767285904,33.878394636227256,0.0 -78.90361504106332,33.87844695643539,0.0 -78.90361025556922,33.87847645035039,0.0 -78.903608843847,33.8785257112291,0.0 -78.90361237350062,33.87855897048585,0.0 -78.90363198476209,33.87863003884782,0.0 -78.90350969367839,33.878632627782125,0.0 -78.90334975064667,33.87861544835978,0.0 -78.90322479304963,33.87861309456645,0.0 -78.90307897100682,33.878619055861996,0.0 -78.90293973667691,33.87864172603326,0.0 -78.90279328599848,33.8786517656617,0.0 -78.90271994278146,33.87865372607006,0.0 -78.90265075647915,33.878655609217596,0.0 -78.9025344283657,33.87866298241682,0.0 -78.90248147947476,33.878680867238096,0.0 -78.90246398748202,33.8787044780537,0.0 -78.90245739852537,33.8787170286729,0.0 -78.90244155284543,33.87876228976406,0.0 -78.90243316048971,33.87878644935645,0.0 -78.90242139316528,33.878841201687074,0.0 -78.90242406103938,33.87886873503444,0.0 -78.90240358826132,33.87890983788973,0.0 -78.90235307147113,33.87894113642974,0.0 -78.90234742284369,33.87894529333106,0.0 -78.90235236562378,33.8789715720134,0.0 -78.90237668248692,33.87901173331942,0.0 -78.90238421317751,33.87903299201573,0.0 -78.90239142957601,33.879067741694726,0.0 -78.90236279883436,33.87911512050287,0.0 -78.9024206106478,33.8791382600171,0.0 -78.9025206229144,33.87917991322827,0.0 -78.9025448624304,33.879186345110895,0.0 -78.90256517817276,33.879201014852754,0.0 -78.90256753170661,33.87922070323362,0.0 -78.90257082568576,33.87928361357912,0.0 -78.90259388788692,33.87932777594521,0.0 -78.90256768919461,33.87936597654232,0.0 -78.90257718049445,33.8793974323888,0.0 -78.90259804638387,33.87944896823138,0.0 -78.90257059174733,33.879503093188994,0.0 -78.90257231665468,33.87953101812735,0.0 -78.90261161617646,33.879551020919784,0.0 -78.90263467829263,33.87955745410899,0.0 -78.90267005541648,33.879615108797665,0.0 -78.90266417240643,33.87964130756328,0.0 -78.90263256074212,33.879645151389326,0.0 -78.90255686414662,33.87969566807044,0.0 -78.90254470643836,33.879705865186764,0.0 -78.90253223438494,33.879706022318004,0.0 -78.90251215308312,33.879694962046884,0.0 -78.90249889646799,33.87966609542288,0.0 -78.9024769317536,33.87961189176543,0.0 -78.90243669182746,33.87956694486146,0.0 -78.90238507737016,33.87952788099925,0.0 -78.90243912236755,33.879469127706955,0.0 -78.9024707353001,33.87944685017637,0.0 -78.90250289566072,33.87941704200412,0.0 -78.90252180073108,33.87936519324464,0.0 -78.90244312305983,33.87930447904549,0.0 -78.90242359063588,33.879348171134765,0.0 -78.90240837353322,33.87936330965515,0.0 -78.90242806207148,33.87943626002468,0.0 -78.90242931807404,33.87944614416052,0.0 -78.90233926613828,33.879509603035736,0.0 -78.90232820595519,33.87952686062378,0.0 -78.90233762002737,33.87957745609074,0.0 -78.90236899603204,33.879610086770434,0.0 -78.90235526934259,33.87962554092674,0.0 -78.90233636416215,33.87962844312555,0.0 -78.90229165315877,33.879654407365706,0.0 -78.90229290791234,33.8796911961975,0.0 -78.90227510161903,33.879724298242465,0.0 -78.9022345475271,33.87974877208024,0.0 -78.90219744436114,33.87974092833489,0.0 -78.90220568099022,33.87977222570765,0.0 -78.90223266569647,33.87982635079672,0.0 -78.90224152965548,33.87985529599087,0.0 -78.90224129393165,33.879863296807535,0.0 -78.90223172412051,33.879862590868605,0.0 -78.90218081583502,33.879936718468294,0.0 -78.90222811630056,33.88001319979363,0.0 -78.902235411217,33.880020180389934,0.0 -78.90225564970893,33.88004410561915,0.0 -78.90222654745425,33.880078149295024,0.0 -78.90222097744332,33.88009815197951,0.0 -78.90222576302801,33.88010929079442,0.0 -78.90228937932865,33.880132508902,0.0 -78.90230404783169,33.88018624236786,0.0 -78.90231675580604,33.88026554596393,0.0 -78.90231071575396,33.88034445923139,0.0 -78.90231134310463,33.88035128396003,0.0 -78.90231855944351,33.880359676388004,0.0 -78.90239355026422,33.88037238436399,0.0 -78.90238037243589,33.88043498034771,0.0 -78.90241457343431,33.88047702630193,0.0 -78.9024661092272,33.88047937860513,0.0 -78.90249026874172,33.88043678534551,0.0 -78.90247920845219,33.88040666405639,0.0 -78.90251466407491,33.88042823452241,0.0 -78.90252321497634,33.88043741275965,0.0 -78.90254306056644,33.880462043903606,0.0 -78.90256612279933,33.880520561639365,0.0 -78.90261052091667,33.88055131034341,0.0 -78.9026387602355,33.88058009842231,0.0 -78.90268143218542,33.88060496536242,0.0 -78.90270763231739,33.88062496812264,0.0 -78.90277477828808,33.88068905471021,0.0 -78.90274559745079,33.88072223530867,0.0 -78.90270480760378,33.88074051175464,0.0 -78.90265876327041,33.880730941834564,0.0 -78.90260605009324,33.88073525578505,0.0 -78.90257906553379,33.880745924350045,0.0 -78.90257922274513,33.880768201957125,0.0 -78.90258667496097,33.880836681059215,0.0 -78.90257812542133,33.88085064350594,0.0 -78.90261844385623,33.880864293056305,0.0 -78.90270167121683,33.8808692346661,0.0 -78.90277626911606,33.880874177565126,0.0 -78.90279925274615,33.88092304690932,0.0 -78.90280466435176,33.88093222382932,0.0 -78.90289706868255,33.880965797620554,0.0 -78.90296962729388,33.88091684992337,0.0 -78.90299700348388,33.880922733057865,0.0 -78.90304626571286,33.88094108829895,0.0 -78.90309435060244,33.880986349542454,0.0 -78.90314471038641,33.881025178967185,0.0 -78.90319153925935,33.88105420152184,0.0 -78.90326307904239,33.88105012335777,0.0 -78.90333069499388,33.88102831608625,0.0 -78.90339078158507,33.880994115323155,0.0 -78.90344067109733,33.880989252611094,0.0 -78.90343721869628,33.88094767821514,0.0 -78.90339329200829,33.88089214125583,0.0 -78.90333908842914,33.880901005020895,0.0 -78.90323491805822,33.88091096748599,0.0 -78.90319546138629,33.88089520019009,0.0 -78.90314423862301,33.8809001427892,0.0 -78.90309662529813,33.88089112162027,0.0 -78.90308336867683,33.88085919559139,0.0 -78.90306830726402,33.880801932546156,0.0 -78.90300029832807,33.880787499742965,0.0 -78.90298060865369,33.88079134359817,0.0 -78.90297566720587,33.88077494904907,0.0 -78.90296209753203,33.88072529523078,0.0 -78.9029307202168,33.88069172158485,0.0 -78.90300382758261,33.880642460876636,0.0 -78.90309529028558,33.88068921263642,0.0 -78.90311921547642,33.88069486002094,0.0 -78.90320001078557,33.88070803818409,0.0 -78.9032149149111,33.880708979877404,0.0 -78.9032297404267,33.88069674360029,0.0 -78.9032760204382,33.88067783852262,0.0 -78.90329970986618,33.880674073257715,0.0 -78.90336442492445,33.880670465251995,0.0 -78.90339862452305,33.88067258308134,0.0 -78.90346043733894,33.88066975956519,0.0 -78.90349754048788,33.880670386989074,0.0 -78.9035342507342,33.88067125015385,0.0 -78.90367991697786,33.880691959114685,0.0 -78.90369513539022,33.880676819284574,0.0 -78.90371945222455,33.88070505859865,0.0 -78.9036935665439,33.880742789022385,0.0 -78.9036621894014,33.880786559663434,0.0 -78.90369160482496,33.88082240821315,0.0 -78.90371953103978,33.880810563560736,0.0 -78.90379099092114,33.880801149772715,0.0 -78.90379703113459,33.88079369772479,0.0 -78.90380040354212,33.88078891348263,0.0 -78.90380001193282,33.88078177574197,0.0 -78.90382754510458,33.88070686359156,0.0 -78.90379671643745,33.880625047994286,0.0 -78.90392332146766,33.88056668777894,0.0 -78.90399423263571,33.88057570900369,0.0 -78.9040210600397,33.88056739392834,0.0 -78.9040933830146,33.88056519777279,0.0 -78.90415951005626,33.88062999158165,0.0 -78.9041224855458,33.880655484356346,0.0 -78.90410177705807,33.88071149264456,0.0 -78.90410397341303,33.88072357180091,0.0 -78.90408867777032,33.88075706675408,0.0 -78.90406326226012,33.880793306766115,0.0 -78.90408601020788,33.880869709448476,0.0 -78.90408663755757,33.88087621985443,0.0 -78.90402867002342,33.88091065505413,0.0 -78.90398529098147,33.880945483191745,0.0 -78.90398019242541,33.88095277808064,0.0 -78.90397093697278,33.880968230937754,0.0 -78.90398474227209,33.88096587879064,0.0 -78.90402435481634,33.88099113731597,0.0 -78.90408208807733,33.881028553615984,0.0 -78.90408797116291,33.88103616285352,0.0 -78.90409683640567,33.881054046514286,0.0 -78.90413684064315,33.88112448758758,0.0 -78.9041776306244,33.88116676798762,0.0 -78.90421630274469,33.881157825604895,0.0 -78.90427654659007,33.881165434971585,0.0 -78.9043411032217,33.88118214267456,0.0 -78.90437522552386,33.88117296584883,0.0 -78.90440126853424,33.88121140231155,0.0 -78.90437349952784,33.88124458291254,0.0 -78.90430509907965,33.881266388872305,0.0 -78.90427380044501,33.881277371749405,0.0 -78.90425756310171,33.881291412758124,0.0 -78.90427293745064,33.881314787909886,0.0 -78.90431388463095,33.88137432592401,0.0 -78.90429592123346,33.88143362674671,0.0 -78.90436651935089,33.88142617485186,0.0 -78.90440691633783,33.88142735234729,0.0 -78.90442793934199,33.88145927839353,0.0 -78.9044667673718,33.88147669195104,0.0 -78.90448175006664,33.881472613652406,0.0 -78.90448222152295,33.881460218870295,0.0 -78.90455893702003,33.88139778020101,0.0 -78.90466365613491,33.8813834250798,0.0 -78.90464098711975,33.881466259476966,0.0 -78.90466357789298,33.88153724926257,0.0 -78.90467479529471,33.88154587875089,0.0 -78.90468279614868,33.881563056493405,0.0 -78.90469691592017,33.88162879183479,0.0 -78.90474264725059,33.88164346032537,0.0 -78.90475935610351,33.88164118545601,0.0 -78.90478383001162,33.88163020387226,0.0 -78.90479826253909,33.881579216871316,0.0 -78.90485944805411,33.881592552147325,0.0 -78.90494385011768,33.881563135692204,0.0 -78.90495867600121,33.88171845032184,0.0 -78.90485685905666,33.88169899744865,0.0 -78.90484674052536,33.8817137443877,0.0 -78.90480171523987,33.88175774942828,0.0 -78.90480798997488,33.88179093010976,0.0 -78.90480649980293,33.88190027896772,0.0 -78.9047904196093,33.88190906424301,0.0 -78.90476578851724,33.88190969152017,0.0 -78.9047330782865,33.882027588566324,0.0 -78.90478163471153,33.88209771664529,0.0 -78.90478532158262,33.882157174679946,0.0 -78.90476618202648,33.8821853353097,0.0 -78.90477300549165,33.8822073771896,0.0 -78.90470382064228,33.88227185635432,0.0 -78.90469809485354,33.882325745620435,0.0 -78.90468311224902,33.88237077097076,0.0 -78.90465816829256,33.88243862396778,0.0 -78.90465440300255,33.88245274358667,0.0 -78.90465204953428,33.882462313390974,0.0 -78.90463981198161,33.882493219120086,0.0 -78.90461565246328,33.882534557708304,0.0 -78.90462561519928,33.88254546079264,0.0 -78.90459604285232,33.88261668619731,0.0 -78.90458357089479,33.882659985399435,0.0 -78.90459266930631,33.88269912904704,0.0 -78.90454607509047,33.882770903166616,0.0 -78.90453956470833,33.88278070739343,0.0 -78.90453250567973,33.8828395393775,0.0 -78.90452356325763,33.882862914471794,0.0 -78.90446794789277,33.88289162377125,0.0 -78.90446935984103,33.88294449412554,0.0 -78.90447022299162,33.88297783195579,0.0 -78.90443374728825,33.883026308255154,0.0 -78.90449893257973,33.88305109666423,0.0 -78.90450716926743,33.883110005955075,0.0 -78.90447469460845,33.883150089853686,0.0 -78.90442543247778,33.88317487668573,0.0 -78.90441131288691,33.88319087959612,0.0 -78.90440001837199,33.88325355416294,0.0 -78.90436299395769,33.883321641564876,0.0 -78.90434675665713,33.88335474361341,0.0 -78.90434738403984,33.88337623672427,0.0 -78.904321576863,33.883378747314985,0.0 -78.90422932841808,33.883357881325914,0.0 -78.90424195780359,33.88343546007315,0.0 -78.90423889843134,33.88345036419037,0.0 -78.9042200732196,33.88348801605095,0.0 -78.90419936463601,33.883500096463536,0.0 -78.90418814729111,33.88351696114837,0.0 -78.90411903970455,33.883576420324076,0.0 -78.9040672680426,33.8835149217,0.0 -78.90402216403211,33.88349256540835,0.0 -78.90394042842271,33.88349844828719,0.0 -78.90391030719572,33.883512332103216,0.0 -78.90386818415674,33.88355625988216,0.0 -78.9038579085158,33.883593911762965,0.0 -78.90383374761875,33.88360356009746,0.0 -78.90382135418089,33.88361893436716,0.0 -78.90379248766682,33.883651880535375,0.0 -78.90372212523931,33.88363430843512,0.0 -78.9036342708921,33.88367258878082,0.0 -78.90363685884107,33.88368498226056,0.0 -78.90362187745538,33.88368843322466,0.0 -78.90359810940333,33.88367196005176,0.0 -78.90359544154066,33.88364905510402,0.0 -78.9035749685387,33.88358912554519,0.0 -78.90356500575446,33.88355657218982,0.0 -78.90355190625456,33.88350621376776,0.0 -78.90356524126892,33.88345444095608,0.0 -78.90361065948638,33.883424791283645,0.0 -78.9035307271726,33.88337262666135,0.0 -78.90346852275614,33.883370508768614,0.0 -78.9034799746864,33.88342251607023,0.0 -78.90349260401845,33.883475542303366,0.0 -78.90342977222795,33.88345593105324,0.0 -78.90336858804585,33.88345200973771,0.0 -78.90333117187224,33.883445027762335,0.0 -78.90328426311896,33.88341922046704,0.0 -78.90324676821719,33.88334619147832,0.0 -78.90324465044716,33.88333607290852,0.0 -78.90333524983357,33.88327818277535,0.0 -78.90337862759095,33.883255905270175,0.0 -78.90336529240699,33.88323158846553,0.0 -78.90339604202312,33.88310302278146,0.0 -78.90341118024165,33.88295225672553,0.0 -78.90334340706367,33.88294347125349,0.0 -78.9032948520613,33.882924567261526,0.0 -78.90327280883837,33.882901426526416,0.0 -78.9032574344077,33.8828414969788,0.0 -78.9032684159012,33.88277568442361,0.0 -78.90334685773985,33.882799059723176,0.0 -78.90339423671003,33.88284377220813,0.0 -78.90344342043332,33.88289679852695,0.0 -78.90351119347807,33.88284573306847,0.0 -78.90350162356518,33.88279906008565,0.0 -78.90344632241201,33.882777802588166,0.0 -78.90338458806909,33.88273105090243,0.0 -78.9033770586196,33.88267857343559,0.0 -78.90345047894392,33.882606250622636,0.0 -78.90349056289597,33.882598014157814,0.0 -78.90348232628006,33.882571971210695,0.0 -78.90349958366836,33.882471487590585,0.0 -78.9034738549799,33.882432816696344,0.0 -78.90348028675652,33.882411950936984,0.0 -78.90349236707938,33.88235060962222,0.0 -78.90345769591158,33.88230950532704,0.0 -78.90342890655415,33.88229146445813,0.0 -78.90340380523165,33.88226667614186,0.0 -78.90345902903657,33.882252949546825,0.0 -78.90354978556817,33.882186665696246,0.0 -78.90354288222932,33.8821723116197,0.0 -78.90355990409648,33.88217082124732,0.0 -78.90362642250204,33.882133248079775,0.0 -78.90368635194736,33.88210649937731,0.0 -78.9037452624993,33.88209559514528,0.0 -78.90382605768441,33.882054178109485,0.0 -78.90394175856702,33.88209787051735,0.0 -78.90395713287572,33.88210312628754,0.0 -78.90396074105325,33.88211112711298,0.0 -78.9040554202505,33.88212713027948,0.0 -78.90408711184034,33.88213999400182,0.0 -78.90409605425523,33.882113402340785,0.0 -78.9040855427341,33.88208885111063,0.0 -78.90406138168522,33.882030333374914,0.0 -78.90405855794953,33.88199770145572,0.0 -78.90403988839415,33.881947498872236,0.0 -78.90401886669247,33.8819123562592,0.0 -78.904061459929,33.88187831261535,0.0 -78.90406397055114,33.881865448973606,0.0 -78.90401761173352,33.88178222150908,0.0 -78.90406553920307,33.881711546211825,0.0 -78.90409291540726,33.88172409691134,0.0 -78.90416210039773,33.881723391159056,0.0 -78.90416908223301,33.881699780318414,0.0 -78.9041755924602,33.88161992539717,0.0 -78.90416680713106,33.88161247462391,0.0 -78.90407612755152,33.8815357574587,0.0 -78.90408083451054,33.88152681499512,0.0 -78.9041493920077,33.88145457075407,0.0 -78.9040730691546,33.881399739635214,0.0 -78.90399180232527,33.881369382438834,0.0 -78.90397587918763,33.88133071025805,0.0 -78.90396097512259,33.88135698889206,0.0 -78.9039655249668,33.881368990783116,0.0 -78.9039530530585,33.8814343318497,0.0 -78.90391006687878,33.88145049185256,0.0 -78.9038732781282,33.881483751013334,0.0 -78.90384762685707,33.88151112713135,0.0 -78.90382448753074,33.88153152136708,0.0 -78.90381742714581,33.88156901609393,0.0 -78.90377201020094,33.88158290118216,0.0 -78.90375247771034,33.88159678502208,0.0 -78.90375192899131,33.88161278665464,0.0 -78.9037671463071,33.88169373913719,0.0 -78.90375898850108,33.88177084635281,0.0 -78.90375679218846,33.881777828235805,0.0 -78.90370698262771,33.88180983269562,0.0 -78.90366760456874,33.881808185028845,0.0 -78.90361959838414,33.88181814762856,0.0 -78.90360806676725,33.88185776009274,0.0 -78.90363058023341,33.88191180658789,0.0 -78.90360100779213,33.88194012435477,0.0 -78.90356484636777,33.881969069441446,0.0 -78.90352091850889,33.88197526541991,0.0 -78.90352805616692,33.88193886820233,0.0 -78.90354303882849,33.8819199643594,0.0 -78.90351785883838,33.88185619088662,0.0 -78.90346946097213,33.88182653968422,0.0 -78.9033746245306,33.88177367041758,0.0 -78.903371722298,33.88177876898347,0.0 -78.90335148399254,33.88183775678934,0.0 -78.90327155177312,33.88182928429977,0.0 -78.90323758659842,33.88182300955678,0.0 -78.90317326440092,33.88180692919016,0.0 -78.90310094133308,33.88176668788238,0.0 -78.90307544715081,33.881761432088155,0.0 -78.9030342656796,33.88176559021539,0.0 -78.90301543914767,33.881798377935766,0.0 -78.90297621820746,33.88177782639081,0.0 -78.90291291625212,33.881763549451755,0.0 -78.90287808797493,33.88174597874211,0.0 -78.90284969146725,33.8817044828673,0.0 -78.90284420124642,33.88167985175799,0.0 -78.90285008425874,33.881654750501596,0.0 -78.9028663215053,33.88159780185286,0.0 -78.90286475248001,33.881583369208066,0.0 -78.90283470964764,33.881514811472385,0.0 -78.90278646754852,33.88144789995751,0.0 -78.90274230520444,33.881430720818926,0.0 -78.90275054038366,33.881399893659946,0.0 -78.90274465719908,33.88134827927336,0.0 -78.90271704653978,33.88132576585927,0.0 -78.9027072408527,33.88126520898833,0.0 -78.90271312388282,33.8812480299684,0.0 -78.90269241527443,33.88124936317046,0.0 -78.9026712364835,33.881246932359524,0.0 -78.90259412789392,33.88122402723438,0.0 -78.9025346684623,33.881179784892424,0.0 -78.90249725222027,33.88114331029743,0.0 -78.90240963210667,33.88109522529574,0.0 -78.90243904864717,33.88104517867619,0.0 -78.90243638076323,33.88101317540115,0.0 -78.90245873684391,33.880966815505715,0.0 -78.9023570757076,33.88092939909964,0.0 -78.90231660011867,33.88091896611584,0.0 -78.90230491256565,33.88092069224227,0.0 -78.90225486711091,33.88088523654562,0.0 -78.90220748818366,33.88086099692957,0.0 -78.90213210580318,33.88086280148489,0.0 -78.90210825922844,33.88087291999308,0.0 -78.90209413953276,33.880842484373986,0.0 -78.90210967093397,33.8808170701275,0.0 -78.90215689251887,33.880761063209924,0.0 -78.90211147418657,33.880740746081166,0.0 -78.90201773653367,33.88067626652619,0.0 -78.90201444267363,33.88066630511456,0.0 -78.90194815857349,33.88064826284488,0.0 -78.90191584100363,33.880656263584996,0.0 -78.90185230324558,33.88061602360508,0.0 -78.90176154515382,33.880572174090005,0.0 -78.90172020650336,33.88056880026306,0.0 -78.90163454824759,33.880504792210324,0.0 -78.90166380770452,33.88048910365851,0.0 -78.90164631419839,33.880422506536945,0.0 -78.90164184282642,33.8803631257673,0.0 -78.9016587860652,33.88034029944597,0.0 -78.90167596506667,33.880326651342266,0.0 -78.90164654956575,33.880257622121775,0.0 -78.9016452947607,33.88019839852101,0.0 -78.90164521607333,33.88015141254584,0.0 -78.9016332140598,33.88009242335151,0.0 -78.90162121206299,33.880040808948856,0.0 -78.90162262382414,33.88000974603116,0.0 -78.90162325104272,33.87995836740066,0.0 -78.90161281939487,33.879927147293245,0.0 -78.90157783386277,33.87986925686261,0.0 -78.90154096639769,33.87984344958706,0.0 -78.9014615827751,33.879767361086365,0.0 -78.90146040666752,33.879759594698406,0.0 -78.90146040665147,33.879752535538906,0.0 -78.90145279739282,33.87973692547938,0.0 -78.90146079778006,33.87954827306239,0.0 -78.90146401423729,33.879500188275856,0.0 -78.90146009159452,33.879429747284114,0.0 -78.90137843299972,33.87932628259696,0.0 -78.90126939979963,33.87933828421446,0.0 -78.90126955694801,33.87933263688719,0.0 -78.90129049964332,33.87917944007922,0.0 -78.90123810070229,33.87914665087675,0.0 -78.90117111179545,33.87904193155337,0.0 -78.90115973718325,33.879012280436385,0.0 -78.90115785511935,33.8789868648381,0.0 -78.90106764708514,33.87894183923048,0.0 -78.9010638817401,33.87893148491426,0.0 -78.90105736999784,33.87891909142407,0.0 -78.90101971792134,33.87884347319636,0.0 -78.90099932344528,33.87876212910215,0.0 -78.90099673416967,33.878742753732844,0.0 -78.90097453505633,33.87870416011408,0.0 -78.90092119428397,33.87859583266229,0.0 -78.90087891523748,33.87857237755228,0.0 -78.90081765096008,33.87848209088291,0.0 -78.90078266682461,33.87846310833782,0.0 -78.90072916903756,33.878419103056785,0.0 -78.90068610412347,33.87836897767992,0.0 -78.9006726131103,33.87835572109534,0.0 -78.90058938557755,33.878277985007564,0.0 -78.90057816817514,33.87826974842095,0.0 -78.90056546035662,33.87825994414706,0.0 -78.90047792007125,33.878188326859885,0.0 -78.90045713284854,33.878175619012154,0.0 -78.90029695395252,33.87810651088877,0.0 -78.90028307005595,33.87810188245589,0.0 -78.90012712800278,33.878049404622494,0.0 -78.90010077204539,33.878041952495316,0.0 -78.90006915903575,33.878030736343185,0.0 -78.90000248335046,33.87801834139593,0.0 -78.89998726620651,33.878015439114264,0.0 -78.89981783179731,33.87793582080801,0.0 -78.8998067715689,33.877933231549214,0.0 -78.89979304483481,33.87792923176177,0.0 -78.8997084056618,33.87793519320513,0.0 -78.89968895170975,33.87793103493271,0.0 -78.89960941237378,33.87791746517332,0.0 -78.89934710218692,33.87782458877713,0.0 -78.89921822341626,33.87782309804915,0.0 -78.8991178169797,33.87780254634951,0.0 -78.899060319505,33.87778787782468,0.0 -78.89901937244612,33.877784975479905,0.0 -78.89891096648275,33.87775610862027,0.0 -78.89890210258314,33.8777537551087,0.0 -78.89875078902053,33.8777418314373,0.0 -78.89872372586039,33.87774434202217,0.0 -78.898633439302,33.87772559377248,0.0 -78.89852581796535,33.87775249951659,0.0 -78.89846361356373,33.87776026444028,0.0 -78.89835144110577,33.87778975809556,0.0 -78.89832720291061,33.877788660526825,0.0 -78.89827456824364,33.87776434362182,0.0 -78.89817855567222,33.87770096155967,0.0 -78.89815196405756,33.877729749508674,0.0 -78.89794032771066,33.87756078622686,0.0 -78.89793013056456,33.87756047187939,0.0 -78.89793209112891,33.87755105923427,0.0 -78.89789381170323,33.87747238159305,0.0 -78.89786769004256,33.87740782492095,0.0 -78.89774877244758,33.87731032047172,0.0 -78.89774077160777,33.87730067206022,0.0 -78.89768445008829,33.87722944774702,0.0 -78.89767801824502,33.877221289751915,0.0 -78.8976499360447,33.87717673446472,0.0 -78.89762373586372,33.87713790640049,0.0 -78.89752474244013,33.87706401285962,0.0</coordinates>
                    </LinearRing>
                </outerBoundaryIs>
            </Polygon>
        </Placemark>
        <Placemark id="3333">
            <name>Flood_362</name>
            <styleUrl>#3338</styleUrl>
            <Polygon id="3332">
                <outerBoundaryIs>
                    <LinearRing id="3336">
                        <coordinates>-78.90946217120454,33.88090447191509,0.0 -78.90942632389074,33.88083434518173,0.0 -78.90934976411303,33.88083748167545,0.0 -78.90932756507333,33.880829950980505,0.0 -78.90928152069682,33.880799045115914,0.0 -78.90928732511196,33.88076421689262,0.0 -78.90927555887433,33.880716446400676,0.0 -78.90923312126705,33.8806469469864,0.0 -78.90919782293723,33.88068648080832,0.0 -78.90917946787451,33.88071487717853,0.0 -78.9091833891381,33.88075817641498,0.0 -78.90916566143272,33.88079708425338,0.0 -78.90914526719169,33.8808199891436,0.0 -78.90898234354587,33.88089811621985,0.0 -78.90896147778149,33.880902117233056,0.0 -78.9089302577053,33.88090321466784,0.0 -78.90884004971639,33.880874034852056,0.0 -78.9088322060501,33.88086870051938,0.0 -78.90873070216192,33.88087003352858,0.0 -78.90863453257606,33.880865719223735,0.0 -78.90862786500895,33.88086485613078,0.0 -78.90853593090374,33.88085363852909,0.0 -78.90848855328674,33.88082806697486,0.0 -78.90843834938335,33.88080076925969,0.0 -78.90842721056688,33.88079410166804,0.0 -78.9084037568515,33.88078421748053,0.0 -78.90834155228826,33.8807144050052,0.0 -78.90833653227673,33.88070499103566,0.0 -78.90832915878605,33.88070051978109,0.0 -78.90828695698876,33.88066388801751,0.0 -78.90824459804891,33.88063619741772,0.0 -78.90823353780523,33.8806258430857,0.0 -78.90822773329683,33.880616273262724,0.0 -78.90822490959695,33.88059909553369,0.0 -78.90824193132094,33.88052967353083,0.0 -78.90824742277363,33.88051892764501,0.0 -78.90826891443058,33.880452094884106,0.0 -78.90828436850437,33.88039820564573,0.0 -78.9082682083399,33.880369574760394,0.0 -78.90825165790399,33.880346748362065,0.0 -78.90820804430169,33.880322980241196,0.0 -78.90818262863175,33.88028564129184,0.0 -78.90815501664184,33.880252224819486,0.0 -78.90807665335828,33.88021778929688,0.0 -78.90805727928293,33.880206336125894,0.0 -78.90805084613828,33.880200924525546,0.0 -78.90802919712651,33.88017652912183,0.0 -78.90797946460505,33.880101852535006,0.0 -78.9079775025664,33.88003478397581,0.0 -78.9079713850499,33.880027489060694,0.0 -78.90796401146045,33.87997658059187,0.0 -78.90791616096173,33.87991006198668,0.0 -78.90783073873006,33.8799749326983,0.0 -78.90770782018186,33.879915238638894,0.0 -78.90766930515845,33.87989484425744,0.0 -78.90764020276137,33.8798641728637,0.0 -78.90767165844608,33.879800165099375,0.0 -78.9076812282344,33.8797902024101,0.0 -78.90777120038315,33.87977184750461,0.0 -78.90788682386031,33.87975137491332,0.0 -78.90797381513053,33.87970760441064,0.0 -78.90806888724651,33.87972925359884,0.0 -78.90809108626253,33.87972525389892,0.0 -78.90816701747315,33.87975796457204,0.0 -78.90823377177941,33.879791694151606,0.0 -78.90824687120045,33.879806834048104,0.0 -78.9082644431606,33.87981836448581,0.0 -78.90829872139446,33.87984613233784,0.0 -78.90836249481545,33.879851388224544,0.0 -78.90839646003161,33.879876882476715,0.0 -78.90845897892592,33.87995022584276,0.0 -78.90846493927687,33.87995548159045,0.0 -78.90848180530796,33.87996081463527,0.0 -78.90853287096671,33.87998191627208,0.0 -78.90855679486289,33.879994858556564,0.0 -78.90864214004736,33.88003549148703,0.0 -78.90865453353594,33.88004286499768,0.0 -78.90866049519276,33.88004631732025,0.0 -78.90875188064473,33.880104835212556,0.0 -78.9087694512937,33.880115738314785,0.0 -78.90881330062058,33.88013134845878,0.0 -78.90884954074356,33.88015613549043,0.0 -78.90888993778125,33.88018092384173,0.0 -78.9089472781035,33.88020280867985,0.0 -78.90897034023354,33.880216458187576,0.0 -78.90901136592458,33.880245324874025,0.0 -78.90904501677619,33.88025112944253,0.0 -78.90908863035588,33.8802643075158,0.0 -78.9091371081267,33.88030180237121,0.0 -78.9091423638805,33.8803114507733,0.0 -78.90918927133498,33.88034243522119,0.0 -78.90923970968149,33.88037491139937,0.0 -78.90930159973496,33.880355770619964,0.0 -78.9093387029176,33.880372400985706,0.0 -78.90937855118165,33.88038832413246,0.0 -78.90943636301212,33.880422212159814,0.0 -78.90947174004789,33.88044244937134,0.0 -78.90953449454982,33.88045280382676,0.0 -78.90961795637821,33.88047484588796,0.0 -78.90963882216259,33.88048025883232,0.0 -78.90973067643316,33.880517910952065,0.0 -78.90980833378022,33.88054332672678,0.0 -78.90982904238264,33.88053885553944,0.0 -78.90988238295257,33.88056176060541,0.0 -78.90992678105016,33.88058552872702,0.0 -78.90994631355844,33.880579018370106,0.0 -78.91002530414595,33.8805994128467,0.0 -78.91008523368629,33.88061549320222,0.0 -78.91012351295242,33.88062929990699,0.0 -78.91017528452274,33.88064914556387,0.0 -78.9102212516157,33.88067416835945,0.0 -78.91026753302077,33.88069424974504,0.0 -78.91031836300549,33.88074892363582,0.0 -78.9103891170394,33.880771828742944,0.0 -78.91041625882055,33.88078939943211,0.0 -78.91043618296094,33.88080163710005,0.0 -78.91045375362219,33.88081881617305,0.0 -78.9104860713354,33.8808794516684,0.0 -78.91041453281119,33.880859448803555,0.0 -78.91035232843645,33.88087905844671,0.0 -78.91031428370614,33.88091514126271,0.0 -78.91025694322451,33.88081552055697,0.0 -78.91021850676692,33.88078704547128,0.0 -78.91015442040117,33.8808137941584,0.0 -78.91013018093994,33.880832777866566,0.0 -78.9101184933861,33.88083426825097,0.0 -78.91005644608599,33.88081214766104,0.0 -78.91002044173457,33.880801086044556,0.0 -78.90999267267526,33.88081104869015,0.0 -78.90993878345975,33.880840385323246,0.0 -78.90992074134213,33.8808364641077,0.0 -78.9098564192442,33.880867682721615,0.0 -78.90981994483973,33.88091474849194,0.0 -78.90979084252886,33.88092439681209,0.0 -78.90972095158749,33.88090894376836,0.0 -78.9096915349612,33.88092196450558,0.0 -78.90962242850925,33.88090313904579,0.0 -78.90954484985612,33.880931691126314,0.0 -78.90952288526599,33.88093247557049,0.0 -78.90946217120454,33.88090447191509,0.0</coordinates>
                    </LinearRing>
                </outerBoundaryIs>
            </Polygon>
        </Placemark>
        <Placemark id="3342">
            <name>Flood_363</name>
            <styleUrl>#3347</styleUrl>
            <Polygon id="3341">
                <outerBoundaryIs>
                    <LinearRing id="3345">
                        <coordinates>-78.56918310974412,33.87532282803713,0.0 -78.56919649318152,33.87532573159185,0.0 -78.5692456766652,33.87534322358316,0.0 -78.56928097499306,33.87535820624874,0.0 -78.56931133192559,33.87537350193259,0.0 -78.56933737479683,33.875389426266196,0.0 -78.56935933803852,33.87540621237172,0.0 -78.56939275439363,33.875437668156415,0.0 -78.56940295152813,33.87545076753425,0.0 -78.56940985483456,33.87546331816109,0.0 -78.56941581650185,33.87548536001793,0.0 -78.56941801287601,33.87551736459173,0.0 -78.56941777857213,33.875524721511965,0.0 -78.56918310974412,33.87532282803713,0.0</coordinates>
                    </LinearRing>
                </outerBoundaryIs>
            </Polygon>
        </Placemark>
        <Placemark id="3351">
            <name>Flood_364</name>
            <styleUrl>#3356</styleUrl>
            <Polygon id="3350">
                <outerBoundaryIs>
                    <LinearRing id="3354">
                        <coordinates>-78.56947561951692,33.875574484019566,0.0 -78.56951410363986,33.87555682112421,0.0 -78.56952579115271,33.87555203555173,0.0 -78.56953520507504,33.87554827022004,0.0 -78.56959984000741,33.875522071370796,0.0 -78.56962039138476,33.875516422711435,0.0 -78.56963921792786,33.875513677607834,0.0 -78.56966447627809,33.87551320740602,0.0 -78.56969020480554,33.875515559557556,0.0 -78.56969875435252,33.875517049960564,0.0 -78.56971373701563,33.875520345091346,0.0 -78.56972856251878,33.87552411039641,0.0 -78.56978535389023,33.875540190547966,0.0 -78.56979806165162,33.87554348568124,0.0 -78.56980959332564,33.8755461521709,0.0 -78.56981947611969,33.87554764257246,0.0 -78.56982716389956,33.875547721144585,0.0 -78.569831869551,33.87554576055295,0.0 -78.56983288977894,33.87554144516621,0.0 -78.56983100776839,33.87553501334466,0.0 -78.56982700670471,33.875527169693605,0.0 -78.56982167239225,33.875518227224966,0.0 -78.56980214118988,33.875487555921254,0.0 -78.56979602238017,33.875476652867135,0.0 -78.56979084522497,33.87546559265072,0.0 -78.56978731563825,33.875454532432485,0.0 -78.56978590379262,33.87544347221201,0.0 -78.56978723702169,33.87543272500121,0.0 -78.56979084515295,33.87542213625889,0.0 -78.56979617943315,33.87541162478552,0.0 -78.56980292554105,33.875401349052524,0.0 -78.56981076915537,33.87539138633109,0.0 -78.56981955442495,33.87538173793104,0.0 -78.56982928135027,33.875372639594374,0.0 -78.5698400272021,33.87536416728207,0.0 -78.56985155885916,33.875356636626776,0.0 -78.56986387370189,33.87534981319612,0.0 -78.56987673860789,33.87534345862918,0.0 -78.56989007368733,33.875337575545565,0.0 -78.56990372177926,33.875332162635466,0.0 -78.56991752834216,33.87532706404778,0.0 -78.56993156933719,33.87532235836291,0.0 -78.56994576749378,33.87531820012278,0.0 -78.5699602000828,33.87531459194672,0.0 -78.56997471125341,33.875311768267125,0.0 -78.56999016408025,33.87530972908304,0.0 -78.5700056967985,33.87530855166636,0.0 -78.57002138405885,33.87530784573308,0.0 -78.57003715121014,33.87530761128357,0.0 -78.57005299694227,33.87530768853704,0.0 -78.57008476567803,33.87530831714692,0.0 -78.57013222167751,33.87531019910036,0.0 -78.57015402904271,33.87531161090814,0.0 -78.57016485349058,33.87531255255391,0.0 -78.57017756124878,33.87531396437174,0.0 -78.57019011184688,33.875315769092744,0.0 -78.57020250528507,33.875318121259,0.0 -78.57021458571272,33.87532118065111,0.0 -78.57022925405678,33.87532596619463,0.0 -78.57024353081042,33.87533177066725,0.0 -78.5702574932437,33.87533828105629,0.0 -78.57027137709751,33.875345262928995,0.0 -78.57028502652037,33.87535263639541,0.0 -78.57029859736335,33.87536024429405,0.0 -78.57032542341902,33.875376011465825,0.0 -78.57035185919327,33.87539240597335,0.0 -78.57036472281436,33.87540087694992,0.0 -78.5703773520045,33.87540966355897,0.0 -78.57038951102261,33.875418761871714,0.0 -78.57040104139858,33.875428331668815,0.0 -78.57041171001079,33.87543853011179,0.0 -78.57042167140052,33.87544919741998,0.0 -78.57043092818675,33.87546017905137,0.0 -78.57043963491054,33.875471317844614,0.0 -78.57044763572115,33.87548269238056,0.0 -78.5704548520377,33.87549406691738,0.0 -78.5704608922679,33.8755053615651,0.0 -78.57046552067065,33.87551657894352,0.0 -78.57046818718311,33.87552763916283,0.0 -78.57046803004035,33.87553838637237,0.0 -78.57046489339008,33.875548112037265,0.0 -78.57045940194742,33.87555752600148,0.0 -78.57045210708503,33.87556678149689,0.0 -78.57044355755586,33.87557595972263,0.0 -78.57043406506209,33.875585058059116,0.0 -78.57041429819822,33.87560231569462,0.0 -78.57038401991218,33.87562694682306,0.0 -78.57036244831791,33.875643497234925,0.0 -78.57035115240305,33.875651733805945,0.0 -78.57033970063667,33.875659657364324,0.0 -78.57032809170902,33.87566726529075,0.0 -78.57031632561981,33.87567440435292,0.0 -78.57030432378811,33.875680757609175,0.0 -78.5702919303628,33.87568624909844,0.0 -78.57027906545324,33.87569048460791,0.0 -78.57026690645458,33.87569307254292,0.0 -78.5702543558617,33.87569448569815,0.0 -78.57024149225546,33.87569495588629,0.0 -78.57022847017727,33.87569448572653,0.0 -78.5702154494074,33.87569322976058,0.0 -78.57020038816529,33.875690799016574,0.0 -78.57018532823149,33.87568758246648,0.0 -78.57017018840675,33.875683817161686,0.0 -78.57015512716177,33.87567966026342,0.0 -78.57009543355159,33.875661618218714,0.0 -78.57006656703825,33.87565353885305,0.0 -78.57005268319065,33.875650243720926,0.0 -78.57003942667752,33.87564773439439,0.0 -78.57002711182116,33.875646322576145,0.0 -78.57001809079443,33.87564632258604,0.0 -78.57001016727509,33.87564726294282,0.0 -78.57000373547507,33.87564938200722,0.0 -78.56999910709688,33.87565283301117,0.0 -78.56999636203278,33.87565903040562,0.0 -78.5699963620461,33.87566703122235,0.0 -78.56999808821041,33.87567628670769,0.0 -78.56999087198925,33.875722253758475,0.0 -78.5699806736417,33.87576751489654,0.0 -78.56991690194081,33.87588839291326,0.0 -78.56990207649055,33.875916553603986,0.0 -78.56989308261907,33.87593360524253,0.0 -78.56972984886403,33.875793206065715,0.0 -78.56947561951692,33.875574484019566,0.0</coordinates>
                    </LinearRing>
                </outerBoundaryIs>
            </Polygon>
        </Placemark>
        <Placemark id="3360">
            <name>Flood_365</name>
            <styleUrl>#3365</styleUrl>
            <Polygon id="3359">
                <outerBoundaryIs>
                    <LinearRing id="3363">
                        <coordinates>-78.92840028206295,33.69462206687752,0.0 -78.92838890750615,33.69460708544803,0.0 -78.92835039248779,33.69455280315368,0.0 -78.92834827473808,33.69454974374216,0.0 -78.92828544282744,33.69454997919657,0.0 -78.92827469559987,33.694542056920696,0.0 -78.92826685193099,33.694536251093616,0.0 -78.92824237795568,33.69451813162197,0.0 -78.92819382286427,33.694523229966556,0.0 -78.92814377605899,33.69451726809527,0.0 -78.92809914350617,33.694479694612454,0.0 -78.92804713615361,33.69443317863205,0.0 -78.92795716378079,33.694394899027124,0.0 -78.92795433881423,33.694382269813936,0.0 -78.92795010332837,33.69436367895164,0.0 -78.92793025772866,33.694377326988814,0.0 -78.9279321397309,33.694384936211726,0.0 -78.92793598362597,33.69440023192875,0.0 -78.92789221277269,33.69442729486214,0.0 -78.92790084219804,33.69448063536293,0.0 -78.92788609523313,33.69444855217631,0.0 -78.92787707419592,33.69441137044924,0.0 -78.92787213279331,33.694391995088196,0.0 -78.92785126705574,33.69431065105122,0.0 -78.92784632434444,33.69429041392379,0.0 -78.92784671725573,33.69428374636779,0.0 -78.92783832355056,33.694250957295196,0.0 -78.92783667728904,33.69424491706453,0.0 -78.92780294661833,33.69411211582076,0.0 -78.92778012029872,33.694022299484544,0.0 -78.92777800255152,33.69401696516678,0.0 -78.92777455024377,33.69400833700926,0.0 -78.92777015759572,33.69399037348086,0.0 -78.92771603400152,33.69375850043588,0.0 -78.92771524950678,33.693755126708446,0.0 -78.92767030148977,33.69356263171695,0.0 -78.9276673206708,33.69355039409612,0.0 -78.92765257373244,33.69349415132681,0.0 -78.92765155481223,33.69348395418918,0.0 -78.9276903829236,33.69346450044719,0.0 -78.92777470801195,33.693449753886235,0.0 -78.9278212239342,33.69344159612992,0.0 -78.92787511469811,33.693403631503905,0.0 -78.92796218482341,33.69343751844323,0.0 -78.92797199038434,33.693451402357326,0.0 -78.92802611423005,33.693451559765045,0.0 -78.92807019935726,33.69346960074529,0.0 -78.92808596664356,33.69342732187447,0.0 -78.92813805132522,33.69341994863913,0.0 -78.92816260382477,33.69349015390333,0.0 -78.92816166215901,33.69349540962658,0.0 -78.92816707501464,33.693544200300366,0.0 -78.92825924363525,33.69366131320874,0.0 -78.92827995229,33.69367002002557,0.0 -78.92828740435073,33.69368837647063,0.0 -78.92829477783086,33.693706574444576,0.0 -78.9282971313199,33.69371245751741,0.0 -78.9282990133275,33.69371512533491,0.0 -78.9283011323818,33.69372281182979,0.0 -78.92830175971578,33.693725479641564,0.0 -78.92830262278768,33.69373238163508,0.0 -78.92830591659559,33.693767367010324,0.0 -78.92830536783664,33.69377011208752,0.0 -78.92830466191484,33.69377395598175,0.0 -78.92829579795308,33.69381631477431,0.0 -78.92829163969711,33.69383584594534,0.0 -78.92827179400946,33.693930917814875,0.0 -78.92828348155966,33.69396456866911,0.0 -78.92828826711626,33.693978453870024,0.0 -78.92830348424344,33.694022537615076,0.0 -78.92831195653842,33.69404709013936,0.0 -78.92832607612388,33.694118628605814,0.0 -78.92832819382345,33.69416804659914,0.0 -78.92833454701704,33.694228447550195,0.0 -78.92833995989754,33.69425433331015,0.0 -78.9283384694117,33.69431881124498,0.0 -78.92834231330419,33.694336461758496,0.0 -78.92834945102634,33.69436909235493,0.0 -78.92841534232451,33.69439239047246,0.0 -78.92843973758906,33.6945308403047,0.0 -78.92849825517217,33.69475353647604,0.0 -78.92850068723814,33.69476302770519,0.0 -78.92849284226536,33.69475196746004,0.0 -78.92840028206295,33.69462206687752,0.0</coordinates>
                    </LinearRing>
                </outerBoundaryIs>
            </Polygon>
        </Placemark>
        <Placemark id="3369">
            <name>Flood_366</name>
            <styleUrl>#3374</styleUrl>
            <Polygon id="3368">
                <outerBoundaryIs>
                    <LinearRing id="3372">
                        <coordinates>-78.92834945205787,33.69341492830708,0.0 -78.92835839454658,33.69342222324014,0.0 -78.92846154628421,33.69341132066223,0.0 -78.9284691542184,33.69340983028624,0.0 -78.92856477528076,33.693411714035406,0.0 -78.9286477671145,33.693396967468104,0.0 -78.92875719357782,33.69334174419175,0.0 -78.9287640183238,33.69333970505819,0.0 -78.92885108847778,33.693347157508335,0.0 -78.9288623844645,33.69335217754583,0.0 -78.92891807858038,33.69338606434245,0.0 -78.92895973032104,33.693404891116906,0.0 -78.92901424840137,33.69338559460731,0.0 -78.92902248371912,33.6933405693123,0.0 -78.9290530765495,33.6933317055682,0.0 -78.92908743471457,33.69331907652436,0.0 -78.92909033694178,33.69334166712959,0.0 -78.92915724713646,33.693396969790406,0.0 -78.92922266828236,33.693398537770165,0.0 -78.92925639780769,33.6933795554878,0.0 -78.92932362239304,33.69337202516037,0.0 -78.92933013406304,33.69342818931243,0.0 -78.9293731190078,33.69349400201004,0.0 -78.9293884946416,33.69350553377255,0.0 -78.9293965740522,33.69351180846457,0.0 -78.9293814341219,33.693536753784045,0.0 -78.92935146995765,33.69352726111969,0.0 -78.92931789629172,33.693539184252025,0.0 -78.92929632454023,33.69354679336807,0.0 -78.92929656027988,33.6935493825976,0.0 -78.9293004827259,33.693592603215336,0.0 -78.92933342765663,33.693663357272676,0.0 -78.92932989805523,33.69367559486413,0.0 -78.9293033062585,33.69372124741008,0.0 -78.92931256172959,33.693757801804054,0.0 -78.929345193687,33.69379106116128,0.0 -78.92947878104508,33.69381663318422,0.0 -78.92954169152864,33.693823379609555,0.0 -78.92956922360415,33.693844559806806,0.0 -78.92957910770754,33.693894526590185,0.0 -78.9296384886011,33.69390292057123,0.0 -78.92966288407597,33.693846127915634,0.0 -78.92964131242073,33.69376368636599,0.0 -78.92964186118016,33.69376054838603,0.0 -78.9296543333406,33.693690028967524,0.0 -78.92966256992918,33.69368116512152,0.0 -78.92964758720821,33.69366147670194,0.0 -78.92954875094783,33.693596839837916,0.0 -78.92955400669986,33.693591977036895,0.0 -78.9296391949323,33.693516437963915,0.0 -78.92965943212701,33.693502005432464,0.0 -78.92969222135406,33.69343423118627,0.0 -78.92970539940534,33.693388814320556,0.0 -78.92966806174888,33.69337234105235,0.0 -78.9296513528563,33.69336481034233,0.0 -78.92955369263568,33.69334998437089,0.0 -78.9295410633602,33.69337696886655,0.0 -78.92952623774413,33.69341022800749,0.0 -78.92945328725784,33.69339806864788,0.0 -78.92937115857475,33.6933463753831,0.0 -78.92935672593978,33.69330786038127,0.0 -78.92933311500451,33.69332637253639,0.0 -78.92925788829041,33.693317586890494,0.0 -78.9292151377295,33.6932974268613,0.0 -78.92922007919165,33.69326142259579,0.0 -78.92925953594364,33.69324722458387,0.0 -78.92935084290997,33.69325765787473,0.0 -78.9293649612632,33.69325750077791,0.0 -78.92955337973349,33.69324597125376,0.0 -78.92956506732448,33.69324181308746,0.0 -78.92965080422267,33.693250442929774,0.0 -78.9297339532853,33.69317255036021,0.0 -78.9297552893137,33.6931467433023,0.0 -78.92978784274052,33.693132938161526,0.0 -78.92983278964245,33.693146350752734,0.0 -78.92988722781952,33.69313874309589,0.0 -78.9299832418024,33.693125015515044,0.0 -78.93003830732243,33.69311168065019,0.0 -78.93007768552727,33.693065792420406,0.0 -78.9301263977996,33.69304194738107,0.0 -78.93016412839482,33.69302578746715,0.0 -78.9301959758984,33.6930172380508,0.0 -78.93028108549679,33.69299095979994,0.0 -78.93028336041175,33.692990646797874,0.0 -78.93036917591657,33.69297488000569,0.0 -78.9303738829067,33.6929755073616,0.0 -78.93039600340205,33.69297919419881,0.0 -78.93041639773462,33.692986882086764,0.0 -78.93041898697135,33.692987902335766,0.0 -78.93041278955283,33.69299880535587,0.0 -78.9303992186233,33.693020298378315,0.0 -78.93039835553968,33.693024376703775,0.0 -78.93039443433798,33.693042340194765,0.0 -78.9304045528972,33.693070815205026,0.0 -78.93040667062925,33.69309042498558,0.0 -78.93039921839788,33.693232247089554,0.0 -78.93038956994852,33.693265193241864,0.0 -78.9304089453299,33.693291627820024,0.0 -78.93040706323409,33.69337187424718,0.0 -78.93039608152715,33.69340772132451,0.0 -78.93043577261523,33.69348428120481,0.0 -78.93045436332815,33.69367073716786,0.0 -78.93046714837408,33.6937202337915,0.0 -78.93046220690502,33.69376298419583,0.0 -78.93046487469537,33.693789654439435,0.0 -78.93046228540976,33.69383460118034,0.0 -78.93048754383393,33.69389962930228,0.0 -78.9304958589117,33.6939769735352,0.0 -78.93050762501197,33.694040039701875,0.0 -78.93051907681439,33.69407933918622,0.0 -78.93052346946595,33.69409440047422,0.0 -78.9305253527334,33.69414405420925,0.0 -78.93057947777628,33.69425042106001,0.0 -78.93060536349357,33.69435678778199,0.0 -78.93061030486517,33.69440581419638,0.0 -78.93062662079085,33.694472645700934,0.0 -78.9306291313962,33.694521280511296,0.0 -78.93061242244035,33.69457320906777,0.0 -78.9306257574271,33.69474060268066,0.0 -78.93064725055613,33.694772371577024,0.0 -78.93070898487251,33.694849716054435,0.0 -78.9307215355265,33.69486101075322,0.0 -78.93070859188015,33.69493294200041,0.0 -78.93074969615623,33.69496965370181,0.0 -78.93073855727685,33.6950156193312,0.0 -78.93072796718718,33.6950298174746,0.0 -78.93069604107619,33.69506299795685,0.0 -78.93063077713809,33.69501695339738,0.0 -78.93059932258721,33.69497930139314,0.0 -78.93057994722591,33.694933647327055,0.0 -78.93056771091314,33.69490548662891,0.0 -78.93060159759975,33.69488713168209,0.0 -78.93066293913087,33.694852539504204,0.0 -78.930603009499,33.69482696650674,0.0 -78.9305473939891,33.694768135629964,0.0 -78.93050644686622,33.694739504627094,0.0 -78.93044338058198,33.694683967550205,0.0 -78.9303898827987,33.694650158033234,0.0 -78.93031222535134,33.6946092119842,0.0 -78.93023864621655,33.69459807285801,0.0 -78.93021409496315,33.69458607087971,0.0 -78.93017361801004,33.69456269560689,0.0 -78.93011666921379,33.69453414180196,0.0 -78.93007133067736,33.69455775242419,0.0 -78.93001791145848,33.69453955423934,0.0 -78.929928016339,33.69451727624883,0.0 -78.92991962390342,33.69452151170093,0.0 -78.92990958259706,33.69451005985277,0.0 -78.92992064287817,33.694480723172774,0.0 -78.92994001834406,33.69442808871387,0.0 -78.92992252628363,33.69440086833897,0.0 -78.92988793375892,33.69434478263863,0.0 -78.92982674818309,33.69428265659361,0.0 -78.92979301870126,33.694260693181945,0.0 -78.92975866057647,33.694235434624,0.0 -78.92974563979742,33.69417738843821,0.0 -78.92974148156928,33.694171191034805,0.0 -78.92973112725367,33.69415573812678,0.0 -78.92969692763906,33.69409416095917,0.0 -78.92966963003158,33.69403995729607,0.0 -78.92967386556819,33.69401124791951,0.0 -78.92963707670204,33.693962535682324,0.0 -78.9295889917838,33.69396983035515,0.0 -78.92953855339417,33.69395469158628,0.0 -78.92950741181987,33.69395210221578,0.0 -78.92951039268003,33.69392605933278,0.0 -78.9295210600962,33.693860246879694,0.0 -78.92938715967765,33.69387836693843,0.0 -78.9293646475352,33.693923627909975,0.0 -78.92939288681839,33.69396324048289,0.0 -78.92939461162072,33.69400661825171,0.0 -78.92943697053339,33.69407729508147,0.0 -78.92944567727416,33.69408992432169,0.0 -78.9293808847053,33.694152755706185,0.0 -78.92934574198512,33.69421794071282,0.0 -78.92933444728013,33.69423896226212,0.0 -78.92932958311675,33.69424908210211,0.0 -78.9293169538662,33.69425269020037,0.0 -78.92933389718934,33.69426233865684,0.0 -78.9293383684396,33.69426053394453,0.0 -78.9295186287688,33.69438384595138,0.0 -78.92952804140081,33.69442118353224,0.0 -78.92946387616524,33.69448723148236,0.0 -78.92946921046361,33.694514607652955,0.0 -78.92951964748362,33.69458598912525,0.0 -78.92955039742803,33.694621759122015,0.0 -78.92956828237081,33.69466929518445,0.0 -78.92942198712065,33.694702945316976,0.0 -78.92937241178923,33.694707180580835,0.0 -78.92932315078295,33.69470961242302,0.0 -78.92927514445627,33.69470663138217,0.0 -78.92922439302988,33.69471274995387,0.0 -78.9291796019705,33.69470772976305,0.0 -78.92912586971906,33.69470710218284,0.0 -78.92908649155866,33.694710866010105,0.0 -78.92902671904304,33.69472781031795,0.0 -78.92886324613839,33.694657447256716,0.0 -78.92884614565682,33.69464481797814,0.0 -78.92883171168569,33.69463093273302,0.0 -78.92879013851552,33.69462136274436,0.0 -78.9287340514944,33.694587947428495,0.0 -78.92871946168665,33.694559786720184,0.0 -78.92873601348197,33.69450770100312,0.0 -78.92875021173134,33.69450236675984,0.0 -78.92874762250618,33.694490600623745,0.0 -78.92874699517868,33.694481893898455,0.0 -78.92875232958588,33.69440815919479,0.0 -78.92874017059361,33.69433465884314,0.0 -78.92873860160658,33.694325480630354,0.0 -78.9287156180509,33.6943039874415,0.0 -78.92870432337943,33.69429371167632,0.0 -78.9286471388668,33.69424146977103,0.0 -78.92864666869421,33.6942390377016,0.0 -78.92864376513434,33.69423786159971,0.0 -78.92861144755014,33.69415839951341,0.0 -78.92860548592265,33.69412404277013,0.0 -78.92862517570721,33.69407619255768,0.0 -78.92862391974577,33.694055876866436,0.0 -78.92861513447794,33.69399351531994,0.0 -78.92861984152952,33.69393719405831,0.0 -78.92859999597314,33.693910759478456,0.0 -78.92861325259167,33.6938782848264,0.0 -78.9286119966113,33.69387553974096,0.0 -78.92859011190538,33.69382816082196,0.0 -78.9285822682963,33.69376713252949,0.0 -78.92857928748738,33.69374548227099,0.0 -78.9285584217288,33.69368327914022,0.0 -78.92854657700303,33.69366249191749,0.0 -78.92854555677447,33.69365111738151,0.0 -78.92851653302779,33.693579500266516,0.0 -78.92849064726283,33.69351910053604,0.0 -78.928486568943,33.69349650861595,0.0 -78.92846570318271,33.69343595174741,0.0 -78.92842106924482,33.69346850483684,0.0 -78.92839275264193,33.69347430918937,0.0 -78.92839008480313,33.69349290002024,0.0 -78.92842240354899,33.69370908567458,0.0 -78.92836459190946,33.693463013110254,0.0 -78.92834741284759,33.69345014939967,0.0 -78.9283051324746,33.693418380409604,0.0 -78.92830819191673,33.69339147445114,0.0 -78.92830489808195,33.69338127730308,0.0 -78.92834945205787,33.69341492830708,0.0</coordinates>
                    </LinearRing>
                </outerBoundaryIs>
            </Polygon>
        </Placemark>
        <Placemark id="3378">
            <name>Flood_367</name>
            <styleUrl>#3383</styleUrl>
            <Polygon id="3377">
                <outerBoundaryIs>
                    <LinearRing id="3381">
                        <coordinates>-78.92912163271461,33.69488281084236,0.0 -78.92920164374245,33.694844453433454,0.0 -78.92922117631099,33.69484712002201,0.0 -78.92923364840493,33.69483888353009,0.0 -78.92931922811547,33.69487284904485,0.0 -78.92937045102265,33.6948705756825,0.0 -78.92936872481822,33.69491332610107,0.0 -78.92938833590593,33.694973490062125,0.0 -78.92939712121671,33.69499631774566,0.0 -78.92939139528326,33.69500690644556,0.0 -78.92937139249808,33.69504283337126,0.0 -78.92936135114152,33.695078210278936,0.0 -78.92934127106109,33.695136649215854,0.0 -78.92935931188096,33.695160651720585,0.0 -78.92935288000427,33.695195088297766,0.0 -78.92931209004006,33.69516928095609,0.0 -78.92929357771989,33.6951595539117,0.0 -78.92927945811512,33.695105428889406,0.0 -78.92922196056384,33.69507585615434,0.0 -78.92917081628806,33.69503098774878,0.0 -78.92911982920313,33.69495889904923,0.0 -78.9290897078932,33.69493434642565,0.0 -78.92903707318165,33.69490783311491,0.0 -78.92903942667785,33.69490704863004,0.0 -78.92909747303649,33.69488869379401,0.0 -78.92912163271461,33.69488281084236,0.0</coordinates>
                    </LinearRing>
                </outerBoundaryIs>
            </Polygon>
        </Placemark>
        <Placemark id="3387">
            <name>Flood_368</name>
            <styleUrl>#3392</styleUrl>
            <Polygon id="3386">
                <outerBoundaryIs>
                    <LinearRing id="3390">
                        <coordinates>-78.92922988093729,33.69682941864478,0.0 -78.92922980235919,33.69682683072567,0.0 -78.92922588119652,33.69680816128397,0.0 -78.92921889932288,33.69677835303847,0.0 -78.92918720914075,33.696637079510744,0.0 -78.92918650322562,33.696634727330405,0.0 -78.92917473711324,33.69658326881791,0.0 -78.92916124484219,33.69653189018762,0.0 -78.92914492892045,33.69646191939167,0.0 -78.92912131809838,33.696374379266,0.0 -78.92911959194711,33.696367554539215,0.0 -78.92909511807842,33.69624965613253,0.0 -78.92908201872417,33.696186588650775,0.0 -78.92905817217725,33.69608281116769,0.0 -78.92904624895941,33.69597918959087,0.0 -78.92903793519108,33.69590286559613,0.0 -78.92904938704203,33.695896668264346,0.0 -78.9291244566444,33.69586058573988,0.0 -78.92913928222703,33.69585878238473,0.0 -78.92927718234613,33.69590153344325,0.0 -78.9292939684903,33.695927497836166,0.0 -78.92931844242426,33.69598468099839,0.0 -78.92932824794492,33.69603645251432,0.0 -78.92938974658848,33.69604869040388,0.0 -78.92940849464023,33.69606869316319,0.0 -78.92948654366647,33.696124700482585,0.0 -78.92956584870508,33.6961538031448,0.0 -78.92956239767814,33.69617192248902,0.0 -78.92958412527663,33.69616941325051,0.0 -78.92962452363867,33.69620282980534,0.0 -78.92961197293593,33.6962370293031,0.0 -78.92967998195734,33.696289428420826,0.0 -78.92974681361109,33.69630919696902,0.0 -78.9297708174238,33.69631617764932,0.0 -78.9297779551811,33.69631641342373,0.0 -78.92979552584502,33.69632261088868,0.0 -78.92982109861317,33.69636842083448,0.0 -78.92983482533248,33.69640567985487,0.0 -78.92987310591565,33.6964634131446,0.0 -78.92992142527723,33.69644717600988,0.0 -78.92997154933272,33.69647353345881,0.0 -78.9299827667261,33.69649063263323,0.0 -78.92999484719518,33.696511106845335,0.0 -78.92999523872317,33.69657331119327,0.0 -78.93001367374193,33.69661166905306,0.0 -78.93002339938006,33.69665630152809,0.0 -78.93005838478585,33.69673466612056,0.0 -78.93005979661613,33.69673937179109,0.0 -78.93005963945089,33.6967427455143,0.0 -78.93005579677025,33.69681655880626,0.0 -78.93005069686978,33.69682165734941,0.0 -78.93005391343745,33.696828324922045,0.0 -78.93002261466607,33.69685828884331,0.0 -78.92996990259942,33.696909432737904,0.0 -78.92990252085744,33.696910374085036,0.0 -78.92980619381905,33.69696034038095,0.0 -78.92963966137746,33.69700230685639,0.0 -78.92959259670816,33.697001050661264,0.0 -78.92954482479597,33.69701415112542,0.0 -78.92951250711629,33.697022464796774,0.0 -78.9293829207619,33.697058469799046,0.0 -78.92936707626177,33.697047252355866,0.0 -78.92934722935635,33.697056900643744,0.0 -78.92930596916963,33.69707454964061,0.0 -78.92929749817462,33.69705870383837,0.0 -78.92922988093729,33.69682941864478,0.0</coordinates>
                    </LinearRing>
                </outerBoundaryIs>
            </Polygon>
        </Placemark>
        <Placemark id="3396">
            <name>Flood_369</name>
            <styleUrl>#3401</styleUrl>
            <Polygon id="3395">
                <outerBoundaryIs>
                    <LinearRing id="3399">
                        <coordinates>-78.81045450632081,33.9174542374544,0.0 -78.81072434648726,33.917408113593105,0.0 -78.81086154000359,33.917347399687806,0.0 -78.81105489930465,33.9173638731496,0.0 -78.81125210086823,33.917305434255105,0.0 -78.81128787058998,33.917272253580656,0.0 -78.81138458887568,33.91728041173098,0.0 -78.8114165931775,33.91722377599906,0.0 -78.8114857780071,33.91719945929019,0.0 -78.81148373871525,33.917170356897074,0.0 -78.81150264371084,33.91713011702272,0.0 -78.81158594832326,33.9171443153938,0.0 -78.81161293218277,33.91728425469954,0.0 -78.81171082799929,33.917322848495154,0.0 -78.81167921654979,33.91736795249876,0.0 -78.81161018757149,33.917392190627204,0.0 -78.81156398649206,33.9174737704933,0.0 -78.8114808377269,33.91745847461155,0.0 -78.81145997190694,33.91744357042443,0.0 -78.8114440489037,33.917451728392805,0.0 -78.81141094551137,33.91744568809734,0.0 -78.81138254992688,33.91733014288056,0.0 -78.81131948297244,33.917441531026974,0.0 -78.81121429245219,33.91744670802088,0.0 -78.81111443618215,33.91743823554268,0.0 -78.81107529433956,33.91753887649768,0.0 -78.810993323287,33.917595589420976,0.0 -78.81081282913476,33.91762547601905,0.0 -78.81046329437441,33.91778314385543,0.0 -78.8103556717875,33.917788399427025,0.0 -78.8102844462256,33.917753571003004,0.0 -78.81019102296003,33.917716860533574,0.0 -78.81018364902879,33.91761268860561,0.0 -78.81025636332113,33.91756272182607,0.0 -78.81028828904134,33.91750624325406,0.0 -78.81039026291687,33.91748263251438,0.0 -78.81045450632081,33.9174542374544,0.0</coordinates>
                    </LinearRing>
                </outerBoundaryIs>
            </Polygon>
        </Placemark>
    </Document>
</kml>
