<?xml version="1.0" encoding="UTF-8"?>
<kml xmlns="http://www.opengis.net/kml/2.2" xmlns:gx="http://www.google.com/kml/ext/2.2">
    <Document id="3865">
        <Style id="3872">
            <LineStyle id="3874">
                <colorMode>normal</colorMode>
                <width>1</width>
            </LineStyle>
            <PolyStyle id="3873">
                <color>80ebce87</color>
                <colorMode>normal</colorMode>
                <fill>1</fill>
                <outline>1</outline>
            </PolyStyle>
        </Style>
        <Style id="3881">
            <LineStyle id="3883">
                <colorMode>normal</colorMode>
                <width>1</width>
            </LineStyle>
            <PolyStyle id="3882">
                <color>80ebce87</color>
                <colorMode>normal</colorMode>
                <fill>1</fill>
                <outline>1</outline>
            </PolyStyle>
        </Style>
        <Style id="3890">
            <LineStyle id="3892">
                <colorMode>normal</colorMode>
                <width>1</width>
            </LineStyle>
            <PolyStyle id="3891">
                <color>80ebce87</color>
                <colorMode>normal</colorMode>
                <fill>1</fill>
                <outline>1</outline>
            </PolyStyle>
        </Style>
        <Style id="3899">
            <LineStyle id="3901">
                <colorMode>normal</colorMode>
                <width>1</width>
            </LineStyle>
            <PolyStyle id="3900">
                <color>80ebce87</color>
                <colorMode>normal</colorMode>
                <fill>1</fill>
                <outline>1</outline>
            </PolyStyle>
        </Style>
        <Style id="3908">
            <LineStyle id="3910">
                <colorMode>normal</colorMode>
                <width>1</width>
            </LineStyle>
            <PolyStyle id="3909">
                <color>80ebce87</color>
                <colorMode>normal</colorMode>
                <fill>1</fill>
                <outline>1</outline>
            </PolyStyle>
        </Style>
        <Style id="3917">
            <LineStyle id="3919">
                <colorMode>normal</colorMode>
                <width>1</width>
            </LineStyle>
            <PolyStyle id="3918">
                <color>80ebce87</color>
                <colorMode>normal</colorMode>
                <fill>1</fill>
                <outline>1</outline>
            </PolyStyle>
        </Style>
        <Style id="3926">
            <LineStyle id="3928">
                <colorMode>normal</colorMode>
                <width>1</width>
            </LineStyle>
            <PolyStyle id="3927">
                <color>80ebce87</color>
                <colorMode>normal</colorMode>
                <fill>1</fill>
                <outline>1</outline>
            </PolyStyle>
        </Style>
        <Style id="3935">
            <LineStyle id="3937">
                <colorMode>normal</colorMode>
                <width>1</width>
            </LineStyle>
            <PolyStyle id="3936">
                <color>80ebce87</color>
                <colorMode>normal</colorMode>
                <fill>1</fill>
                <outline>1</outline>
            </PolyStyle>
        </Style>
        <Style id="3944">
            <LineStyle id="3946">
                <colorMode>normal</colorMode>
                <width>1</width>
            </LineStyle>
            <PolyStyle id="3945">
                <color>80ebce87</color>
                <colorMode>normal</colorMode>
                <fill>1</fill>
                <outline>1</outline>
            </PolyStyle>
        </Style>
        <Style id="3953">
            <LineStyle id="3955">
                <colorMode>normal</colorMode>
                <width>1</width>
            </LineStyle>
            <PolyStyle id="3954">
                <color>80ebce87</color>
                <colorMode>normal</colorMode>
                <fill>1</fill>
                <outline>1</outline>
            </PolyStyle>
        </Style>
        <Placemark id="3867">
            <name>Flood_420</name>
            <styleUrl>#3872</styleUrl>
            <Polygon id="3866">
                <outerBoundaryIs>
                    <LinearRing id="3870">
                        <coordinates>-78.93732100442088,33.70215485992373,0.0 -78.93732759346842,33.70210936444441,0.0 -78.93726538888363,33.702116580467646,0.0 -78.9372675066504,33.702102931038716,0.0 -78.93728774516342,33.70208034053887,0.0 -78.93730272795197,33.70203515811102,0.0 -78.9372769207808,33.70195554019389,0.0 -78.93722185401775,33.7018992186499,0.0 -78.93716592545168,33.70187615631299,0.0 -78.93717322038171,33.701865723471315,0.0 -78.93724311151973,33.70181928662942,0.0 -78.9372576241041,33.70180281359752,0.0 -78.93725699678012,33.70178994996116,0.0 -78.93722577669855,33.701712056861666,0.0 -78.93723103247618,33.70168177849663,0.0 -78.93722130548754,33.70167456213908,0.0 -78.9371689065044,33.70165714713977,0.0 -78.9371108588632,33.70164640098212,0.0 -78.93709972004365,33.70163479065657,0.0 -78.93709438572998,33.70162059374865,0.0 -78.93709972006968,33.70160890491891,0.0 -78.93713266638717,33.70161000388974,0.0 -78.93714325515613,33.70160655163405,0.0 -78.9371786335809,33.701576979324,0.0 -78.93717212182693,33.70160011995141,0.0 -78.93718200596103,33.701623417816016,0.0 -78.93719910644374,33.701636831592516,0.0 -78.93722185428298,33.70163534128743,0.0 -78.93723369905038,33.70161706351015,0.0 -78.93722420781994,33.701594158550094,0.0 -78.9372286004994,33.70158262818677,0.0 -78.93723322891155,33.701580823475375,0.0 -78.93724821164025,33.701595100318315,0.0 -78.93725903614623,33.701597060952835,0.0 -78.93728609809096,33.701577294145096,0.0 -78.93728633385672,33.70155407490812,0.0 -78.93727935196515,33.701539877992516,0.0 -78.93726672272783,33.70152967949017,0.0 -78.93727009646707,33.70152709158697,0.0 -78.93727550937967,33.701523326294776,0.0 -78.93728703980418,33.70152442516607,0.0 -78.93731182810838,33.70153995672378,0.0 -78.93731520051978,33.70155533102089,0.0 -78.93730170815277,33.70159533630828,0.0 -78.93734783245195,33.70161816285795,0.0 -78.93731590634262,33.701649774348915,0.0 -78.93733661499274,33.701665070146035,0.0 -78.9373841510858,33.70172931519221,0.0 -78.93740007417047,33.701738179150446,0.0 -78.93741984117261,33.70174139449574,0.0 -78.93748251724894,33.70172743233558,0.0 -78.93750157833435,33.70172962875003,0.0 -78.93751962048282,33.70173755106134,0.0 -78.93759963010713,33.701794657216986,0.0 -78.93762802656232,33.701828543894706,0.0 -78.93763508704072,33.70183685905777,0.0 -78.9376448126984,33.70186533406917,0.0 -78.93763822365874,33.7019030644822,0.0 -78.93759947407199,33.701977504952154,0.0 -78.93757711781112,33.701994918294616,0.0 -78.9375087157923,33.702028727251644,0.0 -78.93747914318944,33.70204943570433,0.0 -78.93745286573208,33.70208026272584,0.0 -78.93743419617961,33.702139250426775,0.0 -78.93734289045209,33.70219172739281,0.0 -78.93733002547555,33.7021783149455,0.0 -78.93732100442088,33.70215485992373,0.0</coordinates>
                    </LinearRing>
                </outerBoundaryIs>
            </Polygon>
        </Placemark>
        <Placemark id="3876">
            <name>Flood_421</name>
            <styleUrl>#3881</styleUrl>
            <Polygon id="3875">
                <outerBoundaryIs>
                    <LinearRing id="3879">
                        <coordinates>-78.93537289891246,33.70267060502552,0.0 -78.93532936387126,33.70262824598683,0.0 -78.93529476997199,33.702630677893296,0.0 -78.93529108322815,33.702624480491444,0.0 -78.93530300656174,33.70262087239086,0.0 -78.93530857663966,33.702613656104546,0.0 -78.93529273085005,33.70258141705766,0.0 -78.93529704498185,33.70253764641139,0.0 -78.93531869532798,33.70251780099865,0.0 -78.93535815206616,33.702519368863875,0.0 -78.93536458391335,33.702512545484204,0.0 -78.9353592496117,33.70248665972228,0.0 -78.93533226631611,33.702439045032655,0.0 -78.93533626613005,33.70238994007647,0.0 -78.93532144056672,33.70237213496855,0.0 -78.9352975166174,33.70239025421839,0.0 -78.93527625789235,33.70238397946405,0.0 -78.93525766699395,33.70237025135851,0.0 -78.93525539209331,33.70235636747749,0.0 -78.93526833571893,33.70230279133068,0.0 -78.93525507919404,33.70224450939766,0.0 -78.93522778155554,33.702216270046804,0.0 -78.93518361913826,33.70221242594375,0.0 -78.93517600990468,33.70220332759234,0.0 -78.93518424649169,33.70219618858929,0.0 -78.93520079692654,33.70219195317556,0.0 -78.93524409757572,33.70219430686382,0.0 -78.93525429473877,33.70220215055797,0.0 -78.935263943129,33.702226545929214,0.0 -78.93527500336846,33.702237371758656,0.0 -78.93529728102001,33.70224827491113,0.0 -78.93531187086282,33.702244509661725,0.0 -78.93532583338211,33.70222772361531,0.0 -78.93533752100149,33.70219642504354,0.0 -78.9353359533459,33.70216536215163,0.0 -78.93532481456123,33.70211963084936,0.0 -78.93532708948875,33.70210715881968,0.0 -78.93534301259125,33.70209837359019,0.0 -78.93539243075371,33.70210425688242,0.0 -78.93541063007494,33.70210111898438,0.0 -78.93541157046401,33.702063309965475,0.0 -78.9354184738072,33.70204550364886,0.0 -78.93543180897842,33.70203969922888,0.0 -78.93546867648305,33.70203679715915,0.0 -78.93547471675315,33.702012950614986,0.0 -78.93548687583294,33.70200557719807,0.0 -78.93552484082898,33.70202291354979,0.0 -78.93555300158597,33.70201287239821,0.0 -78.93561959882972,33.702014441698985,0.0 -78.93568603892541,33.70200275446314,0.0 -78.93572188747065,33.7020273856978,0.0 -78.93573004545675,33.70203985777594,0.0 -78.93573067278008,33.702053192895335,0.0 -78.9357105914332,33.702070999150756,0.0 -78.93566282083015,33.702083392388445,0.0 -78.93570588571096,33.702111081748946,0.0 -78.93571969105327,33.70210927838997,0.0 -78.93577358051873,33.70206174265674,0.0 -78.93579923062492,33.70204534825739,0.0 -78.935757891921,33.70199977397556,0.0 -78.93572777058738,33.70199522402274,0.0 -78.9357158472662,33.70198683025672,0.0 -78.93571396527113,33.70197145596676,0.0 -78.9357310644698,33.70195953276003,0.0 -78.93576369644609,33.701978280917096,0.0 -78.935812174252,33.7019900472675,0.0 -78.93583970764789,33.7020037754146,0.0 -78.93582401895638,33.702033896569624,0.0 -78.93582582237904,33.702040955729196,0.0 -78.93583970760034,33.702050525592966,0.0 -78.93587367284483,33.70205593863987,0.0 -78.93589383142782,33.70207249041323,0.0 -78.93591783524215,33.70207939251491,0.0 -78.93593556307634,33.70207829508917,0.0 -78.9359609001655,33.70206527310295,0.0 -78.93597384240232,33.70208919831606,0.0 -78.93595164331224,33.70209735618192,0.0 -78.93595046721116,33.702105356984426,0.0 -78.93596458686834,33.70211186744715,0.0 -78.93599674738229,33.70210849518212,0.0 -78.93598913940508,33.70215187291067,0.0 -78.9359843538219,33.70216293309847,0.0 -78.93597917665429,33.702164110472744,0.0 -78.93594819225517,33.70214591107725,0.0 -78.93592999424956,33.70214324449323,0.0 -78.9359191684285,33.702146539586565,0.0 -78.93588849830637,33.7021739142824,0.0 -78.93586653362433,33.7022063902049,0.0 -78.93580989908675,33.702236275427936,0.0 -78.93580370167096,33.702244511948564,0.0 -78.9357960937011,33.70228067336484,0.0 -78.93577020785784,33.702291733454494,0.0 -78.93574949919416,33.70228985135446,0.0 -78.93573294747648,33.70226765227688,0.0 -78.93566446694278,33.702236117590665,0.0 -78.93565521142884,33.702239019788614,0.0 -78.9356436809831,33.70225863081669,0.0 -78.93562807090154,33.7022601211548,0.0 -78.9356195200091,33.70224976682022,0.0 -78.9356135583781,33.702216507582,0.0 -78.93560108630834,33.702200583179,0.0 -78.93558006463991,33.70219015151559,0.0 -78.93554813855647,33.70219572010755,0.0 -78.93553448904856,33.702214623900936,0.0 -78.93553441045147,33.70223062682606,0.0 -78.93557716230863,33.702268200306605,0.0 -78.9355849273853,33.70228600669135,0.0 -78.93558430002936,33.702304597532844,0.0 -78.93556398290322,33.70235856523865,0.0 -78.93556908144511,33.70240139427198,0.0 -78.93552586070062,33.7023851567136,0.0 -78.93550993629589,33.702386489889236,0.0 -78.93553582210706,33.70240704143826,0.0 -78.93556719941188,33.70242359326381,0.0 -78.93558547599824,33.70242641700923,0.0 -78.93561834374368,33.70241904368877,0.0 -78.93559065315723,33.70243371192615,0.0 -78.93556406137598,33.70246454025511,0.0 -78.93555441293883,33.70248618914698,0.0 -78.93556468861534,33.70256023825018,0.0 -78.9355560604283,33.702572945991804,0.0 -78.93547471615526,33.7025990670921,0.0 -78.93545149681361,33.702617422086774,0.0 -78.93540317740957,33.70267350740741,0.0 -78.93539117549167,33.70268048923193,0.0 -78.93537289891246,33.70267060502552,0.0</coordinates>
                    </LinearRing>
                </outerBoundaryIs>
            </Polygon>
        </Placemark>
        <Placemark id="3885">
            <name>Flood_422</name>
            <styleUrl>#3890</styleUrl>
            <Polygon id="3884">
                <outerBoundaryIs>
                    <LinearRing id="3888">
                        <coordinates>-78.93599185466178,33.6541564850392,0.0 -78.93599012851702,33.65414346423768,0.0 -78.93599671751387,33.65414566059093,0.0 -78.93599185466178,33.6541564850392,0.0</coordinates>
                    </LinearRing>
                </outerBoundaryIs>
            </Polygon>
        </Placemark>
        <Placemark id="3894">
            <name>Flood_423</name>
            <styleUrl>#3899</styleUrl>
            <Polygon id="3893">
                <outerBoundaryIs>
                    <LinearRing id="3897">
                        <coordinates>-78.92946779372602,33.69786743838727,0.0 -78.92936174155311,33.697402436316615,0.0 -78.92930557745595,33.69718578037573,0.0 -78.92931844115871,33.69716436593144,0.0 -78.92935797645299,33.69718727102732,0.0 -78.92944135982219,33.697229864676096,0.0 -78.92945924478028,33.69726343828886,0.0 -78.92948921028031,33.69724939739596,0.0 -78.92955768950796,33.69727324297199,0.0 -78.9296333077897,33.69730956193012,0.0 -78.9296397396157,33.697322505482255,0.0 -78.92965487950586,33.697335604925875,0.0 -78.92970908192132,33.69734776420225,0.0 -78.92972900603853,33.697393652702786,0.0 -78.92973536053252,33.697463543563295,0.0 -78.92974085069862,33.69747632995023,0.0 -78.92965079967054,33.69750496035136,0.0 -78.92958608575113,33.69750197923216,0.0 -78.92955211918756,33.69750684321068,0.0 -78.92950976149373,33.69751978522872,0.0 -78.9294528912369,33.69752872743112,0.0 -78.92943986906796,33.69754527904968,0.0 -78.92944269270447,33.69757720502143,0.0 -78.92951383971219,33.697637447800815,0.0 -78.92949626898816,33.69768710144585,0.0 -78.92949540585666,33.697735813510995,0.0 -78.92950293651116,33.697742481103475,0.0 -78.92949007147433,33.69778672188138,0.0 -78.92948716912433,33.69787857726637,0.0 -78.92947250070733,33.69787645945366,0.0 -78.92946779372602,33.69786743838727,0.0</coordinates>
                    </LinearRing>
                </outerBoundaryIs>
            </Polygon>
        </Placemark>
        <Placemark id="3903">
            <name>Flood_424</name>
            <styleUrl>#3908</styleUrl>
            <Polygon id="3902">
                <outerBoundaryIs>
                    <LinearRing id="3906">
                        <coordinates>-78.90321273034566,33.69640469460242,0.0 -78.90322700713135,33.69643481719551,0.0 -78.90330552759853,33.69651529840092,0.0 -78.90346405903139,33.69661295898241,0.0 -78.90368777449903,33.69675917475866,0.0 -78.90388387933407,33.69686930754966,0.0 -78.9039801276786,33.696915510710674,0.0 -78.90397581352453,33.69696767374107,0.0 -78.90397495043197,33.69697787217722,0.0 -78.90396702805315,33.69707309992833,0.0 -78.9038375202719,33.69710879059942,0.0 -78.9037675493151,33.697091689849785,0.0 -78.90371067907262,33.697088081433506,0.0 -78.90366079074695,33.6970758435999,0.0 -78.90361152839424,33.69710557299856,0.0 -78.90357113131516,33.69709827792244,0.0 -78.90353857777104,33.697199545781544,0.0 -78.90360776286212,33.69726127894578,0.0 -78.90362533483291,33.697268652497485,0.0 -78.90364423873865,33.69728379242873,0.0 -78.90360627236603,33.697323013094724,0.0 -78.90355708994122,33.697323718783416,0.0 -78.90350798480776,33.697308814454786,0.0 -78.90348868799305,33.6972975184183,0.0 -78.90345982132419,33.69730183366503,0.0 -78.90340930563642,33.69730904974258,0.0 -78.90336106354997,33.69731908949012,0.0 -78.90333902168314,33.697278613879504,0.0 -78.90336867288984,33.69724386440614,0.0 -78.90346076311836,33.69719821217453,0.0 -78.90340585360964,33.69708470630923,0.0 -78.90342781841619,33.69696225964546,0.0 -78.90342993618476,33.69695025779251,0.0 -78.90322598650833,33.69672960017376,0.0 -78.90315531099111,33.696675946389014,0.0 -78.90314534826054,33.69667029771456,0.0 -78.90317570564149,33.696437640619514,0.0 -78.9031945323198,33.696418892706795,0.0 -78.90321273034566,33.69640469460242,0.0</coordinates>
                    </LinearRing>
                </outerBoundaryIs>
            </Polygon>
        </Placemark>
        <Placemark id="3912">
            <name>Flood_425</name>
            <styleUrl>#3917</styleUrl>
            <Polygon id="3911">
                <outerBoundaryIs>
                    <LinearRing id="3915">
                        <coordinates>-78.67492237984946,33.820044478754404,0.0 -78.67492677245363,33.82003632075168,0.0 -78.67492771409829,33.820034124417205,0.0 -78.67492904732798,33.82003028050509,0.0 -78.67493006623921,33.82002706393013,0.0 -78.67493069487054,33.82002439742138,0.0 -78.67493108644692,33.820020632091975,0.0 -78.67493155659916,33.820015769251064,0.0 -78.67493147800876,33.82001325859573,0.0 -78.67493092922663,33.820005885101374,0.0 -78.67493053762378,33.820003140014045,0.0 -78.67492771390613,33.81998674545216,0.0 -78.67492732099493,33.81998431337813,0.0 -78.67492637930955,33.81997646970976,0.0 -78.67492661501663,33.81996815455416,0.0 -78.6749274780785,33.81996533088345,0.0 -78.67492967437899,33.81996085963302,0.0 -78.67493602757241,33.81995552529504,0.0 -78.67494355816886,33.819952310016056,0.0 -78.6749463818165,33.81995144693123,0.0 -78.67495210900293,33.819950035084794,0.0 -78.67495469691073,33.819949406433125,0.0 -78.67496607139847,33.81994776014202,0.0 -78.67497736599829,33.81994658271631,0.0 -78.67498026953842,33.819946348277526,0.0 -78.67499172130063,33.81994564233614,0.0 -78.67499423194002,33.8199455637501,0.0 -78.67500489921049,33.81994517082368,0.0 -78.67500803718265,33.81994517081706,0.0 -78.67503400141386,33.8199450136008,0.0 -78.675036825065,33.81994501359485,0.0 -78.67506380953321,33.819945642184024,0.0 -78.67506608443246,33.81994571945034,0.0 -78.675068358022,33.81994579802635,0.0 -78.6751093048988,33.819947366935956,0.0 -78.67511252145171,33.819947445509904,0.0 -78.67512358162598,33.81994768122894,0.0 -78.67512671959824,33.81994768122232,0.0 -78.67513887727574,33.819947602615834,0.0 -78.67514209382801,33.81994752402824,0.0 -78.67515323258006,33.81994713241061,0.0 -78.67515566332912,33.81994697524392,0.0 -78.6751664104873,33.81994603356175,0.0 -78.67516962703822,33.81994564196074,0.0 -78.67518170612782,33.819943680035415,0.0 -78.67518445119617,33.81994305269313,0.0 -78.67519433527522,33.81994069917822,0.0 -78.67519700307231,33.81993991467454,0.0 -78.67520806323105,33.81993630648416,0.0 -78.67521018096649,33.81993560056247,0.0 -78.67522076964204,33.81993160077906,0.0 -78.67522296595716,33.81993073769554,0.0 -78.67523300718909,33.819926500861285,0.0 -78.67523606657602,33.81992524618183,0.0 -78.6752851699882,33.81990296843007,0.0 -78.67528783778404,33.819901870912915,0.0 -78.67535396296906,33.81987371004488,0.0 -78.67535702235524,33.819872298203876,0.0 -78.67536690642531,33.81986774835653,0.0 -78.67536910273986,33.81986672811156,0.0 -78.67538110454194,33.81986060926355,0.0 -78.67539122303839,33.81985488332345,0.0 -78.67539388952268,33.81985331432181,0.0 -78.67540416517451,33.819846333708384,0.0 -78.67541569679096,33.81983684243667,0.0 -78.67542573669091,33.81982711542592,0.0 -78.6754344446558,33.81981754557944,0.0 -78.67543609090454,33.81981558367602,0.0 -78.67544401437642,33.819806013831204,0.0 -78.67545170079687,33.81979620955431,0.0 -78.67545342693427,33.819793934637325,0.0 -78.67546111335245,33.81978358029495,0.0 -78.67547554715622,33.81976326320647,0.0 -78.67547727329305,33.81976083112803,0.0 -78.67554010439599,33.81966913247539,0.0 -78.67554143763361,33.81966725046317,0.0 -78.67556379358986,33.8196350100356,0.0 -78.6755656755772,33.819632500685714,0.0 -78.6755797950632,33.819613046676515,0.0 -78.67558159978056,33.819610693178625,0.0 -78.67559014926883,33.81959955433632,0.0 -78.67559752268066,33.819590455977256,0.0 -78.675599327399,33.819588338221656,0.0 -78.67560701382256,33.819579317133034,0.0 -78.67560897570138,33.81957719937711,0.0 -78.6756172108769,33.8195680997065,0.0 -78.6756261532747,33.819559000034396,0.0 -78.67562787941408,33.81955719660206,0.0 -78.6756347826648,33.81955076344174,0.0 -78.67563666465557,33.81954911717063,0.0 -78.6756446654095,33.81954237099458,0.0 -78.67564654871062,33.81954088057532,0.0 -78.67565156866627,33.81953742824955,0.0 -78.67565486378972,33.81953515332923,0.0 -78.67565690294265,33.819533898652,0.0 -78.6756619229016,33.819531232133905,0.0 -78.67566506086735,33.81952966313115,0.0 -78.67566749161264,33.81952856430493,0.0 -78.6756697665086,33.819527858382884,0.0 -78.67567259146622,33.819527073878845,0.0 -78.67567863035372,33.81952550487004,0.0 -78.6756843575443,33.8195251132637,0.0 -78.67568772994697,33.819524956095,0.0 -78.6756907893392,33.81952503466935,0.0 -78.67569596647235,33.819525740575614,0.0 -78.67570051627266,33.81952636790248,0.0 -78.67570302560459,33.819526839381744,0.0 -78.67570765398735,33.81952801546411,0.0 -78.67571361561741,33.81952966302833,0.0 -78.6757254603004,33.81953374134527,0.0 -78.67572765662253,33.8195346044194,0.0 -78.67573691339393,33.81953836972834,0.0 -78.67573973705016,33.81953962439537,0.0 -78.67575111025629,33.81954488011511,0.0 -78.67575362090071,33.819546057511694,0.0 -78.67576264193418,33.81955052873846,0.0 -78.67576562275225,33.81955209772816,0.0 -78.67577613419596,33.81955766646313,0.0 -78.6757786435314,33.81955899971155,0.0 -78.67578860622291,33.819564569757404,0.0 -78.67579127271924,33.81956598158623,0.0 -78.67580092109068,33.81957178606541,0.0 -78.67580366616788,33.81957335505571,0.0 -78.67581308010847,33.81957923811603,0.0 -78.6758155894452,33.819580885687564,0.0 -78.67582484622619,33.819587003180956,0.0 -78.67582712113152,33.81958857217217,0.0 -78.67583755400203,33.81959586706499,0.0 -78.6758490058009,33.8196041821959,0.0 -78.67585159502822,33.81960598692882,0.0 -78.67587081320265,33.81962049813704,0.0 -78.67587355828273,33.819622773044586,0.0 -78.6759045425835,33.81964716837919,0.0 -78.67590689607097,33.8196492075452,0.0 -78.67592611425185,33.81966528905919,0.0 -78.67592846773957,33.819667406806,0.0 -78.67593733162661,33.81967532903858,0.0 -78.67593905647034,33.81967697661178,0.0 -78.67594658710891,33.81968411434921,0.0 -78.67594847042346,33.81968591908353,0.0 -78.67595749016778,33.81969541031191,0.0 -78.67596557087711,33.81970474438071,0.0 -78.6759670612901,33.819706470535145,0.0 -78.67597396329379,33.81971541301222,0.0 -78.67597537512668,33.81971721643792,0.0 -78.67598172968724,33.81972600175462,0.0 -78.67598329868228,33.81972819808382,0.0 -78.67598973051595,33.819737612046566,0.0 -78.67599129951172,33.81973996553733,0.0 -78.67600377159029,33.819759496761556,0.0 -78.67600534058693,33.819762085994526,0.0 -78.67601075218553,33.81977118432669,0.0 -78.67601200816915,33.81977338065658,0.0 -78.67601820426908,33.819784519467696,0.0 -78.67602385292426,33.81979510952438,0.0 -78.67602479327644,33.81979714869337,0.0 -78.67602981459974,33.81980789591276,0.0 -78.67603444171455,33.819819269159865,0.0 -78.6760385213903,33.81983150679664,0.0 -78.67604063916292,33.81983989921846,0.0 -78.67604103207324,33.819842096859865,0.0 -78.67604236534692,33.819849077448865,0.0 -78.67604275695052,33.81985197969781,0.0 -78.6760451890877,33.81987104076833,0.0 -78.67604542483883,33.819873551423385,0.0 -78.67604714976476,33.81989535889331,0.0 -78.67604738551749,33.81989826114258,0.0 -78.67604840584347,33.81992085180236,0.0 -78.67604848312722,33.81992406837507,0.0 -78.67604871891069,33.81993450128156,0.0 -78.67604879750053,33.81993685346576,0.0 -78.6760487189648,33.81994775785758,0.0 -78.6760486403947,33.819950267203666,0.0 -78.6760482488485,33.81996140602872,0.0 -78.67604746439834,33.81997191751818,0.0 -78.67604715008905,33.81997481976861,0.0 -78.67604542529917,33.819986351500404,0.0 -78.67604283612617,33.81999788192421,0.0 -78.67604213022204,33.81999999967749,0.0 -78.67604071841252,33.8200039221706,0.0 -78.67603930660299,33.82000784335398,0.0 -78.67603812921976,33.82001058975447,0.0 -78.67603554132926,33.82001545259995,0.0 -78.67603303070872,33.82002015959333,0.0 -78.67603185463197,33.82002212018614,0.0 -78.67602495139502,33.820031925771175,0.0 -78.67601616616405,33.820042593129244,0.0 -78.67600722376869,33.82005232013784,0.0 -78.67600526319917,33.82005436062266,0.0 -78.67599710529021,33.820062440052745,0.0 -78.6759946732403,33.82006479224233,0.0 -78.67598635816883,33.8200724014978,0.0 -78.67598471191819,33.82007389191656,0.0 -78.67597655400493,33.82008095241593,0.0 -78.67597427911409,33.82008291301096,0.0 -78.67596478795777,33.82009052226889,0.0 -78.67596243448628,33.820092404283365,0.0 -78.67595176593647,33.82010024928616,0.0 -78.67593960829156,33.820108328724565,0.0 -78.6759284695637,33.82011468200343,0.0 -78.67592572318868,33.82011601526286,0.0 -78.67592039021709,33.820118368768185,0.0 -78.67591466303507,33.82012087943589,0.0 -78.67591238813965,33.82012174120975,0.0 -78.67590674084445,33.820123467379325,0.0 -78.67589944598434,33.82012558514648,0.0 -78.6758924641332,33.820127075576394,0.0 -78.67588548359102,33.82012840884483,0.0 -78.67587081528109,33.82013029219496,0.0 -78.67586814748144,33.82013044936204,0.0 -78.67585771464306,33.82013107672053,0.0 -78.67585465525175,33.82013123388853,0.0 -78.67584100716793,33.82013123391728,0.0 -78.67583865368842,33.82013115534142,0.0 -78.67582798641354,33.82013044944665,0.0 -78.67582571151397,33.82013029228998,0.0 -78.67581872965256,33.820129272064264,0.0 -78.6758131609276,33.820128566158765,0.0 -78.67581096460707,33.82012809598844,0.0 -78.67580539456992,33.82012676274643,0.0 -78.67580021743456,33.820125506774716,0.0 -78.67579778537186,33.820124722281875,0.0 -78.67579260823297,33.820122604540984,0.0 -78.67578750967424,33.820120486799944,0.0 -78.67578460743613,33.82011883922922,0.0 -78.67578154803608,33.82011687864543,0.0 -78.67577786130212,33.82011452515912,0.0 -78.67577550781654,33.82011295616805,0.0 -78.67576617375714,33.8201049553556,0.0 -78.67575801578184,33.82009679737921,0.0 -78.6757558980346,33.820094601051146,0.0 -78.67573919048853,33.820077343439486,0.0 -78.67572946352557,33.820068793872295,0.0 -78.67572452081201,33.82006526429636,0.0 -78.67571989373083,33.82006212631399,0.0 -78.67571777598772,33.82006095022627,0.0 -78.67571385351447,33.82005898833469,0.0 -78.67570906796652,33.82005671343152,0.0 -78.67570671448351,33.82005577308659,0.0 -78.67569785061632,33.82005271369397,0.0 -78.6756954984442,33.820052086362345,0.0 -78.67568302512305,33.82004902697742,0.0 -78.67567063169571,33.820046909251765,0.0 -78.67566820094473,33.820046594933785,0.0 -78.67565721803648,33.82004526170321,0.0 -78.6756547087055,33.8200450259662,0.0 -78.67564254971465,33.82004424149379,0.0 -78.67564011765494,33.82004416291818,0.0 -78.67562984197362,33.82004392850719,0.0 -78.6756271754827,33.820043849932084,0.0 -78.67562490058407,33.82004392851761,0.0 -78.67561203568536,33.82004432013894,0.0 -78.67560929061445,33.820044320144724,0.0 -78.67559674003844,33.82004510466915,0.0 -78.67559328905573,33.82004534041872,0.0 -78.67558065990066,33.820046437956876,0.0 -78.67557744334934,33.82004675228667,0.0 -78.6755506160557,33.820049576012245,0.0 -78.6755470864937,33.82005004619462,0.0 -78.67550300298319,33.82005561635448,0.0 -78.6754994734212,33.82005608653686,0.0 -78.67547154731811,33.82006008766655,0.0 -78.6754682534969,33.82006055784843,0.0 -78.67545609451732,33.82006251977399,0.0 -78.67545319228785,33.82006298995507,0.0 -78.67544111319884,33.82006510773221,0.0 -78.67543860256102,33.82006557791245,0.0 -78.67543609192319,33.8200660494024,0.0 -78.67542565909122,33.82006824575689,0.0 -78.67542314976342,33.82006879451795,0.0 -78.67541193244057,33.82007153962978,0.0 -78.67540848146113,33.8200725598773,0.0 -78.67539828306415,33.8200756978909,0.0 -78.67539585231786,33.82007656097481,0.0 -78.67538918479283,33.82007930607713,0.0 -78.67538479216294,33.820081109515066,0.0 -78.67538220294837,33.820082444083866,0.0 -78.67537781032165,33.82008503201984,0.0 -78.67537381059535,33.820087385522335,0.0 -78.67537184871354,33.820088797360924,0.0 -78.67536753467118,33.82009240553707,0.0 -78.67536274915012,33.82009671963143,0.0 -78.67535898517289,33.82010111230437,0.0 -78.67535553289649,33.820105270544005,0.0 -78.67535419965853,33.820107073975485,0.0 -78.67534792375231,33.82011648796494,0.0 -78.67534180632235,33.82012739105962,0.0 -78.67533600190731,33.82013915723242,0.0 -78.67533137357103,33.82014943298746,0.0 -78.67533019618774,33.82015217807821,0.0 -78.6753062726637,33.820211244673715,0.0 -78.67530517386034,33.820213912493195,0.0 -78.67529489827494,33.820237287674395,0.0 -78.67528854511212,33.82025015266949,0.0 -78.67528313228082,33.82025995825122,0.0 -78.67528164188515,33.820262467600244,0.0 -78.67527544456043,33.82027219460289,0.0 -78.67527411132276,33.820274077924815,0.0 -78.67526626774324,33.82028427510586,0.0 -78.67525779551997,33.820294080694026,0.0 -78.67525630512078,33.820295726964275,0.0 -78.67524814721321,33.82030419929806,0.0 -78.67524610806373,33.82030631705411,0.0 -78.67523740140345,33.820314710808304,0.0 -78.67523575384317,33.820316201226966,0.0 -78.67522704718071,33.82032404491586,0.0 -78.67522477228984,33.820326005510765,0.0 -78.67521622278562,33.820333300443565,0.0 -78.67521402647431,33.820335105186466,0.0 -78.67519622024233,33.820349382040064,0.0 -78.675175981956,33.82036491357166,0.0 -78.67517347132389,33.82036679558642,0.0 -78.67515354735505,33.82038146403856,0.0 -78.67515158678272,33.82038279860612,0.0 -78.67514193846117,33.820389309043165,0.0 -78.67513989930852,33.82039064230116,0.0 -78.67512852484167,33.820397467064936,0.0 -78.67511707310028,33.82040335016918,0.0 -78.67511487678547,33.82040429183339,0.0 -78.67511009125447,33.820406173852845,0.0 -78.67510601294461,33.82040774285741,0.0 -78.67510358088866,33.82040860594139,0.0 -78.675101148832,33.820409311863735,0.0 -78.6750973835315,33.820410330802254,0.0 -78.67509134333439,33.820411978391775,0.0 -78.67508828394475,33.82041252715388,0.0 -78.67507745951964,33.82041441049572,0.0 -78.67506490894662,33.82041597951819,0.0 -78.67506145796419,33.82041629253883,0.0 -78.6750380030708,33.82041841033988,0.0 -78.675034630669,33.82041880325072,0.0 -78.67502294316805,33.82042005794826,0.0 -78.67502027536908,33.82042037227698,0.0 -78.67500866645024,33.82042209714921,0.0 -78.67500537262974,33.82042272580233,0.0 -78.67499368382416,33.82042523517278,0.0 -78.67499078159527,33.82042586251537,0.0 -78.67497807386933,33.82042931485718,0.0 -78.67497509437081,33.82043017794221,0.0 -78.67496324971914,33.82043386471485,0.0 -78.67496089624287,33.820434570637026,0.0 -78.67494850153152,33.8204388061665,0.0 -78.67494536487371,33.82043998226534,0.0 -78.67491987085148,33.82044931771424,0.0 -78.67491641987317,33.820450650975204,0.0 -78.67484339140933,33.82047865469536,0.0 -78.67481805455049,33.82048869475149,0.0 -78.67481483800304,33.82048995074085,0.0 -78.67480417074961,33.82049457786087,0.0 -78.67480158153397,33.820495676687365,0.0 -78.67479099155251,33.82050061813033,0.0 -78.67478785489597,33.82050210855209,0.0 -78.67477569593436,33.82050854172333,0.0 -78.67476463578845,33.82051536517657,0.0 -78.67476267521631,33.82051677701521,0.0 -78.67475310547916,33.820524307692345,0.0 -78.67474879013028,33.82052870036636,0.0 -78.67474463325127,33.82053301445932,0.0 -78.67473655393202,33.82054352596375,0.0 -78.67473537785492,33.82054540928531,0.0 -78.67473012217914,33.82055403746471,0.0 -78.67472871036377,33.82055654812326,0.0 -78.67472384628388,33.820566196542245,0.0 -78.67471898352163,33.820577805551345,0.0 -78.67471498252554,33.820590041895116,0.0 -78.67471427662294,33.820592552552185,0.0 -78.67471168875832,33.8206038485431,0.0 -78.67470988407936,33.82061569328806,0.0 -78.67470894247464,33.82062777246396,0.0 -78.67470878663553,33.820630674713975,0.0 -78.67470855093063,33.820639538625116,0.0 -78.67470847236304,33.82064267661736,0.0 -78.67470855099546,33.820655541598775,0.0 -78.67470957006647,33.82069178173745,0.0 -78.67470964865655,33.82069421381213,0.0 -78.67470980586008,33.820704802570376,0.0 -78.67470988445015,33.82070723464498,0.0 -78.6747097273344,33.82071829488852,0.0 -78.67470902147342,33.82073108129076,0.0 -78.67470760969384,33.82074245455033,0.0 -78.67470502182866,33.82075359337977,0.0 -78.67470313854047,33.8207583003717,0.0 -78.67470133514034,33.820762535878885,0.0 -78.67469976616471,33.82076512511857,0.0 -78.67469788286763,33.82076763446838,0.0 -78.67469490207144,33.82077147838391,0.0 -78.67469058802929,33.820775165140695,0.0 -78.67468690131588,33.820777910236565,0.0 -78.6746846264227,33.82077932338548,0.0 -78.67468101828538,33.82078104824096,0.0 -78.67467662565696,33.820783244582636,0.0 -78.67467427218186,33.82078426482789,0.0 -78.67466909505876,33.82078606826729,0.0 -78.67466329060373,33.820788030179365,0.0 -78.67465042571749,33.8207915597925,0.0 -78.6746479949702,33.820792187134074,0.0 -78.67463615031373,33.82079469781446,0.0 -78.67463371825608,33.8207951679945,0.0 -78.67462140342637,33.820797364352764,0.0 -78.67461795113523,33.82079791311567,0.0 -78.67459041924363,33.82080214998645,0.0 -78.67458665394096,33.820802698750086,0.0 -78.67454405952586,33.82080826759641,0.0 -78.67454052996376,33.82080873908836,0.0 -78.6745094671956,33.82081226873968,0.0 -78.67449699520118,33.820813444857954,0.0 -78.67449401439069,33.82081375918721,0.0 -78.67448114949417,33.82081477945447,0.0 -78.67447816868314,33.82081493531255,0.0 -78.67446710851141,33.820815406820365,0.0 -78.67446428486024,33.82081540682628,0.0 -78.67445447935168,33.82081540684681,0.0 -78.67445197002118,33.82081532827134,0.0 -78.67444035978129,33.820814229474514,0.0 -78.67443424230152,33.82081289623362,0.0 -78.67443102574609,33.820812190323146,0.0 -78.6744280449302,33.82081117008907,0.0 -78.6744246725198,33.820809445248315,0.0 -78.67442129879971,33.820807719097765,0.0 -78.67441902389321,33.820805837093154,0.0 -78.67441722046766,33.8208037966163,0.0 -78.67441416106043,33.82080003260389,0.0 -78.6744119647236,33.82079556136273,0.0 -78.67441000281836,33.82079116870191,0.0 -78.67440733628523,33.82078065722009,0.0 -78.67440686610341,33.82077822514633,0.0 -78.67440545423946,33.820768733902106,0.0 -78.67440145304505,33.820731945014124,0.0 -78.67440113871324,33.820729277197664,0.0 -78.67439925667311,33.82071876571421,0.0 -78.67439870791044,33.82071617778869,0.0 -78.6743963543922,33.820706529384985,0.0 -78.67439564846951,33.820704097311726,0.0 -78.67438694165214,33.82067366168873,0.0 -78.67438623572892,33.82067107376354,0.0 -78.67438419521916,33.82066071944188,0.0 -78.6743837250272,33.82065577802228,0.0 -78.67438341068271,33.82064997221376,0.0 -78.67438396072528,33.82064518795356,0.0 -78.67438458804037,33.82064087386804,0.0 -78.67438654859626,33.820635460958684,0.0 -78.67438843188573,33.82063106828979,0.0 -78.67438968654191,33.820628871954696,0.0 -78.67439211858773,33.82062549821527,0.0 -78.67439517665298,33.820621262705465,0.0 -78.67439690279203,33.820619380692385,0.0 -78.67440004075158,33.82061624269375,0.0 -78.67440427621192,33.82061216434303,0.0 -78.67440615951313,33.820610673923824,0.0 -78.67440953190605,33.82060808468046,0.0 -78.67441455186098,33.82060439792221,0.0 -78.67442592632871,33.8205977303202,0.0 -78.67443722221992,33.82059200437777,0.0 -78.67443981012555,33.820590826970474,0.0 -78.67446059718763,33.82058102266638,0.0 -78.6744636565736,33.8205795322447,0.0 -78.67447252040945,33.82057482523806,0.0 -78.67448114850129,33.82056933373397,0.0 -78.67448342339391,33.820567766042835,0.0 -78.67448742442558,33.820564313719274,0.0 -78.67449111113702,33.820561098448465,0.0 -78.67449260153589,33.8205593722878,0.0 -78.6744951108524,33.820555998548194,0.0 -78.6744984059671,33.82055152729561,0.0 -78.67450130817608,33.820545958532335,0.0 -78.67450389737513,33.82054078136392,0.0 -78.67451683940848,33.820506737528525,0.0 -78.67452256524537,33.82049544153105,0.0 -78.67452625194734,33.820489872766196,0.0 -78.67452915416129,33.820485558675806,0.0 -78.67453056597965,33.820483753934575,0.0 -78.67453739064366,33.82047567450757,0.0 -78.67453935252192,33.82047339959024,0.0 -78.6745474318505,33.82046516299905,0.0 -78.67454915668016,33.82046335956678,0.0 -78.6745570015807,33.82045590747403,0.0 -78.67455911931108,33.82045394556976,0.0 -78.6745673558039,33.82044665063772,0.0 -78.67456947353469,33.8204447686239,0.0 -78.67457786718902,33.82043770812419,0.0 -78.67458029793059,33.820435668948164,0.0 -78.67460139928669,33.820419195755356,0.0 -78.6746042229293,33.82041707799768,0.0 -78.67464799331857,33.82038429008,0.0 -78.67465034679014,33.82038240675596,0.0 -78.67465866055674,33.820375896321785,0.0 -78.67466101402864,33.82037409157857,0.0 -78.67467066234452,33.82036616930705,0.0 -78.67467246706539,33.820364678888,0.0 -78.67468046781825,33.8203576196988,0.0 -78.67468234980917,33.82035597211812,0.0 -78.67469223385919,33.82034640226939,0.0 -78.67470007744512,33.82033777277472,0.0 -78.67470148926377,33.820336047923924,0.0 -78.67470807818441,33.82032734116088,0.0 -78.67470956858234,33.82032537925783,0.0 -78.67471592306806,33.82031573083578,0.0 -78.67472211908098,33.820305455077566,0.0 -78.67474102405035,33.82027219572739,0.0 -78.67474251444666,33.820269842230225,0.0 -78.67474784870262,33.82026121405063,0.0 -78.67474910335997,33.8202593307289,0.0 -78.67475490778855,33.82025085970977,0.0 -78.67475631960646,33.8202489763877,0.0 -78.6747634585874,33.820239878029284,0.0 -78.6747653405761,33.82023768169292,0.0 -78.6747901286083,33.82020928517014,0.0 -78.6747920891765,33.82020693167206,0.0 -78.67480903231268,33.820187086063214,0.0 -78.67481052271123,33.820185282631435,0.0 -78.6748382902243,33.82015170893939,0.0 -78.67486566614602,33.82011821382887,0.0 -78.67486731370415,33.82011617465447,0.0 -78.67490088695506,33.82007405136246,0.0 -78.6749028475227,33.82007154070283,0.0 -78.67491594678317,33.82005404859604,0.0 -78.67491759434006,33.820051695098535,0.0 -78.67492237984946,33.820044478754404,0.0</coordinates>
                    </LinearRing>
                </outerBoundaryIs>
            </Polygon>
        </Placemark>
        <Placemark id="3921">
            <name>Flood_426</name>
            <styleUrl>#3926</styleUrl>
            <Polygon id="3920">
                <outerBoundaryIs>
                    <LinearRing id="3924">
                        <coordinates>-78.8430551132312,33.85611606422669,0.0 -78.84300459622793,33.8560840594615,0.0 -78.84298373041078,33.856075116914695,0.0 -78.84297423912925,33.85606201748073,0.0 -78.84285069280419,33.85592395865035,0.0 -78.84281029588553,33.855948589660365,0.0 -78.84276432866511,33.855906387749606,0.0 -78.84271381159189,33.85585524333922,0.0 -78.84268345445389,33.85582245544434,0.0 -78.84269114218979,33.8558026085955,0.0 -78.84271679198238,33.855735149739196,0.0 -78.84276801466261,33.85570102751921,0.0 -78.84281688392178,33.85568612351795,0.0 -78.84285343701148,33.85568212255599,0.0 -78.84291548566536,33.855697026880506,0.0 -78.84299533914896,33.8556461185923,0.0 -78.84304154063457,33.85564219623927,0.0 -78.84311480527245,33.85563066604144,0.0 -78.84317238132648,33.85563160786831,0.0 -78.84319513025565,33.855583993255905,0.0 -78.84326902213795,33.85554720459673,0.0 -78.84329733852047,33.855503276746234,0.0 -78.84329310295297,33.855483979928046,0.0 -78.84331616507293,33.855485470409626,0.0 -78.8433854286676,33.85547998043875,0.0 -78.84341515835042,33.85547974478329,0.0 -78.84350066071738,33.85549598242924,0.0 -78.84351376008752,33.85548876613788,0.0 -78.84357823911107,33.85539502738363,0.0 -78.84361549805601,33.85537400583986,0.0 -78.84368186052805,33.85531674295252,0.0 -78.84371637437907,33.85529305358541,0.0 -78.84377661689314,33.85528175909246,0.0 -78.84381576050069,33.855270776241454,0.0 -78.84387780766056,33.85523445903298,0.0 -78.84391585113637,33.85522277026202,0.0 -78.8439962549797,33.855253284700524,0.0 -78.8439869979331,33.85518535425991,0.0 -78.84399068459959,33.85516417545684,0.0 -78.8441067781475,33.85510503070755,0.0 -78.84411658368725,33.85510024517032,0.0 -78.84420804634098,33.85510063703193,0.0 -78.84417800336763,33.855023764044795,0.0 -78.84419816317907,33.85500776244977,0.0 -78.8442177729789,33.85500650783508,0.0 -78.84428044756449,33.85499505487866,0.0 -78.84430837363739,33.85494359768555,0.0 -78.84430578436624,33.85493292903556,0.0 -78.84429362636895,33.85486084166664,0.0 -78.8442969987181,33.85484107338676,0.0 -78.84430656830853,33.854778555903565,0.0 -78.84431229418895,33.85477008360917,0.0 -78.84432280563135,33.854761455476904,0.0 -78.84439183428937,33.85461516195312,0.0 -78.844398423196,33.854592335583014,0.0 -78.84442642664395,33.85456974370833,0.0 -78.84446643199036,33.854550447020415,0.0 -78.84451114441539,33.85455813496556,0.0 -78.84452549849199,33.854560567080966,0.0 -78.84459335009105,33.85450918727686,0.0 -78.84462606053977,33.854491851156496,0.0 -78.84469979526547,33.854455533984115,0.0 -78.84477423719818,33.85441388118303,0.0 -78.84482663595952,33.85437622938554,0.0 -78.8448774658534,33.85437387604251,0.0 -78.84495316248403,33.8543395967362,0.0 -78.84498257768807,33.85429551303949,0.0 -78.84498414655326,33.85425950866833,0.0 -78.84502752435085,33.85424876157312,0.0 -78.8450966319021,33.85418898935287,0.0 -78.84518644809516,33.85413408003062,0.0 -78.84521366685907,33.854058933369714,0.0 -78.84521751073915,33.85405218722628,0.0 -78.84521845105219,33.85404222450364,0.0 -78.84523037436365,33.8540437149531,0.0 -78.84530112965415,33.85402990983921,0.0 -78.845398866666,33.85394338882761,0.0 -78.8454311069294,33.853922758864854,0.0 -78.84544271586726,33.853909972506585,0.0 -78.84545244280827,33.85390001111955,0.0 -78.84555888802045,33.85385624066419,0.0 -78.84565003750593,33.8538123130024,0.0 -78.84568031579568,33.85377018989806,0.0 -78.84573263594376,33.853722968280024,0.0 -78.84580370424739,33.85370900600624,0.0 -78.84582323657253,33.85365033115187,0.0 -78.84579782078049,33.85359816788669,0.0 -78.84582386361484,33.8535678895036,0.0 -78.84583562972739,33.85355878989133,0.0 -78.84585037668941,33.85355612211958,0.0 -78.84593321137393,33.853608444025625,0.0 -78.84601988960483,33.85356012368936,0.0 -78.84603369486197,33.85354435650928,0.0 -78.84608860438054,33.85353564992831,0.0 -78.84607777973113,33.853489839957525,0.0 -78.84611072460714,33.85347070041182,0.0 -78.84613433547543,33.85347007314566,0.0 -78.84621356183271,33.85347595645655,0.0 -78.8462334073347,33.853463248703676,0.0 -78.846310751645,33.85345783603099,0.0 -78.8463327934643,33.853441677281566,0.0 -78.84639907605313,33.85338457156141,0.0 -78.84648677450889,33.853332015728384,0.0 -78.84651532674154,33.85331726883188,0.0 -78.84653376043076,33.853310131138166,0.0 -78.84660937855111,33.8532948356259,0.0 -78.8466331465578,33.853287696638226,0.0 -78.84671496074846,33.85326808706307,0.0 -78.84673253268913,33.85326643953947,0.0 -78.84674704391765,33.853266125259694,0.0 -78.84683113312603,33.85327687273162,0.0 -78.84685631299087,33.85327695138695,0.0 -78.84693004784438,33.853275696933515,0.0 -78.84697907440592,33.853299542397004,0.0 -78.84702864958362,33.85328408964625,0.0 -78.84704747616848,33.85327475562272,0.0 -78.84712952612097,33.853260714801884,0.0 -78.84722624461108,33.853288248461524,0.0 -78.84731017784374,33.85326385332738,0.0 -78.8472956651055,33.85320737470506,0.0 -78.84731966876421,33.853174664243895,0.0 -78.84733355265048,33.8531724679542,0.0 -78.84740171879571,33.853182979636706,0.0 -78.84742634993391,33.85319105911694,0.0 -78.8474381946685,33.853193569805946,0.0 -78.84744854894632,33.85318376427305,0.0 -78.84751914578251,33.853174116080446,0.0 -78.84752573475899,33.853170586516235,0.0 -78.84753263808123,33.85317364463624,0.0 -78.84758801784959,33.85318619676001,0.0 -78.84760229471063,33.853204316205456,0.0 -78.84762402222448,33.853192863130765,0.0 -78.84763704436868,33.85319804032881,0.0 -78.84763743592366,33.85318705867507,0.0 -78.84772434988668,33.853135131487214,0.0 -78.84776906100839,33.853144387118355,0.0 -78.84782271591736,33.85315301544004,0.0 -78.84787456605653,33.853151996664,0.0 -78.847895980447,33.85310908903824,0.0 -78.84792421950617,33.85304845362374,0.0 -78.84794437805148,33.85304421687353,0.0 -78.84802203555108,33.85308877236882,0.0 -78.84807004173217,33.85307237795512,0.0 -78.84812150025078,33.85306367136482,0.0 -78.84816354488753,33.85307833988952,0.0 -78.84822025782378,33.85306688822861,0.0 -78.84827493167438,33.85307904613703,0.0 -78.84831956538838,33.85304923929525,0.0 -78.84833250891859,33.85304492394288,0.0 -78.84841832426883,33.85305182751339,0.0 -78.84850147197655,33.85310767900211,0.0 -78.84851567020945,33.853112306138506,0.0 -78.84855308642207,33.85312046423729,0.0 -78.84860650558454,33.853127837886085,0.0 -78.84861419339188,33.85312752489573,0.0 -78.84864133382506,33.8531220334941,0.0 -78.84878809876317,33.85307285157145,0.0 -78.84887061900618,33.85309183429713,0.0 -78.84886536310042,33.85304343642073,0.0 -78.84886316662333,33.853001156061815,0.0 -78.84891384068047,33.853002568045866,0.0 -78.84897094670927,33.8530453187424,0.0 -78.84901016652586,33.85310446394163,0.0 -78.84907770509885,33.853047123796415,0.0 -78.84909911957315,33.85302790432751,0.0 -78.84911080714488,33.85303002342215,0.0 -78.84921082075071,33.85304814312168,0.0 -78.84930691197413,33.853095758079625,0.0 -78.84933217047816,33.85311262288498,0.0 -78.84936150864594,33.85313450770031,0.0 -78.84940402351214,33.853165179187876,0.0 -78.84946701265063,33.853218832974946,0.0 -78.84950066362637,33.85325201508973,0.0 -78.84955031747364,33.85326189807118,0.0 -78.84959895240111,33.853274527445365,0.0 -78.84961973833825,33.85328645082025,0.0 -78.84966437221978,33.853304727516324,0.0 -78.84969668988394,33.8533208091546,0.0 -78.84974618662558,33.85334677236825,0.0 -78.84986800769165,33.8533697562775,0.0 -78.84989318755433,33.85336920759675,0.0 -78.84995186119747,33.85339219131881,0.0 -78.84998065056624,33.853401525482866,0.0 -78.84999108216827,33.85340693841505,0.0 -78.85007493714788,33.853476830966706,0.0 -78.85006866271524,33.85354428986875,0.0 -78.85006905440882,33.85357315649392,0.0 -78.85008560613632,33.853578962347704,0.0 -78.85016412701492,33.85371160681898,0.0 -78.85016695072926,33.85372580505206,0.0 -78.85011478644849,33.85377898832266,0.0 -78.85008835200952,33.853806913209766,0.0 -78.85010419801259,33.85386817739776,0.0 -78.85007744929379,33.853908495771634,0.0 -78.84998229852347,33.85389029750794,0.0 -78.84997861183439,33.853905828974476,0.0 -78.8499055829006,33.85390778934768,0.0 -78.84988001140793,33.85389774927671,0.0 -78.84984902589854,33.85394285320356,0.0 -78.8498273770106,33.85396740437318,0.0 -78.84977811497212,33.85401933298101,0.0 -78.84974909253083,33.85402435289318,0.0 -78.84967920026237,33.854022549259746,0.0 -78.8496663353829,33.854047023184236,0.0 -78.84957824666195,33.85410569652232,0.0 -78.84953831978476,33.85409369582032,0.0 -78.84947995788514,33.85408208534824,0.0 -78.84943814902887,33.85407808546679,0.0 -78.84938120032326,33.85408137914042,0.0 -78.8493182899164,33.85407079020399,0.0 -78.84928157978803,33.85411063837471,0.0 -78.84926400788335,33.85412256163627,0.0 -78.84918203652417,33.85413997488048,0.0 -78.84914854154506,33.85414828993077,0.0 -78.84908257312483,33.85416186062541,0.0 -78.84903456688419,33.854160918825066,0.0 -78.84898389281364,33.85415527003227,0.0 -78.84891870749533,33.85414436676637,0.0 -78.84888497810182,33.85415778039462,0.0 -78.84878731789311,33.85411212733219,0.0 -78.84871671943003,33.854030547247575,0.0 -78.84869083359722,33.85401556444859,0.0 -78.8486642418713,33.854007250530806,0.0 -78.84859215459387,33.85400858357095,0.0 -78.84854720652017,33.85402756591929,0.0 -78.84852696948045,33.8540563539038,0.0 -78.84849253275723,33.85404011640764,0.0 -78.84847064805734,33.854044430424196,0.0 -78.84839330376585,33.854055020256936,0.0 -78.84830215556171,33.854091495845694,0.0 -78.84829352610114,33.854093220666954,0.0 -78.84827407344328,33.85408906368987,0.0 -78.84819563147987,33.85405337209856,0.0 -78.8481177384027,33.8540551766059,0.0 -78.8480966368907,33.854059647786336,0.0 -78.84803545271045,33.854069530440384,0.0 -78.84799772217816,33.8540620009871,0.0 -78.84797293520518,33.854058548601344,0.0 -78.84793096803496,33.85409933841652,0.0 -78.84789747440423,33.85411863512184,0.0 -78.84785048717713,33.854141697113285,0.0 -78.84779746102737,33.854165150680906,0.0 -78.84773878591237,33.85409604400844,0.0 -78.84772333295767,33.85407698159129,0.0 -78.84770144815725,33.85405266472467,0.0 -78.8476658354446,33.85406529385024,0.0 -78.84760167049052,33.85409008194746,0.0 -78.84759468861058,33.85409353292995,0.0 -78.84756762693243,33.85414836385348,0.0 -78.84757021495143,33.85417558291097,0.0 -78.84752401351702,33.85419464383686,0.0 -78.84750000976862,33.854201782824155,0.0 -78.84742580354293,33.854234335976344,0.0 -78.84740031066865,33.85423512039878,0.0 -78.84738791722224,33.85424476745474,0.0 -78.84730131738282,33.854239434188564,0.0 -78.84725487889588,33.85425818079111,0.0 -78.84711470427536,33.85431120795483,0.0 -78.847101917882,33.8543084615212,0.0 -78.8470879554512,33.85432077769757,0.0 -78.84704559654328,33.854320463250026,0.0 -78.84697766613868,33.854309089801205,0.0 -78.84680015249678,33.8543310525889,0.0 -78.8467130828306,33.85442392688099,0.0 -78.84670367017475,33.85442337809801,0.0 -78.846511958454,33.854483934453626,0.0 -78.84650309456384,33.854486366500794,0.0 -78.84636597790843,33.85450158325358,0.0 -78.84632463935223,33.854533038992976,0.0 -78.84626949417678,33.854565356460355,0.0 -78.84623976585091,33.854579084424216,0.0 -78.84620525064369,33.8545902218298,0.0 -78.84615104835892,33.85460073315123,0.0 -78.8460555847942,33.854644112046095,0.0 -78.8460172270552,33.85467282139843,0.0 -78.84598130001093,33.854682626856786,0.0 -78.84590607478258,33.854693999885235,0.0 -78.8458444193022,33.854755183960584,0.0 -78.84579068732994,33.854804446054814,0.0 -78.84574762263189,33.8548394313737,0.0 -78.84570393058503,33.854870728635824,0.0 -78.8456600027704,33.854894732296934,0.0 -78.84556634383706,33.854908458764214,0.0 -78.84555669550403,33.85492602938451,0.0 -78.84550406098846,33.85496023017819,0.0 -78.8454454649599,33.85503365190048,0.0 -78.84541322600563,33.85505389027004,0.0 -78.84536482699166,33.85508911000632,0.0 -78.8452930529649,33.85515649145262,0.0 -78.84520135474506,33.85520528195251,0.0 -78.84514738699363,33.85524379682434,0.0 -78.8451433873425,33.85527305503353,0.0 -78.84514134822761,33.855287959170575,0.0 -78.8451291893837,33.85534498647223,0.0 -78.84513075846783,33.85537024493913,0.0 -78.84512111010591,33.85537965757146,0.0 -78.84509781229052,33.85539118922386,0.0 -78.84506831835772,33.85539369848209,0.0 -78.84499881902076,33.85539918976166,0.0 -78.84494822489135,33.85540750476363,0.0 -78.84487127361434,33.85544821589981,0.0 -78.8448475842347,33.855467904229904,0.0 -78.84483919068279,33.8555160676378,0.0 -78.8447884395446,33.85556689742802,0.0 -78.84474694387457,33.855610982400194,0.0 -78.84459649226433,33.85567616597816,0.0 -78.84455130990874,33.85573609543226,0.0 -78.84449498869476,33.855782140950616,0.0 -78.84443553053137,33.85575256823324,0.0 -78.84439685836301,33.8557509991256,0.0 -78.84433269329821,33.85574378260925,0.0 -78.84427237123592,33.855850149296266,0.0 -78.84422954225417,33.855877368223396,0.0 -78.84419604724494,33.85587666220914,0.0 -78.84414623762814,33.85588913544378,0.0 -78.84404206731699,33.85592859052052,0.0 -78.84402724181056,33.85594106254739,0.0 -78.8440099056409,33.85595047646731,0.0 -78.84395185949674,33.85597275262312,0.0 -78.84390204876033,33.85603793780547,0.0 -78.8437948191581,33.85610939880137,0.0 -78.84374924363009,33.85609425878338,0.0 -78.8437311244202,33.85614438275337,0.0 -78.84365252556076,33.85618219163897,0.0 -78.84359471384732,33.85620392035029,0.0 -78.84354372679827,33.85620737120556,0.0 -78.84347760132162,33.8562486324407,0.0 -78.84342096569411,33.85626902659297,0.0 -78.84340794491645,33.85627945945564,0.0 -78.84335013314062,33.856283851950224,0.0 -78.84329632239427,33.85627836031138,0.0 -78.84324753154036,33.85624463070465,0.0 -78.84316053863436,33.8561932504471,0.0 -78.84310162920006,33.856156618562835,0.0 -78.8430551132312,33.85611606422669,0.0</coordinates>
                    </LinearRing>
                </outerBoundaryIs>
            </Polygon>
        </Placemark>
        <Placemark id="3930">
            <name>Flood_427</name>
            <styleUrl>#3935</styleUrl>
            <Polygon id="3929">
                <outerBoundaryIs>
                    <LinearRing id="3933">
                        <coordinates>-78.93671470434087,33.64695303409191,0.0 -78.93672043027144,33.64694228822729,0.0 -78.93672348968794,33.64693765984629,0.0 -78.93672631336148,33.64693365879892,0.0 -78.93673337385209,33.64692644251538,0.0 -78.93673572603866,33.64692471637268,0.0 -78.93673996285511,33.646922207051595,0.0 -78.93674270794504,33.64692095108386,0.0 -78.93674890535159,33.6469189119443,0.0 -78.93675196345433,33.64691836320265,0.0 -78.93675612168772,33.64691804889753,0.0 -78.93675855376303,33.646917971636576,0.0 -78.9367626321051,33.646918598987824,0.0 -78.93676561293545,33.64691922633449,0.0 -78.93676780926748,33.64692016800023,0.0 -78.93677086867763,33.64692173569438,0.0 -78.9367732221706,33.64692322611469,0.0 -78.93677777199434,33.64692691286996,0.0 -78.93677965400231,33.646928639030094,0.0 -78.93678914524214,33.646937738694604,0.0 -78.93679134157321,33.64693946354623,0.0 -78.93679440098282,33.6469417384652,0.0 -78.93679730323173,33.64694307303638,0.0 -78.93680036264251,33.6469440919765,0.0 -78.93680381364823,33.64694448489323,0.0 -78.93680820631431,33.64694417058898,0.0 -78.93681126572677,33.64694354326686,0.0 -78.93681707022924,33.64694165997706,0.0 -78.93681934514383,33.646940719639275,0.0 -78.93682664006342,33.64693726736426,0.0 -78.93682915072083,33.64693593412478,0.0 -78.93686044946442,33.6469185208061,0.0 -78.93686280296016,33.64691726483685,0.0 -78.93687394179172,33.6469117747223,0.0 -78.93687598096399,33.64691083307385,0.0 -78.93688845304975,33.646905185803746,0.0 -78.93691402455693,33.64689467445197,0.0 -78.93691708397002,33.64689341979522,0.0 -78.93698313245338,33.646868397403175,0.0 -78.93698634902803,33.64686714143745,0.0 -78.93701129319813,33.64685718014676,0.0 -78.93701411686881,33.64685600276,0.0 -78.93702596161738,33.64685082566077,0.0 -78.9370281579513,33.64684980674207,0.0 -78.93703921820195,33.64684447247855,0.0 -78.93704141453595,33.64684337366974,0.0 -78.93705074993821,33.64683827514085,0.0 -78.93705325928597,33.64683686332078,0.0 -78.93706377078193,33.64683035296646,0.0 -78.93707216452506,33.646824627099036,0.0 -78.93707467387321,33.646822822376386,0.0 -78.93708322477838,33.64681654775556,0.0 -78.93708557696513,33.64681466445169,0.0 -78.93709295046781,33.64680885999969,0.0 -78.93709530396417,33.646806978005436,0.0 -78.93710401203178,33.64679983899944,0.0 -78.93710628563777,33.64679787842437,0.0 -78.93711428778795,33.64679089657658,0.0 -78.93711593405693,33.64678932759199,0.0 -78.93712495513958,33.646780620905496,0.0 -78.93713538805927,33.64676963931852,0.0 -78.93714425198208,33.64675928505958,0.0 -78.9371524099872,33.64674916653934,0.0 -78.93715397898555,33.64674720465178,0.0 -78.93716150965383,33.646737400451144,0.0 -78.93716339166609,33.646734889810816,0.0 -78.93717845300368,33.64671425986256,0.0 -78.93722740104351,33.64664468223781,0.0 -78.93722936163677,33.646642015746444,0.0 -78.93724395148864,33.64662224756281,0.0 -78.93724559906788,33.64662012982409,0.0 -78.93725399281585,33.64660953982172,0.0 -78.93726222940109,33.6466001272169,0.0 -78.9372709361607,33.646591341948685,0.0 -78.93727509308762,33.646587890970466,0.0 -78.93727909416234,33.64658467442366,0.0 -78.9372839570062,33.64658169362176,0.0 -78.93728725216225,33.64657981163152,0.0 -78.93728968423848,33.64657886998465,0.0 -78.93729305666452,33.64657800692219,0.0 -78.93729642909065,33.646577222440236,0.0 -78.93729964566421,33.646577065292256,0.0 -78.93730686199844,33.646578085558936,0.0 -78.93730945123436,33.64657894864568,0.0 -78.93731203916042,33.64658004616437,0.0 -78.93731572590727,33.6465816151707,0.0 -78.93731807940047,33.64658287115914,0.0 -78.93732631597102,33.64658804834025,0.0 -78.9373281207083,33.64658938159732,0.0 -78.93733627869686,33.64659581344734,0.0 -78.93734600436954,33.64660467737125,0.0 -78.93735518259554,33.64661416862745,0.0 -78.93736294767751,33.646623189704364,0.0 -78.93736467383324,33.64662530745682,0.0 -78.93737173430726,33.64663464285303,0.0 -78.9373729889785,33.64663652486198,0.0 -78.93737895063119,33.64664593752459,0.0 -78.93738059820548,33.64664876119185,0.0 -78.93738491228166,33.64665746924224,0.0 -78.93738600979086,33.6466599000046,0.0 -78.93738954067828,33.64666899964494,0.0 -78.93739259877078,33.6466785694568,0.0 -78.93739322741449,33.64668115868786,0.0 -78.93739510941525,33.6466901011604,0.0 -78.93739557958727,33.64669308198384,0.0 -78.9373964426562,33.6467030433798,0.0 -78.93739636406893,33.64670955377675,0.0 -78.93739605105013,33.64671480950352,0.0 -78.9373943248829,33.6467242221348,0.0 -78.93739220712243,33.646732537256426,0.0 -78.93739150120268,33.646734890740554,0.0 -78.93738836320028,33.64674461768815,0.0 -78.93738020518227,33.64676752257101,0.0 -78.93737934210088,33.64676995463498,0.0 -78.93737455782903,33.6467817993213,0.0 -78.9373704781671,33.64679136910407,0.0 -78.93736945923393,33.64679364400642,0.0 -78.93736436063985,33.64680454703477,0.0 -78.93735863339954,33.64681537147995,0.0 -78.93735259314695,33.646825019835305,0.0 -78.93734569112635,33.64683349209841,0.0 -78.93734255313078,33.64683639432674,0.0 -78.93733925928342,33.64683921797376,0.0 -78.93733078696116,33.64684337484949,0.0 -78.93732851204702,33.646843846323456,0.0 -78.93732357062491,33.64684431647685,0.0 -78.93732043263236,33.64684431646406,0.0 -78.93731125439822,33.64684290459632,0.0 -78.93730184173305,33.646839923736415,0.0 -78.93729964540111,33.64683898207068,0.0 -78.93729227190751,33.646835766787135,0.0 -78.93729007557577,33.64683458937983,0.0 -78.93728152599135,33.64682980510008,0.0 -78.93727948551168,33.646828471842035,0.0 -78.93727148468359,33.646823137500895,0.0 -78.93724771663413,33.64680509531329,0.0 -78.93724552030292,33.64680344773245,0.0 -78.93723908846998,33.64679921221556,0.0 -78.93723563746586,33.64679733019764,0.0 -78.93723265663614,33.64679599562606,0.0 -78.93722920432096,33.64679544685794,0.0 -78.93722708656803,33.64679623134492,0.0 -78.93722473307105,33.6467987419835,0.0 -78.93722332123248,33.64680258587547,0.0 -78.93722269389335,33.646805095211285,0.0 -78.93722190938846,33.64681176276643,0.0 -78.93722065468388,33.64684306138803,0.0 -78.93721971301355,33.64685357284035,0.0 -78.93721775241322,33.6468633770636,0.0 -78.93721469299328,33.646871379168914,0.0 -78.93721351558922,33.64687341832895,0.0 -78.93721155499595,33.64687600623992,0.0 -78.93720880990399,33.64687930137242,0.0 -78.93720159356391,33.646884085587786,0.0 -78.93719947450118,33.64688502723592,0.0 -78.9371924153249,33.64688761643571,0.0 -78.93719021899138,33.64688824376138,0.0 -78.93716715683568,33.646893577975874,0.0 -78.93716205825136,33.64689475404382,0.0 -78.93715915600026,33.64689561710817,0.0 -78.93715084084056,33.646898676476376,0.0 -78.93714362450095,33.64690299051829,0.0 -78.93714174248956,33.64690463808251,0.0 -78.93713805442675,33.64690926515118,0.0 -78.93713679975149,33.64691138289148,0.0 -78.93713413323711,33.64691781600699,0.0 -78.93713209405752,33.64692605254833,0.0 -78.93713083806496,33.646935622342575,0.0 -78.93713028930036,33.646944407644014,0.0 -78.93713036787092,33.646954526197824,0.0 -78.93713099519863,33.646963390084636,0.0 -78.93713240702465,33.646972096813485,0.0 -78.93713279992635,33.6469742931411,0.0 -78.93713523068206,33.64698402011137,0.0 -78.93714519338408,33.647015475939774,0.0 -78.93714754686837,33.647025594502864,0.0 -78.93714848721064,33.64703336088281,0.0 -78.93714864436991,33.64703563448025,0.0 -78.93714793844475,33.64704340085348,0.0 -78.93714723252465,33.647046145930545,0.0 -78.93714597784795,33.64704959823029,0.0 -78.93714448742864,33.647053362231716,0.0 -78.9371433886053,33.64705540270179,0.0 -78.93714134943092,33.647058462095586,0.0 -78.93713821143362,33.64706308916657,0.0 -78.93713130941336,33.647071168526985,0.0 -78.93712958325368,33.64707297325291,0.0 -78.93712338584311,33.64707901345127,0.0 -78.93712173957411,33.64708058243594,0.0 -78.93711444334183,33.64708709280343,0.0 -78.93711224700697,33.64708905337873,0.0 -78.93708557666666,33.647111252270854,0.0 -78.93708298873736,33.64711337000563,0.0 -78.93706447639998,33.647127725283966,0.0 -78.93706173130934,33.64712968585719,0.0 -78.93705380774132,33.64713533445555,0.0 -78.93705192573032,33.647136589117004,0.0 -78.9370422773134,33.647142865042944,0.0 -78.93703953222298,33.6471445898745,0.0 -78.93703004096812,33.64715039431792,0.0 -78.93699481973033,33.64717118134481,0.0 -78.93699207463983,33.6471729074859,0.0 -78.93698273923691,33.64717871192995,0.0 -78.93698062148343,33.64718004517104,0.0 -78.93697089448546,33.647186712689674,0.0 -78.93696877673179,33.64718820309184,0.0 -78.9369606187305,33.647194400443254,0.0 -78.93695810938209,33.647196439597856,0.0 -78.93694822522048,33.64720506770018,0.0 -78.93693841963858,33.647214794620595,0.0 -78.9369283010418,33.64722585478946,0.0 -78.93692006445652,33.647235345974615,0.0 -78.93691833960622,33.647237386442114,0.0 -78.9368839814259,33.647279430816596,0.0 -78.93687676508196,33.64728798034911,0.0 -78.93687464732744,33.64729033382747,0.0 -78.93686688091788,33.647299040519016,0.0 -78.93686531191985,33.6473007666649,0.0 -78.93685644799841,33.64730970909354,0.0 -78.93684687815984,33.647318415777626,0.0 -78.93684476040588,33.64732022050186,0.0 -78.93684028915587,33.64732367147875,0.0 -78.93683424890851,33.64732806410591,0.0 -78.93682828724272,33.647331750818296,0.0 -78.93682169823988,33.64733575185027,0.0 -78.93680773573726,33.64734273236396,0.0 -78.93679542081335,33.64734814520286,0.0 -78.9367932244795,33.647349008270005,0.0 -78.93678043807131,33.64735394962374,0.0 -78.93677730007755,33.64735512700929,0.0 -78.93676639698994,33.64735896955286,0.0 -78.93676427923707,33.64735975403991,0.0 -78.9367621614842,33.64736045994637,0.0 -78.93675110123515,33.64736414663794,0.0 -78.93674796324154,33.647365166862386,0.0 -78.93671893942,33.64737403062812,0.0 -78.93671666450571,33.647374657953364,0.0 -78.9367032507622,33.64737842321589,0.0 -78.93670042709199,33.64737912911948,0.0 -78.93668897524937,33.64738210989432,0.0 -78.93668591583672,33.64738289437753,0.0 -78.93667289368828,33.64738579656538,0.0 -78.93667038434137,33.647386345309165,0.0 -78.93665610752002,33.647388934479444,0.0 -78.93664355685756,33.64739050341959,0.0 -78.9366408903494,33.64739073784057,0.0 -78.93663382986571,33.64739097355332,0.0 -78.93662959436143,33.64739105211662,0.0 -78.93662645636877,33.647391052103806,0.0 -78.93661994595152,33.647390346162126,0.0 -78.93661414145171,33.64738964022331,0.0 -78.93661178795772,33.64738917004017,0.0 -78.93660763103551,33.647387914044266,0.0 -78.93660260972507,33.64738634503247,0.0 -78.93660041339295,33.647385483257025,0.0 -78.9365964922138,33.647383599927565,0.0 -78.93659107931016,33.64738085482544,0.0 -78.93658213682279,33.64737520615828,0.0 -78.93657978333013,33.64737340272542,0.0 -78.93657264558159,33.647367441053085,0.0 -78.93656550652494,33.64735998897004,0.0 -78.93655985919426,33.64735175239739,0.0 -78.93655687837102,33.64734398731887,0.0 -78.93655656536232,33.647339280343616,0.0 -78.93655695695924,33.64733669111665,0.0 -78.93655978063492,33.647330573633624,0.0 -78.93656597804647,33.647323513197954,0.0 -78.93657256705104,33.647317787323324,0.0 -78.93658849014994,33.647305079606326,0.0 -78.93659021630934,33.647303667783156,0.0 -78.9365957863822,33.64729864781947,0.0 -78.93659805998846,33.64729645150283,0.0 -78.93660072780925,33.64729331353105,0.0 -78.93660394438648,33.64728954822697,0.0 -78.93660967031556,33.647280292773104,0.0 -78.93661414157233,33.64727025150888,0.0 -78.93661751400754,33.647260447291366,0.0 -78.93661837708915,33.647257779485834,0.0 -78.93662873144993,33.647225304812835,0.0 -78.93662951595064,33.64722271689718,0.0 -78.93665124491196,33.64715847216092,0.0 -78.9366592457704,33.64713376385436,0.0 -78.9366602647042,33.64713070445643,0.0 -78.9366710905538,33.64709415014605,0.0 -78.93669336828573,33.647015081194255,0.0 -78.93669423005821,33.647011943215084,0.0 -78.93670089765966,33.64699021572477,0.0 -78.93670160488915,33.64698770507959,0.0 -78.93670497732458,33.646977665120474,0.0 -78.93670584040598,33.6469753116371,0.0 -78.93670929142148,33.646965899012834,0.0 -78.93671039024568,33.6469630753568,0.0 -78.93671470434087,33.64695303409191,0.0</coordinates>
                    </LinearRing>
                </outerBoundaryIs>
            </Polygon>
        </Placemark>
        <Placemark id="3939">
            <name>Flood_428</name>
            <styleUrl>#3944</styleUrl>
            <Polygon id="3938">
                <outerBoundaryIs>
                    <LinearRing id="3942">
                        <coordinates>-78.9348963414104,33.64791032877146,0.0 -78.93488724175583,33.6479100929926,0.0 -78.93488426092475,33.64791017156101,0.0 -78.93487414233857,33.64791072027366,0.0 -78.93487171026301,33.647910956005376,0.0 -78.93486182741877,33.64791189762165,0.0 -78.93485923818163,33.64791221062351,0.0 -78.93484794219248,33.64791362371723,0.0 -78.93484566727841,33.64791393672037,0.0 -78.93484339367414,33.64791425103323,0.0 -78.93480495587822,33.647919428023506,0.0 -78.93480268227387,33.64791974102665,0.0 -78.93478942438433,33.64792123138314,0.0 -78.9347866792955,33.64792138853308,0.0 -78.9347633041295,33.64792334902173,0.0 -78.93476040187907,33.64792358475143,0.0 -78.93475036056344,33.647924604947725,0.0 -78.9347473011512,33.64792499652816,0.0 -78.93473726114459,33.647926722639454,0.0 -78.93473482906877,33.64792727138352,0.0 -78.93473106373834,33.647928370185966,0.0 -78.93472784847357,33.647929389100355,0.0 -78.93472510207398,33.64793048790696,0.0 -78.93472188680839,33.647932291317034,0.0 -78.93471906313711,33.64793401745783,0.0 -78.9347171798162,33.64793542928032,0.0 -78.93471325732067,33.647940057657664,0.0 -78.93471192406484,33.64794186107543,0.0 -78.9347085516319,33.647949313115404,0.0 -78.93470580653386,33.64795833414921,0.0 -78.93470376604228,33.647968688435675,0.0 -78.93469686398538,33.64801214475137,0.0 -78.93469529498216,33.64801889088362,0.0 -78.93469443190048,33.64802155868919,0.0 -78.93469184265786,33.64802720599943,0.0 -78.93468956774129,33.6480299510701,0.0 -78.93468635247517,33.64803230454389,0.0 -78.93468329306226,33.648033324768626,0.0 -78.93467992063623,33.64803395208935,0.0 -78.93467333032828,33.64803355915975,0.0 -78.93467058523991,33.64803316755559,0.0 -78.93466242724672,33.648031362789304,0.0 -78.93465960357801,33.64803057828216,0.0 -78.93465144558546,33.64802806891051,0.0 -78.93464870049758,33.64802720582302,0.0 -78.93462822628123,33.64802045960064,0.0 -78.93462602994904,33.648019753676564,0.0 -78.9346146566936,33.648016459796075,0.0 -78.93461198887667,33.648015752560454,0.0 -78.93460163455114,33.6480134003408,0.0 -78.9345991252051,33.648013007427885,0.0 -78.93458782921908,33.64801143839043,0.0 -78.93458021997996,33.648011203927375,0.0 -78.93457535713928,33.64801104674641,0.0 -78.93457308222563,33.64801104673711,0.0 -78.93457049298857,33.6480112038876,0.0 -78.93455911972892,33.648011988336776,0.0 -78.93455653049178,33.64801230133853,0.0 -78.93454421557162,33.64801387027953,0.0 -78.93454076456501,33.648014340438934,0.0 -78.934499581679,33.648020929248105,0.0 -78.93449722818411,33.64802132214114,0.0 -78.93448389433314,33.64802281249738,0.0 -78.93448130509617,33.64802289106738,0.0 -78.9344765195262,33.64802312678938,0.0 -78.93447016626955,33.64802336119535,0.0 -78.93446757834242,33.648023282604186,0.0 -78.93446169526145,33.648022890987185,0.0 -78.93445745844782,33.64802257664771,0.0 -78.93445471335946,33.64802226362404,0.0 -78.93445235986545,33.64802179213119,0.0 -78.93444757560655,33.64802069460351,0.0 -78.93444153536498,33.64801936132911,0.0 -78.9344388675482,33.64801849824213,0.0 -78.93443431903222,33.648016850651686,0.0 -78.93442780730693,33.64801449713812,0.0 -78.93441651263426,33.64800924136406,0.0 -78.93441361038545,33.64800782952192,0.0 -78.9344032560634,33.64800210357818,0.0 -78.93440027523398,33.64800045599415,0.0 -78.9343669373575,33.647979825848886,0.0 -78.93436419096079,33.647978256846386,0.0 -78.93435336646394,33.64797221657858,0.0 -78.93435109155142,33.64797104048068,0.0 -78.93430230076771,33.647946644955134,0.0 -78.93429916277671,33.64794499737046,0.0 -78.93428975011396,33.647939741604105,0.0 -78.93428778952459,33.64793848692689,0.0 -78.93428010170985,33.647933388328674,0.0 -78.93427766963629,33.64793166216639,0.0 -78.93427414005284,33.647928445588775,0.0 -78.93427006171396,33.6479246815647,0.0 -78.93426747248101,33.647920916237005,0.0 -78.93426519757075,33.64791754250353,0.0 -78.93426417864276,33.64791479741941,0.0 -78.93426292266648,33.647908444178285,0.0 -78.93426323699642,33.64790177662152,0.0 -78.93426378575485,33.64789926597575,0.0 -78.9342659035142,33.64789220552362,0.0 -78.93426982601325,33.64788428331241,0.0 -78.93427570910335,33.6478758123551,0.0 -78.93428096485417,33.64786992931412,0.0 -78.93428261243301,33.6478682817491,0.0 -78.9342906918542,33.6478614570629,0.0 -78.93430088902817,33.64785424079242,0.0 -78.93433242220767,33.64783423824696,0.0 -78.93434113027465,33.64782804089793,0.0 -78.93434340388055,33.647826237484004,0.0 -78.93435305229967,33.64781792239354,0.0 -78.93435501420181,33.647816039088156,0.0 -78.93436309362481,33.647807646720295,0.0 -78.93437015280736,33.64779909587768,0.0 -78.93437180038659,33.647796978139056,0.0 -78.93437925247564,33.64778599654023,0.0 -78.93438199756939,33.64778105514563,0.0 -78.93438497840616,33.647775563688356,0.0 -78.93438741048769,33.647769444894166,0.0 -78.93438874374515,33.647766151065646,0.0 -78.93438952824575,33.64776371900142,0.0 -78.93439070565358,33.6477581502659,0.0 -78.93439164600952,33.647752423058634,0.0 -78.93439172459544,33.64774740307264,0.0 -78.9343915674391,33.6477423045052,0.0 -78.93438968544157,33.64773045979198,0.0 -78.93438544995509,33.64771320218026,0.0 -78.93438489989212,33.64771077142021,0.0 -78.93438333090454,33.64770229912272,0.0 -78.93438317506097,33.64769414115326,0.0 -78.93438529282032,33.647687160591325,0.0 -78.93438788075082,33.6476838654583,0.0 -78.93439094016557,33.64768112039084,0.0 -78.93439674466948,33.64767782527096,0.0 -78.93439956965001,33.64767657061331,0.0 -78.93440592290865,33.647674374313404,0.0 -78.93440811924229,33.64767366840729,0.0 -78.9344154141602,33.647671863704176,0.0 -78.93441776765525,33.64767131495978,0.0 -78.93442733748692,33.64766951157566,0.0 -78.9344295338203,33.6476690401015,0.0 -78.9344474188098,33.64766613793362,0.0 -78.9344502424797,33.647665667771626,0.0 -78.93445910639385,33.647664020236,0.0 -78.93446138130805,33.647663550071776,0.0 -78.93446946072442,33.64766150963029,0.0 -78.93447212723308,33.647660803726,0.0 -78.93448279588787,33.64765719561354,0.0 -78.93448569813924,33.64765609811737,0.0 -78.934523428719,33.64764025250717,0.0 -78.93452648813212,33.64763899785057,0.0 -78.93454947171095,33.647630055479944,0.0 -78.93455182520641,33.64762911383281,0.0 -78.93459183069923,33.647613818295696,0.0 -78.9345949673834,33.64761264091019,0.0 -78.93461850102828,33.64760314978769,0.0 -78.93462148186057,33.647601895130755,0.0 -78.93463214920679,33.64759734536154,0.0 -78.93464438685996,33.6475916980906,0.0 -78.93464697478834,33.64759052070284,0.0 -78.93466454546027,33.64758204979332,0.0 -78.93466697753679,33.64758087240493,0.0 -78.93467489979284,33.647577578603304,0.0 -78.93467725328821,33.647576715536744,0.0 -78.93468337211374,33.647574910828816,0.0 -78.93468635294549,33.647574283506486,0.0 -78.93469411803746,33.64757342046203,0.0 -78.93469670727403,33.64757365621417,0.0 -78.93470141295258,33.64757444072898,0.0 -78.93470361059454,33.64757506807265,0.0 -78.93470784609698,33.64757679424219,0.0 -78.9347104340228,33.647578048921964,0.0 -78.93471631710005,33.64758205000478,0.0 -78.93472431923529,33.64758981510368,0.0 -78.93473012372783,33.6475975815033,0.0 -78.93473129981828,33.64759946351191,0.0 -78.93473537946275,33.64760715132391,0.0 -78.93473710430611,33.6476119355757,0.0 -78.93473859471698,33.6476164853946,0.0 -78.93474039944684,33.647625114854065,0.0 -78.93474079103805,33.64762801709662,0.0 -78.93474141836555,33.64763680240273,0.0 -78.93474157552406,33.64763986180532,0.0 -78.93474173265722,33.64766747238561,0.0 -78.93474267430707,33.647677120769096,0.0 -78.93474471347014,33.64768520016587,0.0 -78.93474565512781,33.64768724064422,0.0 -78.9347483216309,33.647691946319284,0.0 -78.93475036079988,33.64769422123398,0.0 -78.93475240127916,33.647695947394745,0.0 -78.93475444044864,33.647697750826296,0.0 -78.93475671536076,33.64769931982685,0.0 -78.934763931692,33.64770332091513,0.0 -78.93476636376602,33.647704497013684,0.0 -78.9347863664954,33.64771343955994,0.0 -78.93478934732512,33.64771477282182,0.0 -78.93483782378729,33.64773759935481,0.0 -78.9348604930232,33.64774795374218,0.0 -78.93486370959508,33.647749444166095,0.0 -78.93487516273944,33.64775422976728,0.0 -78.93487751492326,33.64775525001414,0.0 -78.93488739907221,33.64775917122312,0.0 -78.93489006557911,33.64776011289078,0.0 -78.93490598996884,33.647766153179354,0.0 -78.93490897079872,33.647767329280235,0.0 -78.93491579553648,33.647770545871154,0.0 -78.93492191304699,33.64777399689132,0.0 -78.9349243451204,33.6477758016341,0.0 -78.93492756169107,33.64777846814663,0.0 -78.93493203293339,33.64778270496527,0.0 -78.93493893493694,33.647791097394304,0.0 -78.93494387766061,33.64779854946828,0.0 -78.93494544665425,33.647801138703294,0.0 -78.93496074237525,33.64782914224809,0.0 -78.93496223278808,33.64783180875357,0.0 -78.93496811585956,33.647841457157355,0.0 -78.93497462626829,33.64785047822902,0.0 -78.93497635242416,33.64785243882038,0.0 -78.93497909750978,33.64785541965315,0.0 -78.93498270567356,33.64785918498503,0.0 -78.93498827573691,33.64786373482061,0.0 -78.93499321715449,33.647867657319026,0.0 -78.93499525632461,33.64786891199657,0.0 -78.93500427739278,33.647874559354385,0.0 -78.9350067880475,33.64787589392397,0.0 -78.93501706378913,33.64788130554534,0.0 -78.93501957313413,33.64788263880529,0.0 -78.93504216509797,33.64789393484916,0.0 -78.93504459717201,33.6478951895283,0.0 -78.93506303090419,33.64790507372497,0.0 -78.93506554024924,33.64790632840434,0.0 -78.9350726793097,33.647910015170176,0.0 -78.93507518865476,33.64791127115925,0.0 -78.9350841311439,33.64791527094491,0.0 -78.93508726913537,33.647916448356064,0.0 -78.9350948783718,33.64791919346706,0.0 -78.93509738771752,33.64791982081192,0.0 -78.93510256488025,33.64792107550229,0.0 -78.93510797778524,33.64792241008374,0.0 -78.93511040985999,33.6479228802672,0.0 -78.93512076418655,33.64792429213981,0.0 -78.93512366643644,33.647924685054335,0.0 -78.93513551117896,33.64792570403029,0.0 -78.93513880502327,33.64792593978534,0.0 -78.93515927924508,33.64792735169932,0.0 -78.93516171001042,33.64792758745083,0.0 -78.93517222149852,33.64792907790458,0.0 -78.93517920339907,33.64793111709792,0.0 -78.9351817913249,33.6479324503582,0.0 -78.9351843805593,33.64793480385573,0.0 -78.93518539948693,33.64793794184253,0.0 -78.93518539948347,33.647941314257025,0.0 -78.93518296740142,33.64794798180529,0.0 -78.93517873188986,33.647955119519615,0.0 -78.93517214288191,33.64796406195734,0.0 -78.93516437778125,33.647973397292816,0.0 -78.93516288736393,33.64797512212937,0.0 -78.93515527811593,33.647983672969886,0.0 -78.93514664993656,33.64799277256026,0.0 -78.93514484519592,33.64799465455659,0.0 -78.93513598127421,33.648003675565505,0.0 -78.93512672575838,33.64801261799223,0.0 -78.93512476385635,33.64801442140743,0.0 -78.9351166058536,33.648021873427865,0.0 -78.93511456668041,33.648023599571964,0.0 -78.93510578134124,33.64803097300933,0.0 -78.9351038194394,33.648032463412086,0.0 -78.93509605434242,33.64803818928178,0.0 -78.93509401516957,33.64803967968422,0.0 -78.93508217041875,33.648046740096625,0.0 -78.93507722768528,33.6480489364022,0.0 -78.93507220768059,33.648051054127045,0.0 -78.93506993276614,33.64805183861342,0.0 -78.93506318660397,33.64805364200906,0.0 -78.93506059867636,33.64805403490112,0.0 -78.93505479417527,33.648054583631406,0.0 -78.93505165618242,33.648054740779656,0.0 -78.93504593026303,33.64805434785359,0.0 -78.93504279227074,33.64805395624781,0.0 -78.93503683061023,33.64805238723207,0.0 -78.93503431995512,33.648051445565045,0.0 -78.93503039877614,33.64804940638422,0.0 -78.93502624054517,33.64804721004144,0.0 -78.93501722078828,33.64803991511175,0.0 -78.93501000315078,33.64803254160895,0.0 -78.93500843415616,33.64803089403076,0.0 -78.93500168931368,33.64802297177579,0.0 -78.93499988457721,33.64802077544254,0.0 -78.93497690103666,33.64799230038295,0.0 -78.93496890021463,33.64798116155981,0.0 -78.9349617624716,33.64796986688883,0.0 -78.93495062366524,33.647950491503416,0.0 -78.93494928910397,33.6479482165915,0.0 -78.93494379893552,33.647939431265584,0.0 -78.93494215136104,33.647936920610825,0.0 -78.93493673846201,33.64792970427649,0.0 -78.93493266012395,33.64792523302749,0.0 -78.93492960071522,33.64792209503245,0.0 -78.93492748296482,33.64792044745194,0.0 -78.93492442355507,33.64791840827464,0.0 -78.93492191290076,33.64791668211203,0.0 -78.9349199523113,33.6479155845959,0.0 -78.93491775597936,33.64791464293025,0.0 -78.93491508947231,33.64791377984309,0.0 -78.93491242165562,33.64791283948514,0.0 -78.9349099908909,33.64791205497961,0.0 -78.93490779324868,33.64791166206789,0.0 -78.93490434224303,33.64791119188035,0.0 -78.93489971383555,33.647910564526825,0.0 -78.9348963414104,33.64791032877146,0.0</coordinates>
                    </LinearRing>
                </outerBoundaryIs>
            </Polygon>
        </Placemark>
        <Placemark id="3948">
            <name>Flood_429</name>
            <styleUrl>#3953</styleUrl>
            <Polygon id="3947">
                <outerBoundaryIs>
                    <LinearRing id="3951">
                        <coordinates>-78.93900089025702,33.649779845904106,0.0 -78.93901587297952,33.649793886997706,0.0 -78.93901046006587,33.64980118186848,0.0 -78.93899877249162,33.64979318101225,0.0 -78.93899085024866,33.6497832182775,0.0 -78.93897978999712,33.64978925845591,0.0 -78.93897320099938,33.64978815961096,0.0 -78.9389769663302,33.64978659194481,0.0 -78.9389767305909,33.649783532541676,0.0 -78.93898528018391,33.649779924420486,0.0 -78.93899100741288,33.64978055177865,0.0 -78.93900089025702,33.649779845904106,0.0</coordinates>
                    </LinearRing>
                </outerBoundaryIs>
            </Polygon>
        </Placemark>
    </Document>
</kml>
