<?xml version="1.0" encoding="UTF-8"?>
<kml xmlns="http://www.opengis.net/kml/2.2" xmlns:gx="http://www.google.com/kml/ext/2.2">
    <Document id="4233">
        <Style id="4240">
            <LineStyle id="4242">
                <colorMode>normal</colorMode>
                <width>1</width>
            </LineStyle>
            <PolyStyle id="4241">
                <color>80ebce87</color>
                <colorMode>normal</colorMode>
                <fill>1</fill>
                <outline>1</outline>
            </PolyStyle>
        </Style>
        <Style id="4249">
            <LineStyle id="4251">
                <colorMode>normal</colorMode>
                <width>1</width>
            </LineStyle>
            <PolyStyle id="4250">
                <color>80ebce87</color>
                <colorMode>normal</colorMode>
                <fill>1</fill>
                <outline>1</outline>
            </PolyStyle>
        </Style>
        <Style id="4258">
            <LineStyle id="4260">
                <colorMode>normal</colorMode>
                <width>1</width>
            </LineStyle>
            <PolyStyle id="4259">
                <color>80ebce87</color>
                <colorMode>normal</colorMode>
                <fill>1</fill>
                <outline>1</outline>
            </PolyStyle>
        </Style>
        <Style id="4267">
            <LineStyle id="4269">
                <colorMode>normal</colorMode>
                <width>1</width>
            </LineStyle>
            <PolyStyle id="4268">
                <color>80ebce87</color>
                <colorMode>normal</colorMode>
                <fill>1</fill>
                <outline>1</outline>
            </PolyStyle>
        </Style>
        <Style id="4276">
            <LineStyle id="4278">
                <colorMode>normal</colorMode>
                <width>1</width>
            </LineStyle>
            <PolyStyle id="4277">
                <color>80ebce87</color>
                <colorMode>normal</colorMode>
                <fill>1</fill>
                <outline>1</outline>
            </PolyStyle>
        </Style>
        <Style id="4285">
            <LineStyle id="4287">
                <colorMode>normal</colorMode>
                <width>1</width>
            </LineStyle>
            <PolyStyle id="4286">
                <color>80ebce87</color>
                <colorMode>normal</colorMode>
                <fill>1</fill>
                <outline>1</outline>
            </PolyStyle>
        </Style>
        <Style id="4294">
            <LineStyle id="4296">
                <colorMode>normal</colorMode>
                <width>1</width>
            </LineStyle>
            <PolyStyle id="4295">
                <color>80ebce87</color>
                <colorMode>normal</colorMode>
                <fill>1</fill>
                <outline>1</outline>
            </PolyStyle>
        </Style>
        <Style id="4303">
            <LineStyle id="4305">
                <colorMode>normal</colorMode>
                <width>1</width>
            </LineStyle>
            <PolyStyle id="4304">
                <color>80ebce87</color>
                <colorMode>normal</colorMode>
                <fill>1</fill>
                <outline>1</outline>
            </PolyStyle>
        </Style>
        <Style id="4312">
            <LineStyle id="4314">
                <colorMode>normal</colorMode>
                <width>1</width>
            </LineStyle>
            <PolyStyle id="4313">
                <color>80ebce87</color>
                <colorMode>normal</colorMode>
                <fill>1</fill>
                <outline>1</outline>
            </PolyStyle>
        </Style>
        <Style id="4321">
            <LineStyle id="4323">
                <colorMode>normal</colorMode>
                <width>1</width>
            </LineStyle>
            <PolyStyle id="4322">
                <color>80ebce87</color>
                <colorMode>normal</colorMode>
                <fill>1</fill>
                <outline>1</outline>
            </PolyStyle>
        </Style>
        <Placemark id="4235">
            <name>Flood_460</name>
            <styleUrl>#4240</styleUrl>
            <Polygon id="4234">
                <outerBoundaryIs>
                    <LinearRing id="4238">
                        <coordinates>-79.13077274952316,34.20157535986164,0.0 -79.13075408006985,34.20151762689016,0.0 -79.13068073686958,34.201521469403346,0.0 -79.13061280656153,34.201519901666856,0.0 -79.13058150790988,34.20152233239043,0.0 -79.13050659703285,34.20155394387485,0.0 -79.13048149577119,34.20155692466601,0.0 -79.13043411690343,34.20153103896026,0.0 -79.13041034888299,34.20149087785188,0.0 -79.13038407021774,34.20147471909752,0.0 -79.1303793645484,34.201469227639244,0.0 -79.13032939644206,34.20140718058152,0.0 -79.13030578558808,34.20139094324913,0.0 -79.13028695898294,34.201375097512866,0.0 -79.13025307241041,34.20137792113584,0.0 -79.13018820150147,34.2013513295017,0.0 -79.1301423130451,34.20132191423177,0.0 -79.1300907772576,34.20126778937776,0.0 -79.13001523773592,34.20129979376318,0.0 -79.12999099954932,34.20129485235006,0.0 -79.12998182132463,34.201245590344726,0.0 -79.12996236738596,34.201236726468586,0.0 -79.12989373115529,34.201203467291876,0.0 -79.12981081813575,34.201152010212304,0.0 -79.12979599259262,34.201135301405834,0.0 -79.12974218190227,34.201105728968386,0.0 -79.12969770528059,34.20109066901292,0.0 -79.1296667209583,34.201124791176504,0.0 -79.129598006151,34.201109181137745,0.0 -79.12954435131746,34.20110329804501,0.0 -79.12949932594077,34.201086119040056,0.0 -79.12940990252683,34.2010714506373,0.0 -79.1294004113001,34.201070823296284,0.0 -79.12934871836161,34.201062586724944,0.0 -79.12931349722571,34.201052153848266,0.0 -79.12930173108938,34.20104540771831,0.0 -79.129239056511,34.201030817919246,0.0 -79.12920258070922,34.20104038765963,0.0 -79.12915128067033,34.20101661969017,0.0 -79.12910413623779,34.201003441730954,0.0 -79.1290383236773,34.20100328451301,0.0 -79.12900514301712,34.20099096963971,0.0 -79.12891281736047,34.200979124887034,0.0 -79.12890614979645,34.200977868905944,0.0 -79.12889940365115,34.20097339768033,0.0 -79.12887626427884,34.20094766915665,0.0 -79.12883029723594,34.200889857581714,0.0 -79.12880951004209,34.20086067807474,0.0 -79.1287633072581,34.20080639606528,0.0 -79.12871200721861,34.2007790985302,0.0 -79.12868172880474,34.20078004015797,0.0 -79.12861301268896,34.20076913577034,0.0 -79.12853841480728,34.200720580931275,0.0 -79.1285160586152,34.20066504427705,0.0 -79.12849527273136,34.2006374324473,0.0 -79.12849189899991,34.2006164894818,0.0 -79.12849495839123,34.20055499122337,0.0 -79.1284202819286,34.20050478881722,0.0 -79.1283448995672,34.20053239925364,0.0 -79.12832442668866,34.20046996063042,0.0 -79.12835721442283,34.2003762235157,0.0 -79.12843079335414,34.20032335343658,0.0 -79.12846193483797,34.20029040866823,0.0 -79.12845550169692,34.20024702971162,0.0 -79.1284555016909,34.200219183468725,0.0 -79.12844687352808,34.20015784236072,0.0 -79.12844193211093,34.20012450465961,0.0 -79.1284773090879,34.20008685293416,0.0 -79.12851535256566,34.20004582749641,0.0 -79.12857661662603,34.200078380753034,0.0 -79.12854343467312,34.20014364429192,0.0 -79.12855245574109,34.20021486949369,0.0 -79.12855096534147,34.20027236670606,0.0 -79.12862156348237,34.20037504635008,0.0 -79.12867859072558,34.200346022761636,0.0 -79.12872196852011,34.20032272635635,0.0 -79.12873514648628,34.20032217761531,0.0 -79.12882025583129,34.20036524100929,0.0 -79.12885406512811,34.20034061134984,0.0 -79.12891995496025,34.20034476830547,0.0 -79.12896411856735,34.200351514463506,0.0 -79.12898843532531,34.200315038813805,0.0 -79.12901518414407,34.200238323498475,0.0 -79.12901337940855,34.20023298920342,0.0 -79.12892419172205,34.20015109665473,0.0 -79.12889438346912,34.20009210900874,0.0 -79.12883068864917,34.200060574674644,0.0 -79.12879162492591,34.20006724218015,0.0 -79.12878785959126,34.200001351276335,0.0 -79.1287812705969,34.19994942409138,0.0 -79.12875208968438,34.19991420306095,0.0 -79.12880550877233,34.199903613100666,0.0 -79.12883170883585,34.19982368254052,0.0 -79.12887508665487,34.19991310566247,0.0 -79.12888026381701,34.19996103310837,0.0 -79.12892772126561,34.199990369798996,0.0 -79.12895297970093,34.20004512196238,0.0 -79.12896749092283,34.20006732091286,0.0 -79.12900012283941,34.20013054534986,0.0 -79.12893603643703,34.20014929193724,0.0 -79.1290222432939,34.20020537870905,0.0 -79.12903565700802,34.20023330354401,0.0 -79.12907299589733,34.20027291591129,0.0 -79.12911927594998,34.20031700081571,0.0 -79.12921693593033,34.200379047914296,0.0 -79.12923748736644,34.2003350416481,0.0 -79.12923709576955,34.20031880433607,0.0 -79.12924407633245,34.20025675732835,0.0 -79.12931843977574,34.20027676001109,0.0 -79.12939413516557,34.200321157952644,0.0 -79.12941570685925,34.2003661831801,0.0 -79.12944590668828,34.20034665206995,0.0 -79.12944810301055,34.20032194249293,0.0 -79.12944724123065,34.20026381794545,0.0 -79.12959055390523,34.20026318942728,0.0 -79.12961651824364,34.200259581303875,0.0 -79.12965636646834,34.20027605439098,0.0 -79.12965966160735,34.20024263811637,0.0 -79.1296733883202,34.20020671251963,0.0 -79.12971692328146,34.20020890887707,0.0 -79.12975943931119,34.200196828500694,0.0 -79.12975080984415,34.20016160879758,0.0 -79.12974437800868,34.200099874789636,0.0 -79.12981874013519,34.200087795750534,0.0 -79.12983285975986,34.20009210982189,0.0 -79.1299177346619,34.200085285195335,0.0 -79.12994471793253,34.20009916905003,0.0 -79.13003610323695,34.200091638516085,0.0 -79.13005124178667,34.2000808926716,0.0 -79.13013870460958,34.20007328355388,0.0 -79.13014592092692,34.20006936109284,0.0 -79.13023048150787,34.20006857667271,0.0 -79.13023950255977,34.20006567444762,0.0 -79.130231500434,34.20005837956846,0.0 -79.13014662683979,34.200056654657054,0.0 -79.13004810379721,34.20006136022277,0.0 -79.13003610322994,34.200059948386055,0.0 -79.12992094991307,34.2000626160879,0.0 -79.1298472150996,34.19997531067853,0.0 -79.12978155970002,34.199972329808595,0.0 -79.12974375065369,34.20001006011238,0.0 -79.12967519301348,34.200019551244985,0.0 -79.12962906882694,34.200042220315225,0.0 -79.12954694030904,34.200013746668205,0.0 -79.12952293655297,34.20000080316044,0.0 -79.12948622631538,34.199992723762975,0.0 -79.12942457066166,34.199960091925625,0.0 -79.1293895865684,34.19990879073908,0.0 -79.12937405510468,34.199869727143145,0.0 -79.12938260465644,34.19979097265283,0.0 -79.1294652819146,34.199754889955,0.0 -79.12951830940688,34.19973347555638,0.0 -79.12959204419705,34.19971590375285,0.0 -79.12963761832302,34.19971025648719,0.0 -79.12970052863875,34.199705471000634,0.0 -79.1297355926097,34.19969958798496,0.0 -79.12977748001025,34.199758419790655,0.0 -79.12982548621143,34.19977897120304,0.0 -79.12987231633065,34.19983356622466,0.0 -79.12991090989237,34.19988290552603,0.0 -79.12993820748328,34.19988753392997,0.0 -79.12998393876016,34.19983521388847,0.0 -79.12992471517066,34.19977865696759,0.0 -79.12987655180665,34.1997512035844,0.0 -79.12992636272722,34.19970358919737,0.0 -79.12995075807079,34.19968986123807,0.0 -79.13002551310679,34.199707354589755,0.0 -79.13005939968893,34.19974892884255,0.0 -79.1301229373583,34.199828154877316,0.0 -79.13020796809681,34.199753556041735,0.0 -79.13022373528693,34.1997228861597,0.0 -79.13023644308424,34.199745633861205,0.0 -79.13032272850673,34.199733553522634,0.0 -79.13035590916353,34.1997314358119,0.0 -79.13036257673404,34.199761871282064,0.0 -79.13036610632004,34.19979567915454,0.0 -79.13035944007605,34.19984086151835,0.0 -79.1304185065028,34.1998901235669,0.0 -79.13051522481996,34.19992573624793,0.0 -79.130582684972,34.20000919776518,0.0 -79.13057162476346,34.200056733605585,0.0 -79.130572958022,34.20009148313022,0.0 -79.1306117074338,34.200133683410634,0.0 -79.13063398503814,34.20015596094838,0.0 -79.13066010654286,34.200175257676285,0.0 -79.13066708843678,34.200210400107466,0.0 -79.13070866150825,34.200238324966975,0.0 -79.1307421564864,34.20023126586469,0.0 -79.13080796904786,34.20023659890558,0.0 -79.13088076348122,34.20017855300193,0.0 -79.13090398142769,34.20017517930732,0.0 -79.13100219145885,34.20017572945465,0.0 -79.13101183984723,34.200178866127125,0.0 -79.1310188990058,34.200185377821725,0.0 -79.13103497923018,34.20025134600767,0.0 -79.1310436086922,34.20026350500875,0.0 -79.13106627789071,34.20028915495194,0.0 -79.13108565325209,34.200313001474015,0.0 -79.1311035382011,34.20033496468675,0.0 -79.13111334244297,34.20034696652831,0.0 -79.13114644583477,34.200370577321394,0.0 -79.13120119818471,34.20040964095165,0.0 -79.13124214390875,34.20038250065713,0.0 -79.1312682654016,34.20034932014299,0.0 -79.13128105177064,34.20033198402766,0.0 -79.13130215197059,34.20033057221964,0.0 -79.13132411525199,34.20035018326529,0.0 -79.13139981195387,34.20040391523874,0.0 -79.13141573631881,34.20043395912517,0.0 -79.1313984001367,34.200466903906054,0.0 -79.13134270614901,34.20051538005217,0.0 -79.13135800318351,34.20056621104999,0.0 -79.13136921926137,34.20059821420153,0.0 -79.13139432053676,34.200656418660515,0.0 -79.13139871450743,34.20068112693387,0.0 -79.1313929873099,34.20076262780928,0.0 -79.13139965489248,34.20084608927427,0.0 -79.13140224412545,34.20085628769134,0.0 -79.13138922201864,34.20089135021528,0.0 -79.1313758096261,34.20091755018936,0.0 -79.13137745589204,34.200928217468096,0.0 -79.13136859201578,34.200995285756775,0.0 -79.13134929524364,34.20101018980587,0.0 -79.13132576298116,34.20104235008771,0.0 -79.13130976136323,34.201092082243726,0.0 -79.13129760232766,34.20110212217759,0.0 -79.13128497311995,34.20112000704567,0.0 -79.13125124371382,34.20114612842165,0.0 -79.13122033797075,34.201173190144495,0.0 -79.13121468934119,34.201198605631824,0.0 -79.13120206014212,34.20125539692199,0.0 -79.13121327753515,34.20131163948048,0.0 -79.13120449223022,34.20133791803882,0.0 -79.13120056975244,34.20135438977854,0.0 -79.13117946956434,34.201408435989016,0.0 -79.13116417385208,34.20141345594803,0.0 -79.13116315361539,34.2014197318947,0.0 -79.13107922037612,34.201451343371275,0.0 -79.13106894465405,34.20145526582952,0.0 -79.13097905107823,34.20149503524695,0.0 -79.1309723049336,34.201493701995105,0.0 -79.1308800578575,34.20148287747655,0.0 -79.13086687989204,34.201486798622646,0.0 -79.13082867793663,34.201497152855,0.0 -79.13079086889799,34.20156916251018,0.0 -79.13078600607086,34.2015788894388,0.0 -79.13077871117243,34.20158061427031,0.0 -79.13077274952316,34.20157535986164,0.0</coordinates>
                    </LinearRing>
                </outerBoundaryIs>
            </Polygon>
        </Placemark>
        <Placemark id="4244">
            <name>Flood_461</name>
            <styleUrl>#4249</styleUrl>
            <Polygon id="4243">
                <outerBoundaryIs>
                    <LinearRing id="4247">
                        <coordinates>-79.12476144962612,34.21739063727298,0.0 -79.12477713823665,34.217357455442475,0.0 -79.1248016907384,34.21732121553662,0.0 -79.12487793618025,34.21728827081417,0.0 -79.12492256865028,34.21727744641882,0.0 -79.1249471997326,34.2172409707721,0.0 -79.1249789685535,34.217207475945244,0.0 -79.12499889266084,34.217186610272584,0.0 -79.12502477841535,34.217159705708696,0.0 -79.12499889264194,34.21709412779645,0.0 -79.12499724506785,34.21708989231613,0.0 -79.12499622613673,34.21707679297754,0.0 -79.1249822636689,34.21705459402683,0.0 -79.12496822262703,34.21706486969867,0.0 -79.12488366203306,34.21702502154351,0.0 -79.12481376982436,34.217015843297155,0.0 -79.12478466880769,34.21701427428267,0.0 -79.12472191564993,34.21702070733122,0.0 -79.1246850469431,34.21703027706833,0.0 -79.12463264808727,34.21702682472376,0.0 -79.12457844580659,34.217023216526485,0.0 -79.1245318514372,34.21701615735121,0.0 -79.12448360949445,34.21700878385311,0.0 -79.12437528089748,34.217017176127506,0.0 -79.12427228661366,34.21702509954446,0.0 -79.12423910595274,34.21701694156727,0.0 -79.1242303992154,34.21698368244305,0.0 -79.12421980916356,34.21695418862352,0.0 -79.12423392877749,34.21690131849508,0.0 -79.12427558171916,34.21682154380438,0.0 -79.12440093218606,34.216822877168944,0.0 -79.12448290353626,34.2167998152353,0.0 -79.12447992269986,34.21673918004639,0.0 -79.12453859621156,34.216717608497206,0.0 -79.12453389053894,34.21669642978968,0.0 -79.12452581113547,34.21665744478081,0.0 -79.12457146383127,34.21658559229858,0.0 -79.12456620809658,34.216575551039774,0.0 -79.12458119079555,34.2165634719507,0.0 -79.12459381999382,34.21649350143559,0.0 -79.1246672417626,34.21641215778794,0.0 -79.12467288908637,34.216401490516134,0.0 -79.12469877484607,34.21640039172594,0.0 -79.12473085798725,34.216356542633804,0.0 -79.12474309429138,34.21633081414234,0.0 -79.12475901733099,34.216283201038074,0.0 -79.12472136542847,34.2162480585784,0.0 -79.1248021606861,34.21621119139275,0.0 -79.12482239911444,34.21618342244011,0.0 -79.12482185034573,34.21611376754343,0.0 -79.1249057822656,34.216011715374464,0.0 -79.12499889241914,34.2160044192804,0.0 -79.12494421865254,34.21598833907822,0.0 -79.12491770555867,34.215994143518714,0.0 -79.1249063310156,34.215989123535884,0.0 -79.12482969395994,34.21591986015941,0.0 -79.12482545845839,34.21588526779343,0.0 -79.12490899880167,34.215865186674044,0.0 -79.12493182515529,34.21585773466278,0.0 -79.12495253375938,34.21583922247102,0.0 -79.12497677194061,34.21581255233671,0.0 -79.12499889237674,34.215796942378994,0.0 -79.12500995259485,34.21578917603547,0.0 -79.12504431065274,34.21578666673662,0.0 -79.12503387776242,34.215758035990994,0.0 -79.1250515269555,34.21570893117207,0.0 -79.12511082911767,34.21571583450802,0.0 -79.12515875673661,34.21571724637941,0.0 -79.1251994680286,34.21567802567549,0.0 -79.12520652718534,34.21567449480685,0.0 -79.1252574369295,34.21563433376802,0.0 -79.12531132619421,34.215623273640205,0.0 -79.12533964402333,34.21562115592746,0.0 -79.12536545119778,34.215598093940486,0.0 -79.12541283004612,34.215521455918505,0.0 -79.12541659536554,34.215516435949915,0.0 -79.12547958295104,34.21548976585194,0.0 -79.12549425262846,34.2154350923054,0.0 -79.12549127179139,34.21537257511783,0.0 -79.12549307521208,34.215352651081915,0.0 -79.12549166337642,34.21533217698081,0.0 -79.12550868523167,34.215270444305304,0.0 -79.12550044867193,34.21525585324374,0.0 -79.12551778486318,34.21526001146804,0.0 -79.1255810867726,34.21524126357526,0.0 -79.12561842564588,34.215196629994225,0.0 -79.12562603355761,34.21519600266863,0.0 -79.12573224442173,34.215260481841646,0.0 -79.12581562760761,34.215259618846304,0.0 -79.12588057709158,34.215247304063,0.0 -79.1259884341997,34.21521726160206,0.0 -79.12598812119953,34.21527766104739,0.0 -79.12599282819137,34.215344022123666,0.0 -79.12599259245295,34.21536018085462,0.0 -79.12599227814461,34.21542756216054,0.0 -79.12599635779056,34.215442701970794,0.0 -79.12599016040386,34.215458860696046,0.0 -79.12595501918054,34.21556342355268,0.0 -79.12591932788013,34.21560640956798,0.0 -79.1259166600703,34.21561433177047,0.0 -79.12590677725295,34.215628685764415,0.0 -79.12582535466832,34.21570367618732,0.0 -79.12580590073046,34.21570218576253,0.0 -79.1257505210557,34.21572312998232,0.0 -79.12570549568719,34.21575489864958,0.0 -79.1256823550083,34.215748465519745,0.0 -79.12560665962215,34.21573748385021,0.0 -79.12558116545716,34.21574525018017,0.0 -79.1255442194818,34.215765722935465,0.0 -79.1255062532688,34.21578862775036,0.0 -79.12542420333133,34.215777960396004,0.0 -79.12540733862379,34.21577411649337,0.0 -79.12533227057666,34.215782823121025,0.0 -79.1253074823292,34.21579859023678,0.0 -79.12526849719227,34.215844006999845,0.0 -79.12525641674291,34.21588542405038,0.0 -79.12520582131764,34.21590903476649,0.0 -79.12517648455797,34.21590048520106,0.0 -79.12517993556105,34.21592511620246,0.0 -79.12523735572218,34.21595296249904,0.0 -79.12530355988493,34.21598112312516,0.0 -79.12533281937792,34.21600991104922,0.0 -79.1253243470831,34.21602787450008,0.0 -79.12532348401358,34.21606395726788,0.0 -79.12526269278985,34.2162562170352,0.0 -79.12531007168268,34.216395999664066,0.0 -79.12539486669755,34.21638156716059,0.0 -79.12534121187096,34.2164223555294,0.0 -79.12539439654081,34.216465263048235,0.0 -79.12537862935136,34.216505346849345,0.0 -79.12529971740231,34.2165106024878,0.0 -79.12529195101996,34.21651295596074,0.0 -79.12527304714779,34.21651930916092,0.0 -79.12516503288057,34.216562530848556,0.0 -79.12512745826052,34.21658402383743,0.0 -79.12509145394208,34.2166022216935,0.0 -79.12505074264483,34.216616419807266,0.0 -79.12501756198732,34.21662481346265,0.0 -79.1250157572611,34.21666497585725,0.0 -79.12501764058045,34.21668576166062,0.0 -79.12501716910073,34.21670458819273,0.0 -79.12501544426206,34.21673188568097,0.0 -79.12501269918447,34.216755417861776,0.0 -79.12501238486482,34.21676859577946,0.0 -79.12501418960359,34.2167893043121,0.0 -79.12502462118151,34.216804208387416,0.0 -79.1250410157119,34.21679165781777,0.0 -79.12508698274792,34.21680750358073,0.0 -79.12517805374033,34.21682570155705,0.0 -79.12518581881386,34.21682774072341,0.0 -79.12523531672748,34.21679103066885,0.0 -79.12524849469355,34.216786480881474,0.0 -79.12528622516693,34.21677330299918,0.0 -79.12531320843607,34.21677416609845,0.0 -79.12538553271213,34.21677220558815,0.0 -79.12544475498918,34.2168035028719,0.0 -79.1254838200284,34.21681589633343,0.0 -79.12550256674498,34.21683707636405,0.0 -79.125534335581,34.21687692446926,0.0 -79.12555355378579,34.21692030212827,0.0 -79.12553739500439,34.216967289209244,0.0 -79.12552735503002,34.217002351734024,0.0 -79.12551001884475,34.217027688628875,0.0 -79.12547848576584,34.21706181078889,0.0 -79.12544828593526,34.217083618105974,0.0 -79.12537784498237,34.2171246421996,0.0 -79.12530591361698,34.21716394145404,0.0 -79.12528802867372,34.21717241370413,0.0 -79.12527743993864,34.21717735508586,0.0 -79.12521068571964,34.21718974844708,0.0 -79.12517687773465,34.21723532237541,0.0 -79.12516361987691,34.217233204623454,0.0 -79.1251347546046,34.21724379460249,0.0 -79.12511890883582,34.21729078037402,0.0 -79.12508141410855,34.21732545259045,0.0 -79.12507560831244,34.21732890357024,0.0 -79.12501332664236,34.21735565224854,0.0 -79.12499889269738,34.21736530058726,0.0 -79.12497520326852,34.21738114497442,0.0 -79.12491245010806,34.21737510601807,0.0 -79.12487628862223,34.21736326131178,0.0 -79.12480388708303,34.21740373665088,0.0 -79.12477596215822,34.217412679063585,0.0 -79.12473979936311,34.217402794936035,0.0 -79.12476144962612,34.21739063727298,0.0</coordinates>
                    </LinearRing>
                </outerBoundaryIs>
            </Polygon>
        </Placemark>
        <Placemark id="4253">
            <name>Flood_462</name>
            <styleUrl>#4258</styleUrl>
            <Polygon id="4252">
                <outerBoundaryIs>
                    <LinearRing id="4256">
                        <coordinates>-79.11214449501506,34.24512374703119,0.0 -79.11213837751104,34.245101783829334,0.0 -79.11214143690627,34.24504122723041,0.0 -79.11214018091647,34.24498106221862,0.0 -79.11212096271515,34.244958471669825,0.0 -79.11212064969243,34.2448968162526,0.0 -79.11205428704717,34.24482872896608,0.0 -79.11203593192337,34.24480958940333,0.0 -79.11198674961537,34.24472079360578,0.0 -79.11197553223157,34.24470894892234,0.0 -79.11188155898007,34.24464305792561,0.0 -79.111805156355,34.2445908949272,0.0 -79.11173471538682,34.244588069889154,0.0 -79.11162356441686,34.244538651925225,0.0 -79.11160803295743,34.244526337065,0.0 -79.11154269055018,34.2444549546457,0.0 -79.11151147046567,34.24440192862251,0.0 -79.1114712306405,34.244371414537106,0.0 -79.11148731084283,34.2443108579524,0.0 -79.1114141247931,34.244314153007544,0.0 -79.11134682181553,34.244342392077094,0.0 -79.11131458149832,34.24432403568317,0.0 -79.11130226660298,34.24429713108332,0.0 -79.11121519667338,34.244326937808644,0.0 -79.11112036034876,34.24428363864892,0.0 -79.11115001142316,34.24422810205064,0.0 -79.11121707866548,34.244241672941556,0.0 -79.11130179642544,34.24427493214679,0.0 -79.1113166219599,34.24423037713009,0.0 -79.11137710021713,34.24423735905531,0.0 -79.11140612396342,34.24422661192033,0.0 -79.11140737863195,34.244215237422566,0.0 -79.11140102537524,34.24412471683384,0.0 -79.11138180717448,34.24410487135714,0.0 -79.11131944560283,34.24410290940172,0.0 -79.11127065489245,34.24403850886059,0.0 -79.11130846395092,34.24402862611834,0.0 -79.11129779531201,34.243956459264766,0.0 -79.11129834406337,34.24393590789641,0.0 -79.11127081202736,34.243873625117345,0.0 -79.11123127680065,34.24379416467088,0.0 -79.11123606235799,34.243783260349154,0.0 -79.11122719846549,34.24378404483303,0.0 -79.11115252068117,34.243706937828826,0.0 -79.11122939477717,34.24368136526106,0.0 -79.11129952142281,34.24368497348216,0.0 -79.11132925108227,34.243658147507816,0.0 -79.11141428185617,34.243699799089676,0.0 -79.11142918466977,34.243706859546094,0.0 -79.11154488678159,34.243851269315726,0.0 -79.11155076985165,34.24386264382112,0.0 -79.11154802477482,34.24389904090563,0.0 -79.11158371609739,34.24396085221169,0.0 -79.11161956326826,34.2440030538029,0.0 -79.11167761077093,34.244044706665605,0.0 -79.11167941419956,34.24406745435604,0.0 -79.11171690894061,34.24408910458007,0.0 -79.11178844873707,34.24415083734457,0.0 -79.11181339285223,34.24421625809448,0.0 -79.1118352002875,34.244256812103565,0.0 -79.11185528025571,34.24427689332214,0.0 -79.11189152033126,34.2443287432656,0.0 -79.11196768721945,34.24441220479916,0.0 -79.11200730101697,34.2444291480653,0.0 -79.1120690339457,34.244442483209596,0.0 -79.11211484514058,34.24450076496156,0.0 -79.11216387027775,34.244530494563065,0.0 -79.11222591753477,34.24457936372168,0.0 -79.11226560991466,34.24460768148705,0.0 -79.11232734285005,34.244661727777796,0.0 -79.11236224967143,34.24469286919041,0.0 -79.11239880406058,34.24468949551536,0.0 -79.11245198742732,34.244753268729035,0.0 -79.11249591399323,34.24478629214971,0.0 -79.11255654940997,34.24478205673681,0.0 -79.11261789075157,34.24483249488147,0.0 -79.11269186131058,34.24490693539416,0.0 -79.11274214373579,34.244925840560235,0.0 -79.11278356096265,34.244968512330026,0.0 -79.11278975704403,34.24497070865624,0.0 -79.11294499304064,34.24498882944253,0.0 -79.11295205351507,34.24502922627543,0.0 -79.1130369271291,34.24507495748551,0.0 -79.11306375455165,34.245090567492085,0.0 -79.11308493333625,34.24509496015414,0.0 -79.11313929409317,34.24510162775189,0.0 -79.11318361356035,34.245122807811384,0.0 -79.11324354306089,34.24511559027527,0.0 -79.11322667835805,34.24514908511211,0.0 -79.11322118688554,34.24516391059041,0.0 -79.1132326387271,34.245329736001715,0.0 -79.11322440348518,34.24536542716742,0.0 -79.11318408379402,34.245483480935704,0.0 -79.11320432223816,34.245532585790485,0.0 -79.11316212053008,34.24558263092172,0.0 -79.11311929148722,34.24563502953249,0.0 -79.11302806333886,34.24569629194917,0.0 -79.1129460919891,34.24577536067292,0.0 -79.11281776067327,34.245697624966844,0.0 -79.11282207474449,34.2456716620387,0.0 -79.11280034720384,34.24565903285044,0.0 -79.11267664428931,34.245601299766165,0.0 -79.11262942257993,34.24559023953692,0.0 -79.11257780821482,34.24558106130136,0.0 -79.1124872073872,34.24555478394908,0.0 -79.11247912799054,34.245552743471805,0.0 -79.11247081285156,34.24554795923186,0.0 -79.1124683820903,34.24554097736917,0.0 -79.11242688628342,34.2455022280661,0.0 -79.11238248822771,34.24543217891476,0.0 -79.1123509538241,34.24540103750567,0.0 -79.11232428356084,34.24537389714917,0.0 -79.11225164756554,34.245318596180915,0.0 -79.1122434110066,34.24530941799233,0.0 -79.11218795273146,34.24524776382507,0.0 -79.11214873183296,34.24520626814294,0.0 -79.11214402484724,34.24516179168534,0.0 -79.11214449501506,34.24512374703119,0.0</coordinates>
                    </LinearRing>
                </outerBoundaryIs>
            </Polygon>
        </Placemark>
        <Placemark id="4262">
            <name>Flood_463</name>
            <styleUrl>#4267</styleUrl>
            <Polygon id="4261">
                <outerBoundaryIs>
                    <LinearRing id="4265">
                        <coordinates>-79.05593762384993,34.24941317565418,0.0 -79.0558579273961,34.24935638428561,0.0 -79.05583776754115,34.24932916536281,0.0 -79.05582027549808,34.24929637641049,0.0 -79.05578105460698,34.249245782451574,0.0 -79.0557662290657,34.24922389651658,0.0 -79.05576183640963,34.24921801346793,0.0 -79.05571924179115,34.24916239822516,0.0 -79.0556650381972,34.249106078366566,0.0 -79.05563475977894,34.24907862369184,0.0 -79.05564221184171,34.249016889719506,0.0 -79.05556432012183,34.248995005024824,0.0 -79.05559193073053,34.24893146765727,0.0 -79.05567005950351,34.24888424492178,0.0 -79.05576199226833,34.2489210350021,0.0 -79.05576850398153,34.248922132513904,0.0 -79.05577109190313,34.248916876805474,0.0 -79.05576889557523,34.24890597378862,0.0 -79.05571814428986,34.2488324736645,0.0 -79.0557366565727,34.24880407869939,0.0 -79.0557277141005,34.248750189640695,0.0 -79.05573916591618,34.24869308405148,0.0 -79.05577430847542,34.24866578660929,0.0 -79.05584835760459,34.24863040984693,0.0 -79.05587510513536,34.248601386248524,0.0 -79.05591158094525,34.24858812979474,0.0 -79.05594727225892,34.24856553800241,0.0 -79.05595495875365,34.24850639325065,0.0 -79.05595048882721,34.24848427289584,0.0 -79.05597668760223,34.24849839249193,0.0 -79.05602524256112,34.24850749214212,0.0 -79.05607474048641,34.248553380462845,0.0 -79.05611796113196,34.248544673814976,0.0 -79.05617389088086,34.248560596861175,0.0 -79.05623076097817,34.24855785185245,0.0 -79.05627398162423,34.24852561171912,0.0 -79.05629014041703,34.24852506298458,0.0 -79.05637242610219,34.248563263570354,0.0 -79.05640592108657,34.24859589537968,0.0 -79.05643062944833,34.248660923211105,0.0 -79.0564683599273,34.248712460131735,0.0 -79.05651275797254,34.248689555337485,0.0 -79.05650569881284,34.248762348175696,0.0 -79.05650060024034,34.24879050872454,0.0 -79.05648914711524,34.24884455492159,0.0 -79.05647879280988,34.24885577224566,0.0 -79.05649126486085,34.24892707600909,0.0 -79.05646239958233,34.24897421890892,0.0 -79.05643306151075,34.249008575486435,0.0 -79.05643321867069,34.249068583320415,0.0 -79.05643282576715,34.24909109657133,0.0 -79.05645918301289,34.249119335735045,0.0 -79.05649526591897,34.249144358356524,0.0 -79.0565504111713,34.249175342623275,0.0 -79.05645706526347,34.249212602671676,0.0 -79.05636858218574,34.2492453901976,0.0 -79.05635689462962,34.249248370996845,0.0 -79.05635156031576,34.24925033287877,0.0 -79.05634097157836,34.24925456834437,0.0 -79.05630912416574,34.249297711504404,0.0 -79.05630661351437,34.249336460749284,0.0 -79.05630473150829,34.24935818950543,0.0 -79.05630010311003,34.24937403390486,0.0 -79.05625397891023,34.24940847035374,0.0 -79.05624848874481,34.24941349031815,0.0 -79.05615459408305,34.24941380453577,0.0 -79.0561485538535,34.24941137246927,0.0 -79.05608587926874,34.249392545873825,0.0 -79.05605599244356,34.249381015493974,0.0 -79.05601143723685,34.249404234609024,0.0 -79.0559684510231,34.24942415859258,0.0 -79.05595566595775,34.24942760956255,0.0 -79.0559470364972,34.249420549114525,0.0 -79.0559401345004,34.24941537197588,0.0 -79.05593762384993,34.24941317565418,0.0</coordinates>
                    </LinearRing>
                </outerBoundaryIs>
            </Polygon>
        </Placemark>
        <Placemark id="4271">
            <name>Flood_464</name>
            <styleUrl>#4276</styleUrl>
            <Polygon id="4270">
                <outerBoundaryIs>
                    <LinearRing id="4274">
                        <coordinates>-79.06289600487627,34.29234865802872,0.0 -79.06290424141697,34.2923428535634,0.0 -79.06298244860778,34.29228747278304,0.0 -79.06387119059052,34.29157224399927,0.0 -79.06412934158111,34.29132852717591,0.0 -79.06436458761505,34.29107963190759,0.0 -79.06487602663226,34.2905491323283,0.0 -79.06491226645703,34.290468651680236,0.0 -79.06501714178131,34.29014625759855,0.0 -79.06508781617056,34.28981382356495,0.0 -79.06510099444321,34.28948523209678,0.0 -79.06508781460863,34.289303953840985,0.0 -79.06507910672279,34.288927434919955,0.0 -79.06483993562442,34.288332848999445,0.0 -79.06465834338984,34.28823950338804,0.0 -79.06431978847299,34.28797688131358,0.0 -79.0638443512371,34.287674096794696,0.0 -79.06356737362437,34.28748395459978,0.0 -79.06340829348673,34.287409984277296,0.0 -79.06327282411918,34.287307853391944,0.0 -79.06301271126149,34.28713222367361,0.0 -79.06270317874562,34.28685579502655,0.0 -79.06249883727888,34.28671522786109,0.0 -79.0622566093981,34.28654869643371,0.0 -79.06209823508946,34.286446095364035,0.0 -79.06173685249098,34.28617845328107,0.0 -79.06137515692355,34.28592500934924,0.0 -79.06116626690348,34.28576930236423,0.0 -79.06097902601904,34.285671093920534,0.0 -79.06045087706745,34.285419846247,0.0 -79.05987676107276,34.285167891329536,0.0 -79.05926789546211,34.28492966437792,0.0 -79.05895522669512,34.2847913720572,0.0 -79.05867103165969,34.2846678266534,0.0 -79.05851728589646,34.28461299586451,0.0 -79.05803031828617,34.28431476106864,0.0 -79.0579523463461,34.28420870902335,0.0 -79.0577730287184,34.28401527168169,0.0 -79.0577061948556,34.28367115003984,0.0 -79.05776227986847,34.28347669254632,0.0 -79.05781052150161,34.28337260112464,0.0 -79.05788205962551,34.2832545472962,0.0 -79.05799438887688,34.28311335288482,0.0 -79.05807157434278,34.28300024045264,0.0 -79.05814177938962,34.28293936953352,0.0 -79.05822963491013,34.28286453620577,0.0 -79.05839342007535,34.28272883196195,0.0 -79.05853571325228,34.28253092482926,0.0 -79.05871259889874,34.28232407526954,0.0 -79.05888391445953,34.282107497464075,0.0 -79.05919375838403,34.28185985822039,0.0 -79.0592941643932,34.28173749034948,0.0 -79.0594359861438,34.28155864288287,0.0 -79.05953693951072,34.28140772154058,0.0 -79.05962487228705,34.28132810398565,0.0 -79.059807719553,34.2811117619342,0.0 -79.05994593285222,34.28083753104597,0.0 -79.06007332158373,34.2805345908313,0.0 -79.0601271319914,34.28044006788538,0.0 -79.06013654545531,34.280278243487224,0.0 -79.06016305807631,34.28012136048967,0.0 -79.06018337336423,34.27998353976787,0.0 -79.06020988729506,34.27982673535104,0.0 -79.06018062710322,34.279597528303114,0.0 -79.06016234993531,34.27939232624095,0.0 -79.06017835095795,34.279192457179526,0.0 -79.06021184529251,34.27897854713109,0.0 -79.06023114179706,34.27888833954093,0.0 -79.06027051918605,34.2786697238436,0.0 -79.06022353127928,34.27846412886616,0.0 -79.06020321520613,34.278344661871614,0.0 -79.06022768893637,34.27827830079492,0.0 -79.06027004621875,34.278183700575724,0.0 -79.06027294807011,34.278055056719595,0.0 -79.0603279357173,34.27790821368451,0.0 -79.06046465880637,34.277700658217896,0.0 -79.06048905395608,34.27763437441258,0.0 -79.0605248236794,34.277577740277394,0.0 -79.0606126778741,34.2774981227316,0.0 -79.0606718226541,34.27742281792216,0.0 -79.06069104057758,34.27733253175315,0.0 -79.06076328452849,34.27718592577977,0.0 -79.06084054986822,34.27706802782268,0.0 -79.06100966940332,34.276951541739415,0.0 -79.06106410836811,34.276828467947404,0.0 -79.06110623124704,34.27674335892529,0.0 -79.06113227375195,34.276605615481515,0.0 -79.06117470960002,34.27650622972394,0.0 -79.06127935129209,34.276445908899234,0.0 -79.06133018083571,34.27633875810042,0.0 -79.06151773565098,34.27631004887593,0.0 -79.06153852141787,34.276272239962374,0.0 -79.0615752329817,34.276275533806945,0.0 -79.06161421796084,34.276218663934934,0.0 -79.06164010355941,34.276164383277866,0.0 -79.06163131806346,34.27610445398663,0.0 -79.06166536165283,34.276054564664555,0.0 -79.06168520699121,34.27599039990893,0.0 -79.06171399469564,34.2758909355655,0.0 -79.06171376013522,34.27584896974167,0.0 -79.06181432226623,34.27581571067209,0.0 -79.06182153856736,34.27580959188777,0.0 -79.06182491095952,34.275801120930296,0.0 -79.06183369594201,34.27569302845671,0.0 -79.06183220538252,34.27564486526384,0.0 -79.06181902728648,34.27560336960544,0.0 -79.06191857057144,34.27559717229078,0.0 -79.06195653548174,34.27559576048468,0.0 -79.06195614379216,34.2755643060894,0.0 -79.06195339865927,34.275547911612385,0.0 -79.06195167247442,34.27553787166504,0.0 -79.06192413884045,34.27544099651373,0.0 -79.06196132044134,34.27539950088274,0.0 -79.06202321041998,34.27536224074487,0.0 -79.06206070643108,34.2753494544365,0.0 -79.06206831425027,34.27531870595892,0.0 -79.06206847130123,34.27528262318274,0.0 -79.0620341129766,34.27519743554162,0.0 -79.06212714576327,34.27516041116223,0.0 -79.06213600963967,34.275154841131624,0.0 -79.06214189267214,34.27514299646038,0.0 -79.06215640358522,34.27504251318566,0.0 -79.06222982528676,34.2750110588313,0.0 -79.06225288738695,34.2750108231031,0.0 -79.06227728268156,34.274992075160384,0.0 -79.06223084538506,34.27496524912101,0.0 -79.06217570002494,34.27493128405413,0.0 -79.062109730058,34.27485574474983,0.0 -79.06212471223044,34.27468183994751,0.0 -79.06203599506641,34.27479644275573,0.0 -79.06202454177154,34.27474074894284,0.0 -79.062024777481,34.27473015893428,0.0 -79.06202022744353,34.27465822912019,0.0 -79.0620192870442,34.274641441742524,0.0 -79.06206203747608,34.274627715093125,0.0 -79.06208808037617,34.27461939999956,0.0 -79.06213851745807,34.274656738779605,0.0 -79.06214189120044,34.27466152301372,0.0 -79.06214863738771,34.2746750938399,0.0 -79.06225320002603,34.27488861105095,0.0 -79.06234866360475,34.274861940941285,0.0 -79.06237855050195,34.274884845813304,0.0 -79.06249880130532,34.27494956070734,0.0 -79.0625162161079,34.274958894750036,0.0 -79.06252947258946,34.274936617235014,0.0 -79.0625431994219,34.274972151265835,0.0 -79.06256100582246,34.27498297702529,0.0 -79.06266345148346,34.27502000151194,0.0 -79.06272596895772,34.2750352186265,0.0 -79.06280064544694,34.2750421219493,0.0 -79.06280849039318,34.27503608174596,0.0 -79.0628255122247,34.27502321684649,0.0 -79.0628746158692,34.274999606105226,0.0 -79.06292521133835,34.27500956880872,0.0 -79.06297408072868,34.275044161204434,0.0 -79.06302240012933,34.27510314886158,0.0 -79.06307221102304,34.27508730447624,0.0 -79.06312225637222,34.275079067976115,0.0 -79.06320579811282,34.27510173713609,0.0 -79.06323929181818,34.275110836756106,0.0 -79.06325396020442,34.27511240575129,0.0 -79.0632858862092,34.2751158567548,0.0 -79.06340880458198,34.275101267075584,0.0 -79.06341962908165,34.275107777461415,0.0 -79.06342786563451,34.27510605131808,0.0 -79.06351807368007,34.275144880525254,0.0 -79.06353713596664,34.275124956494565,0.0 -79.06361816564126,34.275113111864954,0.0 -79.06363471737014,34.27512354472171,0.0 -79.06363699223137,34.275108013322004,0.0 -79.06363879561914,34.27509577574721,0.0 -79.06361942014017,34.275057026469284,0.0 -79.06358247411231,34.27504329846629,0.0 -79.06357031628647,34.27501223565755,0.0 -79.0636158116089,34.274935677492536,0.0 -79.06360388829374,34.27493026461131,0.0 -79.06354074348357,34.27491481175559,0.0 -79.06352317156488,34.274920224620494,0.0 -79.06351807300659,34.2749247731088,0.0 -79.06349995383573,34.27499317465145,0.0 -79.06349234466735,34.275010980948664,0.0 -79.06342017906798,34.27508228338519,0.0 -79.06336244568077,34.27501388311017,0.0 -79.06335820886082,34.27500894171507,0.0 -79.06329773044375,34.27495779767758,0.0 -79.0632912986038,34.27495238479934,0.0 -79.06328933793489,34.27492540162452,0.0 -79.0632830618556,34.27489025919032,0.0 -79.06328235591023,34.274880610835794,0.0 -79.06328094401968,34.27486139270696,0.0 -79.06327961071179,34.2748428019112,0.0 -79.06327913916759,34.27482303503031,0.0 -79.06327851176394,34.274800678927676,0.0 -79.06326148982467,34.27477832281589,0.0 -79.06324737014121,34.274759810593274,0.0 -79.06323795746995,34.274752202702985,0.0 -79.0632407809574,34.274694704171395,0.0 -79.0632416439813,34.27467729077197,0.0 -79.06323897743823,34.27466395568945,0.0 -79.06323175969888,34.27462803007073,0.0 -79.0632145032929,34.274594378037094,0.0 -79.06321309126194,34.27452927161816,0.0 -79.06319387300894,34.27451162246636,0.0 -79.06321638499983,34.27449671841081,0.0 -79.06322069904802,34.274487697392054,0.0 -79.06323560307897,34.27445749767208,0.0 -79.06324258489842,34.274435220154,0.0 -79.06324438830745,34.274429964441104,0.0 -79.06324336936086,34.27442408139348,0.0 -79.06325654719338,34.27437944908642,0.0 -79.06326580258352,34.27434783622714,0.0 -79.06326870467778,34.274298889854364,0.0 -79.06326925471545,34.27429018184502,0.0 -79.0632718425614,34.27426547357318,0.0 -79.06327411732794,34.27421895795145,0.0 -79.06327451020556,34.27421064284371,0.0 -79.06327968727419,34.274183109610654,0.0 -79.06327529456937,34.274167263885744,0.0 -79.06326799827913,34.274141065201434,0.0 -79.06326070329828,34.27411478662713,0.0 -79.06326305674355,34.27410035404215,0.0 -79.06327725489126,34.274080821601,0.0 -79.06329325645635,34.274058779829204,0.0 -79.06329961090871,34.27402606946322,0.0 -79.06331137685932,34.27396504268039,0.0 -79.06331702409835,34.27393633336215,0.0 -79.06331945613341,34.27392488028128,0.0 -79.06333145783861,34.27386801039789,0.0 -79.06332314265698,34.273853969398765,0.0 -79.0633296530122,34.273838045099765,0.0 -79.0633171807969,34.273785097670064,0.0 -79.06331396418842,34.273771370995284,0.0 -79.06332588742394,34.27375074104763,0.0 -79.0633513815271,34.273728619391505,0.0 -79.06342801871743,34.27377309589951,0.0 -79.06343358898911,34.27384361519521,0.0 -79.06341884206327,34.27385545986091,0.0 -79.06343123557794,34.27386918654104,0.0 -79.06344731582494,34.27388024673097,0.0 -79.06346410188027,34.27385616580031,0.0 -79.06347320132441,34.27379372588013,0.0 -79.0635478778857,34.273824239972804,0.0 -79.06361541671939,34.27385851936849,0.0 -79.06364600821307,34.273878207686344,0.0 -79.06366985481311,34.27387914935429,0.0 -79.06374531577586,34.273878600645226,0.0 -79.06376626012766,34.273878129175436,0.0 -79.06384478048344,34.27387357942006,0.0 -79.06392659491169,34.27394582490688,0.0 -79.06394196927484,34.27396731794374,0.0 -79.06398950536695,34.27398653609885,0.0 -79.06407500644934,34.2740305411289,0.0 -79.06411775828856,34.274048740356235,0.0 -79.06413846694674,34.27406403602796,0.0 -79.06418647317928,34.27407227258308,0.0 -79.06420263177156,34.274006460262235,0.0 -79.06428546590773,34.27390542696979,0.0 -79.06434006118508,34.273933353138176,0.0 -79.06443748549006,34.27395249274152,0.0 -79.06448910104557,34.27391287912117,0.0 -79.0645398522463,34.27388369965746,0.0 -79.06460017472305,34.27390582005291,0.0 -79.06459240849325,34.27395617955754,0.0 -79.06456409072453,34.27397759398874,0.0 -79.06455632583526,34.274038072019536,0.0 -79.06463453204327,34.27409054931312,0.0 -79.06472128904007,34.27411306262506,0.0 -79.06473368246468,34.27409737407093,0.0 -79.06478216010697,34.27408144979645,0.0 -79.06476450939442,34.274017206444285,0.0 -79.06473564278822,34.27401155912188,0.0 -79.06467265502071,34.27395735568922,0.0 -79.06466802644397,34.27389907397143,0.0 -79.06481047600563,34.27387711085379,0.0 -79.06486773901202,34.27387797396073,0.0 -79.06487707318095,34.27391115450688,0.0 -79.06492853185036,34.27396135688464,0.0 -79.06491574568041,34.27402850245239,0.0 -79.06489935127568,34.2740712527572,0.0 -79.06491974704245,34.27412616207826,0.0 -79.06490209670646,34.27418483668459,0.0 -79.06490476459042,34.27420836887306,0.0 -79.06492908147074,34.274243981488645,0.0 -79.06497261644611,34.27424562908087,0.0 -79.06502760464319,34.27427896550387,0.0 -79.06504666572405,34.2742930065084,0.0 -79.06504839193302,34.27431089139057,0.0 -79.06505600010263,34.274394588604764,0.0 -79.06508510257129,34.27443961383564,0.0 -79.06511083137397,34.274504798845975,0.0 -79.06517076099465,34.27454221620928,0.0 -79.06527830501294,34.27450903441965,0.0 -79.06532058529189,34.27450221105229,0.0 -79.06538200534341,34.27454566731397,0.0 -79.06541432317803,34.274626305147564,0.0 -79.0654111852416,34.27464246387906,0.0 -79.06541589280523,34.27483331190651,0.0 -79.06545229021219,34.27489065329638,0.0 -79.06547503811863,34.27493246196857,0.0 -79.06554798871439,34.27502439574522,0.0 -79.06559340709154,34.27505420259552,0.0 -79.06575413441544,34.27500313726317,0.0 -79.06580606177292,34.274995763838504,0.0 -79.06583696899688,34.27504745791913,0.0 -79.06585610874913,34.27509107131685,0.0 -79.0658536768039,34.27513178246956,0.0 -79.06573420983676,34.275279172891,0.0 -79.06579296331482,34.275299332704215,0.0 -79.06598412662322,34.27537957903106,0.0 -79.0660747261994,34.275397855553045,0.0 -79.06609488607016,34.27540240536451,0.0 -79.06614728512473,34.275464609573824,0.0 -79.0661639155855,34.2755243817028,0.0 -79.06615128649074,34.27556344528243,0.0 -79.06615434602588,34.27560580400525,0.0 -79.06621654929778,34.27566016328427,0.0 -79.06628769619257,34.275662046630885,0.0 -79.06632848609293,34.27566620355173,0.0 -79.06638653365859,34.27568746086895,0.0 -79.06640912430531,34.27569710923464,0.0 -79.0664732893677,34.27571703330891,0.0 -79.066441286245,34.275763471640836,0.0 -79.06646222939854,34.27579931868389,0.0 -79.06645140509315,34.27585618856448,0.0 -79.0663983004938,34.27591502031127,0.0 -79.06648042905654,34.27592568763331,0.0 -79.06651596316809,34.27591180381956,0.0 -79.06657957948126,34.27593345404093,0.0 -79.06662868330024,34.27596679176717,0.0 -79.06666006075211,34.27603597651561,0.0 -79.06664044969123,34.27604946874598,0.0 -79.06663260618001,34.27609637726298,0.0 -79.06662923430324,34.2762728699663,0.0 -79.06671112735494,34.276358763535974,0.0 -79.06682510322818,34.27633578016223,0.0 -79.066868873897,34.27632158203126,0.0 -79.06690887947806,34.27638347191076,0.0 -79.06691036869196,34.276419711844504,0.0 -79.06678141172101,34.276539414485775,0.0 -79.06678290215477,34.27654639503818,0.0 -79.06676274252862,34.27662161996656,0.0 -79.0667619580516,34.27662797449452,0.0 -79.06682659479449,34.27671198474611,0.0 -79.06683090905267,34.2767714438558,0.0 -79.06683286971001,34.2767945844508,0.0 -79.06683867440549,34.27686220019826,0.0 -79.06684510758473,34.27687726142925,0.0 -79.06685585355532,34.276900557879664,0.0 -79.0669637894563,34.2769615074488,0.0 -79.06705203694122,34.27700849459486,0.0 -79.06713047879562,34.27702959475963,0.0 -79.0671557372524,34.277038615792975,0.0 -79.06717056279614,34.27703892881208,0.0 -79.06716718913673,34.27706120633037,0.0 -79.06716640485016,34.277129607877214,0.0 -79.06715275694441,34.2772070291282,0.0 -79.06713471649834,34.277749137705094,0.0 -79.06707690485838,34.27778788825065,0.0 -79.06710922395128,34.27785158285281,0.0 -79.06703384145557,34.27781534288294,0.0 -79.06694527972773,34.27779431998507,0.0 -79.06693508257742,34.27779243798148,0.0 -79.06690598040622,34.27784452231166,0.0 -79.06689656782856,34.277867505740446,0.0 -79.06690653072957,34.27792900401192,0.0 -79.06690049056418,34.277950026863316,0.0 -79.0668314615232,34.27798289304777,0.0 -79.06680628163419,34.27796971511618,0.0 -79.0667323896574,34.277968224673465,0.0 -79.06667073408559,34.277997169703724,0.0 -79.06663222044793,34.27800752395166,0.0 -79.06655001314402,34.277944613818235,0.0 -79.06656028867937,34.277882723964204,0.0 -79.06657825083659,34.27786256419223,0.0 -79.06658484100961,34.2778230291275,0.0 -79.06652138061351,34.27782279466514,0.0 -79.06650577061392,34.277835736835975,0.0 -79.06646537370605,34.27786083798932,0.0 -79.06647721852934,34.27789511734954,0.0 -79.06651620383248,34.277944065049134,0.0 -79.06653401023895,34.27795677280497,0.0 -79.06660766799739,34.27802799673206,0.0 -79.06663010167745,34.27810102667165,0.0 -79.0666326909318,34.27810855597716,0.0 -79.06672925210114,34.2781083215926,0.0 -79.0667340376732,34.278112399913404,0.0 -79.06672893913729,34.278124244584305,0.0 -79.06663825970718,34.27811804848233,0.0 -79.06663355434786,34.278219080505245,0.0 -79.0666310438586,34.278271714911064,0.0 -79.06662610246387,34.27827704920267,0.0 -79.0665259319458,34.27831674007352,0.0 -79.06651557768194,34.27833038816029,0.0 -79.06649643814197,34.27835603938648,0.0 -79.06647572965936,34.27839808377622,0.0 -79.06648098551624,34.27843832475997,0.0 -79.06652193273405,34.27849331135758,0.0 -79.06657441026738,34.27852217786251,0.0 -79.06658107793199,34.27855457391172,0.0 -79.06662014162694,34.2785419447634,0.0 -79.06668211032404,34.27854963256733,0.0 -79.06591213115513,34.280109362492524,0.0 -79.0651782398876,34.2833003597062,0.0 -79.06599937982082,34.28714344055464,0.0 -79.06667845276554,34.28806450030568,0.0 -79.06767725218408,34.288221304972154,0.0 -79.06966174438878,34.2866037651012,0.0 -79.07113166066033,34.28543883207509,0.0 -79.07119378635792,34.28539396404742,0.0 -79.07122947759814,34.28536925448028,0.0 -79.0712443031629,34.28537631361629,0.0 -79.07141860068666,34.28553123606399,0.0 -79.07160466570079,34.28570004234524,0.0 -79.07160984286601,34.28570404208474,0.0 -79.07162466709099,34.28570129701721,0.0 -79.07170224714491,34.2857111025548,0.0 -79.07172256301996,34.28576507020824,0.0 -79.07174342882756,34.28577628755396,0.0 -79.07176288287572,34.28581095850242,0.0 -79.07181135940881,34.28585982761215,0.0 -79.0718194388535,34.28587528043255,0.0 -79.07188784069578,34.28588649779312,0.0 -79.0719176477562,34.2859263458772,0.0 -79.07196887045838,34.28590265654923,0.0 -79.07198024513268,34.285944858107946,0.0 -79.07193098297742,34.28595576111056,0.0 -79.0719166289657,34.285971213923936,0.0 -79.07190470583602,34.28602620180139,0.0 -79.07190078338996,34.28603804647211,0.0 -79.07191521732902,34.286034594181665,0.0 -79.07193482714811,34.28604306645472,0.0 -79.07201389633674,34.28606322625746,0.0 -79.07208268988617,34.28611138945982,0.0 -79.07211179227347,34.28612950877835,0.0 -79.07214834670845,34.28614300102859,0.0 -79.07215760210173,34.28611256556811,0.0 -79.07214615011561,34.28605710751153,0.0 -79.07223369035124,34.28609562236721,0.0 -79.0722623997938,34.286100172175914,0.0 -79.07225722268379,34.28611413458552,0.0 -79.07224749721361,34.28617610301405,0.0 -79.07225479229488,34.28623477762318,0.0 -79.07228020678102,34.28630129586227,0.0 -79.07230562251083,34.28634639965754,0.0 -79.07231817319436,34.28636240123149,0.0 -79.07243701214466,34.28641872239384,0.0 -79.07253467222642,34.286448216232166,0.0 -79.07254345761316,34.28647214131931,0.0 -79.0725651079892,34.28650665510688,0.0 -79.0725998576709,34.28651418573014,0.0 -79.0726233115482,34.286573409096,0.0 -79.07269179206664,34.28661561067075,0.0 -79.0727616830674,34.28664486875948,0.0 -79.07275007440089,34.28674550917576,0.0 -79.07269893054938,34.28685689674731,0.0 -79.07279078605967,34.2868593288346,0.0 -79.0728031795176,34.28685446471712,0.0 -79.07281157326912,34.28686481898474,0.0 -79.07288938780574,34.286890940411354,0.0 -79.07295347440842,34.28694945787529,0.0 -79.07298704803482,34.28696820452703,0.0 -79.07307129451664,34.287033782437156,0.0 -79.07307223620599,34.28704405812226,0.0 -79.07308470825703,34.287043195052135,0.0 -79.07310102418468,34.287034174037494,0.0 -79.0731022000609,34.28696483215539,0.0 -79.07311412332024,34.28695196725279,0.0 -79.07311098513843,34.28688842983477,0.0 -79.07318730921314,34.286898471110526,0.0 -79.07321609721141,34.28689494024371,0.0 -79.0732870083236,34.286883018321966,0.0 -79.07330826702236,34.286890313200004,0.0 -79.0733856886441,34.28691259073939,0.0 -79.07340176877844,34.286886860932334,0.0 -79.07341212304505,34.28687407591946,0.0 -79.07341094675971,34.286810694353335,0.0 -79.07348758377984,34.2867988497041,0.0 -79.07349785951365,34.2868015960888,0.0 -79.0734926823338,34.28679288807961,0.0 -79.07348813245756,34.28677390569555,0.0 -79.0734683655104,34.28677618058968,0.0 -79.07345087345092,34.28677163078472,0.0 -79.07338921773172,34.28675303997581,0.0 -79.07337556950384,34.28672566390258,0.0 -79.07336780306657,34.28670848493556,0.0 -79.07332701301104,34.286654361427544,0.0 -79.07331485519026,34.286625259207284,0.0 -79.0733447405862,34.28658556830306,0.0 -79.07339290397509,34.28659168579425,0.0 -79.07342475132421,34.28657050710138,0.0 -79.07343863512996,34.28654470002307,0.0 -79.07349464327726,34.28648382911489,0.0 -79.0735823405261,34.28647425936945,0.0 -79.07359410667303,34.28647724018587,0.0 -79.07368682547266,34.286548543983606,0.0 -79.073691531184,34.2865621920745,0.0 -79.07373396886051,34.2866316911293,0.0 -79.07378895700948,34.286648712949514,0.0 -79.07381366538966,34.28665349849751,0.0 -79.07388795029688,34.28666338130249,0.0 -79.07396803978251,34.28670252479582,0.0 -79.07398631634035,34.286707701933686,0.0 -79.07401973278144,34.28671860496094,0.0 -79.07401016303434,34.286738842006216,0.0 -79.07405063879384,34.28680151766982,0.0 -79.0739829430733,34.28685713286149,0.0 -79.07395007680834,34.28688246845229,0.0 -79.07398208142878,34.28689698093428,0.0 -79.0740347148219,34.28692804374448,0.0 -79.07402789126805,34.2868836458698,0.0 -79.0740826434931,34.28684160149311,0.0 -79.07412868768604,34.286802772358186,0.0 -79.07411935345219,34.28674888329158,0.0 -79.07418383280881,34.286759001834525,0.0 -79.07421709219413,34.28680410562984,0.0 -79.07421403295997,34.28685964225983,0.0 -79.07428039437706,34.286887488519874,0.0 -79.07437868184125,34.286932200741994,0.0 -79.07447445995234,34.286972990496324,0.0 -79.07447697062412,34.286979815196574,0.0 -79.07448418694194,34.28697910928559,0.0 -79.07457494381822,34.28704146933188,0.0 -79.07458349474739,34.28705715789214,0.0 -79.07458733737303,34.28706798233026,0.0 -79.07457384645772,34.28708971109032,0.0 -79.07453697789354,34.28713889449263,0.0 -79.07453980304027,34.28719513703687,0.0 -79.07454584204199,34.2872214928728,0.0 -79.07457039462263,34.28724314306341,0.0 -79.07462530421776,34.28726879300003,0.0 -79.07466954505463,34.28725239854156,0.0 -79.07471668966318,34.287306601939285,0.0 -79.07472963198697,34.28733774331756,0.0 -79.07476595077823,34.28738300427347,0.0 -79.0747667352933,34.28738904317005,0.0 -79.07476563649638,34.28739618219039,0.0 -79.0747255539658,34.28743916822504,0.0 -79.07466601595904,34.287409202919115,0.0 -79.07463228647244,34.28738770988663,0.0 -79.0746449927632,34.28732448679646,0.0 -79.0745680414545,34.28734731304375,0.0 -79.07447634299307,34.28730848387006,0.0 -79.0745081906461,34.28738582785374,0.0 -79.07456631684633,34.287423949795226,0.0 -79.07460914604366,34.287469838085734,0.0 -79.07461212690085,34.287480349511945,0.0 -79.07462091232709,34.28751705961341,0.0 -79.07456372797459,34.2875405145089,0.0 -79.07455062858594,34.28754059308555,0.0 -79.07446426456892,34.287543965466575,0.0 -79.07445712553825,34.28754992709037,0.0 -79.07446402886073,34.28755486848382,0.0 -79.07453674498751,34.287633624304625,0.0 -79.07452082077766,34.28768296356404,0.0 -79.07446128415862,34.28767833516788,0.0 -79.07436825243367,34.2876355062569,0.0 -79.07436127078611,34.2877133989824,0.0 -79.07444496856947,34.28779709619765,0.0 -79.07443987004405,34.287812313272354,0.0 -79.07444120350254,34.28787953741395,0.0 -79.07441971055566,34.28793193737497,0.0 -79.07442339738813,34.28796174419526,0.0 -79.0744138277301,34.28801084902531,0.0 -79.07438143166188,34.28804355937842,0.0 -79.07437280228388,34.28807062112352,0.0 -79.07435868411868,34.28812003896401,0.0 -79.07435515324676,34.28812560899705,0.0 -79.0742738092626,34.2881423164583,0.0 -79.07428479110322,34.288206952691304,0.0 -79.07428204610179,34.288233387105244,0.0 -79.07425012010492,34.2882328383445,0.0 -79.07415967765748,34.288204990770325,0.0 -79.07415151966492,34.28820020653723,0.0 -79.07415128395164,34.288209461987556,0.0 -79.07419160259889,34.288287982058556,0.0 -79.07414830353737,34.28834257702427,0.0 -79.07410343525791,34.28832422196301,0.0 -79.07404931024774,34.28832728134225,0.0 -79.07404287712227,34.288329791981376,0.0 -79.07395455262221,34.28836673779904,0.0 -79.07394898258133,34.28837167918912,0.0 -79.07388411173342,34.28839474118256,0.0 -79.07390811565838,34.28844847309223,0.0 -79.0739107823248,34.28850173482435,0.0 -79.0737655863347,34.28851342229823,0.0 -79.0737287186236,34.28841458659907,0.0 -79.07352665251683,34.2884217242584,0.0 -79.07346201737226,34.28843231424786,0.0 -79.07345770327362,34.288424940794634,0.0 -79.07343048294489,34.2884239991337,0.0 -79.07343495423501,34.28844117809955,0.0 -79.07344240653454,34.28851828633703,0.0 -79.07343950430713,34.28852369920984,0.0 -79.073448682544,34.28853044402178,0.0 -79.07349653182789,34.288607082097315,0.0 -79.07347056767098,34.28866834460756,0.0 -79.0734812363641,34.28868928888125,0.0 -79.07346107654729,34.28870246679368,0.0 -79.07344452489322,34.288716507780634,0.0 -79.0733752613052,34.28871250671611,0.0 -79.0733449043473,34.2887268620209,0.0 -79.07332960872357,34.28875721889936,0.0 -79.07327116966282,34.28876851480394,0.0 -79.07329462348281,34.2888090687965,0.0 -79.07329744727664,34.2888513489314,0.0 -79.07327195448934,34.28887558702078,0.0 -79.07324238196234,34.28886868373352,0.0 -79.07319429724703,34.28889276596656,0.0 -79.07315531090296,34.28893159379643,0.0 -79.07314056408252,34.28897771781379,0.0 -79.07312385664407,34.28901356483627,0.0 -79.07313915244322,34.28904015641593,0.0 -79.07317782475924,34.28909687045232,0.0 -79.07316448969704,34.28911914796624,0.0 -79.07313727070327,34.289126442831495,0.0 -79.07307035929388,34.28912205017623,0.0 -79.07307514502517,34.289177742660584,0.0 -79.07303600281381,34.28921147324813,0.0 -79.07300572446302,34.289234456671196,0.0 -79.07301058736968,34.289259164940425,0.0 -79.07300705797633,34.28931956569291,0.0 -79.07293959789061,34.2893405872189,0.0 -79.07293363625168,34.289344039512315,0.0 -79.07288288507267,34.28938067102052,0.0 -79.07286413708519,34.289393064440326,0.0 -79.07283275990933,34.289414087284655,0.0 -79.07282421033838,34.289414165862915,0.0 -79.07282868159754,34.28942130357529,0.0 -79.0728260923824,34.289426559287584,0.0 -79.07283236836501,34.289430010274174,0.0 -79.07286970617456,34.28950437344749,0.0 -79.07285480342254,34.28952453322199,0.0 -79.07282977949417,34.28954704516469,0.0 -79.07279526560868,34.289557242261345,0.0 -79.07273031609142,34.289551594941514,0.0 -79.07270521486028,34.2895637539287,0.0 -79.07266983792782,34.28958375653794,0.0 -79.0726296754524,34.28960917071005,0.0 -79.07258919995553,34.28963176253933,0.0 -79.07256660812921,34.289664628748085,0.0 -79.07257311864842,34.2897019674927,0.0 -79.07252809327746,34.28970628154139,0.0 -79.07244706342973,34.289662746722314,0.0 -79.07243780661241,34.28965607918108,0.0 -79.0724298843823,34.289657961177625,0.0 -79.07241270536291,34.28966227523265,0.0 -79.07238329015463,34.28970651724932,0.0 -79.07232924373524,34.28971294903524,0.0 -79.07230861374441,34.28972612694835,0.0 -79.07228633619049,34.28974275715589,0.0 -79.07227849266293,34.2897842514862,0.0 -79.0722438989799,34.289824571034856,0.0 -79.07223534942867,34.28983108141145,0.0 -79.0722271914613,34.28983445512431,0.0 -79.07215478993427,34.28984574971772,0.0 -79.072127413778,34.28985265299172,0.0 -79.0720929772054,34.289876499488464,0.0 -79.07206089544381,34.28990418856286,0.0 -79.07202677314706,34.28991289656312,0.0 -79.07195907730478,34.28992921243957,0.0 -79.07187843935274,34.28998380740134,0.0 -79.07185216205983,34.29000514325912,0.0 -79.07182525615268,34.29003644179054,0.0 -79.0718032929026,34.290047030482384,0.0 -79.07176697430461,34.290064523761,0.0 -79.07173983390535,34.290076368427,0.0 -79.07172485122699,34.29008483938113,0.0 -79.07165982324305,34.29011621648453,0.0 -79.07164703688112,34.29012084355232,0.0 -79.07162452486918,34.29012908007355,0.0 -79.07161683709434,34.29013849399302,0.0 -79.07152506015416,34.290132845358414,0.0 -79.07150631342097,34.290127276629704,0.0 -79.07150584196087,34.29013496309361,0.0 -79.07145854168995,34.29014218068471,0.0 -79.07125090693178,34.290180459728035,0.0 -79.07122604007837,34.290174968268644,0.0 -79.0711963118615,34.29022062211295,0.0 -79.07121498023008,34.290296395800794,0.0 -79.07112445922596,34.29027639316327,0.0 -79.07108374788974,34.29026737213479,0.0 -79.07107198184389,34.29029725884384,0.0 -79.07097212567109,34.290345107683464,0.0 -79.07092294223372,34.29040080146842,0.0 -79.07074127141946,34.29030847611233,0.0 -79.07073217177475,34.290305495297204,0.0 -79.07063513908392,34.29029435651725,0.0 -79.07062729542737,34.290293963614026,0.0 -79.07060658701987,34.290360483153016,0.0 -79.07059152578309,34.290376170399384,0.0 -79.07055457986824,34.29039970257553,0.0 -79.0705257132617,34.29039429100521,0.0 -79.07044711429852,34.290391074434496,0.0 -79.0704263271202,34.29039578139077,0.0 -79.0703889895643,34.29040378216822,0.0 -79.07032717799413,34.29038550568415,0.0 -79.07024175430402,34.29038221053159,0.0 -79.07026042396839,34.29045351431088,0.0 -79.070271248566,34.29049171482233,0.0 -79.07022575296253,34.29047704648774,0.0 -79.07014519339225,34.29046708379683,0.0 -79.0701256610051,34.29051101149703,0.0 -79.07010691300124,34.29051814920485,0.0 -79.07008895082825,34.290533289007975,0.0 -79.06995575675072,34.29055595809064,0.0 -79.06993622440504,34.29061337803085,0.0 -79.0699312044301,34.29061886817425,0.0 -79.06992445829418,34.29062216330735,0.0 -79.06991371108428,34.290621927564196,0.0 -79.06984915445703,34.29061204345708,0.0 -79.06983432889066,34.29060451415035,0.0 -79.06982538642883,34.290608592466704,0.0 -79.06981981638187,34.290611573278774,0.0 -79.06976435820776,34.290643106237255,0.0 -79.06972529447661,34.29064428362422,0.0 -79.0696696003559,34.290609219767184,0.0 -79.06962708556999,34.29059219795284,0.0 -79.06957994236454,34.290568274166574,0.0 -79.06958943371544,34.29060796508492,0.0 -79.06956354804306,34.290638164803596,0.0 -79.06952652350489,34.29064781314881,0.0 -79.06946008346405,34.2906060044791,0.0 -79.06942902041877,34.29056466467935,0.0 -79.06940093844948,34.290605062812766,0.0 -79.06938524997523,34.290652598660664,0.0 -79.06937215069232,34.29068711244149,0.0 -79.06936203090919,34.29071668483083,0.0 -79.06932602661114,34.29072688192876,0.0 -79.06927864774306,34.29072876522724,0.0 -79.06927417662673,34.29076806455102,0.0 -79.06927229474172,34.29080736256571,0.0 -79.06925597891762,34.290850191452776,0.0 -79.06922907314856,34.290926515196674,0.0 -79.06923770135906,34.290945577472996,0.0 -79.06922162115971,34.29095028312089,0.0 -79.06919903099171,34.29109673324769,0.0 -79.06918781378684,34.291154780523584,0.0 -79.06913392458063,34.29117815553714,0.0 -79.06912670697518,34.29118607774114,0.0 -79.0691334533502,34.29126059807375,0.0 -79.06912741315121,34.29127071659768,0.0 -79.06911423530589,34.29131119200532,0.0 -79.06910576439186,34.29133613732453,0.0 -79.06910615600535,34.291342647703566,0.0 -79.06911282365796,34.29137104270147,0.0 -79.0691250614466,34.291425403255474,0.0 -79.06912317816099,34.29143513018836,0.0 -79.06911047049044,34.29147584133707,0.0 -79.06908654665774,34.291487686005226,0.0 -79.06901108566115,34.29147819479875,0.0 -79.06897570875074,34.29150549228361,0.0 -79.0689563335066,34.29154353562961,0.0 -79.06895241115954,34.29158762049498,0.0 -79.06896174536409,34.29163217422542,0.0 -79.06895413756727,34.29167014030298,0.0 -79.06892715303313,34.291686456190654,0.0 -79.0689123276911,34.29175195418973,0.0 -79.06890542570773,34.29175658256904,0.0 -79.06889538442474,34.291759956282064,0.0 -79.06889091316184,34.29175156259395,0.0 -79.06886941989374,34.29169971267912,0.0 -79.06880760834163,34.29168731924245,0.0 -79.06876744587835,34.291716813046506,0.0 -79.06876556397344,34.291749680572565,0.0 -79.06875395380855,34.29178921432681,0.0 -79.06872108759468,34.29183141587896,0.0 -79.06871661638743,34.29184114281148,0.0 -79.068704614534,34.29184969234767,0.0 -79.06867104107596,34.2918858536928,0.0 -79.0686151127117,34.291912210830155,0.0 -79.06860860233255,34.29192036877541,0.0 -79.0686035823518,34.29192397692059,0.0 -79.06859354107225,34.29192844813877,0.0 -79.06853070940419,34.29195598136028,0.0 -79.06852317887612,34.29199324021542,0.0 -79.06850945236235,34.29206179891876,0.0 -79.06850670732139,34.29207544700942,0.0 -79.06850074569105,34.292081722956205,0.0 -79.06849125313241,34.2920752112657,0.0 -79.06842371559829,34.29203865831052,0.0 -79.06840261404749,34.29202712664555,0.0 -79.06836464917758,34.29204210928568,0.0 -79.06828840380551,34.292072074565944,0.0 -79.06820227429323,34.292099372042834,0.0 -79.06817246607868,34.29211019647618,0.0 -79.06815740611974,34.29211560934763,0.0 -79.06810273232146,34.292107921563804,0.0 -79.0680206822889,34.29208180145237,0.0 -79.06800334617266,34.29210713705294,0.0 -79.06797800922944,34.29212910155661,0.0 -79.06790403860612,34.29210690260437,0.0 -79.06787187822373,34.29212164950482,0.0 -79.06780379080999,34.292145260258664,0.0 -79.06779422100519,34.292146829244054,0.0 -79.06773687950012,34.292173420813214,0.0 -79.06770401313032,34.29216486995946,0.0 -79.06767326316385,34.29214502449506,0.0 -79.06760572566202,34.29211898165663,0.0 -79.06755160057696,34.292097802942116,0.0 -79.06757372116101,34.2921434554907,0.0 -79.06754642362586,34.29216361526637,0.0 -79.06750469217324,34.292194363737174,0.0 -79.06745833351047,34.29218549986937,0.0 -79.06740836552113,34.292223308780365,0.0 -79.06732074685807,34.292234996277756,0.0 -79.06730490109257,34.29224025198866,0.0 -79.0672463047756,34.29222079942101,0.0 -79.06723453845336,34.29216071297917,0.0 -79.06722802797957,34.292138042556495,0.0 -79.06721532016473,34.29213176791588,0.0 -79.06720818240765,34.29212604202885,0.0 -79.06713177975688,34.292117726908295,0.0 -79.06710871768637,34.292127924010096,0.0 -79.06710063829374,34.2921294144154,0.0 -79.06703545306898,34.29213506301928,0.0 -79.06705247508154,34.29218102857907,0.0 -79.0670611046564,34.292217974426755,0.0 -79.06705780963988,34.292260568887436,0.0 -79.06700705825767,34.292231232226705,0.0 -79.06693371505742,34.29223766401309,0.0 -79.06690782925436,34.29222534785346,0.0 -79.06683064215567,34.29223287845403,0.0 -79.0668081301481,34.292242605383905,0.0 -79.06678334180326,34.292213660319426,0.0 -79.06680985475522,34.29216518412564,0.0 -79.06683095616849,34.29213192500962,0.0 -79.06683919265598,34.292108784416975,0.0 -79.06681150210335,34.29209168402528,0.0 -79.06680012890584,34.292103843017856,0.0 -79.06672898209555,34.29213035600486,0.0 -79.0667111757388,34.29213404272837,0.0 -79.06654746745212,34.2921421220663,0.0 -79.06652840645134,34.29215443690857,0.0 -79.0664662023321,34.29225162634575,0.0 -79.06636517003805,34.29228959240959,0.0 -79.06660645601471,34.29237423000234,0.0 -79.06661351648832,34.29237587757081,0.0 -79.06660622160969,34.29238309386216,0.0 -79.0665982980515,34.29237901554234,0.0 -79.06634124502156,34.29234253982455,0.0 -79.06630908329147,34.29234489329966,0.0 -79.06626499982728,34.292430551078816,0.0 -79.06619518622071,34.29244161124698,0.0 -79.0661605938203,34.29247337995464,0.0 -79.06613086420525,34.292490401756616,0.0 -79.06610725332284,34.29248193079422,0.0 -79.06603493056733,34.292555665315405,0.0 -79.06600567246264,34.29258139381689,0.0 -79.06593264223166,34.29257362875966,0.0 -79.06575481596634,34.29269238847785,0.0 -79.06574791271393,34.29271027335756,0.0 -79.06574697122203,34.29276439817229,0.0 -79.06564452705858,34.292790126662396,0.0 -79.065711594733,34.292929281942705,0.0 -79.06570437844272,34.29293900887555,0.0 -79.06569896562354,34.292963717146684,0.0 -79.06569229799996,34.292944734759644,0.0 -79.06555329935304,34.29294128375217,0.0 -79.06553635622024,34.292992897923405,0.0 -79.06555886974671,34.293051415381825,0.0 -79.06559769773824,34.293050865325554,0.0 -79.06568774844122,34.29302929504148,0.0 -79.06569457356727,34.293159586452134,0.0 -79.06569551530295,34.29318500063745,0.0 -79.065749090518,34.29326956092797,0.0 -79.06575740582677,34.2933249404098,0.0 -79.06564398002085,34.29335035588796,0.0 -79.06561346591401,34.29336894536791,0.0 -79.06556247888994,34.29337224049517,0.0 -79.06553220039561,34.29334862972382,0.0 -79.065426931005,34.29329152407961,0.0 -79.06536496242555,34.293322901192525,0.0 -79.0653209560383,34.293345334557884,0.0 -79.06535962826334,34.29337255478672,0.0 -79.06534362680053,34.2934281686968,0.0 -79.06528989354118,34.29348284356649,0.0 -79.06525726162782,34.29348221491925,0.0 -79.0652396910098,34.293484882718644,0.0 -79.06519035157034,34.293491784683034,0.0 -79.06517819254857,34.29349806062958,0.0 -79.06517474158024,34.2935080219945,0.0 -79.06518933146319,34.293534614886916,0.0 -79.06524659464387,34.29359156336331,0.0 -79.06525443838204,34.293618546536976,0.0 -79.06528652157772,34.29363125428911,0.0 -79.06534880455376,34.2936240380051,0.0 -79.06530479825375,34.29367494625975,0.0 -79.06528918845206,34.293752681840026,0.0 -79.06528346258592,34.2937662513509,0.0 -79.06526471457826,34.29377221297537,0.0 -79.06526283252515,34.293756760155006,0.0 -79.0651849394014,34.29372875673714,0.0 -79.06515607281843,34.29373111021375,0.0 -79.0650853974309,34.29373785632451,0.0 -79.06500060109371,34.29374052280509,0.0 -79.06498593272293,34.29374420952972,0.0 -79.06497659865607,34.29374452384974,0.0 -79.0649780105117,34.29375228889532,0.0 -79.0649853054703,34.29377119401205,0.0 -79.06505527498283,34.29377778298162,0.0 -79.0650185649136,34.29383535877805,0.0 -79.06501872209655,34.293842417910255,0.0 -79.06489345068621,34.294006282747425,0.0 -79.06489125436634,34.29400902781975,0.0 -79.06488348932275,34.294019224925044,0.0 -79.06289600487627,34.29234865802872,0.0</coordinates>
                    </LinearRing>
                </outerBoundaryIs>
            </Polygon>
        </Placemark>
        <Placemark id="4280">
            <name>Flood_465</name>
            <styleUrl>#4285</styleUrl>
            <Polygon id="4279">
                <outerBoundaryIs>
                    <LinearRing id="4283">
                        <coordinates>-79.05319341870081,34.24862797486944,0.0 -79.05316674844367,34.248568672920044,0.0 -79.05315631555877,34.24854506215303,0.0 -79.0531658853682,34.248520352593644,0.0 -79.05321914730622,34.24850772349107,0.0 -79.05324181650194,34.2485272559549,0.0 -79.0532495043043,34.24854655266144,0.0 -79.05324291531888,34.24858679361703,0.0 -79.05321012624869,34.248614404072946,0.0 -79.05319341870081,34.24862797486944,0.0</coordinates>
                    </LinearRing>
                </outerBoundaryIs>
            </Polygon>
        </Placemark>
        <Placemark id="4289">
            <name>Flood_466</name>
            <styleUrl>#4294</styleUrl>
            <Polygon id="4288">
                <outerBoundaryIs>
                    <LinearRing id="4292">
                        <coordinates>-79.10952495721509,34.25695811863434,0.0 -79.1095371935007,34.25695011786753,0.0 -79.10954699905658,34.256951764132886,0.0 -79.1095833960483,34.256876539299995,0.0 -79.10958574937132,34.256823983525486,0.0 -79.10961210521543,34.256794568345946,0.0 -79.10959476887486,34.25674781701328,0.0 -79.10961085028383,34.2567120473017,0.0 -79.10961116318845,34.25667784787008,0.0 -79.10965218883447,34.25668365237018,0.0 -79.10967603401394,34.25664976597254,0.0 -79.10968442767256,34.25663070372313,0.0 -79.10966364024215,34.2565550872442,0.0 -79.10967658375651,34.256548105402004,0.0 -79.10975525986638,34.256513904736174,0.0 -79.1097809896966,34.256488176279504,0.0 -79.10978585246076,34.25646731061018,0.0 -79.10976820302076,34.25639318453976,0.0 -79.10985833219992,34.25634164777393,0.0 -79.1098756683168,34.25631772403561,0.0 -79.10988233583805,34.256303917493184,0.0 -79.10990116102582,34.25626995251086,0.0 -79.10988931615505,34.256221554927514,0.0 -79.10996211036209,34.25614185760557,0.0 -79.10999489794055,34.25608443905363,0.0 -79.11008534154692,34.25606600552608,0.0 -79.11011475687036,34.25606004393359,0.0 -79.11012723013893,34.256030393000636,0.0 -79.11016347016061,34.25601564614367,0.0 -79.11017907903295,34.25606098564928,0.0 -79.11017955065795,34.256105617918045,0.0 -79.11017970788996,34.2561279739973,0.0 -79.11018174710598,34.256143505384344,0.0 -79.11017366774395,34.25615440838521,0.0 -79.11016025405834,34.25616225329975,0.0 -79.11012377835321,34.25619543377204,0.0 -79.11011687644971,34.256225006130144,0.0 -79.11012236678347,34.25627818924388,0.0 -79.110127386868,34.25630760445301,0.0 -79.11012150389094,34.25633647089961,0.0 -79.11011060099992,34.256389811158016,0.0 -79.11009538401814,34.2564383658756,0.0 -79.11008322508421,34.25647186069248,0.0 -79.1100532611117,34.256511159952915,0.0 -79.11001906034366,34.256553361439614,0.0 -79.11002486490247,34.25657579610468,0.0 -79.11002094261025,34.256635803903514,0.0 -79.11002596270123,34.25666725827005,0.0 -79.10995952295266,34.256717381924204,0.0 -79.10995693505102,34.25672365786391,0.0 -79.1099518367196,34.25679966721865,0.0 -79.10998046782791,34.25688257988005,0.0 -79.10996305321834,34.25693427256676,0.0 -79.10995607270543,34.256954745332834,0.0 -79.10995458232442,34.25696462941638,0.0 -79.10988602511853,34.25710645097443,0.0 -79.1097991899885,34.25722497609277,0.0 -79.10977471646775,34.25735479718047,0.0 -79.10976177437018,34.25739558555338,0.0 -79.10976687313507,34.25745653501443,0.0 -79.10978303205904,34.257497873476524,0.0 -79.10978656176935,34.25753929050685,0.0 -79.10979895541972,34.257595611598376,0.0 -79.10979236651859,34.257621890135304,0.0 -79.10978154217432,34.25766456181685,0.0 -79.10977714964324,34.257704095533256,0.0 -79.10976702987115,34.25773602136711,0.0 -79.10972639742836,34.25782513132556,0.0 -79.109692825219,34.257840112617686,0.0 -79.10968866708211,34.25786764582148,0.0 -79.10965736981615,34.2578936100146,0.0 -79.10956308242226,34.25794820486099,0.0 -79.10953696094796,34.257957931761254,0.0 -79.1095228429188,34.25804876658126,0.0 -79.1094257316297,34.25803009844446,0.0 -79.10947624822242,34.257946871535445,0.0 -79.10952590057516,34.2579100043504,0.0 -79.10956410239967,34.25786576370863,0.0 -79.10956527846044,34.257856585537276,0.0 -79.10957029833173,34.257818620806766,0.0 -79.1095673173958,34.25778339982892,0.0 -79.10958559513341,34.25774778727942,0.0 -79.10958363309005,34.25770119312196,0.0 -79.1095768095311,34.25765616794548,0.0 -79.10959194796781,34.25761883055678,0.0 -79.10958959436603,34.25758329656822,0.0 -79.10958810380505,34.25753630951001,0.0 -79.1095671605839,34.25747990982987,0.0 -79.10956786641633,34.257453554016706,0.0 -79.10955562874427,34.257437316707424,0.0 -79.10953719491677,34.25739762580885,0.0 -79.10952087891971,34.257384133565594,0.0 -79.10952197769521,34.25737040559794,0.0 -79.10952605599765,34.25736052282644,0.0 -79.10947295098806,34.25728717990546,0.0 -79.1094682438183,34.25722678050607,0.0 -79.10947632314512,34.25720473744556,0.0 -79.10948118712417,34.257153907819315,0.0 -79.10947765744501,34.25712229629335,0.0 -79.10948393194847,34.257072251161176,0.0 -79.10951797558839,34.257040481200875,0.0 -79.10953931129366,34.256964471860734,0.0 -79.10952495721509,34.25695811863434,0.0</coordinates>
                    </LinearRing>
                </outerBoundaryIs>
            </Polygon>
        </Placemark>
        <Placemark id="4298">
            <name>Flood_467</name>
            <styleUrl>#4303</styleUrl>
            <Polygon id="4297">
                <outerBoundaryIs>
                    <LinearRing id="4301">
                        <coordinates>-79.25906682650852,33.9634329455311,0.0 -79.25904799993819,33.96341106087224,0.0 -79.25904392160315,33.96339490210365,0.0 -79.2589699512064,33.96333097167062,0.0 -79.25894249650976,33.963311047600925,0.0 -79.25889394032217,33.96324562805105,0.0 -79.2589150417651,33.963228213287984,0.0 -79.25887323174818,33.96321974233606,0.0 -79.25885785748935,33.9632144866196,0.0 -79.258775023246,33.96317989291424,0.0 -79.25872725291693,33.96318577600505,0.0 -79.25867603028331,33.96318420835641,0.0 -79.25862645518738,33.963141692405294,0.0 -79.25857868482474,33.96310380484468,0.0 -79.2585138913439,33.963085764111234,0.0 -79.25848016201348,33.96308035124543,0.0 -79.2583998371238,33.96307140883476,0.0 -79.25838116904869,33.96308192029887,0.0 -79.25836806836654,33.963055563095885,0.0 -79.2583639900323,33.96304050314451,0.0 -79.25838312955652,33.96298645677013,0.0 -79.25842784178681,33.96296535525672,0.0 -79.25840666169336,33.9628911503888,0.0 -79.25848502464626,33.962839691895056,0.0 -79.25855821052491,33.96287232371348,0.0 -79.25854009114754,33.962810590879585,0.0 -79.25853130582443,33.96276532982352,0.0 -79.2585551510179,33.962728383874,0.0 -79.25858135099918,33.962685083379505,0.0 -79.25861413995058,33.96264672559467,0.0 -79.25865908661103,33.96262382065852,0.0 -79.25868771736434,33.962604523887606,0.0 -79.25875517736027,33.96264868739896,0.0 -79.25878506413258,33.96268484881911,0.0 -79.25879761471226,33.96265935467577,0.0 -79.25879635872793,33.96264923612683,0.0 -79.25884311010037,33.9626029547989,0.0 -79.25879047561226,33.96256671481253,0.0 -79.25878765194913,33.962556910586535,0.0 -79.25878459251065,33.9625024713239,0.0 -79.25878333782967,33.96248411622828,0.0 -79.25878271049199,33.96247870334143,0.0 -79.25878922087979,33.962481056823485,0.0 -79.25880734021256,33.962484507805975,0.0 -79.25883879595916,33.96250184395538,0.0 -79.25891637448937,33.962543888405996,0.0 -79.25898673665532,33.962501765281736,0.0 -79.25900524888816,33.96250270692643,0.0 -79.25900642497272,33.96250003911749,0.0 -79.25901222943503,33.962487332646084,0.0 -79.25902117184258,33.96243258036363,0.0 -79.25908682839301,33.96244371910894,0.0 -79.25912055771204,33.962434305143134,0.0 -79.2591520906952,33.962406850404385,0.0 -79.2591777419003,33.962333351422124,0.0 -79.25908925905655,33.96232574226549,0.0 -79.25908667114032,33.962323467361536,0.0 -79.25908933763446,33.96232252570343,0.0 -79.25909718257344,33.96231711412097,0.0 -79.25918864490764,33.962303230197804,0.0 -79.25921656973294,33.96226549975062,0.0 -79.25922543356242,33.962213805559585,0.0 -79.25924331842052,33.96216077942327,0.0 -79.25928795202672,33.962082337715415,0.0 -79.25928959959154,33.96207676897592,0.0 -79.25939212206707,33.961997777168285,0.0 -79.25930724862489,33.96191423697646,0.0 -79.25933956610612,33.96189164637067,0.0 -79.25939541579518,33.961866387941946,0.0 -79.25944671701608,33.961876663620565,0.0 -79.25947613224595,33.961834148929455,0.0 -79.25947597634494,33.961768728039466,0.0 -79.25945511061663,33.961751393193076,0.0 -79.2594769952451,33.961734998666685,0.0 -79.25949684073275,33.961745587377344,0.0 -79.25952704180432,33.9617524120753,0.0 -79.25959442192344,33.96181391044626,0.0 -79.25966439248396,33.96175437257305,0.0 -79.25968290470875,33.96174472549476,0.0 -79.2596948279719,33.961741273183804,0.0 -79.25972643956706,33.96175523561012,0.0 -79.25979264358658,33.96179971213467,0.0 -79.2598231576511,33.96178167134133,0.0 -79.25985884884919,33.96175704025964,0.0 -79.25986410455,33.96173311511191,0.0 -79.25989304963501,33.96172699629176,0.0 -79.25991469850874,33.96169287531328,0.0 -79.25994678156273,33.96167585344618,0.0 -79.2599933757975,33.961659616065354,0.0 -79.26005455979464,33.961645652271365,0.0 -79.26007424938473,33.96159513678141,0.0 -79.26005063856634,33.96155834671334,0.0 -79.26001290815263,33.961511831007,0.0 -79.26004679460875,33.961471119735826,0.0 -79.26008993783589,33.96143048703944,0.0 -79.26009731128445,33.96141464258574,0.0 -79.26016461403609,33.96134906449304,0.0 -79.26016320218604,33.9613198063526,0.0 -79.2601980290254,33.96132882737283,0.0 -79.26027011737267,33.96132812141309,0.0 -79.26029741487704,33.961306706898874,0.0 -79.26035099102685,33.96135165360459,0.0 -79.26029568879228,33.96139158039352,0.0 -79.26027592192463,33.96143307615113,0.0 -79.26029435559511,33.9614576286185,0.0 -79.26035632414201,33.961516616345506,0.0 -79.26038142670748,33.961591762866625,0.0 -79.26038158256442,33.961599450659286,0.0 -79.26039036785782,33.961605882468085,0.0 -79.2604003305444,33.961608078786966,0.0 -79.26039546772097,33.9615996863921,0.0 -79.26041429291686,33.96153622607434,0.0 -79.26049093106121,33.9615250872399,0.0 -79.26051752268022,33.96154132457507,0.0 -79.2605891395613,33.96156195584188,0.0 -79.26064467628905,33.961603137230384,0.0 -79.26068703375243,33.9616153734982,0.0 -79.2607529247387,33.96163200371122,0.0 -79.26078469352146,33.96168126450005,0.0 -79.26086964678693,33.96167710753827,0.0 -79.26088376506436,33.96167608729255,0.0 -79.26090384628272,33.9616729506082,0.0 -79.2609828379086,33.961660007040045,0.0 -79.2610234705104,33.961643533921645,0.0 -79.26101468388667,33.96160988313569,0.0 -79.26101554691685,33.96155120838207,0.0 -79.26100950668427,33.96152579283132,0.0 -79.26098707324188,33.96146209941736,0.0 -79.26097256073764,33.96144319426662,0.0 -79.26098777912844,33.961426093829644,0.0 -79.26102111685482,33.96141597525926,0.0 -79.26108739940436,33.961394246398775,0.0 -79.26114505384481,33.9613971486028,0.0 -79.26118607936932,33.96140797435139,0.0 -79.26120898425997,33.96142672102615,0.0 -79.2612152589196,33.961446253516286,0.0 -79.26120882712901,33.961466099026694,0.0 -79.26118498059462,33.961462255145285,0.0 -79.26111469698169,33.961468844164386,0.0 -79.26114230886851,33.96152767606122,0.0 -79.26118278435496,33.961571132364654,0.0 -79.26123306533238,33.9615708979014,0.0 -79.26128185589825,33.9615664266402,0.0 -79.26137026018539,33.96160517594144,0.0 -79.26138030012989,33.96159058615485,0.0 -79.26138767360803,33.96161356963813,0.0 -79.26147803847611,33.961652318938086,0.0 -79.26158636682909,33.961698835909566,0.0 -79.26147490061724,33.96180865354374,0.0 -79.26142603147694,33.96182104702954,0.0 -79.26137582907513,33.96181485098819,0.0 -79.26130695725675,33.9617773550339,0.0 -79.26131142843961,33.961722289742625,0.0 -79.26130821317093,33.961694913606564,0.0 -79.26127965965861,33.96167522396934,0.0 -79.26125565727511,33.9616741264766,0.0 -79.26118074527098,33.9616731062866,0.0 -79.2611496824544,33.96169271738053,0.0 -79.26117949065059,33.96173468328033,0.0 -79.26123157507989,33.96177633615386,0.0 -79.26127722899638,33.96179586730965,0.0 -79.26132829451697,33.96186011207877,0.0 -79.26135723834955,33.96192953269766,0.0 -79.26133927619016,33.96194278923993,0.0 -79.26137300552477,33.96195369226379,0.0 -79.26138587044596,33.96195416242908,0.0 -79.261472625798,33.96191855099986,0.0 -79.26150651357338,33.96189039034529,0.0 -79.2616271553811,33.961813360420706,0.0 -79.26172638412616,33.9618628569086,0.0 -79.2617427000559,33.961888899787084,0.0 -79.26161774298551,33.96211245747097,0.0 -79.26156761917372,33.9621188120459,0.0 -79.26147505800218,33.96210453533601,0.0 -79.2614689392074,33.962103044929606,0.0 -79.26146140989566,33.96210312351488,0.0 -79.26137026055302,33.96209033721433,0.0 -79.26133637405752,33.96207919844902,0.0 -79.26127126758746,33.96209127893275,0.0 -79.26122773147459,33.96215340470692,0.0 -79.26117070569104,33.96216846600612,0.0 -79.26107579100031,33.96210626173825,0.0 -79.26107304592406,33.962105005761586,0.0 -79.26102715762373,33.962148306267785,0.0 -79.26097350291678,33.9621337165211,0.0 -79.26089859090416,33.962121400383694,0.0 -79.26087450995112,33.96213450107862,0.0 -79.26084023057763,33.96215497394087,0.0 -79.26079771598376,33.96218258584721,0.0 -79.26087262801995,33.96222596354846,0.0 -79.26092439943672,33.96226683192671,0.0 -79.26094071405579,33.96229169740745,0.0 -79.26091522130862,33.9623491161982,0.0 -79.26086949016239,33.96238363140393,0.0 -79.2607772420487,33.962429677018456,0.0 -79.2607753600518,33.962434539843194,0.0 -79.26076947700051,33.96243595167659,0.0 -79.26070617526835,33.962458778043384,0.0 -79.26066962099063,33.96247689873081,0.0 -79.26066311060839,33.96248184013895,0.0 -79.26064851954665,33.962492978934655,0.0 -79.260623811263,33.96251000079728,0.0 -79.260610867788,33.96254443609228,0.0 -79.2605793348199,33.962591814917744,0.0 -79.26057768725684,33.96259965987256,0.0 -79.26056819605552,33.9626011502888,0.0 -79.26051109038964,33.962626172976876,0.0 -79.2604997172224,33.96267315888724,0.0 -79.26046739842884,33.962692221228416,0.0 -79.26038793792698,33.96268782862835,0.0 -79.260368484041,33.96268947490218,0.0 -79.26034102934544,33.962670962662244,0.0 -79.26032188974719,33.96262805509924,0.0 -79.26021928862986,33.9626263303219,0.0 -79.26021277827644,33.962669159320555,0.0 -79.2602223480925,33.96271285138494,0.0 -79.26016885060233,33.96277183918442,0.0 -79.26013229633458,33.9628029806616,0.0 -79.26006946475171,33.962794744154685,0.0 -79.26001738034896,33.96278784089021,0.0 -79.26001047709403,33.962831219952804,0.0 -79.25999314096347,33.96285082972871,0.0 -79.2599689814321,33.962866596922346,0.0 -79.25989281474791,33.96284824187419,0.0 -79.25987045862146,33.962844005089416,0.0 -79.2598492013162,33.962846672910935,0.0 -79.25977091692653,33.96287577525049,0.0 -79.25972487145845,33.962909661812795,0.0 -79.2597231453426,33.96295366689678,0.0 -79.25966972772184,33.96298543571923,0.0 -79.25961646596173,33.963029442145476,0.0 -79.259569321671,33.96305446482754,0.0 -79.2595514380842,33.96305728849836,0.0 -79.2595410838184,33.96307203544643,0.0 -79.2595204525673,33.9631145514419,0.0 -79.25944216818493,33.96315314499694,0.0 -79.25939110272671,33.96317071563033,0.0 -79.25936898234622,33.963172754808454,0.0 -79.25932944857003,33.96320154280171,0.0 -79.25926904776364,33.96322311449838,0.0 -79.25923649451043,33.96320522959603,0.0 -79.25925461517137,33.96323292004491,0.0 -79.2592244154498,33.963278808459876,0.0 -79.25916864302374,33.96329363401727,0.0 -79.25908243634994,33.963230566667974,0.0 -79.2590710618331,33.96322507520757,0.0 -79.25904792120447,33.96321048544172,0.0 -79.25902650675107,33.96322978220803,0.0 -79.2590703559443,33.963257785653056,0.0 -79.25911302776211,33.96331340097874,0.0 -79.25916762282698,33.963344463817904,0.0 -79.25920903994914,33.96336242729516,0.0 -79.25923822080676,33.963397647059175,0.0 -79.25919437165257,33.963420630575136,0.0 -79.25916597663024,33.96342643507322,0.0 -79.25909702625565,33.96342055205651,0.0 -79.25906682650852,33.9634329455311,0.0</coordinates>
                    </LinearRing>
                </outerBoundaryIs>
            </Polygon>
        </Placemark>
        <Placemark id="4307">
            <name>Flood_468</name>
            <styleUrl>#4312</styleUrl>
            <Polygon id="4306">
                <outerBoundaryIs>
                    <LinearRing id="4310">
                        <coordinates>-79.26462801716934,33.964627686510774,0.0 -79.26459938508262,33.9646154502352,0.0 -79.26461295590039,33.964592936912396,0.0 -79.26464119504047,33.96454540092873,0.0 -79.26458754031216,33.96450163162308,0.0 -79.2645778146735,33.96449535566651,0.0 -79.26451733524493,33.96446123343163,0.0 -79.26448988054437,33.964435583463484,0.0 -79.26447129103049,33.96442060079278,0.0 -79.26442493118283,33.964377457507105,0.0 -79.26441747912611,33.96435651449818,0.0 -79.26441089011342,33.96429478034963,0.0 -79.26439410401694,33.964276268103575,0.0 -79.26435480462548,33.96424308751133,0.0 -79.26432005503993,33.964211083004336,0.0 -79.26429762029295,33.964153115491335,0.0 -79.26426459686176,33.964127778538916,0.0 -79.26422804255844,33.96411177695256,0.0 -79.26422168933105,33.96410879613629,0.0 -79.26423172923859,33.964044865651886,0.0 -79.26424365246876,33.96399748683964,0.0 -79.2642335339065,33.96396242422564,0.0 -79.26420396143125,33.96389276786732,0.0 -79.26419854854159,33.963879511339904,0.0 -79.26417195690485,33.96383934886167,0.0 -79.26416434900602,33.96383056356631,0.0 -79.26415564096632,33.963801225541076,0.0 -79.26415462203686,33.96379644129883,0.0 -79.26413234444709,33.96373376681337,0.0 -79.26413336335784,33.96371368556521,0.0 -79.26413344193111,33.96370411576955,0.0 -79.26413861903306,33.963655325131846,0.0 -79.26412740293088,33.963575393051315,0.0 -79.2642568314545,33.9636552464761,0.0 -79.2642814612006,33.96369533037504,0.0 -79.2642829516111,33.96369846704575,0.0 -79.26431832857827,33.96379455788171,0.0 -79.2643268008838,33.963833229961175,0.0 -79.26433244820436,33.96384562341249,0.0 -79.2643406061785,33.96387111754184,0.0 -79.26441300765678,33.96403004001448,0.0 -79.26441622422028,33.96403788496592,0.0 -79.26448564480872,33.96409891184984,0.0 -79.26450674627922,33.964118130007975,0.0 -79.26450956994188,33.96412746406026,0.0 -79.26459028649577,33.96423289023059,0.0 -79.26461554488161,33.964268502898314,0.0 -79.26462558485201,33.96428842697833,0.0 -79.264590521019,33.964355415569905,0.0 -79.26455875229182,33.96437934073403,0.0 -79.26458958070756,33.964400676630454,0.0 -79.2646032288229,33.964414011733005,0.0 -79.26462103515584,33.9644337786471,0.0 -79.26466880684185,33.96449112011902,0.0 -79.26472308760272,33.96454657827402,0.0 -79.26470716462599,33.964588231189445,0.0 -79.26469555439539,33.964619058328196,0.0 -79.2647832527324,33.96461097888648,0.0 -79.26483110168688,33.96466533822812,0.0 -79.26485894929256,33.964695382155796,0.0 -79.26478999890162,33.96466722156727,0.0 -79.26478223253686,33.96466439791285,0.0 -79.26470739910275,33.96464863078314,0.0 -79.26468355387985,33.964647061807696,0.0 -79.26467374834816,33.96463670752314,0.0 -79.26462801716934,33.964627686510774,0.0</coordinates>
                    </LinearRing>
                </outerBoundaryIs>
            </Polygon>
        </Placemark>
        <Placemark id="4316">
            <name>Flood_469</name>
            <styleUrl>#4321</styleUrl>
            <Polygon id="4315">
                <outerBoundaryIs>
                    <LinearRing id="4319">
                        <coordinates>-79.05851835731814,34.25027823104515,0.0 -79.05861586036751,34.250352907351925,0.0 -79.05867045676035,34.25031823645957,0.0 -79.0586379808383,34.25036239857073,0.0 -79.05864268795942,34.25040914994466,0.0 -79.05861484157623,34.25039793257164,0.0 -79.05858354280797,34.25036153543701,0.0 -79.05851835731814,34.25027823104515,0.0</coordinates>
                    </LinearRing>
                </outerBoundaryIs>
            </Polygon>
        </Placemark>
    </Document>
</kml>
