<?xml version="1.0" encoding="UTF-8"?>
<kml xmlns="http://www.opengis.net/kml/2.2" xmlns:gx="http://www.google.com/kml/ext/2.2">
    <Document id="4785">
        <Style id="4792">
            <LineStyle id="4794">
                <colorMode>normal</colorMode>
                <width>1</width>
            </LineStyle>
            <PolyStyle id="4793">
                <color>80ebce87</color>
                <colorMode>normal</colorMode>
                <fill>1</fill>
                <outline>1</outline>
            </PolyStyle>
        </Style>
        <Style id="4801">
            <LineStyle id="4803">
                <colorMode>normal</colorMode>
                <width>1</width>
            </LineStyle>
            <PolyStyle id="4802">
                <color>80ebce87</color>
                <colorMode>normal</colorMode>
                <fill>1</fill>
                <outline>1</outline>
            </PolyStyle>
        </Style>
        <Style id="4810">
            <LineStyle id="4812">
                <colorMode>normal</colorMode>
                <width>1</width>
            </LineStyle>
            <PolyStyle id="4811">
                <color>80ebce87</color>
                <colorMode>normal</colorMode>
                <fill>1</fill>
                <outline>1</outline>
            </PolyStyle>
        </Style>
        <Style id="4819">
            <LineStyle id="4821">
                <colorMode>normal</colorMode>
                <width>1</width>
            </LineStyle>
            <PolyStyle id="4820">
                <color>80ebce87</color>
                <colorMode>normal</colorMode>
                <fill>1</fill>
                <outline>1</outline>
            </PolyStyle>
        </Style>
        <Style id="4828">
            <LineStyle id="4830">
                <colorMode>normal</colorMode>
                <width>1</width>
            </LineStyle>
            <PolyStyle id="4829">
                <color>80ebce87</color>
                <colorMode>normal</colorMode>
                <fill>1</fill>
                <outline>1</outline>
            </PolyStyle>
        </Style>
        <Style id="4837">
            <LineStyle id="4839">
                <colorMode>normal</colorMode>
                <width>1</width>
            </LineStyle>
            <PolyStyle id="4838">
                <color>80ebce87</color>
                <colorMode>normal</colorMode>
                <fill>1</fill>
                <outline>1</outline>
            </PolyStyle>
        </Style>
        <Style id="4846">
            <LineStyle id="4848">
                <colorMode>normal</colorMode>
                <width>1</width>
            </LineStyle>
            <PolyStyle id="4847">
                <color>80ebce87</color>
                <colorMode>normal</colorMode>
                <fill>1</fill>
                <outline>1</outline>
            </PolyStyle>
        </Style>
        <Style id="4855">
            <LineStyle id="4857">
                <colorMode>normal</colorMode>
                <width>1</width>
            </LineStyle>
            <PolyStyle id="4856">
                <color>80ebce87</color>
                <colorMode>normal</colorMode>
                <fill>1</fill>
                <outline>1</outline>
            </PolyStyle>
        </Style>
        <Style id="4864">
            <LineStyle id="4866">
                <colorMode>normal</colorMode>
                <width>1</width>
            </LineStyle>
            <PolyStyle id="4865">
                <color>80ebce87</color>
                <colorMode>normal</colorMode>
                <fill>1</fill>
                <outline>1</outline>
            </PolyStyle>
        </Style>
        <Style id="4873">
            <LineStyle id="4875">
                <colorMode>normal</colorMode>
                <width>1</width>
            </LineStyle>
            <PolyStyle id="4874">
                <color>80ebce87</color>
                <colorMode>normal</colorMode>
                <fill>1</fill>
                <outline>1</outline>
            </PolyStyle>
        </Style>
        <Placemark id="4787">
            <name>Flood_520</name>
            <styleUrl>#4792</styleUrl>
            <Polygon id="4786">
                <outerBoundaryIs>
                    <LinearRing id="4790">
                        <coordinates>-78.81989349918933,33.99956352506393,0.0 -78.81986094577914,33.99952273510479,0.0 -78.81980462460915,33.99952814801627,0.0 -78.81973488975113,33.99953026577617,0.0 -78.81970068919723,33.99959176439339,0.0 -78.81966711676802,33.99952861820766,0.0 -78.81965676237135,33.99949998730864,0.0 -78.81967645044887,33.99944186242716,0.0 -78.81968186321357,33.99941417187603,0.0 -78.81970916062816,33.99938844322207,0.0 -78.81974383160907,33.99938805031422,0.0 -78.81980791782604,33.99938106971579,0.0 -78.81986682841182,33.99942170251051,0.0 -78.81989938176896,33.99944970607038,0.0 -78.81994919129569,33.99945692239764,0.0 -78.81998794176239,33.99942123101172,0.0 -78.8199482506631,33.99938781585764,0.0 -78.8199460541398,33.99933941665786,0.0 -78.81993868056996,33.999313216523575,0.0 -78.81990981394237,33.999284978530575,0.0 -78.81987663335295,33.99928136905813,0.0 -78.81985027613432,33.99927117189778,0.0 -78.8198115267663,33.99925611189952,0.0 -78.81976210753959,33.99925313107496,0.0 -78.81971174811557,33.99928576305131,0.0 -78.81967856752026,33.99928074174446,0.0 -78.81962828641298,33.999249993098495,0.0 -78.81961855945134,33.99924575759662,0.0 -78.81961385377737,33.99924152078445,0.0 -78.81956937711514,33.99920426172168,0.0 -78.81944755778699,33.999189593326655,0.0 -78.81941712228496,33.99918888741303,0.0 -78.81932565870146,33.99920677109491,0.0 -78.8192781242615,33.999243795735836,0.0 -78.81927067224426,33.99924960023555,0.0 -78.81925937634007,33.999256424976025,0.0 -78.81921482136454,33.99928325245309,0.0 -78.81919411281892,33.99928552736857,0.0 -78.81915120532065,33.99929031163215,0.0 -78.81910845475646,33.99924081492494,0.0 -78.81908492243203,33.99921359586131,0.0 -78.8190204432877,33.99921453752814,0.0 -78.8189854579621,33.999209438950366,0.0 -78.81898655690023,33.99923869718727,0.0 -78.8189191757899,33.999304275460304,0.0 -78.818854539197,33.99923634370848,0.0 -78.81885704972083,33.999207634226714,0.0 -78.81876746929338,33.999188573163316,0.0 -78.81872432597986,33.99917570818765,0.0 -78.81869185132923,33.99917806168515,0.0 -78.81862643164347,33.99913217314652,0.0 -78.81858273990025,33.999196574015436,0.0 -78.81852516415123,33.999223087171416,0.0 -78.81851355388675,33.999220656407694,0.0 -78.81842648413556,33.999209360433014,0.0 -78.81836349547251,33.9992277155967,0.0 -78.81833674673682,33.999235559269586,0.0 -78.81829478094558,33.99925273833886,0.0 -78.81830944917824,33.99922677394332,0.0 -78.81827234597793,33.999189985053576,0.0 -78.81822967407788,33.9991607268209,0.0 -78.81819021768196,33.99919249571826,0.0 -78.8181287980334,33.999216969704015,0.0 -78.81806502601884,33.99919555383382,0.0 -78.81793292953834,33.9991463714584,0.0 -78.8179235954907,33.999145038205825,0.0 -78.81787158832616,33.999136565895554,0.0 -78.81788853141217,33.99909891392068,0.0 -78.81787676498035,33.99902125648212,0.0 -78.81777855642889,33.99900337151101,0.0 -78.81773862971657,33.99900094075038,0.0 -78.817642852201,33.99905012315148,0.0 -78.81773557082768,33.99912174033996,0.0 -78.81776216249,33.99913468389853,0.0 -78.8177773797365,33.999170766874,0.0 -78.81773517799265,33.9991376647318,0.0 -78.81773235433228,33.99913656591112,0.0 -78.8176383024008,33.999051300553695,0.0 -78.81754276208363,33.99913546842106,0.0 -78.8175370349048,33.99914088001696,0.0 -78.81753036736103,33.99914166451571,0.0 -78.8175269949231,33.99913476250555,0.0 -78.81750683510197,33.99913021268154,0.0 -78.8173974090658,33.9990808731413,0.0 -78.81737246487724,33.99904533892231,0.0 -78.81731724092917,33.99898336882764,0.0 -78.81732014438475,33.998961954259194,0.0 -78.8173219477276,33.99894359910205,0.0 -78.81732186887699,33.99887951255931,0.0 -78.81732837920212,33.998865000001054,0.0 -78.81734602966348,33.99886343100328,0.0 -78.81738234697822,33.99888061006425,0.0 -78.81744298251023,33.998945795421385,0.0 -78.8175410352174,33.998965249388746,0.0 -78.81764277292645,33.99888515986278,0.0 -78.81781785539116,33.99890673157348,0.0 -78.81785166326404,33.99889833783458,0.0 -78.81785480115244,33.998877159008714,0.0 -78.81791112205275,33.998807423813574,0.0 -78.8179024139647,33.99879079481519,0.0 -78.81795755899233,33.99877196816811,0.0 -78.81800454477379,33.99875761407703,0.0 -78.81797724746599,33.998808601208424,0.0 -78.81803906036616,33.99886727483871,0.0 -78.81804651241423,33.9988688438339,0.0 -78.81812667889669,33.9988846110556,0.0 -78.81814801478886,33.99888539555122,0.0 -78.81823563472533,33.998925714021816,0.0 -78.81831109501877,33.998814484253195,0.0 -78.81833831382319,33.99878177369799,0.0 -78.8183722004533,33.998815503177404,0.0 -78.81843354210949,33.99893120548626,0.0 -78.81849864858047,33.99892853766233,0.0 -78.81845652577996,33.998981956869486,0.0 -78.81847864634436,33.999025257486814,0.0 -78.81853026185782,33.999019687414766,0.0 -78.81859811326781,33.998984467509494,0.0 -78.81855865648038,33.99892281173765,0.0 -78.81855144008942,33.99890116142859,0.0 -78.81857293292916,33.998851037377165,0.0 -78.81863403827792,33.998831584702934,0.0 -78.81870879299403,33.99880052171962,0.0 -78.81877303622842,33.99875910441245,0.0 -78.81876142754847,33.998822406456405,0.0 -78.81880088418818,33.99884876244002,0.0 -78.81879915827584,33.99890547679561,0.0 -78.81872926787871,33.99898242832449,0.0 -78.81871734458747,33.99897646666522,0.0 -78.81871138299596,33.998986428087235,0.0 -78.81872055990708,33.99899356714849,0.0 -78.81872887504626,33.99899905732353,0.0 -78.81873915069488,33.998987448324364,0.0 -78.81882990827417,33.998947913023336,0.0 -78.81887752144829,33.99894767858565,0.0 -78.81886826581544,33.9989067314611,0.0 -78.81886928452816,33.99885574433348,0.0 -78.81893054842298,33.99885433249258,0.0 -78.81895753159769,33.99884821366774,0.0 -78.81900161511278,33.998826563353454,0.0 -78.8189318028796,33.99880397270143,0.0 -78.81886112634233,33.99880059897477,0.0 -78.81885602726194,33.998675719737676,0.0 -78.81886096990006,33.99865916931895,0.0 -78.818861988739,33.99863838208785,0.0 -78.8188837170824,33.99853130793909,0.0 -78.8189393322567,33.998506050766935,0.0 -78.81895650995035,33.99851028626838,0.0 -78.81910484361917,33.99852519040485,0.0 -78.81914641812678,33.99858174628466,0.0 -78.81914916340018,33.99862920382572,0.0 -78.81919426752096,33.99869619392054,0.0 -78.81923058623546,33.99873510056159,0.0 -78.81928518118161,33.998711646817966,0.0 -78.81926784615584,33.99866630702999,0.0 -78.81933318677235,33.9985949242597,0.0 -78.81939774480897,33.998668581929834,0.0 -78.81937852683679,33.998710547987415,0.0 -78.81942935656146,33.99870850881136,0.0 -78.81945751719348,33.99871697981457,0.0 -78.81947022475815,33.99866991517602,0.0 -78.81946230243449,33.998643637770236,0.0 -78.81944998603046,33.9985870805783,0.0 -78.81947736194306,33.99854150635337,0.0 -78.81948426508022,33.99850518763455,0.0 -78.81944778918653,33.99846188701938,0.0 -78.81943594444205,33.99844784594814,0.0 -78.81940676480872,33.998421332802096,0.0 -78.81941500126877,33.9984031348067,0.0 -78.81945735846115,33.99833975287028,0.0 -78.81944794551994,33.998263272835565,0.0 -78.81953870210428,33.9982988070473,0.0 -78.81962757641745,33.99826939164077,0.0 -78.81963824505965,33.99827966738392,0.0 -78.81970852870582,33.99828547187614,0.0 -78.81973723803743,33.99828100062821,0.0 -78.81976163324724,33.99826264546983,0.0 -78.81983787830325,33.99821471643754,0.0 -78.81990706331936,33.99826523338267,0.0 -78.81991569282542,33.99828162794789,0.0 -78.81993538111871,33.998275196110754,0.0 -78.82001272523036,33.99828492309197,0.0 -78.82003406112885,33.99828719669331,0.0 -78.82011869869532,33.99826892011021,0.0 -78.82003633566828,33.998199734997215,0.0 -78.81994204829948,33.998187027187306,0.0 -78.81993749850989,33.9981907925158,0.0 -78.8199320869078,33.99818318327934,0.0 -78.81993773421065,33.9981810655273,0.0 -78.82002558838721,33.99817533960119,0.0 -78.8200369628976,33.99817463368301,0.0 -78.82004449351176,33.99817275036342,0.0 -78.82005390615717,33.99817824184798,0.0 -78.82006159396994,33.99818545818051,0.0 -78.82014419276314,33.9982606835345,0.0 -78.82023251718456,33.99827237110465,0.0 -78.82031433282265,33.9983548141011,0.0 -78.82032139198988,33.998361481677925,0.0 -78.82032915836497,33.99836438392656,0.0 -78.82035347511874,33.99837599292179,0.0 -78.82040940347608,33.99839176014587,0.0 -78.82047098090923,33.99851726670975,0.0 -78.82055867962744,33.99860653444386,0.0 -78.82057985849299,33.99863971516733,0.0 -78.82059993992193,33.998689760631564,0.0 -78.82059750813487,33.99875651498685,0.0 -78.82051726314411,33.99875800541027,0.0 -78.82050235906149,33.998758083992534,0.0 -78.8204952200674,33.99876663357991,0.0 -78.8204921606856,33.99877032032762,0.0 -78.82041646573819,33.9988292310213,0.0 -78.82040360086454,33.99884076143947,0.0 -78.82037967710276,33.99885080275337,0.0 -78.8204152099578,33.99887660998078,0.0 -78.8204800036702,33.99893504917501,0.0 -78.8204909853557,33.99895301142584,0.0 -78.82051342005103,33.998950736510395,0.0 -78.82058989975361,33.99895481615322,0.0 -78.8206109226934,33.99897003331502,0.0 -78.82062441485874,33.998948384314374,0.0 -78.8206238647511,33.99893755850518,0.0 -78.82061790279062,33.9988584892361,0.0 -78.82071250446346,33.99886735313573,0.0 -78.8207301536399,33.998871745798276,0.0 -78.82074513493343,33.998857234549796,0.0 -78.82075297967057,33.99880734493477,0.0 -78.82076709912614,33.99877518444792,0.0 -78.8207946323235,33.998759260054285,0.0 -78.82081463489996,33.99874357271333,0.0 -78.82084577513979,33.998776517693265,0.0 -78.82091213771959,33.99880569865118,0.0 -78.82097285157766,33.998810561484085,0.0 -78.82097073273513,33.998861157015504,0.0 -78.82095684906535,33.99890414200166,0.0 -78.82100666019474,33.998982192334864,0.0 -78.82106886421307,33.99892704697119,0.0 -78.82114150138743,33.99894406886533,0.0 -78.82114095133521,33.99894665810135,0.0 -78.8212045675758,33.99898705515262,0.0 -78.82125610471411,33.999031140262154,0.0 -78.82120213721915,33.99908330348509,0.0 -78.82113742244606,33.999111542797564,0.0 -78.82120080288279,33.99913680126557,0.0 -78.82123500371345,33.999141821262526,0.0 -78.8213005815364,33.9991075417091,0.0 -78.82136686424732,33.99914205699002,0.0 -78.82139886870048,33.99913366325179,0.0 -78.82141871417794,33.99913295733244,0.0 -78.8214148702185,33.99911640560591,0.0 -78.82149997907823,33.99905247622086,0.0 -78.82155708503929,33.999118916245216,0.0 -78.8215954430506,33.99919131793171,0.0 -78.82160807227595,33.99920229959122,0.0 -78.82160367966092,33.99920943865353,0.0 -78.82159505021545,33.999207555335694,0.0 -78.82152939506935,33.9992291270708,0.0 -78.82149535144764,33.999235794652,0.0 -78.82143722682432,33.99923328400339,0.0 -78.8213962799069,33.999238148157005,0.0 -78.82133164485681,33.99922583324984,0.0 -78.82129767846057,33.99922151786042,0.0 -78.82123359222823,33.99922489160161,0.0 -78.82119829395353,33.999234931607184,0.0 -78.82115789580385,33.999243325346484,0.0 -78.82109914384492,33.99924034452306,0.0 -78.8210388215332,33.99922418570663,0.0 -78.8210000723052,33.999242932460625,0.0 -78.8209765400487,33.999231872221586,0.0 -78.82093018005983,33.9991903763475,0.0 -78.82090350968326,33.9991448021297,0.0 -78.82087848724862,33.99918943600359,0.0 -78.82083118727746,33.999235794727674,0.0 -78.82080192918085,33.99923728514607,0.0 -78.82075266709164,33.9992286569843,0.0 -78.82070293624648,33.99924591332467,0.0 -78.82065390985495,33.999226773676675,0.0 -78.82060488346987,33.99920920302443,0.0 -78.82054558162223,33.99924826683638,0.0 -78.82051922582738,33.99926560306461,0.0 -78.82049396755626,33.999287096214914,0.0 -78.82045019696474,33.99928748781402,0.0 -78.82042117348762,33.999334318021106,0.0 -78.82042635097518,33.99941848587214,0.0 -78.82051373501069,33.99942099651714,0.0 -78.82055523060684,33.9993982473824,0.0 -78.82054417057489,33.99943676243324,0.0 -78.82053342477981,33.99945480457686,0.0 -78.82051099010272,33.99946139357627,0.0 -78.8204356079281,33.99946233524461,0.0 -78.82040336775198,33.99947504306699,0.0 -78.82037960110918,33.99947488590829,0.0 -78.82030178686341,33.99947394425815,0.0 -78.82025942807724,33.999468845681484,0.0 -78.82018514340535,33.99946892427104,0.0 -78.8201554937098,33.999468767113115,0.0 -78.82010356531826,33.999506497671234,0.0 -78.82011846982124,33.99960776600474,0.0 -78.82007383620513,33.99962015950576,0.0 -78.82003030155786,33.99966934320889,0.0 -78.82001586770636,33.99968338428289,0.0 -78.81999845433522,33.999694365946254,0.0 -78.81997664685666,33.999668401556086,0.0 -78.81997641224653,33.999625415260816,0.0 -78.81989349918933,33.99956352506393,0.0</coordinates>
                    </LinearRing>
                </outerBoundaryIs>
            </Polygon>
        </Placemark>
        <Placemark id="4796">
            <name>Flood_521</name>
            <styleUrl>#4801</styleUrl>
            <Polygon id="4795">
                <outerBoundaryIs>
                    <LinearRing id="4799">
                        <coordinates>-78.79075513965981,34.003310684795736,0.0 -78.79063912365523,34.003225811357154,0.0 -78.79065379346585,34.00308963663469,0.0 -78.79067159985091,34.00303300237555,0.0 -78.79072996030486,34.002947736004806,0.0 -78.79083554228517,34.00291008415385,0.0 -78.79088574468054,34.0029129863842,0.0 -78.79093516258321,34.00291447678557,0.0 -78.79105753187936,34.002942794547934,0.0 -78.79118899950504,34.002946559840154,0.0 -78.79127622640378,34.00291706595508,0.0 -78.7913175649313,34.002918790789565,0.0 -78.79135882619066,34.00291839919003,0.0 -78.79136619965273,34.002917378952326,0.0 -78.79148896059438,34.00290019993105,0.0 -78.79152818138364,34.00289894525627,0.0 -78.79156826393547,34.00289972974465,0.0 -78.79168169081959,34.002895964411394,0.0 -78.79171910818727,34.002895807244194,0.0 -78.79175683725579,34.00289690605487,0.0 -78.79182971002493,34.00296146382884,0.0 -78.79186422377369,34.0030241382972,0.0 -78.79186571414515,34.003055749910814,0.0 -78.7918262588559,34.00311575789432,0.0 -78.7917879010693,34.00317890385791,0.0 -78.79171126287612,34.00321129997998,0.0 -78.79167235641137,34.00321004400869,0.0 -78.79163407597164,34.00320777042034,0.0 -78.79149829425185,34.00322973368537,0.0 -78.79145452363835,34.00324730428634,0.0 -78.79141600874618,34.00326291430356,0.0 -78.79129379655136,34.00328534904919,0.0 -78.79125034028348,34.00328228965698,0.0 -78.79120806009814,34.00328283841793,0.0 -78.79116546690233,34.00328205393017,0.0 -78.79103093986092,34.00329421297165,0.0 -78.79098324679663,34.0032938200775,0.0 -78.7909346919651,34.00329538907593,0.0 -78.7908585252789,34.00330660645147,0.0 -78.79080792997583,34.003308488462544,0.0 -78.79075513965981,34.003310684795736,0.0</coordinates>
                    </LinearRing>
                </outerBoundaryIs>
            </Polygon>
        </Placemark>
        <Placemark id="4805">
            <name>Flood_522</name>
            <styleUrl>#4810</styleUrl>
            <Polygon id="4804">
                <outerBoundaryIs>
                    <LinearRing id="4808">
                        <coordinates>-78.78038501396364,34.00317247268064,0.0 -78.78039128869793,34.003099208166525,0.0 -78.78039042563418,34.0030901098564,0.0 -78.7803897983139,34.00307920550492,0.0 -78.78040289767284,34.003074264099965,0.0 -78.78049067458981,34.00308265779035,0.0 -78.78050165619611,34.003086501683775,0.0 -78.78055813454158,34.00309309064765,0.0 -78.78060017896944,34.00310603284596,0.0 -78.78061068911268,34.00309403098519,0.0 -78.7806011979434,34.00306642042457,0.0 -78.78059296147498,34.00301119668225,0.0 -78.78050518593308,34.00294907096748,0.0 -78.78045961194756,34.00292640181557,0.0 -78.78050628479922,34.00290788955576,0.0 -78.78054793635818,34.00289353420425,0.0 -78.78060566938007,34.002892358106735,0.0 -78.78065147914293,34.002885376223254,0.0 -78.78070576121637,34.00285070519574,0.0 -78.78070952652625,34.0028514896902,0.0 -78.78072270446306,34.00284858744888,0.0 -78.7807110169435,34.00284411622143,0.0 -78.78070591838605,34.00284341030764,0.0 -78.78068324803526,34.00276544013736,0.0 -78.78064010615674,34.002706922568905,0.0 -78.78066701080583,34.002682683105,0.0 -78.78071031123638,34.002674133541326,0.0 -78.78077329997885,34.00267178004553,0.0 -78.78079353705142,34.00267178004221,0.0 -78.78080961853908,34.00266464231249,0.0 -78.78084052427339,34.00261310529809,0.0 -78.78089009944962,34.00252172142799,0.0 -78.78088515677068,34.00249850220589,0.0 -78.7809133173869,34.00248203042263,0.0 -78.7809446159112,34.00252266307522,0.0 -78.78097050154396,34.00257278694117,0.0 -78.78095889250991,34.002646443048356,0.0 -78.78100823184145,34.00264016838874,0.0 -78.78106282686902,34.00265303200472,0.0 -78.78110636169203,34.00267664412283,0.0 -78.78114393620258,34.00269123389272,0.0 -78.78112330621067,34.00270551066002,0.0 -78.78110471535594,34.00273978877897,0.0 -78.78107741782195,34.002749985910796,0.0 -78.7810065841937,34.002704960615844,0.0 -78.78097559994411,34.00270292145746,0.0 -78.78092351554785,34.00270041081969,0.0 -78.78091896566609,34.002763399625195,0.0 -78.78091825974455,34.002769675586464,0.0 -78.78092382845699,34.002784971276384,0.0 -78.78093677187671,34.00285243130855,0.0 -78.78093669326223,34.00288043477306,0.0 -78.7809028840356,34.002887965408185,0.0 -78.78082138440139,34.00286451176724,0.0 -78.7808539375583,34.002933460896216,0.0 -78.78087786128309,34.00299786152638,0.0 -78.78087095928217,34.003016217928284,0.0 -78.78082593399685,34.003037003783014,0.0 -78.78079910660539,34.003072067708445,0.0 -78.78077055310578,34.00307308794988,0.0 -78.7807758087959,34.003096933196325,0.0 -78.78077463268559,34.003116387104626,0.0 -78.78073250954942,34.00320863404968,0.0 -78.7807200374665,34.00326095555631,0.0 -78.7807220766,34.00328386045695,0.0 -78.78069430758404,34.00329366468652,0.0 -78.78064457665904,34.00330072515143,0.0 -78.78059468725175,34.00331743268022,0.0 -78.78052448215404,34.00336489006514,0.0 -78.7804936550238,34.003396816010884,0.0 -78.78045890549554,34.00336826379855,0.0 -78.78041952755113,34.00336481150285,0.0 -78.7803955238606,34.00336261518243,0.0 -78.78036187314483,34.00333696520908,0.0 -78.7803675204825,34.0033154721364,0.0 -78.78036806923839,34.00331319723137,0.0 -78.78036187324524,34.00325452249567,0.0 -78.78037544410394,34.003235304326566,0.0 -78.78038501396364,34.00317247268064,0.0</coordinates>
                    </LinearRing>
                </outerBoundaryIs>
            </Polygon>
        </Placemark>
        <Placemark id="4814">
            <name>Flood_523</name>
            <styleUrl>#4819</styleUrl>
            <Polygon id="4813">
                <outerBoundaryIs>
                    <LinearRing id="4817">
                        <coordinates>-78.7932016500403,34.00447318943906,0.0 -78.79314415285737,34.0043897278231,0.0 -78.79313787830813,34.00430712796326,0.0 -78.79313630932194,34.00430493163942,0.0 -78.79312320867896,34.004288066963355,0.0 -78.7931454076297,34.00429889272864,0.0 -78.79318870809443,34.00426076940566,0.0 -78.79323279170545,34.00425574941519,0.0 -78.79324557804807,34.00425425900323,0.0 -78.79327279699477,34.00424963060859,0.0 -78.79332252924638,34.00422790178988,0.0 -78.79331005724033,34.0042163714179,0.0 -78.79328589641102,34.004195035515124,0.0 -78.79328472044435,34.00409141406926,0.0 -78.79327962191981,34.004062233212686,0.0 -78.7933033113409,34.00401956139396,0.0 -78.79325091258593,34.00404866368045,0.0 -78.7932143582786,34.00406105713687,0.0 -78.79315058500048,34.00409878756105,0.0 -78.79307692887924,34.004177935133505,0.0 -78.79307371245993,34.004058546516404,0.0 -78.79308947963722,34.00404144740329,0.0 -78.79307088883846,34.00402897406671,0.0 -78.79304272826442,34.00400960005691,0.0 -78.79308077311822,34.00387813099473,0.0 -78.79312069992561,34.00378706015193,0.0 -78.79318808141261,34.00369849995029,0.0 -78.79332786424817,34.003621705851906,0.0 -78.79344403624708,34.00358413257985,0.0 -78.79362484321962,34.00356860111826,0.0 -78.79367018278862,34.003579661311456,0.0 -78.7937002252958,34.00365731845493,0.0 -78.79371269725995,34.00370501024924,0.0 -78.79360640941857,34.00369700946667,0.0 -78.79360546781132,34.00365567090122,0.0 -78.79358703423328,34.00359134886117,0.0 -78.79354601001882,34.00359684033357,0.0 -78.79353620442788,34.003654416245254,0.0 -78.79351737783531,34.00368728252998,0.0 -78.79351424111069,34.003736544626896,0.0 -78.79345627225581,34.0038167897031,0.0 -78.79355291169928,34.00385444151779,0.0 -78.79361731221053,34.0039033107002,0.0 -78.79364359079916,34.003909508075104,0.0 -78.79366084836137,34.00391264605211,0.0 -78.79367418346504,34.00390433092641,0.0 -78.79375074177662,34.00386456133711,0.0 -78.79381671131564,34.00387969985266,0.0 -78.79388707351995,34.003876797601386,0.0 -78.79391931240605,34.003905506970014,0.0 -78.79392331345447,34.003908723529825,0.0 -78.79390487979718,34.00391288043997,0.0 -78.79384816568714,34.00392590254357,0.0 -78.7937854912562,34.003936805594975,0.0 -78.79379851199361,34.003967162537606,0.0 -78.79380816033178,34.00398912577704,0.0 -78.79382086801989,34.00405180155702,0.0 -78.79374587873966,34.00405462522877,0.0 -78.79371136359038,34.00406992092348,0.0 -78.79371254092172,34.00412616358445,0.0 -78.79371983577175,34.004152519472534,0.0 -78.7936996759158,34.004199270926456,0.0 -78.79371261937631,34.00423488359288,0.0 -78.79365590520202,34.00430344113376,0.0 -78.7937076765738,34.00431724771266,0.0 -78.79380259118585,34.00434791765226,0.0 -78.79383734074858,34.00434831054815,0.0 -78.79390111401487,34.00432069866915,0.0 -78.79393766702455,34.0042979509263,0.0 -78.79395366989591,34.00432164031534,0.0 -78.79395225805312,34.0043345039384,0.0 -78.79393633371606,34.00435074128566,0.0 -78.79387616853208,34.00443694931022,0.0 -78.79383459554765,34.004456873395895,0.0 -78.79380682658001,34.004425261788,0.0 -78.79373638580016,34.00442384997208,0.0 -78.79370814793349,34.00442329991406,0.0 -78.79363754999817,34.00441726101816,0.0 -78.79358389658847,34.00443569469656,0.0 -78.79353777250041,34.00444589183078,0.0 -78.79349988495865,34.004446910764585,0.0 -78.79347517662505,34.00447805220936,0.0 -78.79343658311075,34.00452966779806,0.0 -78.79340238226649,34.00455924025456,0.0 -78.7933655149339,34.00458300692449,0.0 -78.79333617693986,34.004584027166544,0.0 -78.79327154193845,34.00458559616875,0.0 -78.7932368709445,34.00459524454727,0.0 -78.79320965073914,34.00455578798879,0.0 -78.79319663002151,34.00450840920661,0.0 -78.7932016500403,34.00447318943906,0.0</coordinates>
                    </LinearRing>
                </outerBoundaryIs>
            </Polygon>
        </Placemark>
        <Placemark id="4823">
            <name>Flood_524</name>
            <styleUrl>#4828</styleUrl>
            <Polygon id="4822">
                <outerBoundaryIs>
                    <LinearRing id="4826">
                        <coordinates>-78.82938049145042,33.95003815488901,0.0 -78.82937021573052,33.95003533121141,0.0 -78.82935123330651,33.95003611569168,0.0 -78.82933695647804,33.950020112709794,0.0 -78.82934409542754,33.949997757804105,0.0 -78.82931962129595,33.94993735669194,0.0 -78.82929428406183,33.94987021073168,0.0 -78.8292991468227,33.9498545220904,0.0 -78.82930338358571,33.94984557960558,0.0 -78.8293142079608,33.9498233805552,0.0 -78.82934252555113,33.949772786368946,0.0 -78.82927953646984,33.94970438439128,0.0 -78.82926455372869,33.94968893147384,0.0 -78.82926604409232,33.949677165318256,0.0 -78.82925012078609,33.94960625403914,0.0 -78.82918516975526,33.949523576557276,0.0 -78.82921976328949,33.94946843124208,0.0 -78.82921890010462,33.94944074200617,0.0 -78.82923772520995,33.94939987348791,0.0 -78.82925427671952,33.949358926386935,0.0 -78.82924149020592,33.949318842336865,0.0 -78.82923356781416,33.94927609178473,0.0 -78.82925404053135,33.94924557759105,0.0 -78.82927843564322,33.9491943560651,0.0 -78.82927812235876,33.949125248228654,0.0 -78.82926494435674,33.94911167732155,0.0 -78.82922831123915,33.94906045573802,0.0 -78.8292182712144,33.94904594317453,0.0 -78.82920517046657,33.9490281367654,0.0 -78.82919787554164,33.94901903841786,0.0 -78.82917065627721,33.9489450677174,0.0 -78.82915528185356,33.9489069442543,0.0 -78.82914979021058,33.948862233114795,0.0 -78.82916312512715,33.948813285181224,0.0 -78.82917763750424,33.94878026032722,0.0 -78.82917575409746,33.94875633641764,0.0 -78.82920579784101,33.94870605524682,0.0 -78.82920877863995,33.94870072092671,0.0 -78.82925513703721,33.94865898935656,0.0 -78.82929906336899,33.94861741625529,0.0 -78.82929686701021,33.948608786777726,0.0 -78.8292609410249,33.94853426731327,0.0 -78.82925309719408,33.94848657403225,0.0 -78.82923246705656,33.948451354122575,0.0 -78.82922964203152,33.948437077308256,0.0 -78.82921309157936,33.94841409373414,0.0 -78.82919559813098,33.948383423652544,0.0 -78.82918210710909,33.94836797073608,0.0 -78.82918971492853,33.948347183516915,0.0 -78.82917622372388,33.94828537058024,0.0 -78.82917057494201,33.948246306776774,0.0 -78.82919724499212,33.94820332051538,0.0 -78.82920422682173,33.94819131993272,0.0 -78.82921905229514,33.948179553790105,0.0 -78.82925042804928,33.948147234869595,0.0 -78.82928470738194,33.94812236933558,0.0 -78.82932039848906,33.948083461423785,0.0 -78.8293469900466,33.94806275280384,0.0 -78.82937977767436,33.948041574015114,0.0 -78.82940448725881,33.948028396048045,0.0 -78.82939883966915,33.94795944536813,0.0 -78.82940087876071,33.947941090217824,0.0 -78.82942284202088,33.9479441496494,0.0 -78.8295038729254,33.94794634605955,0.0 -78.82952160071814,33.94795481708101,0.0 -78.82952968012985,33.94796172040724,0.0 -78.82953117057252,33.947970035561184,0.0 -78.82953415168461,33.94804424067082,0.0 -78.82953266131923,33.94805561523211,0.0 -78.82954026950094,33.948126840826305,0.0 -78.82954160414145,33.9481476280539,0.0 -78.82955423357991,33.948209518260406,0.0 -78.82955195879799,33.948240895549525,0.0 -78.82953940838351,33.94829172549208,0.0 -78.82951156100542,33.94835251814862,0.0 -78.8294966569394,33.948361224880834,0.0 -78.82949555948007,33.94837346121139,0.0 -78.82951054223761,33.9483929937795,0.0 -78.82958012027903,33.948457394695275,0.0 -78.82960726076828,33.94848194727493,0.0 -78.82969268319815,33.94853160121923,0.0 -78.82970476367105,33.948539680640955,0.0 -78.8297312769726,33.94860157086037,0.0 -78.82972962949343,33.948624946010916,0.0 -78.82972978674535,33.94864808673058,0.0 -78.82970162617336,33.948662676528606,0.0 -78.82964899164745,33.94866212772287,0.0 -78.82965848434426,33.94870621283914,0.0 -78.82966664252743,33.94876174847827,0.0 -78.82967495645055,33.94878896885603,0.0 -78.82969715564717,33.948841759421086,0.0 -78.82971417755377,33.9488576052443,0.0 -78.82972006067064,33.94887219507473,0.0 -78.82979403130469,33.94892239776294,0.0 -78.82982533004879,33.94895652017102,0.0 -78.82981787808104,33.94897746455165,0.0 -78.82977269584588,33.94903810003045,0.0 -78.82975512546516,33.94909340121253,0.0 -78.82975394940765,33.9491011676083,0.0 -78.82975096866218,33.94912015009391,0.0 -78.82972280814074,33.94914752628897,0.0 -78.8297314366724,33.949247697100766,0.0 -78.82975614645528,33.949285191926066,0.0 -78.82975598938712,33.94930880282022,0.0 -78.82978650373492,33.949368183697814,0.0 -78.82984462853811,33.94939955973374,0.0 -78.8298807114338,33.94941069858799,0.0 -78.82993012940013,33.9494119546166,0.0 -78.82992816914081,33.94949447487324,0.0 -78.82989388987033,33.94953502905349,0.0 -78.82992252215686,33.94957958436194,0.0 -78.82997405807255,33.949633159451565,0.0 -78.83001955484202,33.94962672766006,0.0 -78.83000316062697,33.949701875719704,0.0 -78.8300047297088,33.94972517229234,0.0 -78.82997092058835,33.94975976481398,0.0 -78.82992393496043,33.9498277737848,0.0 -78.82986996722298,33.949836403210064,0.0 -78.82983262837836,33.949832637848125,0.0 -78.82977018977645,33.94986989685001,0.0 -78.82971912420084,33.94985875929181,0.0 -78.82966688143631,33.94990072528986,0.0 -78.82964491835541,33.94994300563904,0.0 -78.82965958686223,33.94998081477775,0.0 -78.82956906612456,33.94999563895141,0.0 -78.82949133055463,33.95004145014393,0.0 -78.8294683471648,33.950065295449726,0.0 -78.82938049145042,33.95003815488901,0.0</coordinates>
                    </LinearRing>
                </outerBoundaryIs>
            </Polygon>
        </Placemark>
        <Placemark id="4832">
            <name>Flood_525</name>
            <styleUrl>#4837</styleUrl>
            <Polygon id="4831">
                <outerBoundaryIs>
                    <LinearRing id="4835">
                        <coordinates>-78.90137891707018,33.95386625692545,0.0 -78.90132024229341,33.95384892068022,0.0 -78.90124619334603,33.95387590520467,0.0 -78.90127074567964,33.95381519121467,0.0 -78.90126007826031,33.95376310534763,0.0 -78.90126329344216,33.9537325924934,0.0 -78.90127584396409,33.95369266568811,0.0 -78.90130000474777,33.95365069841576,0.0 -78.90125348888981,33.953589044017455,0.0 -78.90123999657101,33.95356723657276,0.0 -78.90128447304411,33.95353178103226,0.0 -78.90132988976112,33.95345130010381,0.0 -78.90135169708782,33.95342172761365,0.0 -78.90135624685801,33.95340423557032,0.0 -78.90133138003408,33.9533912134298,0.0 -78.90126799953882,33.95334909023135,0.0 -78.9012334856795,33.953348698608465,0.0 -78.90122767982501,33.953319596268784,0.0 -78.90120140238672,33.95326507962751,0.0 -78.90116869188428,33.953236134426035,0.0 -78.90113841340585,33.953188834102,0.0 -78.90107903266932,33.953152201072946,0.0 -78.90104169502266,33.95309556667417,0.0 -78.90103839982018,33.95306897498743,0.0 -78.90100929872324,33.9530146927756,0.0 -78.90101125924092,33.952986061926225,0.0 -78.9009988656998,33.952947155337874,0.0 -78.90100639622995,33.952903540477564,0.0 -78.90099627627514,33.952860711408256,0.0 -78.90098490296819,33.95282070600169,0.0 -78.90099659041795,33.95278234818879,0.0 -78.90094991757991,33.95280039026021,0.0 -78.9008717902397,33.95279936995403,0.0 -78.90084041305477,33.95280062590729,0.0 -78.900781268125,33.95279285947085,0.0 -78.90069302098283,33.952815764337394,0.0 -78.90064007351295,33.95284235597571,0.0 -78.90061065823411,33.952849416419525,0.0 -78.90057982979613,33.95284769023845,0.0 -78.90049966332353,33.95286024080496,0.0 -78.90048397473274,33.9528615740427,0.0 -78.90042694758607,33.9528707522106,0.0 -78.90032889489314,33.952886596599726,0.0 -78.9003107755822,33.95290369703817,0.0 -78.9002914002478,33.95290103051891,0.0 -78.90028167329592,33.95290212801988,0.0 -78.90026143620398,33.95290314824089,0.0 -78.90023296126203,33.95290597188019,0.0 -78.89998485130391,33.95293436808552,0.0 -78.89995716089544,33.95295382200567,0.0 -78.8998850724691,33.95295421353701,0.0 -78.89984914680352,33.952963940478114,0.0 -78.89975603678137,33.95296158690802,0.0 -78.89967226080493,33.95295656684333,0.0 -78.89965366997141,33.952956409666015,0.0 -78.89957695445455,33.95295264427812,0.0 -78.89949011910736,33.952960332008026,0.0 -78.89950321986645,33.95299594476019,0.0 -78.89946015519908,33.953020810253335,0.0 -78.89939630317222,33.952958762933946,0.0 -78.89935763108963,33.952955939236666,0.0 -78.89932554930058,33.95295750820219,0.0 -78.89936108354765,33.95302277075475,0.0 -78.89938916563605,33.95304104863321,0.0 -78.89945897791054,33.95306779622955,0.0 -78.89950227851088,33.95312545218365,0.0 -78.89949592404461,33.953158004203566,0.0 -78.89952832158556,33.953208363936845,0.0 -78.89957766105005,33.95324625162919,0.0 -78.89963272768802,33.95326947094224,0.0 -78.89972654362916,33.95327394226028,0.0 -78.89975086035919,33.95327354937796,0.0 -78.89981282890858,33.95326460695553,0.0 -78.89984993200265,33.953268372309005,0.0 -78.8998984083699,33.95329708178289,0.0 -78.89993574723155,33.95331214310187,0.0 -78.89993135467729,33.95335316873423,0.0 -78.89988813278775,33.953351521123466,0.0 -78.89981667302133,33.95335858022218,0.0 -78.89969391194848,33.953349560370924,0.0 -78.8996287268528,33.953364856034554,0.0 -78.89959044761441,33.953336773904645,0.0 -78.89955059944883,33.953335910793385,0.0 -78.8992826425714,33.95331653520077,0.0 -78.89931229368499,33.95334987305787,0.0 -78.89930350843247,33.953369484156035,0.0 -78.8992777000286,33.953389486833096,0.0 -78.89928068099283,33.953451612680794,0.0 -78.89926538532796,33.95346298590414,0.0 -78.89925134431138,33.95346565370457,0.0 -78.89923204756656,33.95346682977819,0.0 -78.89920153341642,33.953450278052415,0.0 -78.89920827944563,33.95340501823516,0.0 -78.89921126017893,33.95336791508401,0.0 -78.89916223506509,33.95334242086676,0.0 -78.89910340314603,33.95333379266338,0.0 -78.89901099901277,33.95332006454853,0.0 -78.89896989620723,33.95333143905946,0.0 -78.89895765861402,33.95333465561611,0.0 -78.89893185142073,33.95331214224379,0.0 -78.89891937937648,33.95330712224048,0.0 -78.8986736215719,33.95332469265927,0.0 -78.8986266357472,33.953353010458784,0.0 -78.89858623745171,33.95332375092677,0.0 -78.89854591910935,33.953321398712056,0.0 -78.89839421286297,33.95329033565922,0.0 -78.89853140641225,33.95323974032822,0.0 -78.89858615868704,33.953245074690145,0.0 -78.89863212566505,33.95325103638002,0.0 -78.89873511970875,33.95321354041097,0.0 -78.8988434481979,33.95323597527352,0.0 -78.89891349618134,33.953248761711606,0.0 -78.89895977615681,33.95324836884809,0.0 -78.89897452310404,33.95325252708574,0.0 -78.89899303523246,33.95319934373157,0.0 -78.89896150214312,33.95317769343143,0.0 -78.89888878637728,33.95317565420174,0.0 -78.8987794388676,33.953113213939595,0.0 -78.89880556025413,33.9530805820458,0.0 -78.89885874341309,33.95303210570108,0.0 -78.89885678281148,33.953024182152646,0.0 -78.89886627402312,33.953023633406026,0.0 -78.8989344399365,33.95300739608736,0.0 -78.89896636449716,33.9529769605274,0.0 -78.8989881718748,33.952969822805656,0.0 -78.89898417077643,33.952951780689716,0.0 -78.89896707034586,33.952948643998084,0.0 -78.89890180792409,33.952940407382236,0.0 -78.89885348746996,33.95293860260538,0.0 -78.89879575438368,33.95293695498178,0.0 -78.89872735269259,33.95293773941933,0.0 -78.89867009108909,33.95293601452516,0.0 -78.8984793212349,33.95293154312268,0.0 -78.89843374586918,33.952934052424816,0.0 -78.89835569709601,33.95292722762967,0.0 -78.89827749120106,33.952937111695874,0.0 -78.89826799867866,33.95293719026828,0.0 -78.8981761446147,33.95292644428788,0.0 -78.89811197840453,33.952924169323204,0.0 -78.89807220881139,33.95292008964447,0.0 -78.89801361263972,33.95291428510459,0.0 -78.89791869909519,33.952869495372546,0.0 -78.89789195030201,33.95287122019433,0.0 -78.89785821957143,33.95284690338881,0.0 -78.89767694078206,33.95277991455342,0.0 -78.89783641343774,33.95282611617359,0.0 -78.89793697556645,33.952852550784954,0.0 -78.89805691302139,33.95287820222598,0.0 -78.89809432911001,33.95287420119449,0.0 -78.89813143220887,33.9528797712836,0.0 -78.89820979531532,33.95289138032978,0.0 -78.89826039068032,33.95289561586944,0.0 -78.89830847539814,33.952899538394085,0.0 -78.89831953560358,33.95290048006157,0.0 -78.89833090882132,33.952901420419614,0.0 -78.89839813443285,33.952904166870674,0.0 -78.89849030279449,33.952904558543764,0.0 -78.89867315042467,33.952908402604045,0.0 -78.89873629508392,33.95290871567147,0.0 -78.89880273618651,33.95290557905194,0.0 -78.89893239921209,33.95289977467477,0.0 -78.89894008700254,33.95289961752013,0.0 -78.89896832620187,33.952896322396825,0.0 -78.89898581821345,33.9528944404058,0.0 -78.89906990716872,33.952885027828714,0.0 -78.89911203020932,33.95287279024174,0.0 -78.89905908267852,33.95287286877669,0.0 -78.89904111917903,33.95287263301929,0.0 -78.89896887490121,33.95287302586001,0.0 -78.89890753366554,33.95287333881985,0.0 -78.89884831017048,33.9528721626786,0.0 -78.89877732055844,33.952871456701295,0.0 -78.89870719402785,33.952873182795095,0.0 -78.89867338476895,33.95287098512766,0.0 -78.898578941498,33.95286878871746,0.0 -78.89847610451648,33.95286447455197,0.0 -78.8984277840652,33.952863925755516,0.0 -78.89838573957736,33.95286424004172,0.0 -78.89835397079439,33.95286321977566,0.0 -78.89830949423097,33.95285945441537,0.0 -78.89828713939069,33.952858669899484,0.0 -78.898233093032,33.95285412003417,0.0 -78.8981757515297,33.95284878697913,0.0 -78.89807824883347,33.952836000516506,0.0 -78.8980644435316,33.952827371041614,0.0 -78.89797894135987,33.95280383868802,0.0 -78.89788222312629,33.95277732549932,0.0 -78.89785076864469,33.952767598499676,0.0 -78.89780574199773,33.952755362146604,0.0 -78.89770659168722,33.952724299137124,0.0 -78.89770957243134,33.952692294558105,0.0 -78.89775899167815,33.95268358786702,0.0 -78.89778691647075,33.95264436698849,0.0 -78.89781052726276,33.95263393412043,0.0 -78.897852650358,33.952644915800306,0.0 -78.89781758652907,33.952684529575826,0.0 -78.89807722848097,33.952786738318096,0.0 -78.89815755344465,33.95278313022707,0.0 -78.89819661713051,33.95279034789184,0.0 -78.89826815551497,33.95279897610698,0.0 -78.89828957000853,33.952799682041494,0.0 -78.89836840451618,33.95277638426253,0.0 -78.89836832591742,33.952768619186436,0.0 -78.89837805283356,33.95275230323664,0.0 -78.8984014278168,33.95271316093523,0.0 -78.8984779088986,33.95271527874959,0.0 -78.89855768395816,33.95277960099357,0.0 -78.89855948739516,33.95278595423908,0.0 -78.89858294236144,33.95278642574312,0.0 -78.89867393463119,33.95278501398996,0.0 -78.89874727776588,33.95280156444381,0.0 -78.89882124819806,33.95280242758508,0.0 -78.89884964321473,33.95278454265829,0.0 -78.89887254807658,33.95276744222342,0.0 -78.89892000539244,33.95274234099214,0.0 -78.89897287557535,33.95270916036714,0.0 -78.89898864142893,33.95270437613023,0.0 -78.8989837000058,33.95269566939219,0.0 -78.8989957802741,33.95262209043031,0.0 -78.89907477061308,33.95258992875713,0.0 -78.89914207350891,33.952598322536566,0.0 -78.89921706277482,33.95255894453884,0.0 -78.89929542713107,33.95254466912617,0.0 -78.89937222127315,33.95256733839477,0.0 -78.89942030593431,33.95254678698291,0.0 -78.89940093046539,33.95248630869481,0.0 -78.89947231175013,33.95252121427229,0.0 -78.89954761675833,33.95252937231678,0.0 -78.89957099184112,33.95253266748488,0.0 -78.89960040717612,33.95254984654554,0.0 -78.89966849464446,33.95259157684743,0.0 -78.89971446160558,33.95259000789424,0.0 -78.8997673318838,33.952597695745055,0.0 -78.89979494253481,33.95263558341886,0.0 -78.8998140822165,33.9526765291815,0.0 -78.89976552732485,33.95267237222402,0.0 -78.89971579514784,33.95271669165516,0.0 -78.89966512271093,33.952798349980796,0.0 -78.89973477911595,33.95281709675963,0.0 -78.8998056901796,33.95283168793388,0.0 -78.89985965794612,33.95283121649685,0.0 -78.89990476185325,33.9528391400825,0.0 -78.90001834471914,33.952844787508525,0.0 -78.90006729251387,33.95284933736918,0.0 -78.9002077812855,33.952832315617094,0.0 -78.9002292743102,33.952811607020955,0.0 -78.90028136004001,33.95279631003723,0.0 -78.90031932486609,33.95278509399533,0.0 -78.90035023185658,33.95277466113408,0.0 -78.90036278248498,33.95278125013051,0.0 -78.9003752545328,33.95278783912696,0.0 -78.90039776653703,33.952789956894385,0.0 -78.9006214824338,33.95273520472673,0.0 -78.90070682729642,33.95269465064897,0.0 -78.90082292070076,33.952652997779005,0.0 -78.90076863844129,33.95257894858825,0.0 -78.90076259819972,33.95256953593355,0.0 -78.90075812692635,33.95255047488907,0.0 -78.90069851169297,33.952485995504,0.0 -78.90066933081212,33.95247838625455,0.0 -78.90066250594305,33.952411318993455,0.0 -78.90065889776211,33.952399552851155,0.0 -78.90060242047305,33.9523193848464,0.0 -78.90062132423463,33.95228275319406,0.0 -78.90066572220037,33.95227883075005,0.0 -78.90071168916141,33.95227702605534,0.0 -78.90076526528944,33.9522563174879,0.0 -78.90078628688214,33.95225757348657,0.0 -78.90080087661948,33.95224031588418,0.0 -78.90082307552683,33.95220533049913,0.0 -78.90086621876323,33.952174739099235,0.0 -78.90091085254736,33.95220439022803,0.0 -78.90096482028521,33.95219105514321,0.0 -78.90098388124879,33.9521722285516,0.0 -78.90099533432922,33.952161089757944,0.0 -78.90102576847767,33.952128693611925,0.0 -78.9010656166129,33.9521157501082,0.0 -78.90110617199869,33.952114338311915,0.0 -78.90116547268025,33.95207809828923,0.0 -78.90113864643021,33.95199855895608,0.0 -78.90113495963266,33.951970947030595,0.0 -78.90116876750956,33.95194121739034,0.0 -78.90119661389352,33.95197573264512,0.0 -78.90125050444797,33.952000519641416,0.0 -78.90128321360949,33.952015423795544,0.0 -78.9013647146928,33.952024993677945,0.0 -78.9014001702261,33.952032760094355,0.0 -78.90146268893514,33.95206515632196,0.0 -78.90153101073223,33.95206209697648,0.0 -78.90156372104026,33.95200522689726,0.0 -78.90166200820646,33.952006560235255,0.0 -78.90171228933475,33.95204805608827,0.0 -78.90175904088196,33.952086256790516,0.0 -78.90182987329352,33.9520690005477,0.0 -78.90185850539746,33.95206633276068,0.0 -78.9019023533717,33.952094023301775,0.0 -78.90194008395224,33.952164620168034,0.0 -78.90185591640972,33.952171916305126,0.0 -78.90185034768085,33.95217560304112,0.0 -78.90185575926614,33.95217960279976,0.0 -78.90193686891564,33.95225953508223,0.0 -78.90195216465878,33.9522822828768,0.0 -78.90201915322537,33.952287460089,0.0 -78.902067316487,33.95227506665707,0.0 -78.90215046509853,33.95226604567427,0.0 -78.90223792798203,33.95234707678077,0.0 -78.90224694776555,33.95237068764686,0.0 -78.9022628721718,33.95240206359428,0.0 -78.90227722758056,33.952430224283034,0.0 -78.90226153901655,33.95244355940128,0.0 -78.90224506593744,33.952448030624446,0.0 -78.90219070661784,33.95246630843012,0.0 -78.90217509670512,33.95251094090133,0.0 -78.9022460079081,33.952587343594224,0.0 -78.90225549913787,33.95259479566495,0.0 -78.90227424715356,33.952604286910905,0.0 -78.90230978129003,33.952622407633726,0.0 -78.90229872117958,33.95266358910973,0.0 -78.90229511174603,33.95267692423854,0.0 -78.90229770100531,33.95269120103048,0.0 -78.90231990001881,33.952702888607824,0.0 -78.90231848823609,33.95272359722041,0.0 -78.90230954582144,33.95274336416853,0.0 -78.90229134658456,33.95274493314586,0.0 -78.90227079516964,33.95274556046338,0.0 -78.90225463639808,33.95274359986288,0.0 -78.90222067128354,33.952739441608706,0.0 -78.90219337377603,33.952758659786305,0.0 -78.90223628145195,33.952808079177956,0.0 -78.90226083395503,33.95282157018269,0.0 -78.9022688347645,33.95282439385338,0.0 -78.90232209666007,33.95284329908786,0.0 -78.90231354581267,33.95285177007167,0.0 -78.90228224858443,33.95288251995246,0.0 -78.90226679579071,33.952908484287,0.0 -78.90208998860612,33.95300433939914,0.0 -78.90208143783136,33.95304489354234,0.0 -78.90203249005691,33.95304913030556,0.0 -78.90193561481051,33.95308670354786,0.0 -78.9019323995763,33.9530943127689,0.0 -78.90185387934935,33.95309996002899,0.0 -78.90183348376802,33.9530926651101,0.0 -78.90176312283074,33.953105372846295,0.0 -78.90173425628555,33.953103568086526,0.0 -78.90165918702911,33.95309933252628,0.0 -78.90165534327585,33.95316192853928,0.0 -78.9016591087276,33.953222172378624,0.0 -78.90168240658302,33.9532448415992,0.0 -78.90166373723049,33.95327166900853,0.0 -78.90166318860238,33.95332697012295,0.0 -78.90166075659602,33.95335324879153,0.0 -78.90164922634686,33.95340925581244,0.0 -78.90167534659255,33.953450124308056,0.0 -78.9016988016538,33.95349256048487,0.0 -78.90166962087451,33.95352934928928,0.0 -78.90164757915049,33.953574140226856,0.0 -78.9016387938811,33.953586769435496,0.0 -78.90162294817716,33.9536090470292,0.0 -78.90160082787715,33.95365579855331,0.0 -78.9016027884956,33.95367140728653,0.0 -78.9016107121801,33.95373847585674,0.0 -78.901605142296,33.953810014343425,0.0 -78.90160388765227,33.953820838823425,0.0 -78.90157949245715,33.95387190442216,0.0 -78.90157321659271,33.9539144990447,0.0 -78.90157094172342,33.953930187664554,0.0 -78.90156945133728,33.95394062055096,0.0 -78.90158459127886,33.95398541021027,0.0 -78.90156137214474,33.9540245525099,0.0 -78.90151352321331,33.954039692336764,0.0 -78.90143382675812,33.95398289943263,0.0 -78.9014350027764,33.95395230799612,0.0 -78.90143594437696,33.953927912641774,0.0 -78.90143641452339,33.95391614650321,0.0 -78.90143476692766,33.95390516354976,0.0 -78.9014323361337,33.9538886131584,0.0 -78.90141852951598,33.953876847007706,0.0 -78.90137891707018,33.95386625692545,0.0</coordinates>
                    </LinearRing>
                </outerBoundaryIs>
            </Polygon>
        </Placemark>
        <Placemark id="4841">
            <name>Flood_526</name>
            <styleUrl>#4846</styleUrl>
            <Polygon id="4840">
                <outerBoundaryIs>
                    <LinearRing id="4844">
                        <coordinates>-78.83154063304058,33.95423040406668,0.0 -78.83147842853887,33.95418114174797,0.0 -78.83144352299351,33.95415674632764,0.0 -78.83135809922604,33.954096582221126,0.0 -78.83135880510048,33.95408622789931,0.0 -78.83134641163946,33.95408387439571,0.0 -78.83132884109077,33.95409603213141,0.0 -78.83128444323853,33.95412701648058,0.0 -78.83124663419946,33.954116819287975,0.0 -78.83122114006619,33.954115486013364,0.0 -78.83121062853324,33.954093992862,0.0 -78.83115015008107,33.954018767467204,0.0 -78.8310889659708,33.95400943202362,0.0 -78.83105170568105,33.95399813732028,0.0 -78.8310283304048,33.953946365688516,0.0 -78.8310273886685,33.953925812894646,0.0 -78.83105468602967,33.95387733645784,0.0 -78.83109563301512,33.95387866974561,0.0 -78.83108551433463,33.9538443915077,0.0 -78.83108041438173,33.95382399587183,0.0 -78.83105672488011,33.953797012534785,0.0 -78.83104488008286,33.953771596893375,0.0 -78.83104480277157,33.953761242570835,0.0 -78.8310428408293,33.953748534753565,0.0 -78.83102440688404,33.953678407974124,0.0 -78.83100848375008,33.95365056156498,0.0 -78.83099028438554,33.95361863550371,0.0 -78.83099271636071,33.95359533762545,0.0 -78.83100236460959,33.95356333300701,0.0 -78.83100087400364,33.95351305180826,0.0 -78.83098777456324,33.95349414788989,0.0 -78.8309671443015,33.95342613885934,0.0 -78.83093184444763,33.953377269465655,0.0 -78.83088627026429,33.95334604929791,0.0 -78.83087050303712,33.953332479699846,0.0 -78.83084657918053,33.95332526203827,0.0 -78.83077260861432,33.953290199247775,0.0 -78.83067432003706,33.953262744361936,0.0 -78.83065321988231,33.953266588251815,0.0 -78.83059713441195,33.9532770211071,0.0 -78.83057501400799,33.953277648424546,0.0 -78.83051414286501,33.953257095579076,0.0 -78.83047711827693,33.95323583814678,0.0 -78.83043256307305,33.953218188873755,0.0 -78.83037883100876,33.95320830467988,0.0 -78.83031819545988,33.95315017976184,0.0 -78.83014193690038,33.95317237867062,0.0 -78.83015825265092,33.95312711748607,0.0 -78.83026038339908,33.9530485184949,0.0 -78.83026893273339,33.952991726889394,0.0 -78.83028815030617,33.95283994165193,0.0 -78.83024791022667,33.952757578520625,0.0 -78.83019315782543,33.952722278693535,0.0 -78.83013738513345,33.952673174848265,0.0 -78.83009698797588,33.95261206780756,0.0 -78.83008906570007,33.95259849821593,0.0 -78.83008404437294,33.95258979146516,0.0 -78.83008592764679,33.95257998589969,0.0 -78.83006310103896,33.9525069568657,0.0 -78.8300024654293,33.9524336920564,0.0 -78.82998112816611,33.95242302339214,0.0 -78.82994582967481,33.95238811648518,0.0 -78.82996002764163,33.952332736718354,0.0 -78.82992817989731,33.952235155122715,0.0 -78.8299528894389,33.95221162283099,0.0 -78.82997806923134,33.95220785752582,0.0 -78.83003517342804,33.95214596738218,0.0 -78.83010961519612,33.95210870707844,0.0 -78.83016954442502,33.95206297575787,0.0 -78.83021111853307,33.952009870928116,0.0 -78.83025237849445,33.95200147723143,0.0 -78.83033458540864,33.95198563149712,0.0 -78.83038047372604,33.95196837520643,0.0 -78.8304100461878,33.95196970848581,0.0 -78.83043585343435,33.951996535974224,0.0 -78.83045585618535,33.952019048065054,0.0 -78.83046479883193,33.95206689719703,0.0 -78.83046205257958,33.952101569637776,0.0 -78.83046158258892,33.95214824135997,0.0 -78.83047923190735,33.95218432565271,0.0 -78.83046895630896,33.95221240778186,0.0 -78.83049727431113,33.95226716024904,0.0 -78.83050135265918,33.95227249326571,0.0 -78.83053374875594,33.95226778761731,0.0 -78.8305857558961,33.95225625593894,0.0 -78.83060050286525,33.95226425809073,0.0 -78.83067674814966,33.95225100158638,0.0 -78.83070004592011,33.95224229355082,0.0 -78.83072726499601,33.95226919962095,0.0 -78.83075424841743,33.95231838202167,0.0 -78.83074828691703,33.95235399480897,0.0 -78.83079456845914,33.952419337356176,0.0 -78.83081425687134,33.952437613944404,0.0 -78.83081229634851,33.952453066845685,0.0 -78.83079386264522,33.95244514458109,0.0 -78.83070906645257,33.95244765516172,0.0 -78.83069479100938,33.95245063597879,0.0 -78.83063125350073,33.952464205507916,0.0 -78.83059579794192,33.95245306665671,0.0 -78.83053916242646,33.95246844223927,0.0 -78.83049562765616,33.95250130859703,0.0 -78.83048574356003,33.95250625000743,0.0 -78.83048433176228,33.952514330725954,0.0 -78.83049452900161,33.95254288304778,0.0 -78.8305219053468,33.95259747835243,0.0 -78.8305463008371,33.9526431311659,0.0 -78.8305656763124,33.95268070587457,0.0 -78.83058913141441,33.95271569004166,0.0 -78.83060670219926,33.95276385350376,0.0 -78.83062309682586,33.95279405340708,0.0 -78.83063062635213,33.952846766685525,0.0 -78.830647726895,33.95287735949312,0.0 -78.83068333968176,33.95290575467522,0.0 -78.8306979295063,33.95291799232883,0.0 -78.83069526305694,33.95293038581924,0.0 -78.8307477406342,33.95298662872132,0.0 -78.83073503296525,33.95301353475663,0.0 -78.83077888229307,33.953041066867165,0.0 -78.83082453504389,33.953068836031214,0.0 -78.83087638518342,33.95309864437069,0.0 -78.83093372680881,33.95313347271456,0.0 -78.83097412378686,33.95314900423298,0.0 -78.83101044230592,33.9531307263835,0.0 -78.83107319542216,33.953143748575975,0.0 -78.83110833787723,33.953131589546025,0.0 -78.83116018779072,33.953103428872076,0.0 -78.83117360010979,33.95308805456142,0.0 -78.83121752779343,33.95305801187193,0.0 -78.83125769014187,33.95302271212761,0.0 -78.83127431905679,33.953016201727465,0.0 -78.83129173382937,33.95302326222211,0.0 -78.83137205765266,33.953064679580784,0.0 -78.8314219472615,33.9531080575026,0.0 -78.83144853896718,33.95312594250213,0.0 -78.83146901187877,33.953145473763016,0.0 -78.83151137087022,33.95319206824988,0.0 -78.83153317717236,33.953248076691956,0.0 -78.83154345298567,33.95327513859824,0.0 -78.83156392724852,33.95330541708507,0.0 -78.83162126763595,33.95335891490259,0.0 -78.83163507431206,33.95338079965081,0.0 -78.83166064576646,33.95339499790281,0.0 -78.83172292864431,33.95339138979021,0.0 -78.83175877589352,33.953427942962094,0.0 -78.83176364008725,33.95344386735341,0.0 -78.83175822722713,33.95345045634389,0.0 -78.83169657176221,33.95347430292691,0.0 -78.83165758683832,33.953516504680664,0.0 -78.831650919315,33.953524426923344,0.0 -78.8315566334955,33.95359745585501,0.0 -78.8315497302076,33.953599417748286,0.0 -78.8315419638581,33.953604986496956,0.0 -78.83150980352664,33.95361557653423,0.0 -78.83148195725808,33.953624753431434,0.0 -78.83145677748037,33.953632126903074,0.0 -78.83140524050977,33.953642325329895,0.0 -78.83135676432477,33.95367197642198,0.0 -78.83134970389303,33.95367832966886,0.0 -78.83134797907364,33.95368405558417,0.0 -78.83134790079238,33.95376092850414,0.0 -78.83134429265984,33.95376641998519,0.0 -78.83134499860444,33.953774107801706,0.0 -78.8313541755032,33.95377614697968,0.0 -78.83139457388238,33.95381536797161,0.0 -78.83142234174173,33.95385027486999,0.0 -78.83145058105003,33.95387647371305,0.0 -78.83149035066504,33.95388478889864,0.0 -78.83154910402632,33.95389600634899,0.0 -78.8316490385976,33.953855216480164,0.0 -78.83174709034226,33.95393946297509,0.0 -78.83177760445172,33.95393899282599,0.0 -78.83184663347636,33.953938757141884,0.0 -78.83194413609404,33.95392691248703,0.0 -78.83201496860465,33.953943149946916,0.0 -78.83202751926649,33.95395577919213,0.0 -78.83204234479494,33.95395852429185,0.0 -78.83207074119902,33.95396801555952,0.0 -78.83214125929398,33.953960093370554,0.0 -78.83215279096042,33.95395507338054,0.0 -78.83223986083321,33.95397523334265,0.0 -78.83228967190533,33.95403037741885,0.0 -78.83227225736549,33.95408332641653,0.0 -78.83233618781412,33.95407995273702,0.0 -78.83238819365431,33.95407140319615,0.0 -78.83236536749905,33.95411415371879,0.0 -78.83235807268558,33.95413345052304,0.0 -78.83233477620306,33.954136352752165,0.0 -78.83225884386356,33.95413148854084,0.0 -78.83226598314606,33.95419494904273,0.0 -78.83225853117592,33.95421534335792,0.0 -78.83223343000893,33.95423048322621,0.0 -78.8321458888658,33.95426507570452,0.0 -78.83213372981842,33.954258015214926,0.0 -78.8321199245583,33.954263428106714,0.0 -78.83206219151808,33.954273860961486,0.0 -78.83203803195869,33.954276448866985,0.0 -78.83203120723167,33.95427331218007,0.0 -78.83200100723295,33.95421926563132,0.0 -78.83193699815482,33.9542099301858,0.0 -78.83185706600194,33.954187809640544,0.0 -78.83183502417492,33.954187418028056,0.0 -78.83181941442413,33.954254955542375,0.0 -78.83177956631559,33.954268919306685,0.0 -78.83174450372462,33.954274175019286,0.0 -78.83173736470515,33.954278644947806,0.0 -78.8317248926716,33.95427833192412,0.0 -78.83165782549456,33.95426680014445,0.0 -78.83163397892002,33.95426233019007,0.0 -78.83154063304058,33.95423040406668,0.0</coordinates>
                    </LinearRing>
                </outerBoundaryIs>
            </Polygon>
        </Placemark>
        <Placemark id="4850">
            <name>Flood_527</name>
            <styleUrl>#4855</styleUrl>
            <Polygon id="4849">
                <outerBoundaryIs>
                    <LinearRing id="4853">
                        <coordinates>-78.82168401152487,33.982126680013,0.0 -78.82158988117271,33.98208730186242,0.0 -78.82151316554864,33.98204666904321,0.0 -78.82163380808096,33.98187762745711,0.0 -78.82173742933362,33.981842484858824,0.0 -78.82178567115963,33.98183973978318,0.0 -78.82183712814535,33.98181518723869,0.0 -78.82187878100859,33.98181401115717,0.0 -78.82193619972405,33.981812363595246,0.0 -78.82200099311997,33.9817880467964,0.0 -78.8220853961014,33.981724351875684,0.0 -78.82235248841539,33.98173454910667,0.0 -78.82236676523503,33.98175031633912,0.0 -78.82238112063534,33.98176616084266,0.0 -78.82243210758678,33.98177533908794,0.0 -78.82250011668518,33.98186154612388,0.0 -78.82252874750111,33.98187017560781,0.0 -78.822659353661,33.981929320756386,0.0 -78.82263323241112,33.981977091301026,0.0 -78.82262680063283,33.98198446479369,0.0 -78.82262476016767,33.981986112369725,0.0 -78.822564282167,33.982015293318334,0.0 -78.82252498280049,33.982019528811264,0.0 -78.8224916451214,33.98203647212378,0.0 -78.82242520541915,33.982049492938515,0.0 -78.8224008101349,33.98205216074906,0.0 -78.82235900143452,33.98205671056456,0.0 -78.82232613387451,33.982060475884275,0.0 -78.82232181981034,33.982060867477344,0.0 -78.82226942121318,33.98209616594017,0.0 -78.82222588636947,33.982102363331755,0.0 -78.82219199849557,33.98208714615981,0.0 -78.82217183996994,33.98208094875244,0.0 -78.82206617820759,33.98210683453725,0.0 -78.82199887540548,33.98211373784011,0.0 -78.82192867031733,33.98210879509314,0.0 -78.82187078139192,33.982101343003706,0.0 -78.8218299130143,33.98210024548233,0.0 -78.82178771138734,33.98209883363755,0.0 -78.82173005707688,33.98213593683762,0.0 -78.82168401152487,33.982126680013,0.0</coordinates>
                    </LinearRing>
                </outerBoundaryIs>
            </Polygon>
        </Placemark>
        <Placemark id="4859">
            <name>Flood_528</name>
            <styleUrl>#4864</styleUrl>
            <Polygon id="4858">
                <outerBoundaryIs>
                    <LinearRing id="4862">
                        <coordinates>-78.82326359769907,33.984128595857634,0.0 -78.82323418236508,33.98411384886323,0.0 -78.82316632926089,33.98406144989215,0.0 -78.82310765584366,33.984053997805134,0.0 -78.82306765052756,33.98404913364811,0.0 -78.82300340677355,33.98396967277504,0.0 -78.82297179367697,33.983923155580584,0.0 -78.82291021671662,33.983916645152085,0.0 -78.8228717805983,33.98396284800899,0.0 -78.82285420969434,33.98388456323724,0.0 -78.82277639515793,33.983819377864656,0.0 -78.82271983957887,33.98383537951392,0.0 -78.8226828152891,33.98388158237124,0.0 -78.82268179507365,33.98388660237173,0.0 -78.8226756775992,33.98388950461958,0.0 -78.82262704282574,33.98388064070018,0.0 -78.82257715468704,33.98386997204233,0.0 -78.82256938833447,33.98387318861298,0.0 -78.8224787889102,33.98384424337241,0.0 -78.82245101993865,33.98385459769091,0.0 -78.82242285942412,33.983877032490874,0.0 -78.8224218406474,33.98391350836807,0.0 -78.82237854013673,33.983895230475106,0.0 -78.82234167280146,33.98389099496464,0.0 -78.82231272768664,33.98388762253437,0.0 -78.82229241201674,33.98388526903644,0.0 -78.8222796256864,33.98388895578092,0.0 -78.82226354545077,33.98387420878897,0.0 -78.82225138633837,33.98384965622893,0.0 -78.82225028859325,33.9837915300431,0.0 -78.82221020462272,33.98376870363446,0.0 -78.82218439738418,33.98374046432438,0.0 -78.8221682385507,33.9837214818294,0.0 -78.82216400169858,33.98370751933771,0.0 -78.82214627381622,33.983674024286366,0.0 -78.82211811300549,33.98362429313872,0.0 -78.82211489770734,33.98361236981785,0.0 -78.82209716969456,33.983547105876035,0.0 -78.82209771842467,33.98354145722946,0.0 -78.82209654100727,33.98353643722851,0.0 -78.82210203215185,33.983459015539005,0.0 -78.82210697350317,33.98344732796225,0.0 -78.82209293247914,33.983444660142446,0.0 -78.82206594898705,33.98337594519365,0.0 -78.82207088989263,33.98325569437212,0.0 -78.82205888785738,33.983210824757215,0.0 -78.8220696349398,33.98318619493113,0.0 -78.82209991321356,33.98316776120203,0.0 -78.82213772216025,33.98316109363329,0.0 -78.82214689891704,33.98312995208148,0.0 -78.822157881696,33.9830944178657,0.0 -78.8221869824589,33.98304813642597,0.0 -78.82219247388875,33.9830402141772,0.0 -78.82220282805274,33.983011583280906,0.0 -78.82223067415288,33.98296647924268,0.0 -78.82226393318632,33.98293384728137,0.0 -78.82225412745557,33.98288442915099,0.0 -78.82224243974024,33.98283908936147,0.0 -78.82223969462035,33.9828284992941,0.0 -78.82225428427796,33.98280190756948,0.0 -78.82224126338895,33.98277468850205,0.0 -78.82220957308783,33.9827447243425,0.0 -78.82219827708361,33.98272832977461,0.0 -78.82219906153794,33.982718524206064,0.0 -78.82219584492853,33.982706209291,0.0 -78.82221137622649,33.98267593081945,0.0 -78.82222910386875,33.98265082820091,0.0 -78.82223506544595,33.98263663127894,0.0 -78.82224275299266,33.982578426514344,0.0 -78.82225389167066,33.9825545026057,0.0 -78.82223310427754,33.98249363132722,0.0 -78.82222926033874,33.98248241392336,0.0 -78.82227922701361,33.98248186517974,0.0 -78.82231523256573,33.982481472284505,0.0 -78.82234692283762,33.98250430000188,0.0 -78.82237445619349,33.98252438001109,0.0 -78.82241257827754,33.98254814807959,0.0 -78.82241579487415,33.98255732631274,0.0 -78.82246050600314,33.98259960669923,0.0 -78.8224937653411,33.98264118116592,0.0 -78.82249839376507,33.98265012234733,0.0 -78.82250866951922,33.98266306590999,0.0 -78.82256028516885,33.98268589232213,0.0 -78.82260648663137,33.98270981755382,0.0 -78.82262272403356,33.98272589779968,0.0 -78.82262539210565,33.98279100457595,0.0 -78.82265198379673,33.98280888956226,0.0 -78.82270226491069,33.982837128878245,0.0 -78.82274579981959,33.98284701172805,0.0 -78.82279678682065,33.98286866204777,0.0 -78.82280125805096,33.982869603708146,0.0 -78.82283765508659,33.98284261908512,0.0 -78.82289993666203,33.98285132584719,0.0 -78.82296786821753,33.98287156433654,0.0 -78.82299838100235,33.98287242742223,0.0 -78.82303673862651,33.9828470903762,0.0 -78.82309784540945,33.982852110390944,0.0 -78.82311400407507,33.98282998991217,0.0 -78.82319746565085,33.982827636437925,0.0 -78.82323911862738,33.982854463917285,0.0 -78.82329575285966,33.9828559543454,0.0 -78.82333889618155,33.982867250338884,0.0 -78.82339474587604,33.98285815070041,0.0 -78.82343796777616,33.98286889793831,0.0 -78.82344079157681,33.98290419641393,0.0 -78.82344793080229,33.9829516539527,0.0 -78.82340792564949,33.982987109579945,0.0 -78.82348903397975,33.983043352463916,0.0 -78.82358183103926,33.98307268930004,0.0 -78.82348660230656,33.98313936504868,0.0 -78.82343451792536,33.98314862184984,0.0 -78.8234290268145,33.98323490744619,0.0 -78.82348307330622,33.9832794627461,0.0 -78.82354025775714,33.983319311059496,0.0 -78.82357971320535,33.983371945767196,0.0 -78.82359657931043,33.9834027730009,0.0 -78.82360512892379,33.98341814732732,0.0 -78.82361297261689,33.98343203123868,0.0 -78.82357759580954,33.983457132543194,0.0 -78.82354182729671,33.983454466028434,0.0 -78.82354959247493,33.983484431491156,0.0 -78.82352331533477,33.98352263220958,0.0 -78.82353061039692,33.98356656016257,0.0 -78.82352708100315,33.98361009520955,0.0 -78.82347468096305,33.98361244869185,0.0 -78.82344189331114,33.9836203709345,0.0 -78.82344291234793,33.98364751141764,0.0 -78.82345867980321,33.983719207191875,0.0 -78.82343569638077,33.98372987583405,0.0 -78.82341514512486,33.9837656444796,0.0 -78.82337215895443,33.98375183914148,0.0 -78.82331450453668,33.98376242919562,0.0 -78.82330736700857,33.98381004258318,0.0 -78.82332070227876,33.98385208852856,0.0 -78.82332642833897,33.98389287718023,0.0 -78.82334243002167,33.983914448910426,0.0 -78.82336768844202,33.98392699957195,0.0 -78.82341734213955,33.983935393316614,0.0 -78.8234234611054,33.983977046356515,0.0 -78.82339992769104,33.984005128494076,0.0 -78.82338651554055,33.98405886070169,0.0 -78.82339090827888,33.98408152994065,0.0 -78.82336266926868,33.98412483055002,0.0 -78.82333552886926,33.98411769279254,0.0 -78.82326359769907,33.984128595857634,0.0</coordinates>
                    </LinearRing>
                </outerBoundaryIs>
            </Polygon>
        </Placemark>
        <Placemark id="4868">
            <name>Flood_529</name>
            <styleUrl>#4873</styleUrl>
            <Polygon id="4867">
                <outerBoundaryIs>
                    <LinearRing id="4871">
                        <coordinates>-78.81932975641749,33.98469612233718,0.0 -78.81928975103123,33.98467439343924,0.0 -78.81922111507224,33.98470208397664,0.0 -78.81918981653246,33.98471275130914,0.0 -78.81912729765664,33.98464380060761,0.0 -78.81909356814812,33.984603167798795,0.0 -78.81904736684551,33.984617523185385,0.0 -78.81901591112586,33.984623642001246,0.0 -78.81902485347148,33.98459799062287,0.0 -78.81904462021882,33.98455986847976,0.0 -78.8190119096583,33.984524491414376,0.0 -78.81909537257926,33.98453147202179,0.0 -78.81915851710136,33.98450982172462,0.0 -78.81916369445958,33.98456198625461,0.0 -78.81919318838422,33.98457892958229,0.0 -78.81922699766594,33.98459155882695,0.0 -78.81921828952541,33.9845629279248,0.0 -78.81922558548086,33.984506057719315,0.0 -78.8192231533103,33.98448056350047,0.0 -78.81924731268913,33.984438910462764,0.0 -78.81919726726854,33.98439929789088,0.0 -78.81919499233803,33.9843927874744,0.0 -78.81919781600489,33.98439521823988,0.0 -78.81924919566308,33.98435811503382,0.0 -78.81926158893182,33.98431630614212,0.0 -78.8192463703629,33.98427810541154,0.0 -78.819194128595,33.98423268703037,0.0 -78.81930198530551,33.98419283874808,0.0 -78.81932410560262,33.98417040394513,0.0 -78.81935399228634,33.984152990454575,0.0 -78.8194042729432,33.984071410537744,0.0 -78.81947479199098,33.98399014494844,0.0 -78.81948569499477,33.98398277145594,0.0 -78.81950561900797,33.9839696720472,0.0 -78.81952083610314,33.98396849464862,0.0 -78.81957174572669,33.98396441631766,0.0 -78.8195894732954,33.98392213594294,0.0 -78.81958915892204,33.983909742447175,0.0 -78.81958994338405,33.98390189746797,0.0 -78.81960790661763,33.9838412619372,0.0 -78.81961026007895,33.98383585034267,0.0 -78.81961402404757,33.98382769235076,0.0 -78.81961959401329,33.983809180034335,0.0 -78.81964312608454,33.98377364581927,0.0 -78.81965277433606,33.98374587669009,0.0 -78.81969913256201,33.98367418092343,0.0 -78.81958774624302,33.983705401035934,0.0 -78.81956288085453,33.983724304942314,0.0 -78.81945070862943,33.98373105107673,0.0 -78.81941266522367,33.98373089390718,0.0 -78.81937587508902,33.983709950816746,0.0 -78.81931406370437,33.983705400977456,0.0 -78.81928551154822,33.98371567671558,0.0 -78.81921436486739,33.98372524652749,0.0 -78.81920220586512,33.98372752143799,0.0 -78.81917592859843,33.98373442475222,0.0 -78.81917279063266,33.98373748416262,0.0 -78.81917600732282,33.9837689387325,0.0 -78.81917020166188,33.983798432710444,0.0 -78.8191659662658,33.98381976869602,0.0 -78.8191663592334,33.98383545734525,0.0 -78.81916557485856,33.98386416682638,0.0 -78.81914164989442,33.98390181879333,0.0 -78.81911105726762,33.98391233027345,0.0 -78.81904791272993,33.98393045098397,0.0 -78.81901120133782,33.98394833464806,0.0 -78.81897064728491,33.983947551451344,0.0 -78.81896288236948,33.98398120235135,0.0 -78.81896374563098,33.98402583622442,0.0 -78.81891032664075,33.984022305317765,0.0 -78.81887463545297,33.98403258236441,0.0 -78.81881109792117,33.98402865986158,0.0 -78.81872387080969,33.98397696679861,0.0 -78.8187143008853,33.98394402050227,0.0 -78.81870559396539,33.983894210774444,0.0 -78.81869555262399,33.983876953127265,0.0 -78.81867147137619,33.98381114042388,0.0 -78.81862252328118,33.98372854155456,0.0 -78.81867845144599,33.983693634682155,0.0 -78.81872081020053,33.98368743728839,0.0 -78.81878858314735,33.98367449505135,0.0 -78.81881925440096,33.983675043813555,0.0 -78.81884686614626,33.98364923658753,0.0 -78.81883823665626,33.98363747042612,0.0 -78.81882160763328,33.98361487845341,0.0 -78.81873037949694,33.98357024587035,0.0 -78.81872379051669,33.983567578051996,0.0 -78.81872167275777,33.98356365556184,0.0 -78.81872394765765,33.98356279379334,0.0 -78.81876701229433,33.98354890858191,0.0 -78.81877775807719,33.98352718100349,0.0 -78.81878003295762,33.98352168951834,0.0 -78.81881909645791,33.983487960044286,0.0 -78.81882403784026,33.983483880394225,0.0 -78.81872724093895,33.983431717153266,0.0 -78.81869398175233,33.98342701015829,0.0 -78.81866605676842,33.98339869226464,0.0 -78.8186483288619,33.98336009993856,0.0 -78.81865256423848,33.9833341355459,0.0 -78.8186381315557,33.983315701805466,0.0 -78.81864511181449,33.98324337738283,0.0 -78.8186473866763,33.98323341596203,0.0 -78.81865381972428,33.98321670838364,0.0 -78.81863373848486,33.98321419772377,0.0 -78.81858431915705,33.98319144989162,0.0 -78.81857349452771,33.983149639684676,0.0 -78.81860777383457,33.98312665612899,0.0 -78.81863601301238,33.98312438122234,0.0 -78.818709041506,33.983069550202075,0.0 -78.81872676916906,33.983049940376915,0.0 -78.81873728055557,33.983036605223866,0.0 -78.81877046123975,33.98305990180812,0.0 -78.81878756169705,33.983070884783224,0.0 -78.8187859928843,33.98311308658127,0.0 -78.818793679529,33.98315348364328,0.0 -78.81880270066728,33.983178584960115,0.0 -78.81883203877558,33.98320360770077,0.0 -78.81885353189658,33.98321882617994,0.0 -78.81893111050228,33.9832370241921,0.0 -78.8190272801699,33.983313112655715,0.0 -78.81906132387341,33.98332315397501,0.0 -78.81912548880811,33.98334339115469,0.0 -78.81917302482024,33.98336512005548,0.0 -78.81921993193458,33.98332589909807,0.0 -78.81922620789027,33.98332558477639,0.0 -78.81927115475598,33.983366217588475,0.0 -78.81931665038849,33.983410066973114,0.0 -78.81932175026876,33.983412577629586,0.0 -78.8194130558299,33.98349423484775,0.0 -78.81941854730658,33.9834976871637,0.0 -78.81942105663647,33.98349643118177,0.0 -78.81942293993929,33.98349447059217,0.0 -78.81947133746513,33.98345587697158,0.0 -78.81951895191233,33.98344277756914,0.0 -78.81956044749974,33.98341438111053,0.0 -78.81961982792544,33.983369748561024,0.0 -78.81966053918717,33.98338190632335,0.0 -78.81968807129505,33.98341665605156,0.0 -78.8197266649554,33.983462780347324,0.0 -78.81965504813019,33.98347933074952,0.0 -78.81960468878108,33.98353431893578,0.0 -78.81963198650526,33.98358060039052,0.0 -78.81971144867427,33.98365966967896,0.0 -78.81976721969549,33.983628685296914,0.0 -78.81981161757756,33.98361409416895,0.0 -78.81988825571831,33.98360389702201,0.0 -78.81991053333337,33.98361911550083,0.0 -78.81998670024251,33.98366931814568,0.0 -78.82000795759681,33.9836785736541,0.0 -78.82003368619378,33.983691751653154,0.0 -78.82010577471982,33.98372783595361,0.0 -78.82018288180477,33.98373717005468,0.0 -78.82020468915204,33.98372956082242,0.0 -78.8202994467872,33.983757251392646,0.0 -78.8203029763614,33.98375803589134,0.0 -78.82037584957608,33.983841027666536,0.0 -78.82039946044398,33.98385749950839,0.0 -78.82046582178725,33.98389875965987,0.0 -78.82049782622431,33.983883778244824,0.0 -78.82050551287408,33.98392582288178,0.0 -78.82050747480343,33.983934999805236,0.0 -78.82054049853473,33.98400889322923,0.0 -78.82052967420343,33.98403854436685,0.0 -78.82049539501648,33.984090550416106,0.0 -78.82049664969864,33.98409408000214,0.0 -78.82049209995185,33.98410859255789,0.0 -78.82048143289302,33.984165148438024,0.0 -78.82048049126904,33.98417275767462,0.0 -78.82046668611379,33.9842008398159,0.0 -78.82046001859983,33.98420939071089,0.0 -78.82044997738312,33.984222018636956,0.0 -78.82038989221958,33.9842344134299,0.0 -78.82035545573387,33.98425308159213,0.0 -78.82035341660139,33.984260220653724,0.0 -78.82034910256316,33.98426680964953,0.0 -78.8203499657908,33.98430359854207,0.0 -78.82033051202683,33.98433513299711,0.0 -78.82031733416996,33.984354664242275,0.0 -78.82031529371083,33.98435772365277,0.0 -78.82030776441405,33.984362037734996,0.0 -78.82028744748825,33.98437262779802,0.0 -78.82024885406886,33.984384236787896,0.0 -78.82018782725082,33.984396787432814,0.0 -78.82011699482688,33.98439051274497,0.0 -78.82010734621376,33.9843312104628,0.0 -78.82009087307118,33.98431544322994,0.0 -78.82008012591471,33.98432187506297,0.0 -78.82007228231444,33.98433058311927,0.0 -78.81999015419497,33.984382354727146,0.0 -78.81989602412455,33.98440996536831,0.0 -78.81989280888315,33.984411848686555,0.0 -78.819890455399,33.984411770105275,0.0 -78.81983225100768,33.98444346040481,0.0 -78.81982558365675,33.98449115368642,0.0 -78.81984072366846,33.98453508033461,0.0 -78.8197882463647,33.98453884565239,0.0 -78.81974541740239,33.984536492150205,0.0 -78.81969725429379,33.984571399024524,0.0 -78.81968901776041,33.98457265369567,0.0 -78.81959888892077,33.984642703187724,0.0 -78.81958735858899,33.98465140993382,0.0 -78.81956139430632,33.9846514885096,0.0 -78.81948875717579,33.984650861159096,0.0 -78.81943478960173,33.98468780720324,0.0 -78.81938780254093,33.98471322152212,0.0 -78.81932975641749,33.98469612233718,0.0</coordinates>
                    </LinearRing>
                </outerBoundaryIs>
            </Polygon>
        </Placemark>
    </Document>
</kml>
