<?xml version="1.0" encoding="UTF-8"?>
<kml xmlns="http://www.opengis.net/kml/2.2" xmlns:gx="http://www.google.com/kml/ext/2.2">
    <Document id="1">
        <Style id="8">
            <LineStyle id="10">
                <colorMode>normal</colorMode>
                <width>1</width>
            </LineStyle>
            <PolyStyle id="9">
                <color>80ebce87</color>
                <colorMode>normal</colorMode>
                <fill>1</fill>
                <outline>1</outline>
            </PolyStyle>
        </Style>
        <Style id="17">
            <LineStyle id="19">
                <colorMode>normal</colorMode>
                <width>1</width>
            </LineStyle>
            <PolyStyle id="18">
                <color>80ebce87</color>
                <colorMode>normal</colorMode>
                <fill>1</fill>
                <outline>1</outline>
            </PolyStyle>
        </Style>
        <Style id="26">
            <LineStyle id="28">
                <colorMode>normal</colorMode>
                <width>1</width>
            </LineStyle>
            <PolyStyle id="27">
                <color>80ebce87</color>
                <colorMode>normal</colorMode>
                <fill>1</fill>
                <outline>1</outline>
            </PolyStyle>
        </Style>
        <Style id="35">
            <LineStyle id="37">
                <colorMode>normal</colorMode>
                <width>1</width>
            </LineStyle>
            <PolyStyle id="36">
                <color>80ebce87</color>
                <colorMode>normal</colorMode>
                <fill>1</fill>
                <outline>1</outline>
            </PolyStyle>
        </Style>
        <Style id="44">
            <LineStyle id="46">
                <colorMode>normal</colorMode>
                <width>1</width>
            </LineStyle>
            <PolyStyle id="45">
                <color>80ebce87</color>
                <colorMode>normal</colorMode>
                <fill>1</fill>
                <outline>1</outline>
            </PolyStyle>
        </Style>
        <Style id="53">
            <LineStyle id="55">
                <colorMode>normal</colorMode>
                <width>1</width>
            </LineStyle>
            <PolyStyle id="54">
                <color>80ebce87</color>
                <colorMode>normal</colorMode>
                <fill>1</fill>
                <outline>1</outline>
            </PolyStyle>
        </Style>
        <Style id="62">
            <LineStyle id="64">
                <colorMode>normal</colorMode>
                <width>1</width>
            </LineStyle>
            <PolyStyle id="63">
                <color>80ebce87</color>
                <colorMode>normal</colorMode>
                <fill>1</fill>
                <outline>1</outline>
            </PolyStyle>
        </Style>
        <Style id="71">
            <LineStyle id="73">
                <colorMode>normal</colorMode>
                <width>1</width>
            </LineStyle>
            <PolyStyle id="72">
                <color>80ebce87</color>
                <colorMode>normal</colorMode>
                <fill>1</fill>
                <outline>1</outline>
            </PolyStyle>
        </Style>
        <Style id="80">
            <LineStyle id="82">
                <colorMode>normal</colorMode>
                <width>1</width>
            </LineStyle>
            <PolyStyle id="81">
                <color>80ebce87</color>
                <colorMode>normal</colorMode>
                <fill>1</fill>
                <outline>1</outline>
            </PolyStyle>
        </Style>
        <Style id="89">
            <LineStyle id="91">
                <colorMode>normal</colorMode>
                <width>1</width>
            </LineStyle>
            <PolyStyle id="90">
                <color>80ebce87</color>
                <colorMode>normal</colorMode>
                <fill>1</fill>
                <outline>1</outline>
            </PolyStyle>
        </Style>
        <Placemark id="3">
            <name>Flood_0</name>
            <styleUrl>#8</styleUrl>
            <Polygon id="2">
                <outerBoundaryIs>
                    <LinearRing id="6">
                        <coordinates>-79.01867539461826,33.805106654867544,0.0 -79.01868402275707,33.805110027274274,0.0 -79.0188588696003,33.8050644531244,0.0 -79.01893456619267,33.805048528750184,0.0 -79.01911490319387,33.805012445807755,0.0 -79.01939140962655,33.80496467527614,0.0 -79.01944820106138,33.80495573278694,0.0 -79.01966179856687,33.80490670631316,0.0 -79.01993399093115,33.8048757218811,0.0 -79.0201289177113,33.80484105075933,0.0 -79.02021638042346,33.804824813366075,0.0 -79.02030682395564,33.80480810448835,0.0 -79.02034071048514,33.80480182981898,0.0 -79.02035216228276,33.80479751574479,0.0 -79.02037279228237,33.80479320035585,0.0 -79.02041923073654,33.80478355326761,0.0 -79.02047782559364,33.80477468804816,0.0 -79.02057893773825,33.80476049111989,0.0 -79.02069024570223,33.804742763303636,0.0 -79.02077504191665,33.80473562422018,0.0 -79.02083818658414,33.80472079866967,0.0 -79.02093349294047,33.804717739216095,0.0 -79.0209652617259,33.804716720271365,0.0 -79.02097828382375,33.80471311211087,0.0 -79.02101240609439,33.80470189473004,0.0 -79.0210351538382,33.80469444266953,0.0 -79.02104417487935,33.80469310941584,0.0 -79.02108002199141,33.804675930395945,0.0 -79.02123227694268,33.80465514315682,0.0 -79.02133323192707,33.80465208370002,0.0 -79.02138861153264,33.80465035882738,0.0 -79.02151113817344,33.804649730114086,0.0 -79.02152447197442,33.80465255507414,0.0 -79.02160252205267,33.804640866185586,0.0 -79.02172308679863,33.804615216143254,0.0 -79.02200069204606,33.80454203006833,0.0 -79.02220558152258,33.80449896523707,0.0 -79.02231822273357,33.80445511727281,0.0 -79.02236787643962,33.80444672354119,0.0 -79.0224011356344,33.80443582048258,0.0 -79.02243988629628,33.80442570060617,0.0 -79.022495971816,33.80441511185648,0.0 -79.02253919370854,33.80440891445235,0.0 -79.02259159249336,33.80440208970911,0.0 -79.02265764071119,33.804400835003484,0.0 -79.02278659785492,33.804387735566344,0.0 -79.02281107175048,33.80438224408755,0.0 -79.02294967857827,33.80435439771078,0.0 -79.02316013679388,33.80433023671697,0.0 -79.02331631422233,33.804322707309886,0.0 -79.02337059631915,33.80430733170109,0.0 -79.02345091999136,33.80427226905116,0.0 -79.0236284333331,33.804246304654406,0.0 -79.02377668853742,33.804235008628,0.0 -79.02402432842477,33.804208965610776,0.0 -79.02415085481115,33.80418880702969,0.0 -79.02424019952653,33.80418166794346,0.0 -79.02431479730197,33.804175706262974,0.0 -79.02438359059778,33.80416676376674,0.0 -79.0244917618884,33.80413240701543,0.0 -79.02460809114412,33.804094205055335,0.0 -79.02473281279899,33.80408243886912,0.0 -79.02498092417048,33.8040729475171,0.0 -79.02502971480087,33.80406761318535,0.0 -79.02525045003736,33.804065652477,0.0 -79.0254477303047,33.804060318060614,0.0 -79.02566085632768,33.804034275062826,0.0 -79.02577883184601,33.804013723584234,0.0 -79.02592598823065,33.803975680076995,0.0 -79.02608773570387,33.80393771383222,0.0 -79.02619692592076,33.80389574787168,0.0 -79.02639695257072,33.80382436526141,0.0 -79.02662694326743,33.803678777789244,0.0 -79.02675566597122,33.80357711685585,0.0 -79.0269032925263,33.80351036397443,0.0 -79.02724647450881,33.8034666717292,0.0 -79.02752627608251,33.80343294090385,0.0 -79.02780152784575,33.80340454569477,0.0 -79.0281069794051,33.803391210415064,0.0 -79.02862061558105,33.8033302604918,0.0 -79.02885248828953,33.80329394177695,0.0 -79.02941381627956,33.80324279735894,0.0 -79.0295778386589,33.80321997094904,0.0 -79.02989944898367,33.80316686608518,0.0 -79.030235649087,33.80310944714518,0.0 -79.0303216999691,33.80309893564879,0.0 -79.03051027351205,33.803047399850804,0.0 -79.0308026256926,33.80293922843085,0.0 -79.03102398825745,33.80288627947531,0.0 -79.03118604743281,33.80285435475773,0.0 -79.0312486446553,33.80283984221915,0.0 -79.03134818649765,33.802816858684935,0.0 -79.03161088764296,33.80276830366337,0.0 -79.03178369532095,33.80274006436354,0.0 -79.03203564927259,33.802684057300326,0.0 -79.0322821916419,33.8025769834131,0.0 -79.03245829314719,33.80250152248859,0.0 -79.03257689599711,33.80246340041612,0.0 -79.03272107156235,33.802447477311254,0.0 -79.03290909635346,33.802421355746134,0.0 -79.03305978231326,33.80240919664195,0.0 -79.03321666565641,33.80241170719788,0.0 -79.0333957479884,33.80239813624835,0.0 -79.03351819604585,33.802380095412225,0.0 -79.03364738892834,33.80235303222479,0.0 -79.03376105037718,33.80234024711741,0.0 -79.03390593316358,33.80229522042583,0.0 -79.03409654587027,33.802250979512735,0.0 -79.03421656186268,33.802245566559264,0.0 -79.0343059851583,33.80224337018387,0.0 -79.03440458535111,33.802284317099726,0.0 -79.03453174038466,33.802305888675036,0.0 -79.03454758483582,33.80233765743981,0.0 -79.03435775662044,33.80234573693053,0.0 -79.03421044307323,33.80235287474096,0.0 -79.0340814060413,33.80237264304147,0.0 -79.03395621421733,33.80241429469058,0.0 -79.03375681490128,33.80245845833781,0.0 -79.03358306687649,33.80248136333436,0.0 -79.03345465849043,33.80251917240033,0.0 -79.03328545897057,33.80257839597693,0.0 -79.03318905510947,33.80260051643404,0.0 -79.03305233028055,33.80257463079645,0.0 -79.03286979695093,33.80254992127279,0.0 -79.03278688404981,33.80255588295855,0.0 -79.03266239813694,33.80256482548716,0.0 -79.03254826520607,33.80258741612754,0.0 -79.03244299615743,33.802630480903765,0.0 -79.03234996471346,33.80269268525566,0.0 -79.03215197854034,33.80277504948673,0.0 -79.03200066393899,33.80281270140465,0.0 -79.03179922676783,33.80285317700939,0.0 -79.03160947582272,33.80285921733665,0.0 -79.03140129120686,33.8029069092515,0.0 -79.03124864466596,33.80294471833102,0.0 -79.03121499256892,33.802953033473415,0.0 -79.03095927330068,33.80300213855412,0.0 -79.03077666139868,33.80305885149194,0.0 -79.03061444375345,33.803099954408104,0.0 -79.03048023088873,33.80315243314061,0.0 -79.03035315444073,33.80318318175028,0.0 -79.03008598337462,33.80323534492718,0.0 -79.02972028808341,33.80331135602253,0.0 -79.02946041059577,33.80335057699201,0.0 -79.02930462607216,33.803377560303915,0.0 -79.02903612044373,33.80339513104982,0.0 -79.02869984044685,33.80342070394533,0.0 -79.02839148665075,33.80346674965595,0.0 -79.02809034916082,33.80348196693541,0.0 -79.02791322872223,33.803506440922995,0.0 -79.02768339517777,33.80354824979189,0.0 -79.02741190873208,33.803600335699784,0.0 -79.02711681015528,33.80363932094767,0.0 -79.02690235088434,33.80367407066217,0.0 -79.02670483488063,33.80373462881179,0.0 -79.02652826320171,33.803830091083164,0.0 -79.0264306033663,33.80390861136091,0.0 -79.02623802877167,33.804036549638695,0.0 -79.02617033429401,33.804053964418365,0.0 -79.02605761319167,33.80407632062541,0.0 -79.02588614006962,33.80408424294377,0.0 -79.02581428737307,33.80409192946402,0.0 -79.02580048208925,33.80409075338424,0.0 -79.0257205500081,33.80410071612327,0.0 -79.02564555932996,33.80410322550219,0.0 -79.02561943917297,33.80410808964799,0.0 -79.02557025564043,33.80411710940392,0.0 -79.02547236136783,33.80413428845936,0.0 -79.02530567248866,33.804146760584075,0.0 -79.02527876652658,33.80415076165477,0.0 -79.02519004914605,33.80416393964959,0.0 -79.02506211093025,33.80418511977749,0.0 -79.02478803656297,33.80420167028946,0.0 -79.02467986527046,33.804213672207695,0.0 -79.02448666333507,33.80427242431314,0.0 -79.0243129938924,33.80433698219439,0.0 -79.02381951753897,33.80437643903692,0.0 -79.02354575618675,33.80443213309828,0.0 -79.02319441623524,33.80444829206125,0.0 -79.02289061224748,33.804485316730336,0.0 -79.02267011275332,33.80450178863116,0.0 -79.02247259674805,33.804560542048335,0.0 -79.02230614361166,33.80459427149839,0.0 -79.02223938948325,33.80465326058267,0.0 -79.02215945740562,33.804715620776435,0.0 -79.02206713187206,33.80475241089341,0.0 -79.02197096244048,33.80476174499774,0.0 -79.02187251810386,33.804778375299556,0.0 -79.0217898409451,33.80480779063439,0.0 -79.0215018814048,33.804847011618115,0.0 -79.02130946396215,33.80488270166535,0.0 -79.02115634593623,33.804922629796685,0.0 -79.02072632857454,33.80499801228165,0.0 -79.0206471809885,33.80501087594884,0.0 -79.02048010051736,33.805045861376676,0.0 -79.02030478349994,33.80507362919334,0.0 -79.02012068118388,33.80511771424871,0.0 -79.02001313853533,33.80513716690407,0.0 -79.0198517839629,33.805169877424035,0.0 -79.01974988732314,33.80518940996622,0.0 -79.0196791334439,33.80520243078951,0.0 -79.01959425995915,33.80521984557845,0.0 -79.0195148766319,33.80523976970055,0.0 -79.01944655482008,33.80526926360742,0.0 -79.01941894294347,33.80527836324099,0.0 -79.01937846743961,33.80529169836891,0.0 -79.01930465285051,33.80531397466308,0.0 -79.01921107264714,33.805340723506575,0.0 -79.01914565176517,33.805367943816954,0.0 -79.01901237924413,33.80541775343016,0.0 -79.01867712079661,33.80553831831863,0.0 -79.01867539461826,33.805106654867544,0.0</coordinates>
                    </LinearRing>
                </outerBoundaryIs>
            </Polygon>
        </Placemark>
        <Placemark id="12">
            <name>Flood_1</name>
            <styleUrl>#17</styleUrl>
            <Polygon id="11">
                <outerBoundaryIs>
                    <LinearRing id="15">
                        <coordinates>-79.02448532979123,33.80060096679533,0.0 -79.024489801021,33.800594456401065,0.0 -79.02458102773535,33.80055194038684,0.0 -79.02468425761923,33.800493031170596,0.0 -79.02479784048163,33.80041137290324,0.0 -79.02491362097618,33.800300613668426,0.0 -79.02500422035239,33.8002118176886,0.0 -79.02509034980757,33.800119256397224,0.0 -79.02519052028565,33.80000065222131,0.0 -79.02523617292704,33.79990746361932,0.0 -79.0252697451269,33.7998165499287,0.0 -79.02530622087114,33.799665628262986,0.0 -79.02535226640818,33.7994910172002,0.0 -79.02539533113004,33.79937766878084,0.0 -79.02540584126582,33.79931021006328,0.0 -79.02545180822227,33.79913685366871,0.0 -79.02549652051476,33.79901864242702,0.0 -79.02556013665205,33.79886183768773,0.0 -79.02561041768392,33.798763706371396,0.0 -79.02567889664822,33.798655849402,0.0 -79.0257599275405,33.79858823348234,0.0 -79.02581334655495,33.798509085895255,0.0 -79.02585656712834,33.79840067887723,0.0 -79.02591171228659,33.79822952011066,0.0 -79.02597556285215,33.7980360038864,0.0 -79.02603682550162,33.79786147139485,0.0 -79.02606812410495,33.79776561630357,0.0 -79.02613479964192,33.79760441891391,0.0 -79.02615550821801,33.79755876496017,0.0 -79.02620578924382,33.797394273748786,0.0 -79.02626007132845,33.79725237310973,0.0 -79.02629576126989,33.797135180799685,0.0 -79.02632054947854,33.79703414856906,0.0 -79.02636243680087,33.796907072142155,0.0 -79.02639153907968,33.7968173358511,0.0 -79.02642440536101,33.796690103578285,0.0 -79.02644001536981,33.79661315233709,0.0 -79.02640087310843,33.79653353332118,0.0 -79.0263463565749,33.79647540869145,0.0 -79.02628211308408,33.79639696708768,0.0 -79.02628085841395,33.79637955365692,0.0 -79.02627583711869,33.79636009975556,0.0 -79.02627285629691,33.796342450584426,0.0 -79.02627105287387,33.79633468421609,0.0 -79.02626626732126,33.79632927133432,0.0 -79.02626226757349,33.79632283952548,0.0 -79.02625363812508,33.79631883978479,0.0 -79.02621959443391,33.79630573913126,0.0 -79.02615111546004,33.79629248264677,0.0 -79.02609400970282,33.796275618002525,0.0 -79.02605761252596,33.79626432208182,0.0 -79.0259845837407,33.79624251604512,0.0 -79.025843859166,33.7961956075183,0.0 -79.02577239937145,33.796175604902416,0.0 -79.02567874058538,33.796138110287785,0.0 -79.02559551335943,33.796092143383056,0.0 -79.02548546006258,33.796052686885744,0.0 -79.02545627918937,33.79597840347789,0.0 -79.02547832100569,33.79582606999126,0.0 -79.02552679861843,33.79577194504678,0.0 -79.02562179195071,33.79566197031765,0.0 -79.02573090357797,33.79554430779119,0.0 -79.02589241528916,33.79531353258051,0.0 -79.02591304528292,33.79524764153714,0.0 -79.02592559589425,33.79520771479443,0.0 -79.02590849545616,33.795057499074254,0.0 -79.02578847944619,33.79482562521311,0.0 -79.02573655082267,33.79467038953147,0.0 -79.02573553189175,33.79462575582691,0.0 -79.02576722209251,33.79458684930927,0.0 -79.02585586088242,33.79448534555794,0.0 -79.02598270158278,33.79441866995661,0.0 -79.02619025754642,33.794329403732654,0.0 -79.0264774325711,33.79417095128921,0.0 -79.02672797467716,33.7939982234158,0.0 -79.02686995389907,33.79381215919166,0.0 -79.02696431989251,33.79366178755367,0.0 -79.02711045602491,33.79350474702241,0.0 -79.02720097811527,33.79327577527426,0.0 -79.02723823704697,33.79316446732994,0.0 -79.02723729669265,33.793077397553525,0.0 -79.02723290403713,33.79301158510516,0.0 -79.02719140828225,33.7928426214094,0.0 -79.02701467941613,33.79257215540487,0.0 -79.02674021212795,33.792262388748206,0.0 -79.0264523311526,33.79198400059015,0.0 -79.02616821549597,33.79173926320548,0.0 -79.0259013574304,33.79154731616854,0.0 -79.02573506013422,33.79136548892595,0.0 -79.0256072790746,33.791267044703325,0.0 -79.02545957392607,33.79111306374801,0.0 -79.02540482165008,33.79102960215739,0.0 -79.02527531443397,33.79086911079941,0.0 -79.02515012128622,33.79069763781874,0.0 -79.02505787432611,33.7905955854221,0.0 -79.02495495875714,33.79052835989475,0.0 -79.02478513320261,33.79040348122902,0.0 -79.02467853089779,33.790322451735385,0.0 -79.02459279433579,33.79026973870032,0.0 -79.02454376796383,33.790247696909,0.0 -79.02445559933865,33.79023247854507,0.0 -79.02433487743787,33.79026314988365,0.0 -79.02424372799793,33.79031554870345,0.0 -79.02400534491962,33.79054444195933,0.0 -79.02365533826267,33.79094896524397,0.0 -79.0234234642763,33.79128979375034,0.0 -79.02319998399439,33.79161022800084,0.0 -79.02308679273825,33.791833944037286,0.0 -79.02298842700161,33.79205381486054,0.0 -79.02295124665012,33.792178616379445,0.0 -79.02289061134987,33.7925593715172,0.0 -79.02280087376155,33.792917064614834,0.0 -79.02279177414107,33.792927811808724,0.0 -79.0227897349777,33.79293377344804,0.0 -79.0227883231487,33.79294177424997,0.0 -79.02278981356022,33.792961305424036,0.0 -79.02275333781522,33.793106579773315,0.0 -79.02270462577857,33.793267698571164,0.0 -79.02265073659318,33.79337955658742,0.0 -79.02256594169855,33.79348113891634,0.0 -79.02235046221165,33.79371238433099,0.0 -79.02219161830155,33.79387452343054,0.0 -79.0220959976328,33.79396363242632,0.0 -79.02195119474278,33.794065293371126,0.0 -79.02188444061555,33.79410976995465,0.0 -79.02172826319888,33.7942139402423,0.0 -79.02154643579952,33.79432618992667,0.0 -79.02137527570117,33.794424164153305,0.0 -79.02105633189389,33.79464936940958,0.0 -79.02076609877662,33.794828923326925,0.0 -79.02061227484431,33.79492148465849,0.0 -79.02048676739125,33.794982825954094,0.0 -79.02037875326508,33.79502996905877,0.0 -79.02027811260754,33.795060090320575,0.0 -79.02013197646448,33.795118137797175,0.0 -79.01994371593949,33.79521014908548,0.0 -79.01975710429429,33.795291180062385,0.0 -79.01958186586697,33.79538436874026,0.0 -79.01927743325219,33.795557018061196,0.0 -79.01914070974436,33.79564636413129,0.0 -79.01905308987662,33.795708254157745,0.0 -79.01896884373159,33.795773125001126,0.0 -79.0188459268172,33.79587188369303,0.0 -79.01877023022728,33.79589196497568,0.0 -79.01875650221473,33.79589267089826,0.0 -79.01852557116528,33.79590443714939,0.0 -79.0185217272637,33.795812111653085,0.0 -79.01872708691077,33.79580771888401,0.0 -79.01875822836062,33.7958006584108,0.0 -79.01877870119874,33.79579595142882,0.0 -79.0188347880248,33.79575657472443,0.0 -79.01899653417874,33.79561812501635,0.0 -79.01922032749167,33.79548069550791,0.0 -79.01943400356753,33.79537150389571,0.0 -79.01961889036754,33.79523948729439,0.0 -79.01986660882213,33.79511390115719,0.0 -79.02010350150488,33.79500541675501,0.0 -79.02026383714224,33.794930270160705,0.0 -79.02045531291972,33.79484986651473,0.0 -79.02061894238965,33.79478052439538,0.0 -79.02081465365328,33.794665685476815,0.0 -79.02101091497839,33.794524883571924,0.0 -79.0211549333727,33.79440918160843,0.0 -79.02133668219221,33.79430265782085,0.0 -79.02156078982419,33.79415079438876,0.0 -79.02169876930881,33.79406121519477,0.0 -79.02172528236659,33.79404403617947,0.0 -79.02189989345827,33.79394896418908,0.0 -79.02206250268718,33.79383067429735,0.0 -79.0220691702417,33.79382471265539,0.0 -79.02221648377608,33.7936913628263,0.0 -79.02241148911746,33.79349219920891,0.0 -79.0225401332344,33.79334315949093,0.0 -79.02265575655889,33.79313395595619,0.0 -79.022705959012,33.79305951534085,0.0 -79.02273545288524,33.79298193675795,0.0 -79.02276102559306,33.79292161444769,0.0 -79.0227988345877,33.79278340055253,0.0 -79.02283672215135,33.79249199010908,0.0 -79.02289594431714,33.792174851098565,0.0 -79.02292245866909,33.7919541945137,0.0 -79.02291312329722,33.79183268816359,0.0 -79.02290904496255,33.79174036266638,0.0 -79.02291163287171,33.791627641605146,0.0 -79.0229273214562,33.79147923059788,0.0 -79.0229736014275,33.791336466888524,0.0 -79.02310734541189,33.79111384965656,0.0 -79.02322194850092,33.790938296896634,0.0 -79.02338236139354,33.79069701023921,0.0 -79.0236683590026,33.79033272805008,0.0 -79.02368318452108,33.79031390147102,0.0 -79.02399577508203,33.789997468220996,0.0 -79.02418662351565,33.78984537037399,0.0 -79.02419752655848,33.7898366636517,0.0 -79.02421352816545,33.789823955870865,0.0 -79.02443708703949,33.78967750532015,0.0 -79.0246729607862,33.78952838695486,0.0 -79.0249352703263,33.78945025947682,0.0 -79.02516761320167,33.78945394606982,0.0 -79.02535242273362,33.789424137767625,0.0 -79.02549440196195,33.789329773018395,0.0 -79.02566689530411,33.789217130434054,0.0 -79.02592708577794,33.78900078908325,0.0 -79.02621410363085,33.788770169644984,0.0 -79.0264473881448,33.78857547722869,0.0 -79.02671612948633,33.78837396138663,0.0 -79.02719101495038,33.7880066196784,0.0 -79.02778434740031,33.78752828167748,0.0 -79.0282913945462,33.78714085870927,0.0 -79.02866493344489,33.786880823927184,0.0 -79.02884268119836,33.78674778708704,0.0 -79.02891563270525,33.786709429296906,0.0 -79.02934180613389,33.78652281614181,0.0 -79.02948825659351,33.78646673055305,0.0 -79.02958771983278,33.7862600376687,0.0 -79.02975087911108,33.78606746303593,0.0 -79.02990148647109,33.78593521070677,0.0 -79.03016865882081,33.785765933808825,0.0 -79.0305739665034,33.78554049143648,0.0 -79.03066244813516,33.785508331015926,0.0 -79.03077163965504,33.785468638644815,0.0 -79.03091102965976,33.78544353733828,0.0 -79.03108297425364,33.78542580947906,0.0 -79.03122205124741,33.78541443618048,0.0 -79.03124864288618,33.78541482775684,0.0 -79.03138528781504,33.7854170239969,0.0 -79.03164155713445,33.78538603956073,0.0 -79.03189100042549,33.7853279933253,0.0 -79.0320381581097,33.785283829701996,0.0 -79.03218099910416,33.78522609654415,0.0 -79.03225363628667,33.785172207324045,0.0 -79.03237804492942,33.78523558894344,0.0 -79.03235545434882,33.785248295419144,0.0 -79.03209534114681,33.78540345402316,0.0 -79.03172588188258,33.785592576482166,0.0 -79.03139611231437,33.78577409101746,0.0 -79.03124864293018,33.785848061521826,0.0 -79.03109395592797,33.78592564018376,0.0 -79.03100515997548,33.78597019405384,0.0 -79.03087298628327,33.78603624232787,0.0 -79.03053952997976,33.78622238525429,0.0 -79.03052007737976,33.78623203232833,0.0 -79.03039339384412,33.78629455102616,0.0 -79.03015195005293,33.78642068461183,0.0 -79.02994564878155,33.786688641513756,0.0 -79.02979590449122,33.786762141845784,0.0 -79.02954912639096,33.78685980180196,0.0 -79.02916899850912,33.78702037205212,0.0 -79.02915150649244,33.787031745275826,0.0 -79.02857943136878,33.78740457851119,0.0 -79.02798915831868,33.78785891279799,0.0 -79.02769900248632,33.78808309911878,0.0 -79.02720380134906,33.788486838002406,0.0 -79.0269224308147,33.78871063272438,0.0 -79.02649374805793,33.78905169709535,0.0 -79.02606396648095,33.78936828757981,0.0 -79.02585397845937,33.78951787610308,0.0 -79.02568454451843,33.78963859675762,0.0 -79.02539211377213,33.789798539616555,0.0 -79.02521020779774,33.78993016462776,0.0 -79.02516149576068,33.79006555487247,0.0 -79.02517310472469,33.79013497546916,0.0 -79.02518659701009,33.790311939981926,0.0 -79.02519546090288,33.79046976491512,0.0 -79.02522205254849,33.790547970799054,0.0 -79.02526213646627,33.79064108077003,0.0 -79.02536285571726,33.79079012035183,0.0 -79.02549479368759,33.79092111783975,0.0 -79.02564383339546,33.791083882780846,0.0 -79.02587554895133,33.79124704188435,0.0 -79.02606945680706,33.79134995729585,0.0 -79.02631748960651,33.79155461080563,0.0 -79.02657791585978,33.79175777389862,0.0 -79.02673103389398,33.7918940270981,0.0 -79.02691152806327,33.79203420275627,0.0 -79.02708237386003,33.79219987123355,0.0 -79.02726514293872,33.79238295313531,0.0 -79.02733652416057,33.792497321724014,0.0 -79.02741002443624,33.79261004143139,0.0 -79.02748940777244,33.792731704901975,0.0 -79.02762275757918,33.79292082705231,0.0 -79.0276342892758,33.79302115465703,0.0 -79.02763397495474,33.7930308030289,0.0 -79.02762809190502,33.793141326459704,0.0 -79.0276089523289,33.79328644363932,0.0 -79.0275538084745,33.793372573103014,0.0 -79.02745238333358,33.79352239599193,0.0 -79.02731330635262,33.79371865733994,0.0 -79.027275340194,33.79380266773999,0.0 -79.02722701974879,33.79392346821127,0.0 -79.02709115933473,33.79418318852307,0.0 -79.0270346036471,33.79423197916866,0.0 -79.02683614600146,33.79438941132326,0.0 -79.02668757779897,33.79450887729547,0.0 -79.02639632313631,33.794663800168536,0.0 -79.0262879960004,33.79472898534945,0.0 -79.02619370858825,33.794895595640476,0.0 -79.02621386842382,33.79500572746267,0.0 -79.02622312521758,33.795140018856,0.0 -79.02631043077864,33.79527352701783,0.0 -79.02638526299383,33.79538397182006,0.0 -79.02638800938247,33.795387972873826,0.0 -79.02647084372255,33.795627768978235,0.0 -79.02653524438821,33.795865603201136,0.0 -79.02653744072836,33.79604233197995,0.0 -79.02652520313245,33.796118655885124,0.0 -79.02646409763601,33.79619388231193,0.0 -79.02633733551995,33.79631146626839,0.0 -79.02630760590152,33.79634001849856,0.0 -79.02632925614168,33.796385906859214,0.0 -79.0263698102291,33.79642520623661,0.0 -79.02643044556496,33.7964954112998,0.0 -79.02647045090082,33.796559969059075,0.0 -79.02649861153621,33.796619584113856,0.0 -79.02648872874451,33.79679615573881,0.0 -79.02645044826524,33.79690181636695,0.0 -79.02641891522985,33.796993907454144,0.0 -79.02639051886703,33.79709698015971,0.0 -79.02634925887597,33.797188912782,0.0 -79.02632651114388,33.79732477449377,0.0 -79.02630729298498,33.79745247693172,0.0 -79.0262592082789,33.79755798040455,0.0 -79.02625238357109,33.79765438554476,0.0 -79.02625214784064,33.797782795195715,0.0 -79.02624383403175,33.79787127680643,0.0 -79.02623622482429,33.79791528187239,0.0 -79.02618280581568,33.79806259539544,0.0 -79.02612013133408,33.79820653651208,0.0 -79.02603894459898,33.798370478987714,0.0 -79.02596034577837,33.798498495781956,0.0 -79.02588331594474,33.7985843895159,0.0 -79.02576996751718,33.79869154059699,0.0 -79.02570556688048,33.79879680964738,0.0 -79.02566077731596,33.798899568040284,0.0 -79.02562940013118,33.79898624624256,0.0 -79.02557700135934,33.79913795241274,0.0 -79.02551573870406,33.799248711616386,0.0 -79.02546098644284,33.79935947081629,0.0 -79.02544263135609,33.79944912982992,0.0 -79.02542372620765,33.79956051634297,0.0 -79.02539235033258,33.799649862352034,0.0 -79.02538591721566,33.799727675353346,0.0 -79.02536842520654,33.79984016068237,0.0 -79.02532638072253,33.799967550120954,0.0 -79.02528158984802,33.80007030851365,0.0 -79.02521436555023,33.800156437982956,0.0 -79.02513741429614,33.80023966390951,0.0 -79.02505371690717,33.80033097053139,0.0 -79.02484529786832,33.80047922448958,0.0 -79.02469649391767,33.80056033402362,0.0 -79.02462299496328,33.80060167263028,0.0 -79.02449795899224,33.8006699944893,0.0 -79.02437511934545,33.80073023827498,0.0 -79.02423102236368,33.80077816589453,0.0 -79.02410465183131,33.80081683803445,0.0 -79.02408559081896,33.80077510657893,0.0 -79.02408802288521,33.800774322082596,0.0 -79.02416701330799,33.80074796614848,0.0 -79.02428044032189,33.80069878387858,0.0 -79.02442430156093,33.800634460444776,0.0 -79.02448532979123,33.80060096679533,0.0</coordinates>
                    </LinearRing>
                </outerBoundaryIs>
            </Polygon>
        </Placemark>
        <Placemark id="21">
            <name>Flood_2</name>
            <styleUrl>#26</styleUrl>
            <Polygon id="20">
                <outerBoundaryIs>
                    <LinearRing id="24">
                        <coordinates>-78.94942815535242,33.66916509863132,0.0 -78.94968936717301,33.6690773226693,0.0 -78.94976176884478,33.669140233255256,0.0 -78.94980993227121,33.669201104571684,0.0 -78.95004494359908,33.66949824219712,0.0 -78.95005772999015,33.66951440234125,0.0 -78.95008220395225,33.669545308174925,0.0 -78.95017766772754,33.66966603056753,0.0 -78.95068440207649,33.67020578942011,0.0 -78.95100648351278,33.67054889442657,0.0 -78.95185867592538,33.671276522533375,0.0 -78.95279817453995,33.671656811918304,0.0 -78.95355294242951,33.672460372008295,0.0 -78.95446600620214,33.673161958822234,0.0 -78.95477028142867,33.67329397677644,0.0 -78.95487272720841,33.67330652784532,0.0 -78.95532682727588,33.673362066623795,0.0 -78.95543091932959,33.67336747996684,0.0 -78.95549508565821,33.67352577552317,0.0 -78.95538667820962,33.6735191860723,0.0 -78.95491994889092,33.67347086355187,0.0 -78.95475922104387,33.67345423258895,0.0 -78.95436309009558,33.67332629256502,0.0 -78.95409874048642,33.67316925211924,0.0 -78.95347198966866,33.6726101173671,0.0 -78.95256261401885,33.67184711071675,0.0 -78.95173677723497,33.67153153683188,0.0 -78.95081932097521,33.670660594552906,0.0 -78.95000195704245,33.66976651337127,0.0 -78.94955374045674,33.66928558541099,0.0 -78.94950612708718,33.669234519639254,0.0 -78.94942815535242,33.66916509863132,0.0</coordinates>
                    </LinearRing>
                </outerBoundaryIs>
            </Polygon>
        </Placemark>
        <Placemark id="30">
            <name>Flood_3</name>
            <styleUrl>#35</styleUrl>
            <Polygon id="29">
                <outerBoundaryIs>
                    <LinearRing id="33">
                        <coordinates>-78.94392302539084,33.666618074011346,0.0 -78.94382873892417,33.66660552298581,0.0 -78.94379367488015,33.66658740216336,0.0 -78.9433449093398,33.66635466433053,0.0 -78.94264222697245,33.666133534379,0.0 -78.94250189355971,33.666026695678866,0.0 -78.94242643254557,33.66589703222931,0.0 -78.94223731061396,33.66476425498268,0.0 -78.94207548600984,33.66397858249947,0.0 -78.94215573142226,33.66396383589317,0.0 -78.94219259893812,33.663936538480776,0.0 -78.94236477916068,33.664744410011046,0.0 -78.94265869912321,33.665814120276494,0.0 -78.9428125235086,33.66596300224171,0.0 -78.94334490952087,33.66616460027101,0.0 -78.94373649057289,33.66632603518648,0.0 -78.94376167046956,33.666336468170485,0.0 -78.94385533090914,33.66634886203197,0.0 -78.94393055629624,33.66635882374693,0.0 -78.9439405190309,33.66635952970463,0.0 -78.94396914981706,33.66649366549859,0.0 -78.94399738900889,33.66662787987136,0.0 -78.94392302539084,33.666618074011346,0.0</coordinates>
                    </LinearRing>
                </outerBoundaryIs>
            </Polygon>
        </Placemark>
        <Placemark id="39">
            <name>Flood_4</name>
            <styleUrl>#44</styleUrl>
            <Polygon id="38">
                <outerBoundaryIs>
                    <LinearRing id="42">
                        <coordinates>-78.9705814255679,33.676008597950606,0.0 -78.9704492513798,33.67596380776172,0.0 -78.9699126297643,33.67577123065176,0.0 -78.96982344188545,33.675739932933844,0.0 -78.96973692050828,33.675718203720606,0.0 -78.96962631674077,33.67568776767595,0.0 -78.96946472714279,33.67563858470596,0.0 -78.96924501134416,33.67556335726497,0.0 -78.96914617374567,33.675528528618806,0.0 -78.96905282761276,33.67552499863366,0.0 -78.96874847376647,33.67541604142756,0.0 -78.96804359498624,33.67516384844751,0.0 -78.96796578036545,33.67513835526443,0.0 -78.96796076036307,33.675136707670084,0.0 -78.96789557498398,33.67511529287329,0.0 -78.96789055498171,33.67511364527895,0.0 -78.96777242056118,33.67507489537952,0.0 -78.96776873381273,33.67507371796467,0.0 -78.96772661058392,33.67505983390564,0.0 -78.9677206489218,33.675057873294634,0.0 -78.96755411659706,33.675003276104555,0.0 -78.96755192026416,33.67500257017963,0.0 -78.96725933257657,33.674906556555825,0.0 -78.96709405492538,33.674852352274605,0.0 -78.96701177036826,33.67482536866126,0.0 -78.96683268738349,33.67476661450574,0.0 -78.96677746341808,33.67476253593364,0.0 -78.96677299217075,33.674762221591955,0.0 -78.96684657141796,33.67461177157648,0.0 -78.96690516790247,33.674491755745656,0.0 -78.96693513206168,33.67450548259015,0.0 -78.96703875391766,33.67454321349736,0.0 -78.96712700144398,33.674575297014734,0.0 -78.96712943351906,33.674576238682334,0.0 -78.96725635195934,33.67461961701419,0.0 -78.96733973535073,33.67462958008321,0.0 -78.96739527232245,33.6746432284589,0.0 -78.96821004903633,33.674805214050686,0.0 -78.96938667706584,33.67522001846209,0.0 -78.97056612999809,33.67575366289796,0.0 -78.9707746284191,33.67578613853703,0.0 -78.97081314348554,33.67579210035079,0.0 -78.97100054033605,33.67583242085702,0.0 -78.97124049462326,33.67590599950649,0.0 -78.9713361156524,33.67593533666816,0.0 -78.97153637746705,33.67600852486089,0.0 -78.97174362118446,33.67608422111415,0.0 -78.97179350950108,33.67610673466361,0.0 -78.97185775452574,33.67613575867567,0.0 -78.97190340732749,33.6761716845991,0.0 -78.97209362909743,33.67629899642076,0.0 -78.97234503517471,33.67644913485486,0.0 -78.97238033365456,33.67647337318419,0.0 -78.9723952377973,33.67649643533496,0.0 -78.97245634341016,33.67668053807421,0.0 -78.97245312813325,33.67669803009335,0.0 -78.97246959996384,33.67672015190373,0.0 -78.97257996785584,33.676942534070825,0.0 -78.97270751479736,33.67719950878742,0.0 -78.97272328201332,33.67723127897818,0.0 -78.9728360021156,33.67741946027652,0.0 -78.97297209867052,33.67764678527584,0.0 -78.97303579354835,33.677793706325154,0.0 -78.97303853863325,33.67780013946591,0.0 -78.97306230666743,33.67785708821434,0.0 -78.97307391696181,33.677884856017045,0.0 -78.97310521433428,33.67795968973472,0.0 -78.97310960699186,33.67797310345621,0.0 -78.97313117868661,33.67803860176025,0.0 -78.9731590250455,33.67812308384638,0.0 -78.97333512687521,33.678658135748634,0.0 -78.97371659041829,33.679272256322086,0.0 -78.97444931548964,33.67976346142393,0.0 -78.9748415251217,33.68015167210071,0.0 -78.97462322088386,33.68045963229675,0.0 -78.97438036440957,33.680276156082044,0.0 -78.97407906998426,33.680130175635746,0.0 -78.97317965531757,33.67972643127348,0.0 -78.97291216773975,33.67947698657189,0.0 -78.97282956898023,33.679270840577566,0.0 -78.97271794655288,33.67884772566334,0.0 -78.97266256728072,33.67806377953035,0.0 -78.97258992992849,33.67788728595694,0.0 -78.97258836093441,33.67788352063145,0.0 -78.9725240387216,33.677734794846444,0.0 -78.97250536930535,33.67763078029277,0.0 -78.97250309448776,33.67749319357544,0.0 -78.97249572104276,33.677416713700616,0.0 -78.972479876604,33.677316151465575,0.0 -78.97242967270915,33.677215196176796,0.0 -78.97236833130003,33.67710726026599,0.0 -78.97233836719077,33.67702089616711,0.0 -78.97229726295112,33.676922843160746,0.0 -78.97226533826026,33.67682306535124,0.0 -78.9722595324796,33.676779060210755,0.0 -78.97224917818022,33.67673497516008,0.0 -78.97224125596334,33.67668140020748,0.0 -78.97223827515657,33.676645866064064,0.0 -78.97221772368637,33.676604448778754,0.0 -78.97184206565188,33.676441287690935,0.0 -78.97167067049492,33.676367395017834,0.0 -78.97085252141443,33.67610045457512,0.0 -78.9705814255679,33.676008597950606,0.0</coordinates>
                    </LinearRing>
                </outerBoundaryIs>
            </Polygon>
        </Placemark>
        <Placemark id="48">
            <name>Flood_5</name>
            <styleUrl>#53</styleUrl>
            <Polygon id="47">
                <outerBoundaryIs>
                    <LinearRing id="51">
                        <coordinates>-79.098137554034,33.85660461864032,0.0 -79.09828510200917,33.85650876217571,0.0 -79.09829890860891,33.85652178426493,0.0 -79.09832471576571,33.85654610098334,0.0 -79.09844700540867,33.85665278179011,0.0 -79.09848897265145,33.856689413372386,0.0 -79.09833577604944,33.856792171825006,0.0 -79.09829310289061,33.85675185350882,0.0 -79.09815394855272,33.85662015006515,0.0 -79.098137554034,33.85660461864032,0.0</coordinates>
                    </LinearRing>
                </outerBoundaryIs>
            </Polygon>
        </Placemark>
        <Placemark id="57">
            <name>Flood_6</name>
            <styleUrl>#62</styleUrl>
            <Polygon id="56">
                <outerBoundaryIs>
                    <LinearRing id="60">
                        <coordinates>-78.94042637993836,33.68576025420745,0.0 -78.9404203397124,33.68574095741991,0.0 -78.94041626138123,33.685727779445685,0.0 -78.94042716496412,33.68522089050376,0.0 -78.94042826383408,33.685171471209124,0.0 -78.94042928335942,33.6845637843492,0.0 -78.94042269442083,33.684500168136665,0.0 -78.94042238140942,33.68449789322869,0.0 -78.94042214567007,33.68449475524483,0.0 -78.94042057668794,33.68447977254892,0.0 -78.94054953566022,33.68447247823164,0.0 -78.94055314378143,33.68452126890311,0.0 -78.940554947187,33.68454582139979,0.0 -78.94055298656794,33.684574374938876,0.0 -78.94051258892188,33.68514950832629,0.0 -78.94053047230479,33.68545621478985,0.0 -78.94054153236854,33.6856458087198,0.0 -78.94054349423752,33.685678440606154,0.0 -78.94054506320782,33.685705659601446,0.0 -78.94054835704323,33.68571601391154,0.0 -78.94055376993447,33.685733271531376,0.0 -78.94055855418104,33.68574872441536,0.0 -78.94056451582647,33.68576786404149,0.0 -78.94056639914088,33.685773668532285,0.0 -78.9405234128261,33.685766060434055,0.0 -78.94047768140602,33.6857745312111,0.0 -78.94043383199529,33.68578402223379,0.0 -78.94042637993836,33.68576025420745,0.0</coordinates>
                    </LinearRing>
                </outerBoundaryIs>
            </Polygon>
        </Placemark>
        <Placemark id="66">
            <name>Flood_7</name>
            <styleUrl>#71</styleUrl>
            <Polygon id="65">
                <outerBoundaryIs>
                    <LinearRing id="69">
                        <coordinates>-78.96455363632406,33.67419194101902,0.0 -78.96434686280125,33.67410141924592,0.0 -78.96306888767057,33.6738918956512,0.0 -78.9625315600511,33.67383635650335,0.0 -78.96212899583708,33.67384435555984,0.0 -78.96190967284899,33.67389706774989,0.0 -78.9617705952811,33.67393048352461,0.0 -78.96109670063747,33.6740495550108,0.0 -78.9610108065719,33.6740626540148,0.0 -78.96092044126799,33.67406437977376,0.0 -78.96085266794482,33.67406563414783,0.0 -78.96081266246404,33.67405896641359,0.0 -78.96060298664872,33.67402390154726,0.0 -78.9600835454695,33.673795948887374,0.0 -78.95989222483016,33.67374896081273,0.0 -78.95964631016054,33.67372480015084,0.0 -78.95946330463192,33.67373672264301,0.0 -78.95941906363792,33.673740016285166,0.0 -78.95878195796881,33.673781273538914,0.0 -78.95861511259247,33.67378041104557,0.0 -78.95834472260394,33.67377907530819,0.0 -78.95767012220732,33.673696709475436,0.0 -78.95754900824969,33.673681883417515,0.0 -78.95705254920313,33.67362132446444,0.0 -78.95613093527955,33.673560919512646,0.0 -78.95588250994777,33.67354468107036,0.0 -78.95577818215261,33.67353785589549,0.0 -78.9557617089982,33.673536758315514,0.0 -78.95561117961999,33.67353103175753,0.0 -78.95554662169705,33.673372579038286,0.0 -78.9557057805564,33.673378698536204,0.0 -78.95577724062383,33.673382934338726,0.0 -78.95592651532581,33.67339179887424,0.0 -78.9560825361891,33.673401133612764,0.0 -78.95631550860809,33.67341494122912,0.0 -78.95669312862978,33.67343737630963,0.0 -78.95703050742533,33.673457380456995,0.0 -78.95757167763382,33.673522410837094,0.0 -78.9578695224155,33.67355818200031,0.0 -78.95833672190443,33.67361434817348,0.0 -78.95965493846643,33.67356007177669,0.0 -78.96006566062968,33.67360996304785,0.0 -78.9602574501354,33.673655695145094,0.0 -78.96052603529876,33.67376363194289,0.0 -78.96086113908595,33.67390286766541,0.0 -78.96099935494789,33.67379069714691,0.0 -78.96109505332952,33.67371296175115,0.0 -78.96111921432241,33.673693272189,0.0 -78.96119138035786,33.673634754874705,0.0 -78.96119514568893,33.67363357880215,0.0 -78.96125578126974,33.673614752475174,0.0 -78.96129304165966,33.67362314635022,0.0 -78.96135602939928,33.67363742340139,0.0 -78.96153236725951,33.673734769759214,0.0 -78.9615587232487,33.67374936097321,0.0 -78.9616401460493,33.673757517989316,0.0 -78.96165536453007,33.67375900846678,0.0 -78.96179412776712,33.67373508522141,0.0 -78.96307594742706,33.673150464570405,0.0 -78.96426520621435,33.673256993544165,0.0 -78.9653389184003,33.67347310522376,0.0 -78.96587326505681,33.67370074494676,0.0 -78.96588181463976,33.67371172661684,0.0 -78.96625221667271,33.674189987839306,0.0 -78.9663978058923,33.67425784016633,0.0 -78.9661960518852,33.67480959791075,0.0 -78.96603163860472,33.674780181871,0.0 -78.96552780612801,33.674618119059346,0.0 -78.96541351562821,33.67456807322326,0.0 -78.96455363632406,33.67419194101902,0.0</coordinates>
                    </LinearRing>
                </outerBoundaryIs>
            </Polygon>
        </Placemark>
        <Placemark id="75">
            <name>Flood_8</name>
            <styleUrl>#80</styleUrl>
            <Polygon id="74">
                <outerBoundaryIs>
                    <LinearRing id="78">
                        <coordinates>-78.94529011075285,33.66712497019019,0.0 -78.94511220520516,33.66705335112296,0.0 -78.94500607271114,33.667010600234704,0.0 -78.94492331668586,33.66697726208585,0.0 -78.94475780463517,33.666910664368814,0.0 -78.94416290110011,33.66665062833662,0.0 -78.94413576061385,33.66663870493318,0.0 -78.94411144247843,33.66663682282517,0.0 -78.94407363464055,33.66663384184147,0.0 -78.94406069120357,33.66649656813163,0.0 -78.9440485335671,33.666367296543456,0.0 -78.94407269323136,33.66636902279944,0.0 -78.94408257738041,33.6663747487437,0.0 -78.94408610696601,33.66637678792379,0.0 -78.94409026388776,33.66637922000933,0.0 -78.9447674531763,33.66677362780605,0.0 -78.94527152001234,33.66694729950816,0.0 -78.94528148274446,33.6669507505462,0.0 -78.945986597177,33.66719376651061,0.0 -78.94728739857278,33.66744996168114,0.0 -78.94771835785818,33.667527935073274,0.0 -78.94838989981854,33.66793010793605,0.0 -78.94934202735725,33.668622752371874,0.0 -78.94947804521726,33.66891447798812,0.0 -78.94948588888556,33.668920125343675,0.0 -78.94960543377626,33.66900656838589,0.0 -78.94934233994847,33.669091127776305,0.0 -78.94922867814068,33.66900437043736,0.0 -78.94921565600166,33.668994407678014,0.0 -78.948685860416,33.6689001192221,0.0 -78.94795297710058,33.66835329895342,0.0 -78.94733595339925,33.66772011524546,0.0 -78.94716769629338,33.66761398364299,0.0 -78.94590258497168,33.66737151402481,0.0 -78.94529011075285,33.66712497019019,0.0</coordinates>
                    </LinearRing>
                </outerBoundaryIs>
            </Polygon>
        </Placemark>
        <Placemark id="84">
            <name>Flood_9</name>
            <styleUrl>#89</styleUrl>
            <Polygon id="83">
                <outerBoundaryIs>
                    <LinearRing id="87">
                        <coordinates>-79.09458429240041,33.816532022427786,0.0 -79.09452985445226,33.81654276964748,0.0 -79.0944931429255,33.81645444389795,0.0 -79.09458703744998,33.81643483408851,0.0 -79.09460233445313,33.81643169609981,0.0 -79.0947671400115,33.81637984599075,0.0 -79.09508537789702,33.81623214070994,0.0 -79.09523221995241,33.816179034632455,0.0 -79.0953059559569,33.81615228710681,0.0 -79.0953405483991,33.81613981374656,0.0 -79.09537584675681,33.81612977376146,0.0 -79.09549852924282,33.81609494551671,0.0 -79.09552237580327,33.816088120789075,0.0 -79.09564482254778,33.81605337112486,0.0 -79.0956576874835,33.81604709646661,0.0 -79.09580829484732,33.81597092963538,0.0 -79.0961027647177,33.815717562433335,0.0 -79.09644100528115,33.81561190162665,0.0 -79.09733539669399,33.81543658416119,0.0 -79.09910825529325,33.815450781384065,0.0 -79.10027248699234,33.81555557830237,0.0 -79.10053354058321,33.81555957921722,0.0 -79.10075349001949,33.815549067649144,0.0 -79.10092323830953,33.81555863735018,0.0 -79.10103078096667,33.815570639150764,0.0 -79.10115518961304,33.81556561910032,0.0 -79.10160254316789,33.815582875131845,0.0 -79.10175981811435,33.815595661400714,0.0 -79.10193356615414,33.815612134394925,0.0 -79.10212363012862,33.81563927468072,0.0 -79.10233424552683,33.81567716214588,0.0 -79.10413997180507,33.81591358364529,0.0 -79.10587557153102,33.816130082413125,0.0 -79.10824764590528,33.81662449774221,0.0 -79.11042997068056,33.81722771309658,0.0 -79.11195479803136,33.81789909345005,0.0 -79.11231915885767,33.81809464864607,0.0 -79.11294379020981,33.81862287418055,0.0 -79.11322484659823,33.8189844110487,0.0 -79.1136538438867,33.81937104906443,0.0 -79.11426490430078,33.8196504586754,0.0 -79.11476614578511,33.81976286517193,0.0 -79.11486129630264,33.81978420103246,0.0 -79.11521530280622,33.819881467767566,0.0 -79.11526660408875,33.819887586540744,0.0 -79.11535265365386,33.81985252257336,0.0 -79.11548545597277,33.81974858802555,0.0 -79.11559637230572,33.81962684584198,0.0 -79.11570266021089,33.81940666064957,0.0 -79.11579953546432,33.81913933110063,0.0 -79.11580494834563,33.819124271147956,0.0 -79.1158775854605,33.81890377165138,0.0 -79.11588762541797,33.8188732575343,0.0 -79.11591939414816,33.81871896342706,0.0 -79.11594598574096,33.81858616108496,0.0 -79.11596394915814,33.8183540526605,0.0 -79.11596834170626,33.81807699751607,0.0 -79.11596316450279,33.81791893680398,0.0 -79.11594088690482,33.81784818294789,0.0 -79.11583318701798,33.81765302051513,0.0 -79.11568563764685,33.81744993457179,0.0 -79.11553377553233,33.817291169333586,0.0 -79.11549596650394,33.81723524100402,0.0 -79.11544035112887,33.81716503461004,0.0 -79.11544176294541,33.817129030341185,0.0 -79.11544293902249,33.817098830550826,0.0 -79.11546035368848,33.81687323252002,0.0 -79.11545988219973,33.81685738676567,0.0 -79.11545760726305,33.816772356134756,0.0 -79.1154565097404,33.81673148904497,0.0 -79.11542309329857,33.81650188998519,0.0 -79.11542756444592,33.81627488013202,0.0 -79.1154317213312,33.816211499730606,0.0 -79.11546309847184,33.81606614677291,0.0 -79.11545305845011,33.81592102957909,0.0 -79.11545329286352,33.81587090570747,0.0 -79.11546051040763,33.815666407851786,0.0 -79.11546984440035,33.81549964172404,0.0 -79.1155542476222,33.81524462836238,0.0 -79.11569254005809,33.81503558062548,0.0 -79.1157648628609,33.814844575003406,0.0 -79.11584824585788,33.81462305657324,0.0 -79.11591445118069,33.814464839971045,0.0 -79.11596245723621,33.814242850077136,0.0 -79.11595578961456,33.81406274754004,0.0 -79.11595476935626,33.8140043871247,0.0 -79.1159559467341,33.813950027764434,0.0 -79.11598999036259,33.813777534415415,0.0 -79.11607039248806,33.813418272255774,0.0 -79.1160650581769,33.8134048585701,0.0 -79.1162978738513,33.81337544183853,0.0 -79.11629481445405,33.813385090213956,0.0 -79.1163323877821,33.813553348035946,0.0 -79.1163600770112,33.813771023820294,0.0 -79.11637694304122,33.81386703606615,0.0 -79.11635270363143,33.81401631018657,0.0 -79.11633379982612,33.81413460001915,0.0 -79.11631426739707,33.81430779927514,0.0 -79.11629881460452,33.81447793912872,0.0 -79.11625237751205,33.81462462534382,0.0 -79.116182015285,33.81479390215155,0.0 -79.11611196737384,33.81494678445065,0.0 -79.11598818612012,33.81510900214043,0.0 -79.11583506815093,33.81528416205174,0.0 -79.11580879084703,33.81532612797347,0.0 -79.11579051304581,33.81538927395079,0.0 -79.11573913455392,33.81554843220085,0.0 -79.11570964074251,33.81573841756299,0.0 -79.11570885630753,33.8159029886713,0.0 -79.11571089553274,33.81606991195397,0.0 -79.11569112865529,33.816198947667935,0.0 -79.11569308930453,33.81637818713185,0.0 -79.11571097429692,33.81657036879281,0.0 -79.11571732757969,33.81670474010771,0.0 -79.11571803349975,33.816719015561844,0.0 -79.11571607292589,33.81674529418645,0.0 -79.1157101113152,33.81682702968035,0.0 -79.11570971972459,33.8168329913199,0.0 -79.11570807216148,33.81685503445628,0.0 -79.11570328663329,33.81692115993618,0.0 -79.115714425486,33.81710290873194,0.0 -79.11589719463963,33.817312192037214,0.0 -79.11595257427199,33.81737871038733,0.0 -79.1160090527252,33.81745487711062,0.0 -79.11608121848595,33.81758579608756,0.0 -79.11621300066791,33.81775640603523,0.0 -79.11622272764455,33.81781147261397,0.0 -79.11623472956423,33.81796851177633,0.0 -79.11624884925759,33.81820438549854,0.0 -79.11624312342217,33.81837750616646,0.0 -79.11624241752719,33.81843131808245,0.0 -79.1162413187423,33.81851925095453,0.0 -79.1162250814398,33.81865056157172,0.0 -79.11621982572933,33.818692450211316,0.0 -79.11621990435599,33.81881756343891,0.0 -79.11621959007887,33.8189394627249,0.0 -79.11620178378897,33.81907940278973,0.0 -79.11617393753534,33.81923330399265,0.0 -79.11615001244868,33.819386972071264,0.0 -79.11613055989233,33.81951381146051,0.0 -79.11614263904897,33.819578604992316,0.0 -79.11616656421573,33.81964237697157,0.0 -79.1162013138438,33.81969861962503,0.0 -79.11625081040964,33.81974694004813,0.0 -79.11639828114265,33.81978992611404,0.0 -79.11650221564663,33.81980051608878,0.0 -79.11663917491794,33.81981643904152,0.0 -79.11682155240929,33.81983236327984,0.0 -79.11724247019319,33.81988327142316,0.0 -79.11801535522252,33.81977674730786,0.0 -79.11878322025815,33.81964653379821,0.0 -79.11920531411458,33.81965594620627,0.0 -79.11953288606394,33.81955577686873,0.0 -79.11953704429247,33.819583152997865,0.0 -79.11979197972163,33.821262979675346,0.0 -79.11908278944756,33.82143037350777,0.0 -79.11848271079846,33.82154372224423,0.0 -79.11789486972306,33.821578550734344,0.0 -79.11726639464712,33.821551489256265,0.0 -79.11663799946145,33.821524426468514,0.0 -79.1159684215314,33.82146175233682,0.0 -79.11536034203479,33.82146128248409,0.0 -79.11483407661672,33.821431081662155,0.0 -79.1142054456306,33.82124023357232,0.0 -79.11373252193206,33.821112688529006,0.0 -79.11315950499647,33.82094647146352,0.0 -79.11273231253392,33.820826219975174,0.0 -79.11102063766101,33.81987135144767,0.0 -79.11097341470156,33.81985080005707,0.0 -79.10858871097307,33.8189800208712,0.0 -79.10736110003586,33.818524197101254,0.0 -79.10584882336506,33.81802436841638,0.0 -79.10436258955373,33.81742546675917,0.0 -79.10303896636614,33.817007923531925,0.0 -79.10113856096449,33.81648385560799,0.0 -79.10041995659961,33.816188131451206,0.0 -79.10020981137527,33.81615228445879,0.0 -79.09940853120412,33.81600308806117,0.0 -79.09837184613444,33.81590236939978,0.0 -79.09787334975508,33.815836087033745,0.0 -79.09735994931322,33.81589554654173,0.0 -79.09710320980149,33.815923628724924,0.0 -79.09683980273749,33.815962378211935,0.0 -79.0966071455212,33.81596292840104,0.0 -79.09642053255598,33.815985676241354,0.0 -79.096165675056,33.81604309513601,0.0 -79.09585512496794,33.81620539149886,0.0 -79.0950620015698,33.81643742174954,0.0 -79.09458429240041,33.816532022427786,0.0</coordinates>
                    </LinearRing>
                </outerBoundaryIs>
            </Polygon>
        </Placemark>
    </Document>
</kml>
