<?xml version="1.0" encoding="UTF-8"?>
<kml xmlns="http://www.opengis.net/kml/2.2" xmlns:gx="http://www.google.com/kml/ext/2.2">
    <Document id="3405">
        <Style id="3412">
            <LineStyle id="3414">
                <colorMode>normal</colorMode>
                <width>1</width>
            </LineStyle>
            <PolyStyle id="3413">
                <color>80ebce87</color>
                <colorMode>normal</colorMode>
                <fill>1</fill>
                <outline>1</outline>
            </PolyStyle>
        </Style>
        <Style id="3421">
            <LineStyle id="3423">
                <colorMode>normal</colorMode>
                <width>1</width>
            </LineStyle>
            <PolyStyle id="3422">
                <color>80ebce87</color>
                <colorMode>normal</colorMode>
                <fill>1</fill>
                <outline>1</outline>
            </PolyStyle>
        </Style>
        <Style id="3430">
            <LineStyle id="3432">
                <colorMode>normal</colorMode>
                <width>1</width>
            </LineStyle>
            <PolyStyle id="3431">
                <color>80ebce87</color>
                <colorMode>normal</colorMode>
                <fill>1</fill>
                <outline>1</outline>
            </PolyStyle>
        </Style>
        <Style id="3439">
            <LineStyle id="3441">
                <colorMode>normal</colorMode>
                <width>1</width>
            </LineStyle>
            <PolyStyle id="3440">
                <color>80ebce87</color>
                <colorMode>normal</colorMode>
                <fill>1</fill>
                <outline>1</outline>
            </PolyStyle>
        </Style>
        <Style id="3448">
            <LineStyle id="3450">
                <colorMode>normal</colorMode>
                <width>1</width>
            </LineStyle>
            <PolyStyle id="3449">
                <color>80ebce87</color>
                <colorMode>normal</colorMode>
                <fill>1</fill>
                <outline>1</outline>
            </PolyStyle>
        </Style>
        <Style id="3457">
            <LineStyle id="3459">
                <colorMode>normal</colorMode>
                <width>1</width>
            </LineStyle>
            <PolyStyle id="3458">
                <color>80ebce87</color>
                <colorMode>normal</colorMode>
                <fill>1</fill>
                <outline>1</outline>
            </PolyStyle>
        </Style>
        <Style id="3466">
            <LineStyle id="3468">
                <colorMode>normal</colorMode>
                <width>1</width>
            </LineStyle>
            <PolyStyle id="3467">
                <color>80ebce87</color>
                <colorMode>normal</colorMode>
                <fill>1</fill>
                <outline>1</outline>
            </PolyStyle>
        </Style>
        <Style id="3475">
            <LineStyle id="3477">
                <colorMode>normal</colorMode>
                <width>1</width>
            </LineStyle>
            <PolyStyle id="3476">
                <color>80ebce87</color>
                <colorMode>normal</colorMode>
                <fill>1</fill>
                <outline>1</outline>
            </PolyStyle>
        </Style>
        <Style id="3484">
            <LineStyle id="3486">
                <colorMode>normal</colorMode>
                <width>1</width>
            </LineStyle>
            <PolyStyle id="3485">
                <color>80ebce87</color>
                <colorMode>normal</colorMode>
                <fill>1</fill>
                <outline>1</outline>
            </PolyStyle>
        </Style>
        <Style id="3493">
            <LineStyle id="3495">
                <colorMode>normal</colorMode>
                <width>1</width>
            </LineStyle>
            <PolyStyle id="3494">
                <color>80ebce87</color>
                <colorMode>normal</colorMode>
                <fill>1</fill>
                <outline>1</outline>
            </PolyStyle>
        </Style>
        <Placemark id="3407">
            <name>Flood_370</name>
            <styleUrl>#3412</styleUrl>
            <Polygon id="3406">
                <outerBoundaryIs>
                    <LinearRing id="3410">
                        <coordinates>-78.82404413315801,33.91735934427575,0.0 -78.82438260942004,33.91728843355019,0.0 -78.82465942955767,33.917413548961726,0.0 -78.8247158298517,33.91751599347003,0.0 -78.8246559011208,33.917695154870145,0.0 -78.82475764150779,33.91790302600774,0.0 -78.82474932705026,33.9180697154155,0.0 -78.82461354463699,33.91827852652302,0.0 -78.82461346760324,33.91833712288044,0.0 -78.8245370650359,33.918334534832695,0.0 -78.82434668658405,33.91832245404838,0.0 -78.82421937531412,33.91824722849041,0.0 -78.82406335476206,33.918201967037284,0.0 -78.8240237420332,33.91813434954526,0.0 -78.82396357616065,33.91796797434822,0.0 -78.82379869175695,33.917931420936924,0.0 -78.82383155929584,33.9179104765993,0.0 -78.82396059490426,33.9178610586796,0.0 -78.82397102692495,33.91765012830808,0.0 -78.82403291669807,33.91758431571657,0.0 -78.82404413315801,33.91735934427575,0.0</coordinates>
                    </LinearRing>
                </outerBoundaryIs>
            </Polygon>
        </Placemark>
        <Placemark id="3416">
            <name>Flood_371</name>
            <styleUrl>#3421</styleUrl>
            <Polygon id="3415">
                <outerBoundaryIs>
                    <LinearRing id="3419">
                        <coordinates>-78.80950223032426,33.91859407498513,0.0 -78.80947383355927,33.918508886828555,0.0 -78.80941178637238,33.91851194614157,0.0 -78.80924737153097,33.91833882456802,0.0 -78.80943045437559,33.91818782403682,0.0 -78.80947830359375,33.91823622201417,0.0 -78.80949571841006,33.91824924418647,0.0 -78.80952976151293,33.918110479755164,0.0 -78.80985544965435,33.917944655190325,0.0 -78.80997483836559,33.91793877230061,0.0 -78.809984408759,33.91807384874244,0.0 -78.80985678378754,33.91814593592415,0.0 -78.80978830446517,33.91807675067916,0.0 -78.80977057689523,33.918122717786225,0.0 -78.80984705844611,33.91821684851155,0.0 -78.80974328004949,33.91828830839529,0.0 -78.80988816179558,33.918327215278616,0.0 -78.81000315785413,33.91832156812325,0.0 -78.81000551018039,33.918355454777284,0.0 -78.80993632535343,33.918379771488596,0.0 -78.80987121901502,33.918440093918555,0.0 -78.80982697778191,33.91835239508155,0.0 -78.80967495729203,33.918381575811175,0.0 -78.80970837422932,33.91850896578194,0.0 -78.80989184939872,33.91852457614483,0.0 -78.81004386963968,33.91843868235854,0.0 -78.81002449457445,33.91850222012453,0.0 -78.80978485599415,33.91865196458254,0.0 -78.80950223032426,33.91859407498513,0.0</coordinates>
                    </LinearRing>
                </outerBoundaryIs>
            </Polygon>
        </Placemark>
        <Placemark id="3425">
            <name>Flood_372</name>
            <styleUrl>#3430</styleUrl>
            <Polygon id="3424">
                <outerBoundaryIs>
                    <LinearRing id="3428">
                        <coordinates>-78.93940493837755,33.65628783777689,0.0 -78.93940831080192,33.65628901387964,0.0 -78.93940588003528,33.656289876945706,0.0 -78.93940493837755,33.65628783777689,0.0</coordinates>
                    </LinearRing>
                </outerBoundaryIs>
            </Polygon>
        </Placemark>
        <Placemark id="3434">
            <name>Flood_373</name>
            <styleUrl>#3439</styleUrl>
            <Polygon id="3433">
                <outerBoundaryIs>
                    <LinearRing id="3437">
                        <coordinates>-78.89795541138301,33.684975334190845,0.0 -78.89795290072696,33.684974785425815,0.0 -78.89794246781764,33.6849726676346,0.0 -78.89794027148477,33.68497219614182,0.0 -78.89793799657072,33.68497188311923,0.0 -78.89792717206612,33.684970471241186,0.0 -78.8979241912346,33.68497015690591,0.0 -78.89788300834698,33.684966627147475,0.0 -78.89787194809976,33.684965372429396,0.0 -78.89786888868737,33.68496505809368,0.0 -78.89785704394235,33.68496333188904,0.0 -78.89785429885332,33.684962940283974,0.0 -78.89783900310306,33.68495980223416,0.0 -78.89782480486542,33.68495619401601,0.0 -78.89782190261542,33.68495525234665,0.0 -78.89774448088048,33.68494991900376,0.0 -78.8976741968968,33.684948741291656,0.0 -78.89764187792858,33.684942152172106,0.0 -78.89761889436583,33.68493156203702,0.0 -78.89765325262177,33.68485202300651,0.0 -78.89768784529323,33.68478526902473,0.0 -78.89770902548563,33.68475177418043,0.0 -78.89776926826424,33.68466901870355,0.0 -78.89779436964646,33.68462987655794,0.0 -78.8978102155075,33.684599363819764,0.0 -78.89785696723389,33.684544140271115,0.0 -78.89794984198784,33.684472523725866,0.0 -78.89798333713118,33.68441761443992,0.0 -78.89801753815375,33.68439125869218,0.0 -78.89805314985075,33.68425382941076,0.0 -78.89808931157503,33.684145030937664,0.0 -78.89811284531675,33.68407098201595,0.0 -78.8981333968404,33.68405388168065,0.0 -78.89815120327533,33.684036153998804,0.0 -78.89816579313606,33.68401826914159,0.0 -78.89817693198948,33.68400046284945,0.0 -78.89818257934802,33.68398720634387,0.0 -78.89818681618429,33.6839715177655,0.0 -78.89819669912106,33.68390398048706,0.0 -78.89820219063925,33.6838820159515,0.0 -78.89829655590779,33.68373619322422,0.0 -78.89833083558601,33.68365375195251,0.0 -78.89860710930192,33.68318937908376,0.0 -78.89865911539465,33.68318608417285,0.0 -78.89883294270452,33.68317518190214,0.0 -78.89884690521293,33.68316882742094,0.0 -78.89886149636673,33.68316325874763,0.0 -78.89887639922374,33.683158160248965,0.0 -78.89893734914237,33.68313956968305,0.0 -78.89895225330908,33.68313447118438,0.0 -78.89896684315306,33.683128979781905,0.0 -78.89898088424214,33.68312262661074,0.0 -78.898993277754,33.68311603769075,0.0 -78.89900520109154,33.68310882143431,0.0 -78.89905171704189,33.68307791461983,0.0 -78.89906379754115,33.683070619783514,0.0 -78.89907517212147,33.68306426660047,0.0 -78.8990869382957,33.68305830501205,0.0 -78.89909894021179,33.68305273501747,0.0 -78.89911125514108,33.68304747934632,0.0 -78.89912364865073,33.68304253799757,0.0 -78.89913635648324,33.683037909662445,0.0 -78.89915086774548,33.68303304690357,0.0 -78.89916553747857,33.6830285757382,0.0 -78.89922460407496,33.68301163273492,0.0 -78.8992391153367,33.68300716156885,0.0 -78.89925347074683,33.68300245466067,0.0 -78.89926751183451,33.68299719899709,0.0 -78.89928108143805,33.682991394577705,0.0 -78.89929269176012,33.68298559014951,0.0 -78.8993040650306,33.68297939281783,0.0 -78.89933763870658,33.68295994036356,0.0 -78.89934979778543,33.68295343002305,0.0 -78.89939921597873,33.68292864202321,0.0 -78.89942423874477,33.68291546418409,0.0 -78.8994367894178,33.682909188277094,0.0 -78.8994644014209,33.68289640335199,0.0 -78.89947624617655,33.68288997028091,0.0 -78.89948785519057,33.682882911183924,0.0 -78.89952236922102,33.68286024217193,0.0 -78.89954739199088,33.682844160783176,0.0 -78.89957296482606,33.68282831644814,0.0 -78.89961195010562,33.68280478438013,0.0 -78.89966434913923,33.682773564579136,0.0 -78.89969070647189,33.68275842485268,0.0 -78.8997039630638,33.6827511300216,0.0 -78.8997172196554,33.68274407093202,0.0 -78.89973055482704,33.68273755928688,0.0 -78.89974388999785,33.68273167628582,0.0 -78.89975738232924,33.682726656361325,0.0 -78.89977095192982,33.682722969686374,0.0 -78.89978467999944,33.68272108774441,0.0 -78.89979856391827,33.68272124365747,0.0 -78.89981260499646,33.682723048452104,0.0 -78.89982664607318,33.68272602933503,0.0 -78.8998408443106,33.68272963755302,0.0 -78.8998829675367,33.68274156102216,0.0 -78.89989645985582,33.682745717990834,0.0 -78.8999089319334,33.68275050359896,0.0 -78.89991983501244,33.682756543868855,0.0 -78.89992830601388,33.6827638387966,0.0 -78.89993505216496,33.682772309804946,0.0 -78.89994022931818,33.682781645191895,0.0 -78.89994391605475,33.68279137216493,0.0 -78.89994587794236,33.68280133356223,0.0 -78.89994603378148,33.68281106051954,0.0 -78.89994391601621,33.682820473144886,0.0 -78.89993936748574,33.68282910257363,0.0 -78.89993293432596,33.68283741636224,0.0 -78.89991850162873,33.68285420371303,0.0 -78.89991206846771,33.68286338057759,0.0 -78.89990767578904,33.682872088587494,0.0 -78.89990422476968,33.68288134404587,0.0 -78.89990163682886,33.68289107099106,0.0 -78.89989951775303,33.682901189531144,0.0 -78.89989787147128,33.68291162239536,0.0 -78.89989512504164,33.682934605870834,0.0 -78.89989300725776,33.68295805952238,0.0 -78.89988971334925,33.683005595473816,0.0 -78.89988743840323,33.68302952060771,0.0 -78.89988571222933,33.68304120814032,0.0 -78.89988335871908,33.68305258265781,0.0 -78.89988006485899,33.683063564268515,0.0 -78.89987559359717,33.683073997120154,0.0 -78.89986947475822,33.6830841156425,0.0 -78.8998623369889,33.68309360682586,0.0 -78.89985449199312,33.68310254925225,0.0 -78.89983911763632,33.68311902227674,0.0 -78.89983245004476,33.68312647429822,0.0 -78.89982735145091,33.683133376263065,0.0 -78.89982437061079,33.68313957363221,0.0 -78.89982437060371,33.68314490793868,0.0 -78.89982852752233,33.683149457768344,0.0 -78.89983605817844,33.68315298737617,0.0 -78.89984602091143,33.68315581107996,0.0 -78.8998688473199,33.68316075258564,0.0 -78.89987998614522,33.68316389061673,0.0 -78.89988971313426,33.6831678917173,0.0 -78.89989692946428,33.683173539068314,0.0 -78.8999008519467,33.68318083397593,0.0 -78.89990218518942,33.68318961928215,0.0 -78.89990147925889,33.68319934623564,0.0 -78.89989936149246,33.68320970051729,0.0 -78.89989598774271,33.683220054793345,0.0 -78.89989175222378,33.68323017332399,0.0 -78.89988657504574,33.68323958724531,0.0 -78.89988053479026,33.68324766660387,0.0 -78.89987363145796,33.68325394122638,0.0 -78.89986563061724,33.6832575493455,0.0 -78.89985645368823,33.68325778504613,0.0 -78.89984617663144,33.6832553529338,0.0 -78.89983527355027,33.68325088165454,0.0 -78.89982382171513,33.68324492127242,0.0 -78.8998120555581,33.683237939342206,0.0 -78.89979997507892,33.683230172915295,0.0 -78.89978781601954,33.683221859043925,0.0 -78.89973816347279,33.68318687347285,0.0 -78.89971337517922,33.683170087257224,0.0 -78.8997010602671,33.68316239940984,0.0 -78.89968882262528,33.68315541878727,0.0 -78.89967682072431,33.68314953436376,0.0 -78.89966505456385,33.68314514166124,0.0 -78.89965375988558,33.68314278943457,0.0 -78.899644267324,33.683142789392306,0.0 -78.89963563914897,33.683144514195895,0.0 -78.89962810848412,33.68314765214385,0.0 -78.8996221468143,33.68315204476744,0.0 -78.8996183042054,33.68315761479837,0.0 -78.89961704821408,33.683163732285,0.0 -78.89961728394742,33.68317055700273,0.0 -78.89961971600235,33.68318648135265,0.0 -78.89962097066096,33.68319769741544,0.0 -78.89962144082023,33.68320969927974,0.0 -78.89962128495196,33.68322201415368,0.0 -78.89962034327556,33.68323433033374,0.0 -78.89961853852024,33.683246488039224,0.0 -78.89961563625351,33.683258176876265,0.0 -78.89961281257305,33.68326578476607,0.0 -78.89960920439486,33.68327292378872,0.0 -78.8996044973959,33.68327935558202,0.0 -78.89959579063178,33.683287356348124,0.0 -78.89958527913002,33.68329410243753,0.0 -78.899573512956,33.68329998544548,0.0 -78.89956104086515,33.683305241116,0.0 -78.89953593952288,33.68331488938033,0.0 -78.89952433051177,33.68331967357163,0.0 -78.89951397617402,33.683324694819646,0.0 -78.89950550384619,33.68333002777874,0.0 -78.89949977791674,33.683335989394145,0.0 -78.8994974244132,33.68334226534652,0.0 -78.89949687564832,33.68334893289981,0.0 -78.89949711007162,33.68335607062987,0.0 -78.89949695421001,33.68336336551929,0.0 -78.89949522804163,33.683370817562654,0.0 -78.89949052104049,33.68337889692711,0.0 -78.89948338327319,33.683386899009975,0.0 -78.89947444076672,33.68339482119453,0.0 -78.89946424358668,33.683402743373506,0.0 -78.89945318332751,33.68341058827778,0.0 -78.89941976680836,33.6834335716166,0.0 -78.89940996122341,33.683440945043394,0.0 -78.89940188179708,33.68344816131695,0.0 -78.89939639160889,33.68345498600925,0.0 -78.89939442969964,33.683461339234206,0.0 -78.89939709751022,33.68346722230645,0.0 -78.89940360792288,33.68347271380301,0.0 -78.89941294200634,33.68347789099002,0.0 -78.89942423799093,33.68348283244438,0.0 -78.89945035954709,33.68349342259329,0.0 -78.89946463505073,33.68350079612748,0.0 -78.89947820594445,33.68350973864923,0.0 -78.89948973635462,33.68352009299156,0.0 -78.89949813007931,33.68353162340818,0.0 -78.89950236557077,33.683542213459575,0.0 -78.89950424887695,33.68355264633947,0.0 -78.89950440602586,33.683562216135826,0.0 -78.89950354293634,33.68356998119545,0.0 -78.89950205251317,33.68357539407581,0.0 -78.8995004049325,33.683577668973996,0.0 -78.89949734551836,33.68357868788762,0.0 -78.89949020775708,33.68358214015923,0.0 -78.89948040217458,33.683587630273294,0.0 -78.89946965492955,33.68359508227653,0.0 -78.8994594577478,33.683604260433924,0.0 -78.89945145689765,33.68361492770154,0.0 -78.8994472999581,33.683626066469344,0.0 -78.89944627970152,33.68363791116606,0.0 -78.89944824027687,33.68364983445653,0.0 -78.89945255565777,33.68366120900358,0.0 -78.89945883032149,33.683671641903146,0.0 -78.89946628238852,33.683681368892934,0.0 -78.8994744403734,33.68369093872495,0.0 -78.89948346143804,33.6837001156583,0.0 -78.89949295267859,33.683708666569096,0.0 -78.89952362404475,33.68373345361591,0.0 -78.89953374262232,33.683741925949036,0.0 -78.89954346960504,33.68375071129267,0.0 -78.89958120013237,33.68378663715742,0.0 -78.89960802627836,33.68381095401387,0.0 -78.89961594983238,33.6838191120151,0.0 -78.89962285183574,33.683827348592324,0.0 -78.89962873490684,33.68383644824087,0.0 -78.89963297171013,33.68384546930161,0.0 -78.89963563820734,33.6838541760333,0.0 -78.89963657985689,33.68386209826191,0.0 -78.89963548102625,33.68386884439323,0.0 -78.89963195143152,33.683873942942554,0.0 -78.89962473508979,33.68387708089185,0.0 -78.89961485093241,33.68387810108455,0.0 -78.89960308476677,33.68387762954911,0.0 -78.89959021978069,33.683876139081505,0.0 -78.89957672876835,33.683874021276736,0.0 -78.89955013702962,33.68386892259318,0.0 -78.89954048861877,33.68386688338602,0.0 -78.89953170328737,33.68386460844131,0.0 -78.89952409404964,33.68386170616746,0.0 -78.89951797522907,33.683857940824424,0.0 -78.89951279807188,33.683851586257916,0.0 -78.89950950423633,33.683844056921245,0.0 -78.8995047186867,33.6838278195486,0.0 -78.89950150212206,33.68382044606367,0.0 -78.89949640354503,33.68381464025142,0.0 -78.89948887419895,33.68381079763125,0.0 -78.89947930305946,33.68380860126351,0.0 -78.89946832139321,33.68380734523609,0.0 -78.89945639806598,33.68380679642911,0.0 -78.89943176822233,33.68380601182398,0.0 -78.89941992347532,33.68380585461006,0.0 -78.89940917623946,33.68380640331604,0.0 -78.89940007788898,33.683808286588196,0.0 -78.89939341030238,33.68381205187422,0.0 -78.89938972354464,33.683818170659706,0.0 -78.89938854613133,33.683826405891175,0.0 -78.8993891734551,33.68383613285062,0.0 -78.89939113534172,33.68384688005282,0.0 -78.89939388041594,33.68385841044427,0.0 -78.89940376452296,33.68389527784123,0.0 -78.89940650959583,33.683907828469565,0.0 -78.89940847017063,33.683920223243,0.0 -78.89940917607206,33.68393238095965,0.0 -78.89940807854455,33.68394406849499,0.0 -78.89940478337458,33.68395512868615,0.0 -78.8993996061954,33.683965405683246,0.0 -78.89939293860104,33.68397497544914,0.0 -78.89938501633455,33.68398344639209,0.0 -78.89937599524822,33.6839906626614,0.0 -78.89936595523295,33.68399615408408,0.0 -78.89935505083149,33.683999605029236,0.0 -78.89934367756663,33.68400156687169,0.0 -78.89932171291763,33.6840040761111,0.0 -78.89931237882465,33.684006037962746,0.0 -78.8993050839017,33.68400948892391,0.0 -78.89930069122725,33.68401490179139,0.0 -78.8992984163034,33.68402203951023,0.0 -78.89929771037455,33.684030511795,0.0 -78.8992985734256,33.684051690554234,0.0 -78.89929857340901,33.684064162589756,0.0 -78.89929763173194,33.68407694894312,0.0 -78.89929543538199,33.68408926380791,0.0 -78.8992914342946,33.684100245415266,0.0 -78.89928547261854,33.684109345011024,0.0 -78.89927715875919,33.68411663986394,0.0 -78.89926852927059,33.684121268217126,0.0 -78.89926131292998,33.68412354309044,0.0 -78.89925692026303,33.68412338590983,0.0 -78.89925707742069,33.68412636673098,0.0 -78.899255744159,33.684131858192565,0.0 -78.89925284189803,33.6841392316501,0.0 -78.89924829205827,33.68414746686659,0.0 -78.8992420160602,33.684155546223984,0.0 -78.89923377947258,33.6841625280649,0.0 -78.89922209187976,33.68416794089982,0.0 -78.89920867813164,33.68417100024087,0.0 -78.89919471563012,33.68417217626674,0.0 -78.89917000720439,33.684172254736936,0.0 -78.89916035878937,33.684173352201604,0.0 -78.89915267096238,33.6841768044707,0.0 -78.89914757236971,33.68418268750837,0.0 -78.89914412135195,33.68419060971725,0.0 -78.89914145352115,33.68419994375947,0.0 -78.89913651206983,33.68422104522192,0.0 -78.89913313831904,33.68423218399316,0.0 -78.89912843262287,33.684243714351254,0.0 -78.89912270668594,33.68425524601458,0.0 -78.899116194941,33.68426669778423,0.0 -78.89910905716903,33.6842781508607,0.0 -78.89910152649291,33.68428960262562,0.0 -78.8990856819523,33.68431235161062,0.0 -78.89906905160385,33.684334863540826,0.0 -78.89905187249995,33.68435698387578,0.0 -78.8990430085702,33.684367886881,0.0 -78.89903391020817,33.684378476872844,0.0 -78.89902441763263,33.68438883112137,0.0 -78.8990144561923,33.684398715194526,0.0 -78.89900386610621,33.68440804920135,0.0 -78.89899233567051,33.684416834450076,0.0 -78.89898025516986,33.68442507094253,0.0 -78.89896762591388,33.68443283725919,0.0 -78.89895468364479,33.684440289252485,0.0 -78.89894142705273,33.6844475055028,0.0 -78.89891452096512,33.684461546408805,0.0 -78.89888722328381,33.68447503855924,0.0 -78.89885953269929,33.68448798064448,0.0 -78.89884557019101,33.68449417796438,0.0 -78.89883145052153,33.68450006096164,0.0 -78.89881709641989,33.68450547247487,0.0 -78.89880258384761,33.68451041512368,0.0 -78.89878752382974,33.68451480770651,0.0 -78.89877230534135,33.68451865153482,0.0 -78.89872649533517,33.68452916147248,0.0 -78.89871159117006,33.684532926721644,0.0 -78.8986970799083,33.68453724072645,0.0 -78.89868327456321,33.68454226195895,0.0 -78.89867025240517,33.684548457973335,0.0 -78.89865840764813,33.68455583139095,0.0 -78.8986475045495,33.684564382210645,0.0 -78.89863722878674,33.68457363763827,0.0 -78.89862734461732,33.68458360029218,0.0 -78.89861785335162,33.68459387596026,0.0 -78.89860859782772,33.68460454453181,0.0 -78.89858153455334,33.68463733212572,0.0 -78.89851964420406,33.68471538193336,0.0 -78.89849367975,33.684749111188516,0.0 -78.89847704940094,33.68477193744054,0.0 -78.89846912713033,33.68478346909386,0.0 -78.89846206793978,33.68479437210705,0.0 -78.89843508323128,33.68483829979704,0.0 -78.89842802404104,33.68484896706874,0.0 -78.89842072779899,33.68485932132705,0.0 -78.89841257109768,33.68486928398864,0.0 -78.89840198101139,33.68487877515628,0.0 -78.89838880299813,33.6848874032366,0.0 -78.89837374166649,33.684894855220236,0.0 -78.8983576614055,33.684900895369665,0.0 -78.8983413454042,33.68490536652734,0.0 -78.89832557816129,33.68490803295516,0.0 -78.8983113013367,33.68490897454773,0.0 -78.89830031966953,33.684908347164274,0.0 -78.8982917700794,33.684906935296404,0.0 -78.89828620001181,33.68490536628082,0.0 -78.8982842394223,33.68490411160333,0.0 -78.8982178778938,33.68493046720718,0.0 -78.89821560297975,33.68493015287497,0.0 -78.8982089353964,33.68493140882361,0.0 -78.89819889407516,33.68493407527709,0.0 -78.89818610897245,33.68493784053564,0.0 -78.89817159640049,33.68494254744286,0.0 -78.89815614347674,33.68494819469256,0.0 -78.8981395930396,33.68495501933515,0.0 -78.89810884304156,33.684968275728416,0.0 -78.89809590077583,33.684973138493966,0.0 -78.89808538927973,33.68497549193301,0.0 -78.89807746702556,33.684974707402205,0.0 -78.89807056370717,33.6849704718823,0.0 -78.89795541138301,33.684975334190845,0.0</coordinates>
                    </LinearRing>
                </outerBoundaryIs>
            </Polygon>
        </Placemark>
        <Placemark id="3443">
            <name>Flood_374</name>
            <styleUrl>#3448</styleUrl>
            <Polygon id="3442">
                <outerBoundaryIs>
                    <LinearRing id="3446">
                        <coordinates>-78.89180986562037,33.69343397991628,0.0 -78.89184265483327,33.693392171312205,0.0 -78.89204260385553,33.69329215889555,0.0 -78.89206425288502,33.69328133453066,0.0 -78.89206950865626,33.69326376264573,0.0 -78.89211398560549,33.693114175703734,0.0 -78.89216889536854,33.693035655701436,0.0 -78.89221862808877,33.69286849687422,0.0 -78.89226867363806,33.69283398192819,0.0 -78.89229636425078,33.69280268475169,0.0 -78.89235731293563,33.6927338917325,0.0 -78.89219187944367,33.6926785113739,0.0 -78.89221972593296,33.69262956370873,0.0 -78.89227887123832,33.69252460924591,0.0 -78.89229942409447,33.692492840553896,0.0 -78.89231950414937,33.69246577752193,0.0 -78.89235535277076,33.692426949751365,0.0 -78.89242273459469,33.69236529448964,0.0 -78.892498508858,33.692297600354756,0.0 -78.89257342134377,33.69223547495377,0.0 -78.89264307807301,33.692180408676926,0.0 -78.8926906928535,33.69214722827808,0.0 -78.89273540406175,33.69212212725094,0.0 -78.8927996478475,33.692092240760154,0.0 -78.89274497382216,33.692174840402174,0.0 -78.8927339921014,33.692212335036835,0.0 -78.8927214413922,33.692243789443395,0.0 -78.89271806892475,33.69227320603749,0.0 -78.8927304623876,33.692302934405866,0.0 -78.8927430130258,33.69232278127738,0.0 -78.89273171698716,33.692356432014556,0.0 -78.89271391052512,33.692392201776265,0.0 -78.89271414620545,33.692436991351514,0.0 -78.8927292074219,33.69251362967,0.0 -78.89273132516638,33.69251974717144,0.0 -78.8927414437157,33.69254877092433,0.0 -78.89277980158411,33.69258218745562,0.0 -78.89282082727416,33.69261348625463,0.0 -78.89284333930819,33.69265647119915,0.0 -78.89281180605323,33.692717029116444,0.0 -78.89276411269948,33.69274463946707,0.0 -78.89271712661377,33.69274275725024,0.0 -78.89267280704016,33.692738755991556,0.0 -78.89266362876769,33.69276275967257,0.0 -78.89265923608302,33.69277515310669,0.0 -78.8926513923789,33.69279625324437,0.0 -78.89264676395213,33.69280833366519,0.0 -78.89260071814226,33.692860262067924,0.0 -78.89269971166324,33.69283829926942,0.0 -78.89276270070273,33.692861125881166,0.0 -78.89279862778514,33.69290866200735,0.0 -78.89282286598622,33.69294560804854,0.0 -78.89280215727284,33.6929812979067,0.0 -78.89279737169224,33.692987809588885,0.0 -78.89280427486436,33.693097784337,0.0 -78.89265955003235,33.69304483482859,0.0 -78.89264903853606,33.69304679667379,0.0 -78.89263272252788,33.69305526757717,0.0 -78.89260040472762,33.69314939769866,0.0 -78.89265554872948,33.69321050345473,0.0 -78.89269351518098,33.69311606034663,0.0 -78.89279744999655,33.69318736476395,0.0 -78.89264676321366,33.69334087369941,0.0 -78.89269829897275,33.693455242610376,0.0 -78.89266268597835,33.6935772190258,0.0 -78.89266119525604,33.69379803152783,0.0 -78.89264080089404,33.69381324985784,0.0 -78.89263570231823,33.69380650369885,0.0 -78.89263115249568,33.6938017181258,0.0 -78.89262903475571,33.69379238406263,0.0 -78.8926153852919,33.69377520499387,0.0 -78.89255749626732,33.693665621606144,0.0 -78.89251074473148,33.69357910033592,0.0 -78.89249905718836,33.69354788025083,0.0 -78.892492075331,33.69351328777421,0.0 -78.89245128536497,33.69349508965458,0.0 -78.89241457502827,33.69349461800427,0.0 -78.89238225740183,33.69346339913489,0.0 -78.89225635793282,33.69339648726726,0.0 -78.89219689842977,33.693410842343425,0.0 -78.892217449863,33.69346057341472,0.0 -78.89221807843587,33.693513522266414,0.0 -78.89214520516826,33.69354183972615,0.0 -78.8921018271947,33.693580667461795,0.0 -78.89207727462183,33.6935787067664,0.0 -78.8920576631883,33.69378100692892,0.0 -78.8920645665033,33.69378791025703,0.0 -78.89205868339735,33.69380391183887,0.0 -78.89204872064266,33.693816149396156,0.0 -78.89203891639835,33.69380030359413,0.0 -78.8920265215938,33.69379355740189,0.0 -78.89203491535167,33.69378124256661,0.0 -78.8920127165591,33.69357462683454,0.0 -78.89202369827642,33.693539798698524,0.0 -78.89195333582178,33.69345610098032,0.0 -78.89190580103048,33.6934179001645,0.0 -78.89182547570283,33.6934313920697,0.0 -78.89180986562037,33.69343397991628,0.0</coordinates>
                    </LinearRing>
                </outerBoundaryIs>
            </Polygon>
        </Placemark>
        <Placemark id="3452">
            <name>Flood_375</name>
            <styleUrl>#3457</styleUrl>
            <Polygon id="3451">
                <outerBoundaryIs>
                    <LinearRing id="3455">
                        <coordinates>-78.88749562989413,33.69962700420979,0.0 -78.88749421671822,33.699648575858426,0.0 -78.88749123582116,33.699693679738395,0.0 -78.88748692164056,33.699759179179246,0.0 -78.88744440671448,33.69981761798613,0.0 -78.88736047313006,33.69988876306722,0.0 -78.88731905565041,33.69999301168739,0.0 -78.88723386745234,33.70002211357903,0.0 -78.88714969942401,33.700100869179515,0.0 -78.88714169858522,33.70010204523052,0.0 -78.88709008407324,33.70010941846131,0.0 -78.88705941266345,33.700113810968936,0.0 -78.88706302083796,33.70011020283137,0.0 -78.88714538544576,33.70002501540918,0.0 -78.88717974365613,33.6999854031414,0.0 -78.8872202194015,33.69993292596555,0.0 -78.88724508503384,33.699903745214264,0.0 -78.88737216088326,33.699772826770705,0.0 -78.8874426807421,33.69968748213229,0.0 -78.88748543139707,33.6996384572696,0.0 -78.88749202040938,33.69963100524984,0.0 -78.88749562989413,33.69962700420979,0.0</coordinates>
                    </LinearRing>
                </outerBoundaryIs>
            </Polygon>
        </Placemark>
        <Placemark id="3461">
            <name>Flood_376</name>
            <styleUrl>#3466</styleUrl>
            <Polygon id="3460">
                <outerBoundaryIs>
                    <LinearRing id="3464">
                        <coordinates>-78.72513237847666,33.9210979341571,0.0 -78.72516328409988,33.921084598980066,0.0 -78.72517865853263,33.92111668091387,0.0 -78.72518210961232,33.92113362425192,0.0 -78.72512194575938,33.92112632934672,0.0 -78.72511331625304,33.92111425016415,0.0 -78.72510829624152,33.92110844435108,0.0 -78.72513237847666,33.9210979341571,0.0</coordinates>
                    </LinearRing>
                </outerBoundaryIs>
            </Polygon>
        </Placemark>
        <Placemark id="3470">
            <name>Flood_377</name>
            <styleUrl>#3475</styleUrl>
            <Polygon id="3469">
                <outerBoundaryIs>
                    <LinearRing id="3473">
                        <coordinates>-78.93940493837755,33.65628783777689,0.0 -78.9394030563777,33.65627756205431,0.0 -78.93938979849496,33.656271364614014,0.0 -78.93936807088643,33.656291760101375,0.0 -78.9393661089823,33.65629560268147,0.0 -78.93935975571934,33.6563018000398,0.0 -78.93935520590128,33.65629199447964,0.0 -78.9393279868343,33.656282973320465,0.0 -78.93932226092198,33.65627489390782,0.0 -78.93930971024653,33.65628870045556,0.0 -78.93926107525618,33.65631897864262,0.0 -78.93924028931653,33.65633019592734,0.0 -78.93919510666198,33.656340392872906,0.0 -78.93918318333294,33.656344392572386,0.0 -78.93917698592912,33.65634321645784,0.0 -78.93916796484403,33.65635372787646,0.0 -78.9391391767576,33.6563680032203,0.0 -78.93911799793027,33.65636267013286,0.0 -78.93910223068238,33.65637529926877,0.0 -78.9390783840296,33.65637772992703,0.0 -78.93906324543241,33.65638588783313,0.0 -78.93905171500504,33.65639208516992,0.0 -78.93903712385433,33.65639992875612,0.0 -78.93902794692269,33.65640502728485,0.0 -78.93902237685127,33.65640816524436,0.0 -78.9390084929289,33.656414675583754,0.0 -78.93898362734409,33.65641828363613,0.0 -78.93894942636672,33.656416480070014,0.0 -78.93888651588807,33.65642455919602,0.0 -78.93887929954896,33.656427854309634,0.0 -78.93887576865171,33.65642824588794,0.0 -78.93887349373914,33.65642699120917,0.0 -78.93884101889562,33.656449660248356,0.0 -78.93883380255998,33.65644942447663,0.0 -78.93880877983337,33.65643295258227,0.0 -78.93877457882319,33.65646432833744,0.0 -78.93876901006232,33.656466603220736,0.0 -78.93873904457968,33.65647468248428,0.0 -78.93873378883406,33.656475153945586,0.0 -78.93872978907102,33.656476015695375,0.0 -78.93870798160053,33.65646762320314,0.0 -78.9387037460976,33.656465897033044,0.0 -78.93869739152215,33.65647483947141,0.0 -78.9386943333973,33.65649750863338,0.0 -78.938657936093,33.656489586253755,0.0 -78.93863228599923,33.6565039415007,0.0 -78.93862224468626,33.65650158797173,0.0 -78.93857823943854,33.656507000677124,0.0 -78.93857462996039,33.656507549416176,0.0 -78.93857078735847,33.65650888264987,0.0 -78.93856710060966,33.65650896121497,0.0 -78.93854529312607,33.65651366809795,0.0 -78.93854058613805,33.65651233351883,0.0 -78.93852944861871,33.65651437394698,0.0 -78.93850818990164,33.65650849079537,0.0 -78.93847414608179,33.65651076425,0.0 -78.93843398474596,33.656514529399615,0.0 -78.93841131419286,33.65650966647948,0.0 -78.93839892071307,33.65648919357898,0.0 -78.93840299906454,33.6564806427241,0.0 -78.93839037115029,33.656461895975035,0.0 -78.93837578002137,33.65644769772112,0.0 -78.93836934819002,33.656441421728886,0.0 -78.93835711186729,33.656425420061446,0.0 -78.93834401114898,33.65641632038079,0.0 -78.93833969707326,33.6564065934022,0.0 -78.93833953991553,33.65640282808418,0.0 -78.93833287234227,33.65639600464664,0.0 -78.93832267518523,33.65638580616032,0.0 -78.9383211061921,33.65638251231966,0.0 -78.93832369543411,33.656377492343964,0.0 -78.9383142042045,33.65635725388748,0.0 -78.9383134197136,33.65634995899124,0.0 -78.9383094972251,33.656347369746264,0.0 -78.93830667355952,33.65634321282417,0.0 -78.9383046330767,33.65634486038746,0.0 -78.93828667081753,33.656345173325015,0.0 -78.93827427603281,33.656319837599135,0.0 -78.93826823710022,33.65631873875604,0.0 -78.93826462893757,33.656313404432304,0.0 -78.93824564514641,33.65629544215246,0.0 -78.9382446262253,33.65628555802665,0.0 -78.93822132836596,33.65625033813363,0.0 -78.93821693570303,33.656247121552056,0.0 -78.93821191570407,33.65624327763326,0.0 -78.93817355782237,33.65622202012885,0.0 -78.93816838066213,33.65621786188722,0.0 -78.93815606444,33.65621088126495,0.0 -78.93814335662402,33.656203507738375,0.0 -78.9381308059842,33.656181465846004,0.0 -78.93812021723595,33.65616828653645,0.0 -78.93810397983755,33.65615612875024,0.0 -78.93810688209363,33.656150481441315,0.0 -78.93810170493289,33.65614695053432,0.0 -78.93807942731499,33.65611086756944,0.0 -78.93810209660496,33.656068901729405,0.0 -78.9381088427692,33.65606544945275,0.0 -78.93810970586101,33.65605258582277,0.0 -78.93809974311549,33.656063724572,0.0 -78.93809056619098,33.65606176263973,0.0 -78.93803510775932,33.65610121900446,0.0 -78.93806601363045,33.65605446764427,0.0 -78.93806162096949,33.65604929047836,0.0 -78.93807864289046,33.65603705425051,0.0 -78.93808884007521,33.656019326524365,0.0 -78.9381028811429,33.65602913212398,0.0 -78.93811754954872,33.65603744600579,0.0 -78.93812076614722,33.65601242335757,0.0 -78.93811653065185,33.656003246443085,0.0 -78.93813951422933,33.65599704915419,0.0 -78.93814924122282,33.65599563736444,0.0 -78.93814531873628,33.655991008954615,0.0 -78.93813504302202,33.655957279526746,0.0 -78.93813606195611,33.65595406296786,0.0 -78.93814500446076,33.65594331711694,0.0 -78.93817983280955,33.65590997947033,0.0 -78.93820446398372,33.65588424968656,0.0 -78.93821128873275,33.655876720390125,0.0 -78.9382116017585,33.65586440420226,0.0 -78.93822125016753,33.655866600568444,0.0 -78.93824580275795,33.6558437743351,0.0 -78.9382469788534,33.655840872098935,0.0 -78.93824031129807,33.655816085151045,0.0 -78.93824038988164,33.65581326018118,0.0 -78.93823842930438,33.6557998477853,0.0 -78.93825474529875,33.655796709870685,0.0 -78.9382694137086,33.65580086684215,0.0 -78.93827263028312,33.65580000377936,0.0 -78.93828337622988,33.65577607998027,0.0 -78.93829608405676,33.655772549147855,0.0 -78.9383061240662,33.65576862802107,0.0 -78.93831451780375,33.655769098229605,0.0 -78.93833420624736,33.65574211506563,0.0 -78.938337815729,33.655738035441246,0.0 -78.93833506933798,33.65573042621458,0.0 -78.93835483763951,33.65573615350843,0.0 -78.93838386012824,33.65575239098725,0.0 -78.93840754962844,33.65574085939244,0.0 -78.9384193943912,33.65572226859695,0.0 -78.93841696363246,33.65571520943543,0.0 -78.93842598339668,33.65571591538816,0.0 -78.93843100470848,33.655716621324295,0.0 -78.93849124736737,33.65571011117799,0.0 -78.9385157213519,33.65571246476705,0.0 -78.93851901649211,33.65572674024473,0.0 -78.93852450666222,33.655734506643846,0.0 -78.93853446939274,33.655738506434616,0.0 -78.9385856136803,33.65575780340794,0.0 -78.93860271284855,33.655769413753234,0.0 -78.93860506634327,33.65576933518255,0.0 -78.93862852139071,33.655777884842564,0.0 -78.93865809395575,33.655783297855066,0.0 -78.9386619365569,33.65578274911704,0.0 -78.93866931005368,33.6557834550629,0.0 -78.93873802632956,33.65578855391653,0.0 -78.93875402799006,33.6557961631984,0.0 -78.93877497237445,33.6558116947285,0.0 -78.93882344885593,33.65581930283618,0.0 -78.93884062792257,33.655822911064014,0.0 -78.93884776567658,33.655824009911655,0.0 -78.93889883138245,33.655844248541456,0.0 -78.93891499020745,33.655849032853716,0.0 -78.93891318674267,33.65588503713793,0.0 -78.93891491158854,33.655887469212665,0.0 -78.93891789240664,33.65590080434202,0.0 -78.93891146055138,33.65591853208395,0.0 -78.93889890986452,33.6559439475962,0.0 -78.93891451993083,33.65595155556677,0.0 -78.9388861234146,33.65599014896858,0.0 -78.93888549604699,33.65602136901272,0.0 -78.93888988870125,33.656033370898214,0.0 -78.93888981009663,33.65605745190294,0.0 -78.9388846329199,33.656069923922054,0.0 -78.93889185055916,33.656076199917585,0.0 -78.93889577172668,33.6560903195464,0.0 -78.93890424402711,33.65610875326572,0.0 -78.93890651893892,33.65611087102068,0.0 -78.93893044284924,33.65612208849196,0.0 -78.93893789492486,33.65612467644198,0.0 -78.93894950523756,33.65612365756285,0.0 -78.93895625139594,33.65612608834892,0.0 -78.93897711589445,33.656136992794906,0.0 -78.93898511803887,33.65613636549367,0.0 -78.93900488504505,33.656127657543195,0.0 -78.93901469062652,33.65611902944135,0.0 -78.93903406471635,33.65612287341999,0.0 -78.93905226403166,33.656118480844,0.0 -78.93905422462414,33.656116597538684,0.0 -78.93905861729438,33.65611244064667,0.0 -78.93906818712473,33.656112597847695,0.0 -78.93908999459775,33.65611848100145,0.0 -78.9390982311503,33.6561426406215,0.0 -78.93906300992762,33.65614577845729,0.0 -78.93905751974867,33.656146875942454,0.0 -78.93905328292871,33.65615268171666,0.0 -78.93905022482416,33.65615479944936,0.0 -78.93904881167352,33.65616099551877,0.0 -78.93905147948614,33.65616625125795,0.0 -78.93905681380178,33.65617660557548,0.0 -78.93908528755257,33.656174958122484,0.0 -78.93908560185923,33.65619166696499,0.0 -78.93912709776346,33.65618303899532,0.0 -78.93915078724984,33.65618539127162,0.0 -78.9391649056076,33.65617605727255,0.0 -78.93921157867672,33.656166879260724,0.0 -78.9392426416411,33.656188922540316,0.0 -78.93924695703448,33.656190568820634,0.0 -78.93925950769636,33.656190490292424,0.0 -78.93926774296916,33.65618445141265,0.0 -78.93927276428072,33.656185313200105,0.0 -78.93929111945712,33.65617150798627,0.0 -78.93931512195569,33.656175194823255,0.0 -78.93932288836102,33.6561711951064,0.0 -78.93933787109823,33.65617119516893,0.0 -78.9393525395091,33.6561744104837,0.0 -78.93938728925204,33.65616625265939,0.0 -78.93939881965454,33.65618523645541,0.0 -78.93939113313564,33.65619331581199,0.0 -78.93939160330314,33.656201002300044,0.0 -78.93939348526753,33.65624720504364,0.0 -78.93939387816039,33.65625842241681,0.0 -78.93940289924608,33.65624720508294,0.0 -78.93943247185281,33.65621049368971,0.0 -78.93943160877946,33.65620476778441,0.0 -78.93943804062114,33.656200610900896,0.0 -78.93946259320381,33.65618554973394,0.0 -78.93946706443619,33.65620037528045,0.0 -78.93946800608788,33.656208533253626,0.0 -78.93949922620055,33.65624414608284,0.0 -78.9394542779914,33.65624155666658,0.0 -78.93944690449496,33.65624045912763,0.0 -78.93943474675596,33.65622139805818,0.0 -78.9394134107364,33.65624720512682,0.0 -78.93939701614471,33.65626712915329,0.0 -78.9394089394626,33.6562744240961,0.0 -78.93940493837755,33.65628783777689,0.0</coordinates>
                    </LinearRing>
                </outerBoundaryIs>
            </Polygon>
        </Placemark>
        <Placemark id="3479">
            <name>Flood_378</name>
            <styleUrl>#3484</styleUrl>
            <Polygon id="3478">
                <outerBoundaryIs>
                    <LinearRing id="3482">
                        <coordinates>-78.92901927394358,33.68823582238409,0.0 -78.9293415910897,33.68859634081974,0.0 -78.92934551355206,33.68862410988624,0.0 -78.92934927886795,33.68863783661174,0.0 -78.92935806416901,33.688669213856016,0.0 -78.92936841846077,33.688706395589044,0.0 -78.92937414436733,33.6887205924969,0.0 -78.92937430152115,33.688727888699596,0.0 -78.92937516459374,33.688734084778176,0.0 -78.92938708784021,33.68881056594983,0.0 -78.92939344107351,33.68883417680776,0.0 -78.92940152042722,33.688893321788086,0.0 -78.92942199329454,33.68894321003817,0.0 -78.92942881800269,33.6889762348454,0.0 -78.92943854492717,33.689041811649446,0.0 -78.9294572929208,33.689114997708565,0.0 -78.92946294023585,33.68913923589791,0.0 -78.92946396046732,33.68914802251521,0.0 -78.92947643246995,33.68922442379934,0.0 -78.92948764985039,33.689252820233406,0.0 -78.92949815997558,33.68930733683166,0.0 -78.92950569059657,33.689344832874205,0.0 -78.92952145778796,33.68939017129061,0.0 -78.92954804944738,33.689471751095454,0.0 -78.92955683473527,33.689515521798796,0.0 -78.92957840637288,33.68961365194979,0.0 -78.92959307471882,33.68968119067015,0.0 -78.92959636983117,33.68972135319287,0.0 -78.92961064528201,33.689780654052754,0.0 -78.92961190124028,33.689804030455825,0.0 -78.92962515774477,33.689877450922424,0.0 -78.92962703973974,33.68989196344476,0.0 -78.9296352762869,33.689921457373515,0.0 -78.92964633648951,33.689965149506655,0.0 -78.92966077042476,33.69001221406955,0.0 -78.92971575719545,33.690155135272946,0.0 -78.92971693459033,33.690162195738644,0.0 -78.92971834641911,33.69016831323917,0.0 -78.92972705314027,33.69019898456829,0.0 -78.92973693725926,33.690234125825114,0.0 -78.92974219298848,33.69025044178586,0.0 -78.92974360481028,33.69026307099285,0.0 -78.92976360744511,33.69036692834794,0.0 -78.929772548599,33.69039775552952,0.0 -78.92978392313026,33.6904364276783,0.0 -78.92978823716157,33.69048819916905,0.0 -78.92978855147823,33.690494317974235,0.0 -78.92978902164117,33.690505769778625,0.0 -78.92979113936302,33.69053487208677,0.0 -78.92980674934567,33.69062453123037,0.0 -78.92980910282904,33.69063574730173,0.0 -78.9298147501393,33.690664613884316,0.0 -78.92982290806825,33.690729250334684,0.0 -78.92982832088934,33.690810985895446,0.0 -78.92983694902978,33.6908416572243,0.0 -78.9298706796548,33.69101862203616,0.0 -78.92987805312555,33.69104560531338,0.0 -78.92988848597767,33.691102240966586,0.0 -78.92986314892934,33.69107870860289,0.0 -78.92984110702551,33.69106537338736,0.0 -78.92980510129382,33.69106819688442,0.0 -78.92978478554174,33.69106121491243,0.0 -78.92976674340575,33.69104372280501,0.0 -78.9297076768557,33.69101767964056,0.0 -78.929687282507,33.691025523194476,0.0 -78.92967512341791,33.69104223197893,0.0 -78.929652532704,33.691079492143544,0.0 -78.92964162825871,33.691124124524215,0.0 -78.92964625663214,33.69115824682987,0.0 -78.92964147231856,33.69120656728444,0.0 -78.92968398708445,33.691275203639464,0.0 -78.9296663378185,33.691289480331676,0.0 -78.92960193688907,33.69131183489,0.0 -78.92959111239728,33.691297559378356,0.0 -78.92958428766376,33.69128814540012,0.0 -78.92958577809516,33.69127386994434,0.0 -78.92957032525155,33.69120538956358,0.0 -78.92952004408649,33.69113251768293,0.0 -78.92951871084327,33.691122084802146,0.0 -78.92950835653446,33.691100591671145,0.0 -78.9294844313622,33.69103901455142,0.0 -78.92945925149704,33.69099540093472,0.0 -78.92943093363402,33.69095563120122,0.0 -78.92941367731034,33.69093421661946,0.0 -78.92935460948966,33.69087193342552,0.0 -78.92931727185325,33.6908375765399,0.0 -78.92928981707966,33.69078831428269,0.0 -78.92923686940361,33.690717794567576,0.0 -78.9292299660931,33.690704852323435,0.0 -78.92922204384743,33.6906955182306,0.0 -78.92918996063115,33.690677005822565,0.0 -78.92912485385337,33.69063511686775,0.0 -78.92911081278355,33.690624135175476,0.0 -78.92910594994505,33.69062029125596,0.0 -78.92909857646995,33.69059746488899,0.0 -78.92906508146328,33.690537143705065,0.0 -78.92904413708467,33.69051172804829,0.0 -78.92902954726617,33.69049400021519,0.0 -78.9290168394526,33.69048137095723,0.0 -78.92900115081015,33.690465760864406,0.0 -78.92898867873885,33.69045336734907,0.0 -78.92893369189628,33.69037790621969,0.0 -78.92892655283808,33.690369905380074,0.0 -78.9289095309489,33.69034715754998,0.0 -78.92889203888619,33.690322760836395,0.0 -78.92887619310426,33.69028659931569,0.0 -78.92884324818432,33.690206981376335,0.0 -78.92883948287032,33.6901916070791,0.0 -78.92883352119853,33.690198509041736,0.0 -78.9287413524858,33.69016878030157,0.0 -78.92868432513478,33.69011842040309,0.0 -78.92864455410451,33.69009190715328,0.0 -78.92858627205182,33.690067588835774,0.0 -78.9285802317537,33.690116693779906,0.0 -78.92855646366749,33.6901257932974,0.0 -78.92854509040396,33.690126341999914,0.0 -78.92853552058193,33.69011590908199,0.0 -78.92851363454552,33.690088532837024,0.0 -78.92851026217889,33.69003299603425,0.0 -78.92854775703282,33.690015111275926,0.0 -78.92863349400542,33.689952594306064,0.0 -78.92857568216928,33.689889998106395,0.0 -78.92855764134728,33.6898688179534,0.0 -78.92855403318335,33.689864189544075,0.0 -78.92854516928278,33.68985022705404,0.0 -78.92851865609727,33.689868190442645,0.0 -78.92845229327638,33.68988223117302,0.0 -78.92844225327978,33.689871249498935,0.0 -78.92843362512899,33.68985054087173,0.0 -78.92845566705395,33.689843951994234,0.0 -78.92850508527964,33.68978614052395,0.0 -78.92851387061967,33.689781277738724,0.0 -78.92853230438044,33.68977029488373,0.0 -78.92853991368084,33.689716171270405,0.0 -78.92846915819882,33.68972448477035,0.0 -78.92845080304528,33.689711070991414,0.0 -78.9284413117956,33.68970848302988,0.0 -78.92839173651916,33.68966377048598,0.0 -78.92837589201488,33.68965741717876,0.0 -78.92835149662915,33.68963208008726,0.0 -78.92832302157797,33.68961749017408,0.0 -78.92826168010397,33.68960117396015,0.0 -78.9281993184453,33.6895329291102,0.0 -78.92819476867963,33.68947441148106,0.0 -78.92824324651735,33.689451193773785,0.0 -78.92816731521893,33.68942295420873,0.0 -78.92808769580276,33.68944860384267,0.0 -78.92806730142897,33.68947966663274,0.0 -78.92805726014498,33.689448133531705,0.0 -78.92801662735465,33.689413226568604,0.0 -78.92797113172553,33.6893747114276,0.0 -78.92796587598554,33.68936859260022,0.0 -78.92795450141807,33.689363886885005,0.0 -78.92795748226315,33.68935204219372,0.0 -78.92797317099003,33.689289445017124,0.0 -78.92797466141452,33.689281758538684,0.0 -78.92787566797196,33.689240262334955,0.0 -78.92783550536598,33.68919696166414,0.0 -78.92783417216144,33.68915099597924,0.0 -78.92778483261996,33.6891136569097,0.0 -78.92778020421443,33.68910965583031,0.0 -78.92771266540292,33.68902995915554,0.0 -78.92772803978865,33.68898407081688,0.0 -78.92778326376758,33.68898054149077,0.0 -78.92781495410476,33.68897552164781,0.0 -78.92783087722485,33.68894947882352,0.0 -78.92783801633279,33.68891151267443,0.0 -78.92788445370249,33.688875508596325,0.0 -78.92791606543197,33.68889527567042,0.0 -78.92789331762616,33.68886805658299,0.0 -78.92789182727732,33.688806087973134,0.0 -78.92789229746953,33.68879039937316,0.0 -78.92798509485581,33.68879400794753,0.0 -78.927989723273,33.68878718324972,0.0 -78.9280003120505,33.688775025580306,0.0 -78.92798548647039,33.688775338525865,0.0 -78.92789692589368,33.6887772214397,0.0 -78.92788672871875,33.688781771206195,0.0 -78.9278337796959,33.68874702134887,0.0 -78.92778985306572,33.68870693722426,0.0 -78.92774059071806,33.68874098070544,0.0 -78.92768944766676,33.6887775335163,0.0 -78.92760990687307,33.68876513969886,0.0 -78.92759241484399,33.68871030874811,0.0 -78.92758543294649,33.68870332814651,0.0 -78.9275375837645,33.68871815345666,0.0 -78.9275295829684,33.688681207476584,0.0 -78.92753350436122,33.68848792690286,0.0 -78.92754150651024,33.68848510327876,0.0 -78.92753899586319,33.68847600364251,0.0 -78.92757343129107,33.68846988499402,0.0 -78.9277078031912,33.6884494127532,0.0 -78.92772356912181,33.68844894265076,0.0 -78.92773761020547,33.68844682365921,0.0 -78.92775463212166,33.68844423581722,0.0 -78.92776326160497,33.68844376568263,0.0 -78.92777000776802,33.68844337281041,0.0 -78.92785974444979,33.68843003809954,0.0 -78.92787943418331,33.6884286263581,0.0 -78.92789778935291,33.68842697886918,0.0 -78.92791496843026,33.68842486120138,0.0 -78.92808236260491,33.68840580093934,0.0 -78.92809718818712,33.68840360468043,0.0 -78.92812338834305,33.68840007522319,0.0 -78.92828544951259,33.68836940466426,0.0 -78.9283605177736,33.68835834479336,0.0 -78.92841801668632,33.68833669480758,0.0 -78.92845621744226,33.68833277381147,0.0 -78.92849394803316,33.68831951744648,0.0 -78.9285551323653,33.68831700707438,0.0 -78.92861772984041,33.6883162228608,0.0 -78.92868244376326,33.688311203166364,0.0 -78.9287579049324,33.68829629939975,0.0 -78.92887337160866,33.68826641312607,0.0 -78.92890012051738,33.6882659430731,0.0 -78.92893973311398,33.68825692220698,0.0 -78.92899432976279,33.688246882480875,0.0 -78.92901927394358,33.68823582238409,0.0</coordinates>
                    </LinearRing>
                </outerBoundaryIs>
            </Polygon>
        </Placemark>
        <Placemark id="3488">
            <name>Flood_379</name>
            <styleUrl>#3493</styleUrl>
            <Polygon id="3487">
                <outerBoundaryIs>
                    <LinearRing id="3491">
                        <coordinates>-78.92908508741897,33.68755071311292,0.0 -78.92897840583659,33.687805098755085,0.0 -78.92897260135189,33.68778854705058,0.0 -78.92896656113008,33.687766976668605,0.0 -78.92895071534814,33.68773112816072,0.0 -78.92890066996934,33.687619348445004,0.0 -78.92890749460557,33.68771896893933,0.0 -78.92890686725642,33.68773042204837,0.0 -78.92890827906099,33.68775897428933,0.0 -78.92890051255348,33.687855536625676,0.0 -78.92889933644582,33.68786934190933,0.0 -78.92887721593719,33.68787891160833,0.0 -78.92878692919562,33.68788738349251,0.0 -78.92869773998837,33.687875066903096,0.0 -78.92867444340493,33.68786792906698,0.0 -78.92865083246568,33.687891069616306,0.0 -78.92861333760406,33.687916719441276,0.0 -78.92853866096247,33.687904795819804,0.0 -78.92847943720463,33.687923307815595,0.0 -78.9284802217152,33.68791201186847,0.0 -78.92848053474239,33.68789938397915,0.0 -78.92847990741778,33.68788816660607,0.0 -78.9284292333213,33.687842590982015,0.0 -78.92840311308512,33.687819058616,0.0 -78.92839275875323,33.68781945147202,0.0 -78.92837730583608,33.68782007873703,0.0 -78.92832694601154,33.68782203909455,0.0 -78.9283181606534,33.687843767880345,0.0 -78.92830294212865,33.68788165541284,0.0 -78.92827023157663,33.68786298584211,0.0 -78.92824654209599,33.687849572039624,0.0 -78.92824615055328,33.68780180031619,0.0 -78.9282068510093,33.68777481689617,0.0 -78.9281876327513,33.68778493536216,0.0 -78.92816512064194,33.68780038812143,0.0 -78.92816245277277,33.687847218174376,0.0 -78.92810605268755,33.6878636124377,0.0 -78.92809420793084,33.68787200609433,0.0 -78.9280078437225,33.68784251050495,0.0 -78.9279467379901,33.687827841864916,0.0 -78.92790916455556,33.68784604094574,0.0 -78.92781958379659,33.687794660665396,0.0 -78.92780648305549,33.68780407324381,0.0 -78.92778051856718,33.68787647591438,0.0 -78.92776843933397,33.68792518792824,0.0 -78.9277239625603,33.68795703510574,0.0 -78.92771651047428,33.68796236807057,0.0 -78.92770890122816,33.687966290514325,0.0 -78.92768285822746,33.687975703034446,0.0 -78.92760928035791,33.68800943339405,0.0 -78.9275636275396,33.68799703972982,0.0 -78.92755711581155,33.68799531354829,0.0 -78.9275105213011,33.68801233519014,0.0 -78.92743255079469,33.68801813932064,0.0 -78.92740988023296,33.68801602147335,0.0 -78.92740501738321,33.688022689009124,0.0 -78.9273798374474,33.688045200906785,0.0 -78.92736744399295,33.688000096938715,0.0 -78.92736367868235,33.687981820401056,0.0 -78.92735301004537,33.687965504416475,0.0 -78.92732853610885,33.687913105501835,0.0 -78.92731127983167,33.68784988084258,0.0 -78.92728202038008,33.68774586759755,0.0 -78.92726868526337,33.687702881370534,0.0 -78.92726664610399,33.68769127239834,0.0 -78.92726068446295,33.68767001502952,0.0 -78.92725307524977,33.687643736357735,0.0 -78.92721361997029,33.68751022917627,0.0 -78.92721009039555,33.68749791297263,0.0 -78.92718483200103,33.687408646691196,0.0 -78.92715816179764,33.687295219511135,0.0 -78.92714898358983,33.68726698024821,0.0 -78.927151885864,33.687245958660924,0.0 -78.92715149427688,33.687239369682096,0.0 -78.92716059263853,33.68722697626436,0.0 -78.92718459649767,33.687189558945185,0.0 -78.92719087249301,33.68718226408119,0.0 -78.92722005220291,33.68714963233925,0.0 -78.9272281316307,33.68713974825503,0.0 -78.92723472063976,33.68713237481194,0.0 -78.92725511630444,33.68711833387323,0.0 -78.92726044932834,33.687112607996205,0.0 -78.92726837289649,33.687109784371565,0.0 -78.92727739397442,33.68710892133608,0.0 -78.92732116349964,33.68709629233246,0.0 -78.92736956273872,33.687088761916144,0.0 -78.92737638748385,33.6870871156848,0.0 -78.9275633142379,33.68705793564628,0.0 -78.92757421733013,33.68705354304386,0.0 -78.9276397956514,33.68703918798593,0.0 -78.92772788606202,33.68702773657966,0.0 -78.92777032232883,33.68701871572583,0.0 -78.92778310874053,33.68701487188592,0.0 -78.92779762000158,33.68701055788018,0.0 -78.92782578074942,33.68700616535527,0.0 -78.92789873257341,33.686988752238285,0.0 -78.92797411515414,33.686980123125416,0.0 -78.92801882633168,33.68697447600571,0.0 -78.92802659273876,33.686971180897224,0.0 -78.92803773157328,33.686966866876325,0.0 -78.9280717754141,33.686953531913886,0.0 -78.92813970593663,33.686924665662495,0.0 -78.92814676511428,33.68692325386402,0.0 -78.92818990860789,33.686914625916,0.0 -78.92819720352777,33.68691336996993,0.0 -78.92821085301706,33.68691101785426,0.0 -78.92840468309662,33.686880190274316,0.0 -78.92842115493902,33.68688489732186,0.0 -78.92843856975936,33.6868819951593,0.0 -78.92844445284601,33.686879014364365,0.0 -78.9284586510965,33.686871798116414,0.0 -78.92849763635161,33.68686677699577,0.0 -78.92850728476733,33.68686505219658,0.0 -78.92870048751118,33.68683304852508,0.0 -78.92872190207275,33.68685054064667,0.0 -78.92878536129714,33.68686787710561,0.0 -78.92880018687804,33.68686662250306,0.0 -78.92882928925248,33.68689321428416,0.0 -78.92884835030593,33.68692278684154,0.0 -78.92885431198253,33.68691117659547,0.0 -78.92885666549614,33.68689415475409,0.0 -78.92886372469225,33.686875565252386,0.0 -78.92883909355344,33.68686058245458,0.0 -78.92886192130463,33.68683657882532,0.0 -78.92895142353784,33.686836657807795,0.0 -78.9289557376176,33.686842933791944,0.0 -78.92897785810584,33.68685203220672,0.0 -78.9289977036575,33.68688184050921,0.0 -78.92900272364972,33.68689282216042,0.0 -78.92900076304049,33.686909530991166,0.0 -78.92899087884447,33.68694655547191,0.0 -78.928963895416,33.68702821230573,0.0 -78.9289621692518,33.68703354660605,0.0 -78.9289657773798,33.68707159138466,0.0 -78.92899182030536,33.68713175537277,0.0 -78.92898993697514,33.687141169311516,0.0 -78.92898578002833,33.687161563559094,0.0 -78.92901009682895,33.68719050880562,0.0 -78.92903284463934,33.6872134138219,0.0 -78.92903802173795,33.687275775351836,0.0 -78.92903833604841,33.68728769732881,0.0 -78.92905363173587,33.68735029464581,0.0 -78.92906022069653,33.68738786795458,0.0 -78.92906343720249,33.68745164130583,0.0 -78.9290637515196,33.68745736720833,0.0 -78.92907677231679,33.68749745119399,0.0 -78.92908077334904,33.68753533881328,0.0 -78.9290844600846,33.68754851678437,0.0 -78.92908508741897,33.68755071311292,0.0</coordinates>
                    </LinearRing>
                </outerBoundaryIs>
            </Polygon>
        </Placemark>
    </Document>
</kml>
