<?xml version="1.0" encoding="UTF-8"?>
<kml xmlns="http://www.opengis.net/kml/2.2" xmlns:gx="http://www.google.com/kml/ext/2.2">
    <Document id="1289">
        <Style id="1296">
            <LineStyle id="1298">
                <colorMode>normal</colorMode>
                <width>1</width>
            </LineStyle>
            <PolyStyle id="1297">
                <color>80ebce87</color>
                <colorMode>normal</colorMode>
                <fill>1</fill>
                <outline>1</outline>
            </PolyStyle>
        </Style>
        <Style id="1305">
            <LineStyle id="1307">
                <colorMode>normal</colorMode>
                <width>1</width>
            </LineStyle>
            <PolyStyle id="1306">
                <color>80ebce87</color>
                <colorMode>normal</colorMode>
                <fill>1</fill>
                <outline>1</outline>
            </PolyStyle>
        </Style>
        <Style id="1314">
            <LineStyle id="1316">
                <colorMode>normal</colorMode>
                <width>1</width>
            </LineStyle>
            <PolyStyle id="1315">
                <color>80ebce87</color>
                <colorMode>normal</colorMode>
                <fill>1</fill>
                <outline>1</outline>
            </PolyStyle>
        </Style>
        <Style id="1323">
            <LineStyle id="1325">
                <colorMode>normal</colorMode>
                <width>1</width>
            </LineStyle>
            <PolyStyle id="1324">
                <color>80ebce87</color>
                <colorMode>normal</colorMode>
                <fill>1</fill>
                <outline>1</outline>
            </PolyStyle>
        </Style>
        <Style id="1332">
            <LineStyle id="1334">
                <colorMode>normal</colorMode>
                <width>1</width>
            </LineStyle>
            <PolyStyle id="1333">
                <color>80ebce87</color>
                <colorMode>normal</colorMode>
                <fill>1</fill>
                <outline>1</outline>
            </PolyStyle>
        </Style>
        <Style id="1341">
            <LineStyle id="1343">
                <colorMode>normal</colorMode>
                <width>1</width>
            </LineStyle>
            <PolyStyle id="1342">
                <color>80ebce87</color>
                <colorMode>normal</colorMode>
                <fill>1</fill>
                <outline>1</outline>
            </PolyStyle>
        </Style>
        <Style id="1350">
            <LineStyle id="1352">
                <colorMode>normal</colorMode>
                <width>1</width>
            </LineStyle>
            <PolyStyle id="1351">
                <color>80ebce87</color>
                <colorMode>normal</colorMode>
                <fill>1</fill>
                <outline>1</outline>
            </PolyStyle>
        </Style>
        <Style id="1359">
            <LineStyle id="1361">
                <colorMode>normal</colorMode>
                <width>1</width>
            </LineStyle>
            <PolyStyle id="1360">
                <color>80ebce87</color>
                <colorMode>normal</colorMode>
                <fill>1</fill>
                <outline>1</outline>
            </PolyStyle>
        </Style>
        <Style id="1368">
            <LineStyle id="1370">
                <colorMode>normal</colorMode>
                <width>1</width>
            </LineStyle>
            <PolyStyle id="1369">
                <color>80ebce87</color>
                <colorMode>normal</colorMode>
                <fill>1</fill>
                <outline>1</outline>
            </PolyStyle>
        </Style>
        <Style id="1377">
            <LineStyle id="1379">
                <colorMode>normal</colorMode>
                <width>1</width>
            </LineStyle>
            <PolyStyle id="1378">
                <color>80ebce87</color>
                <colorMode>normal</colorMode>
                <fill>1</fill>
                <outline>1</outline>
            </PolyStyle>
        </Style>
        <Placemark id="1291">
            <name>Flood_140</name>
            <styleUrl>#1296</styleUrl>
            <Polygon id="1290">
                <outerBoundaryIs>
                    <LinearRing id="1294">
                        <coordinates>-78.94323533848795,33.653049938729275,0.0 -78.94325769474798,33.65302271983283,0.0 -78.94324945820445,33.65298844034835,0.0 -78.94330499519138,33.65297228180005,0.0 -78.9433155053796,33.652964045293395,0.0 -78.9433268013704,33.65296130026003,0.0 -78.94336476769764,33.652940591825754,0.0 -78.94338131943793,33.652933218420436,0.0 -78.94339590927655,33.652927099676134,0.0 -78.94344987721766,33.652962869761,0.0 -78.94344430718115,33.65292968910524,0.0 -78.94346540876724,33.652903097538164,0.0 -78.94347317388886,33.65287140603889,0.0 -78.94349600030725,33.65286160190141,0.0 -78.9435045512135,33.65285438431423,0.0 -78.94352588722279,33.65283775545079,0.0 -78.94355012546941,33.652834931890474,0.0 -78.94357961947763,33.65281453643351,0.0 -78.94361358602922,33.65280802617639,0.0 -78.94358424792985,33.65276849218572,0.0 -78.94363805872084,33.65279218051193,0.0 -78.94365869012091,33.65277712063695,0.0 -78.94368261406476,33.652752725407524,0.0 -78.943692498235,33.65273499767879,0.0 -78.943689753178,33.65270150271247,0.0 -78.9437081083811,33.652658438033505,0.0 -78.94372034473793,33.65263890689111,0.0 -78.94373885708667,33.65261262832558,0.0 -78.94377125334721,33.65259019502525,0.0 -78.94380521853502,33.65264055350451,0.0 -78.94382075003102,33.65263694541229,0.0 -78.94385165715775,33.652643927421124,0.0 -78.9438835832346,33.65263059243559,0.0 -78.94389605534427,33.65259992119297,0.0 -78.94390178126794,33.6525960786283,0.0 -78.94390405618795,33.652589566930274,0.0 -78.9439437473724,33.65255913285152,0.0 -78.94394806145974,33.65255693654329,0.0 -78.94396924164059,33.65251544086729,0.0 -78.94395441602587,33.65255717100146,0.0 -78.94400053901093,33.65256556490355,0.0 -78.94404470272924,33.65255905468848,0.0 -78.94405380107463,33.6525592105775,0.0 -78.94417005218652,33.6525540339105,0.0 -78.94412330050939,33.652593883218415,0.0 -78.94406392094696,33.652583841689555,0.0 -78.94404791796453,33.65258933309346,0.0 -78.94401513012711,33.652593411287796,0.0 -78.94400265804622,33.65259372555839,0.0 -78.94396343705978,33.65259992147169,0.0 -78.94395512191664,33.652585253069944,0.0 -78.9439475912432,33.652600705901804,0.0 -78.94395182674128,33.65260737347814,0.0 -78.94396202522069,33.6526043926985,0.0 -78.94401732643337,33.65262165052347,0.0 -78.94403607318208,33.65262988715125,0.0 -78.94406588147568,33.652649262616265,0.0 -78.94407882502428,33.652666990439606,0.0 -78.94404148602155,33.6527007196721,0.0 -78.94400987427153,33.652710210760766,0.0 -78.94400257932386,33.652743235512,0.0 -78.94400320664163,33.65276308102995,0.0 -78.94395723950574,33.65275735493776,0.0 -78.94393935450674,33.652769826905036,0.0 -78.94393770692717,33.65277233623676,0.0 -78.94393457024566,33.65277076723237,0.0 -78.94392405874831,33.652778454984926,0.0 -78.94389856449978,33.65280135979708,0.0 -78.94387079666355,33.65280700700354,0.0 -78.9438258497427,33.652828186892364,0.0 -78.94381471091633,33.65282795110458,0.0 -78.9438177703225,33.65283406992189,0.0 -78.94380404224455,33.65284928698655,0.0 -78.94379164874132,33.65285281782086,0.0 -78.9437681163955,33.652873211992734,0.0 -78.94373548441085,33.65287627125998,0.0 -78.9437383080679,33.65288952780867,0.0 -78.94372677765529,33.652880899617756,0.0 -78.94372309091173,33.65287556529351,0.0 -78.94369022320977,33.65285234591777,0.0 -78.94368222238322,33.652844659398234,0.0 -78.94367210249156,33.652840265394595,0.0 -78.94365625798297,33.65284293313827,0.0 -78.9436415895607,33.652852032704004,0.0 -78.94363335299508,33.65284089387848,0.0 -78.94362370460763,33.652816027026866,0.0 -78.94356659860765,33.65284975748705,0.0 -78.94357224593685,33.65286034623806,0.0 -78.94355851917892,33.65286458298199,0.0 -78.94353498684208,33.6528754859344,0.0 -78.94354683155684,33.652906313128916,0.0 -78.94356801039045,33.6529045097933,0.0 -78.94359491643948,33.652917766441576,0.0 -78.94363374448791,33.65294757351057,0.0 -78.9435902094163,33.652953534973875,0.0 -78.94354800758022,33.652978950364975,0.0 -78.9435243966732,33.652978714525524,0.0 -78.94350917948402,33.652999344473436,0.0 -78.9434985108192,33.6530133081911,0.0 -78.94352761320758,33.653019897289795,0.0 -78.94348792073905,33.653023033798625,0.0 -78.9434581923055,33.65303558429733,0.0 -78.94340124352149,33.65301205180941,0.0 -78.94338006336716,33.653025386839154,0.0 -78.94335637385603,33.65304954763752,0.0 -78.94331417204626,33.653047272556115,0.0 -78.94328852195245,33.653063038325364,0.0 -78.94328805176119,33.653080060177906,0.0 -78.94323259338478,33.653064921407335,0.0 -78.94323125882292,33.65306303808823,0.0 -78.94322804356362,33.653058175249235,0.0 -78.94323533848795,33.653049938729275,0.0</coordinates>
                    </LinearRing>
                </outerBoundaryIs>
            </Polygon>
        </Placemark>
        <Placemark id="1300">
            <name>Flood_141</name>
            <styleUrl>#1305</styleUrl>
            <Polygon id="1299">
                <outerBoundaryIs>
                    <LinearRing id="1303">
                        <coordinates>-78.94295142832418,33.68360178646643,0.0 -78.94296437058794,33.68359700227895,0.0 -78.94300641526652,33.683578960374646,0.0 -78.94301622084551,33.68357496066893,0.0 -78.94303457601947,33.683567743128215,0.0 -78.9430587370093,33.68355660444453,0.0 -78.94306885560195,33.68355244757911,0.0 -78.94315176886482,33.683517934066195,0.0 -78.94315490685975,33.683516600830366,0.0 -78.94324456497942,33.68347777196631,0.0 -78.94325201706198,33.683475105499795,0.0 -78.94328386457262,33.68345533739747,0.0 -78.94328966907807,33.68345212216965,0.0 -78.94331092780693,33.68345110202702,0.0 -78.94331327999274,33.68345078771532,0.0 -78.9433235570535,33.68345000457507,0.0 -78.94332034048179,33.683447179590395,0.0 -78.94330520059222,33.68343376713463,0.0 -78.94333524464855,33.68344004192448,0.0 -78.94334269672608,33.68344255260591,0.0 -78.9434798909197,33.68348357749728,0.0 -78.94348757873982,33.683486009599186,0.0 -78.94349942347013,33.683503737421645,0.0 -78.94346796757387,33.68350248261226,0.0 -78.94339862525206,33.68349973591336,0.0 -78.9433292829248,33.683502716426176,0.0 -78.94331280976927,33.683501461683456,0.0 -78.9433066909431,33.683502088990856,0.0 -78.94325201701712,33.683522170004025,0.0 -78.94316667298159,33.68356319521342,0.0 -78.94311819516635,33.683568527996606,0.0 -78.9430855631603,33.68358500095148,0.0 -78.94306752230779,33.68359410049748,0.0 -78.94304265538932,33.68361692672351,0.0 -78.94300516052368,33.683651440438666,0.0 -78.9429893146954,33.683660147091736,0.0 -78.94292420788557,33.68365057700157,0.0 -78.94292413061991,33.68364492967982,0.0 -78.94292397347193,33.6836306529049,0.0 -78.94292373775706,33.68360178634301,0.0 -78.94295142832418,33.68360178646643,0.0</coordinates>
                    </LinearRing>
                </outerBoundaryIs>
            </Polygon>
        </Placemark>
        <Placemark id="1309">
            <name>Flood_142</name>
            <styleUrl>#1314</styleUrl>
            <Polygon id="1308">
                <outerBoundaryIs>
                    <LinearRing id="1312">
                        <coordinates>-78.95066109061615,33.685443396500276,0.0 -78.95066179653583,33.685441043016105,0.0 -78.95066179654002,33.68543633604145,0.0 -78.95066187512944,33.6854266103897,0.0 -78.95066195371771,33.68541829525866,0.0 -78.95066124783385,33.68538040764575,0.0 -78.95066116925788,33.68537491617494,0.0 -78.95066093482804,33.68537162233937,0.0 -78.95066109068206,33.68536934743332,0.0 -78.9506606990899,33.685366836783146,0.0 -78.95066015033812,33.68536213111574,0.0 -78.95065426729543,33.68531655568298,0.0 -78.95065395297573,33.68531255593184,0.0 -78.95065371723628,33.68530926078654,0.0 -78.95065387440138,33.685305338308396,0.0 -78.95065442316047,33.685301808734714,0.0 -78.95065489464774,33.68529914223699,0.0 -78.95065913017004,33.685280394247634,0.0 -78.95066391576538,33.68525333243894,0.0 -78.95066579778552,33.68524242939674,0.0 -78.95066767980927,33.68522736813408,0.0 -78.95066783697305,33.685224936066945,0.0 -78.95066838573139,33.68522226956948,0.0 -78.95066917023233,33.68521944591207,0.0 -78.950672072486,33.685216699535005,0.0 -78.95067387722716,33.68521458179745,0.0 -78.95067646646712,33.68521199388971,0.0 -78.95067976031542,33.685208934501915,0.0 -78.95068744814415,33.68520187407431,0.0 -78.95069403715046,33.6851958338793,0.0 -78.95074102327406,33.685152534899466,0.0 -78.95075859526713,33.68513637619857,0.0 -78.95076071302177,33.685134337042925,0.0 -78.9507635366947,33.685131512085,0.0 -78.95076589019266,33.6851284540026,0.0 -78.9507662032082,33.68512610051667,0.0 -78.95076761504542,33.685123904196764,0.0 -78.95076894961274,33.685120296045994,0.0 -78.95077044003182,33.68511676516689,0.0 -78.95077153754687,33.685113314176164,0.0 -78.95077240062908,33.685109941764985,0.0 -78.95077279222559,33.68510758827941,0.0 -78.95077389105063,33.68510374438598,0.0 -78.9507731851354,33.68510107788299,0.0 -78.95077349815146,33.68509825291384,0.0 -78.95077443982359,33.68508460478699,0.0 -78.95077428268262,33.68506146412548,0.0 -78.95077459701919,33.6850464028557,0.0 -78.95077467560422,33.685041697191096,0.0 -78.95077498862014,33.685039029382956,0.0 -78.95077569454052,33.68503589271269,0.0 -78.95077749928302,33.6850322845641,0.0 -78.95078040153693,33.68502922517445,0.0 -78.95078267645336,33.6850270288584,0.0 -78.95079710914025,33.685013928236444,0.0 -78.95082299498941,33.6849902389371,0.0 -78.95083680164879,33.68497760979565,0.0 -78.95083954674067,33.68497510046911,0.0 -78.95084135148163,33.68497321716353,0.0 -78.95084307633194,33.68497141374765,0.0 -78.95084448816877,33.68496953044022,0.0 -78.950845665573,33.68496756986096,0.0 -78.95084692024912,33.68496474620564,0.0 -78.95084786191163,33.68496200112941,0.0 -78.95084825350797,33.68495972622434,0.0 -78.95084903800934,33.684956431083776,0.0 -78.95084895943091,33.684953686003,0.0 -78.95085005825533,33.68495054802478,0.0 -78.95085052844745,33.68493148700602,0.0 -78.95085170588722,33.68488952107112,0.0 -78.95085092139121,33.68488685325807,0.0 -78.95085107724579,33.684883872436735,0.0 -78.95085139157226,33.684880264281496,0.0 -78.95085217607429,33.684876107374144,0.0 -78.95085272483271,33.68487343956705,0.0 -78.95085366649518,33.68487061591042,0.0 -78.9508593138595,33.68484418144022,0.0 -78.9508608042815,33.684837356726575,0.0 -78.95086331494778,33.68482676669956,0.0 -78.9508642566119,33.684822218199926,0.0 -78.95086504111312,33.68481908022028,0.0 -78.95086833496713,33.684809510434285,0.0 -78.95086927663075,33.68480550937912,0.0 -78.95086966822764,33.684802607139424,0.0 -78.95086966823106,33.68479876324107,0.0 -78.95086802196631,33.68479515507697,0.0 -78.95086598148673,33.68479280158052,0.0 -78.95086331498025,33.68479021364937,0.0 -78.95086111864839,33.6847882517453,0.0 -78.95085201899784,33.684780250895436,0.0 -78.95084637166147,33.684775230883034,0.0 -78.95082244644226,33.68475530667886,0.0 -78.95082040727208,33.684753267504625,0.0 -78.9508177407656,33.68475067826376,0.0 -78.9508142884514,33.684747697426296,0.0 -78.95080338537323,33.684737500242235,0.0 -78.95079703211965,33.68473208732389,0.0 -78.95078761814646,33.68472338055741,0.0 -78.9507849516395,33.684721341380374,0.0 -78.95078251956541,33.68471906646276,0.0 -78.95078055897619,33.68471694870828,0.0 -78.95078016607472,33.68471396788449,0.0 -78.95077953874022,33.68471145723325,0.0 -78.95077930431005,33.68470855499077,0.0 -78.95077938158511,33.68470416233865,0.0 -78.95077977449999,33.68469192603986,0.0 -78.95078024468845,33.684677021931876,0.0 -78.95078055902034,33.684667294971455,0.0 -78.95078071618916,33.68465921558246,0.0 -78.95078102921462,33.684645801884784,0.0 -78.95078110779777,33.6846431353854,0.0 -78.95078134354347,33.684639448649115,0.0 -78.95078197088375,33.684635526173054,0.0 -78.95078314697973,33.68463199660217,0.0 -78.95078463739846,33.68462885862578,0.0 -78.9507859719648,33.684626347983304,0.0 -78.95079601198927,33.68460783576133,0.0 -78.95081742660457,33.684568144823686,0.0 -78.95082566319641,33.68455308358936,0.0 -78.95082762379087,33.68454939686087,0.0 -78.9508287226145,33.68454712195896,0.0 -78.95082825113165,33.68454492563062,0.0 -78.95082385846278,33.68454680892473,0.0 -78.9508186812943,33.68455002546525,0.0 -78.95079899286166,33.684562418838965,0.0 -78.95078863852454,33.684569007771394,0.0 -78.95078604928544,33.68457065533195,0.0 -78.95078267685743,33.684572537320996,0.0 -78.9507800103473,33.684573949139505,0.0 -78.95077726394706,33.68457504794517,0.0 -78.95077428311463,33.68457559668605,0.0 -78.95077114643053,33.68457575383305,0.0 -78.95076800843694,33.68457567523853,0.0 -78.9507622825157,33.684575282310234,0.0 -78.95075090794435,33.68457442049282,0.0 -78.95074274994725,33.68457387039247,0.0 -78.95071843311743,33.68457222402144,0.0 -78.95071356896568,33.684571831097,0.0 -78.95071035370124,33.68457151676043,0.0 -78.95070792162547,33.68457128231766,0.0 -78.95070478363233,33.684570654968944,0.0 -78.95070180280094,33.684569949040416,0.0 -78.95069803747137,33.68456900736669,0.0 -78.9506875272908,33.684566105078304,0.0 -78.95068376196113,33.68456516340458,0.0 -78.95068070254882,33.6845646146368,0.0 -78.95067764313646,33.68456422172042,0.0 -78.95067442656207,33.684564065854666,0.0 -78.9506719957957,33.68456414311469,0.0 -78.95066877922113,33.684564300261336,0.0 -78.9506654840657,33.684564457407724,0.0 -78.95065081564718,33.68456547757962,0.0 -78.9506410886521,33.68456618345138,0.0 -78.95063285338294,33.684566653588185,0.0 -78.95061983123247,33.68456743802583,0.0 -78.95061575288825,33.68456775232973,0.0 -78.95061261489425,33.684568143908805,0.0 -78.95061026139875,33.6845684582205,0.0 -78.95060806506451,33.6845691641259,0.0 -78.95060461405562,33.68457104611449,0.0 -78.95060202481623,33.684573006687536,0.0 -78.95060037723727,33.6845744970912,0.0 -78.95059716196982,33.684577556479375,0.0 -78.95058978846401,33.684584929921,0.0 -78.95058767070947,33.684586970386285,0.0 -78.95058500288873,33.68458947971308,0.0 -78.95058249353977,33.684591518866995,0.0 -78.95057935554465,33.684593166425095,0.0 -78.9505756687949,33.684593323569736,0.0 -78.95057245222115,33.68459253905955,0.0 -78.95056947139004,33.68459159738942,0.0 -78.95056578464168,33.68459018554245,0.0 -78.95055684214857,33.68458681308746,0.0 -78.95054939007107,33.68458398939334,0.0 -78.95052554473256,33.684575125401345,0.0 -78.95051809265502,33.68457237897792,0.0 -78.95051432732566,33.684571124291786,0.0 -78.95051126791368,33.6845701826213,0.0 -78.95050750258422,33.684569163676684,0.0 -78.95050130517905,33.68456767323799,0.0 -78.95049361866789,33.684565868470436,0.0 -78.95049048067477,33.6845652411218,0.0 -78.95048742126254,33.68456461377344,0.0 -78.95048514634844,33.68456429944107,0.0 -78.95048224409746,33.68456398641561,0.0 -78.9504793418462,33.68456406498325,0.0 -78.95047502775908,33.68456484815006,0.0 -78.9504713410089,33.68456547677793,0.0 -78.9504682030149,33.684565946937504,0.0 -78.95046334017199,33.684566574250475,0.0 -78.9504552607541,33.68456767303231,0.0 -78.95043094261038,33.684570809597105,0.0 -78.95042443218975,33.684571594063826,0.0 -78.95042121692464,33.68457190837158,0.0 -78.95041705868987,33.68457222267521,0.0 -78.95041305892656,33.68457237850874,0.0 -78.95040819477447,33.68457237848701,0.0 -78.95039682151217,33.6845723784362,0.0 -78.95039360493773,33.68457237842184,0.0 -78.95038960386476,33.68457245698456,0.0 -78.95038536835877,33.68457284986835,0.0 -78.9503820745125,33.684573712929954,0.0 -78.95037948527367,33.68457504616829,0.0 -78.95037705319612,33.68457669241983,0.0 -78.9503740723623,33.68457881146194,0.0 -78.95037172017501,33.68458069345545,0.0 -78.95036120867465,33.68458916570087,0.0 -78.95035305067114,33.684595676062585,0.0 -78.95034010709321,33.684605873140136,0.0 -78.95032708624413,33.68461599163675,0.0 -78.95032481132799,33.68461787494031,0.0 -78.9503230851683,33.684619286763095,0.0 -78.9503206543999,33.684621561658965,0.0 -78.95031814374056,33.684624463889165,0.0 -78.95031688906482,33.68462681737089,0.0 -78.95031579024105,33.68462924812419,0.0 -78.95031461414533,33.68463246468256,0.0 -78.95031233922556,33.684638504896945,0.0 -78.95031092738752,33.68464172145427,0.0 -78.95030951555053,33.68464368203257,0.0 -78.9503076322293,33.684645015274064,0.0 -78.95030512288157,33.68464564259756,0.0 -78.95030214204948,33.68464572116474,0.0 -78.95029908263679,33.68464556398997,0.0 -78.95029014014146,33.6846447794543,0.0 -78.95028692356718,33.684644623588454,0.0 -78.95028449149116,33.68464454499708,0.0 -78.95028127622636,33.684644623563216,0.0 -78.95027805965178,33.68464477940034,0.0 -78.95027562757541,33.68464509371158,0.0 -78.95027249089112,33.684645563871165,0.0 -78.95025813548509,33.684647760133245,0.0 -78.95024527049519,33.68464972197,0.0 -78.95024213381075,33.68465027071017,0.0 -78.9502397803151,33.68465074087326,0.0 -78.95023703522484,33.68465152535679,0.0 -78.95023468172857,33.6846527027448,0.0 -78.95023303414929,33.68465450616085,0.0 -78.9502320924872,33.68465678106345,0.0 -78.95023146514816,33.68465937028958,0.0 -78.95023091638919,33.68466266412164,0.0 -78.95022926880061,33.68467498030497,0.0 -78.95022801411963,33.68468321554051,0.0 -78.95022048341382,33.684733496578005,0.0 -78.9502167966426,33.68475765745962,0.0 -78.95021632646406,33.68476142277533,0.0 -78.9502159335572,33.68476456075661,0.0 -78.9502158549742,33.68476707009506,0.0 -78.95021601213348,33.684769580744096,0.0 -78.95021671804794,33.684773188903876,0.0 -78.95021860136183,33.68478009221324,0.0 -78.95021922869554,33.68478354321157,0.0 -78.95021891436984,33.68478628829057,0.0 -78.9502173453708,33.68478879893189,0.0 -78.95021554193951,33.68479060234742,0.0 -78.95021122654009,33.684794367645864,0.0 -78.95020832428582,33.684797819938126,0.0 -78.95020706960992,33.68480048643234,0.0 -78.9502064422708,33.684803074348835,0.0 -78.95020581493097,33.68480644807076,0.0 -78.95020542202457,33.684809114568814,0.0 -78.95020369716475,33.68482143075171,0.0 -78.95020259833584,33.68482958871705,0.0 -78.95019671521622,33.68487029996124,0.0 -78.95019334276917,33.6848934392972,0.0 -78.95019279269985,33.68489751893476,0.0 -78.95019247968376,33.684900264013685,0.0 -78.95019208677671,33.68490363642695,0.0 -78.9501919309224,33.684906304235774,0.0 -78.9501919309196,33.68490944221881,0.0 -78.95019200818842,33.68491203013845,0.0 -78.95019216534781,33.68491454078758,0.0 -78.95019240108635,33.68491885486056,0.0 -78.95019240108347,33.68492207142418,0.0 -78.95019177374445,33.68492458076009,0.0 -78.95019044048829,33.68492654264835,0.0 -78.95018847858576,33.68492842464368,0.0 -78.95018494899524,33.68493124828882,0.0 -78.95018235975516,33.68493399335756,0.0 -78.95018118366013,33.684936425420126,0.0 -78.95018000756423,33.68493995499099,0.0 -78.95017883015724,33.68494497628256,0.0 -78.9501756148792,33.68495987906848,0.0 -78.95017216254783,33.68497611772256,0.0 -78.95017004478642,33.68498568751375,0.0 -78.95016110225376,33.685026633176214,0.0 -78.95015725838361,33.68498066615983,0.0 -78.95016337722889,33.68495870292495,0.0 -78.95016455463494,33.684954701870794,0.0 -78.95017357443089,33.68492254151352,0.0 -78.95017467325617,33.6849185404591,0.0 -78.95017530059528,33.6849158739621,0.0 -78.95017608509696,33.68491226580888,0.0 -78.9501767910184,33.68490795174021,0.0 -78.95017741835997,33.68490261743367,0.0 -78.95018032063426,33.68487688886669,0.0 -78.95020738407392,33.684642975660985,0.0 -78.95020793283351,33.684638896023586,0.0 -78.95020848159311,33.68463489627623,0.0 -78.9502098934363,33.68462603239716,0.0 -78.9502105993587,33.68462061951039,0.0 -78.95021962050436,33.68454358966215,0.0 -78.95022009068319,33.68453951133403,0.0 -78.95022056217172,33.6845354316962,0.0 -78.95022118951202,33.68453143194918,0.0 -78.95022260135448,33.68452335256583,0.0 -78.95022942613255,33.68448444474934,0.0 -78.95023036779729,33.68447911044429,0.0 -78.95023170105799,33.684472051297924,0.0 -78.95023287715684,33.68446522658282,0.0 -78.95025099798367,33.684361919441095,0.0 -78.95025178248576,33.684357839804655,0.0 -78.95025256698769,33.68435384005844,0.0 -78.95025319432695,33.68435109367112,0.0 -78.9502546847482,33.684345133343534,0.0 -78.9502553906691,33.68434152388035,0.0 -78.95025570368503,33.68433885738184,0.0 -78.95025633233621,33.6843335230754,0.0 -78.95026166540065,33.68428104570173,0.0 -78.95026221547114,33.68427563281434,0.0 -78.95026252848842,33.684271554485505,0.0 -78.95026299866963,33.684264808347855,0.0 -78.9502643332506,33.68424582591349,0.0 -78.9502733531378,33.68411145453203,0.0 -78.95027445197296,33.68409639457554,0.0 -78.95027547222485,33.684083922537994,0.0 -78.9502756280797,33.68408062739455,0.0 -78.95027562808208,33.68407796089465,0.0 -78.95027484358654,33.684074822908116,0.0 -78.95027256998343,33.68407301816475,0.0 -78.95026990216465,33.68407333247506,0.0 -78.95026645115762,33.68407325387906,0.0 -78.95026331316404,33.68407317528456,0.0 -78.95026025375108,33.68407333243201,0.0 -78.95024503657667,33.68407427402102,0.0 -78.95024213432538,33.68407442985946,0.0 -78.95022762175911,33.68407513701953,0.0 -78.95021766033135,33.684075764309874,0.0 -78.95020785475575,33.68407623443972,0.0 -78.95020738466522,33.68398155535869,0.0 -78.95006728724496,33.683563853300825,0.0 -78.95007513092814,33.68355389063242,0.0 -78.95009042800955,33.683534436777165,0.0 -78.95009489926265,33.683528632314164,0.0 -78.95010031086734,33.68352157318604,0.0 -78.95010211560854,33.68351929828737,0.0 -78.95010392034987,33.68351710196911,0.0 -78.95010603810432,33.68351514139395,0.0 -78.95010894035698,33.68351349383485,0.0 -78.95011097952555,33.68351725916167,0.0 -78.95011246993894,33.68352016140982,0.0 -78.95011349017756,33.683522749333584,0.0 -78.950116784016,33.683530594306,0.0 -78.95011788283531,33.68353326081071,0.0 -78.95012125525476,33.683540948622294,0.0 -78.95015475025473,33.683618605994745,0.0 -78.95015631924805,33.68362244859045,0.0 -78.95015765249956,33.68362566516001,0.0 -78.95015882858937,33.68362896030939,0.0 -78.95016016315044,33.68363233273036,0.0 -78.95016094633712,33.68363460764065,0.0 -78.95020534438349,33.68375791773887,0.0 -78.95020699195705,33.68376246755975,0.0 -78.95020816935654,33.68376576270914,0.0 -78.95020926686544,33.68376913512914,0.0 -78.95021052153504,33.683773606367666,0.0 -78.95023178019873,33.68384561636397,0.0 -78.95023350504239,33.6838512636934,0.0 -78.95023617285308,33.683859970429644,0.0 -78.95023719178118,33.68386334415892,0.0 -78.95023852634121,33.683867893978416,0.0 -78.95024605566918,33.68389370117258,0.0 -78.9502474675002,33.683898406843795,0.0 -78.95024935081429,33.68390507441144,0.0 -78.9502514685605,33.68391244789534,0.0 -78.95025280181095,33.683916763282824,0.0 -78.95025390062955,33.683920214283255,0.0 -78.95025507672,33.6839228022078,0.0 -78.95025711589007,33.68392499854321,0.0 -78.95025860630426,33.683927039024596,0.0 -78.95026127412159,33.6839282151253,0.0 -78.95026417637209,33.683929078214554,0.0 -78.95026809886316,33.68393009846946,0.0 -78.95027751153212,33.68393245068914,0.0 -78.95028700278202,33.6839348042188,0.0 -78.95029014077504,33.683935510148,0.0 -78.95029233710822,33.683935981641106,0.0 -78.95029508219746,33.683936294665756,0.0 -78.95029822019181,33.683935510184035,0.0 -78.9502999463526,33.68393284369192,0.0 -78.95030057369151,33.683930490207395,0.0 -78.95030120103127,33.68392719637568,0.0 -78.95030174979078,33.68392319531878,0.0 -78.95030292720053,33.68391503735378,0.0 -78.95030324021644,33.68391237085536,0.0 -78.9503035545421,33.683909703047235,0.0 -78.95030402472085,33.68390570329961,0.0 -78.95030449490079,33.68390036899246,0.0 -78.950306378241,33.68387769851367,0.0 -78.95030700558277,33.683872129775224,0.0 -78.95030786866548,33.68386820730024,0.0 -78.95030904476067,33.68386546222508,0.0 -78.95031061375998,33.68386271715166,0.0 -78.95031414335236,33.68385777445115,0.0 -78.95033485203963,33.683829849637284,0.0 -78.9503374412804,33.6838263200727,0.0 -78.95033963761695,33.68382310351886,0.0 -78.95034159821097,33.68381980969309,0.0 -78.95034277561597,33.6838169847278,0.0 -78.95034403029344,33.68381267066146,0.0 -78.9503449719569,33.68380874949644,0.0 -78.95034614805442,33.68380341519242,0.0 -78.9503470111372,33.68379941413684,0.0 -78.95034763847693,33.683796120305125,0.0 -78.95034803138334,33.68379345249744,0.0 -78.95034810865688,33.68379078599787,0.0 -78.95034795280742,33.68378804091686,0.0 -78.95034755990639,33.683784667190366,0.0 -78.95034708973367,33.683781922107954,0.0 -78.95034371601456,33.68376293965266,0.0 -78.95034253992792,33.683756114927064,0.0 -78.95034097093959,33.68374654511939,0.0 -78.95034002928382,33.68374183814055,0.0 -78.95033940194939,33.68373917163794,0.0 -78.95033853887236,33.683736739566264,0.0 -78.95033712703916,33.683734464653156,0.0 -78.95033524503069,33.68373250406015,0.0 -78.95033289153707,33.68373069931653,0.0 -78.950331086799,33.68372936605858,0.0 -78.95032857745326,33.683727718475275,0.0 -78.95031430063813,33.683718697365144,0.0 -78.95029123849385,33.68370387173283,0.0 -78.95027578558677,33.68369406743128,0.0 -78.9502732762411,33.68369241984807,0.0 -78.95027139292228,33.68369108658977,0.0 -78.95026911800944,33.68368928184641,0.0 -78.95026707883922,33.6836872426722,0.0 -78.95026488250853,33.683684104679294,0.0 -78.95026307777236,33.68368065367572,0.0 -78.95026182310107,33.6836781430217,0.0 -78.9502562543513,33.68366669119221,0.0 -78.95025186169207,33.68365782728716,0.0 -78.95024809636844,33.68365029663482,0.0 -78.9502429977926,33.68364025532812,0.0 -78.95024182039246,33.683637745984164,0.0 -78.95024032997917,33.683634607994485,0.0 -78.95023946690222,33.683632175922725,0.0 -78.95023907531026,33.683629430840654,0.0 -78.95024009424462,33.683625822688484,0.0 -78.95024182040606,33.683622527552046,0.0 -78.95024378099981,33.68361954673876,0.0 -78.95025272350739,33.68360652598242,0.0 -78.95026629443093,33.68358644478466,0.0 -78.95027515835766,33.68357342402788,0.0 -78.95027711895143,33.6835705217952,0.0 -78.95027860936997,33.68356777541181,0.0 -78.95028002120834,33.68356416726146,0.0 -78.95028009979221,33.6835607162662,0.0 -78.95027962961927,33.68355820561568,0.0 -78.9502786879621,33.68355506893808,0.0 -78.95027743329184,33.68355130361475,0.0 -78.95027610004091,33.683547459710475,0.0 -78.95027484406042,33.68354440030235,0.0 -78.95027366796991,33.683541889648694,0.0 -78.9502720203951,33.683538752967934,0.0 -78.95026919672905,33.68353388881961,0.0 -78.95025280217803,33.68350596384035,0.0 -78.95024989993122,33.68350110100139,0.0 -78.9502440954377,33.68349129543325,0.0 -78.9502424478627,33.683488314603885,0.0 -78.95024127177207,33.68348596111132,0.0 -78.95024072301906,33.68348258869386,0.0 -78.95024291935609,33.683478823385826,0.0 -78.9502453501241,33.68347686150243,0.0 -78.95024715486464,33.68347544968005,0.0 -78.950249665523,33.68347372484825,0.0 -78.95026103879223,33.68346595852176,0.0 -78.95027225620953,33.68345811492368,0.0 -78.95028716037879,33.683447682113105,0.0 -78.95029955388975,33.68343889686345,0.0 -78.95030206454814,33.683437170722016,0.0 -78.9503045738968,33.68343544458058,0.0 -78.95030645721789,33.68343426850017,0.0 -78.95030904514697,33.6834329352617,0.0 -78.95031186881826,33.683431915036955,0.0 -78.95031484965064,33.683431523457145,0.0 -78.95031720314597,33.683431366306536,0.0 -78.95031955664118,33.683431366317016,0.0 -78.95032512671071,33.68343144492242,0.0 -78.95033955938537,33.68343191516032,0.0 -78.95035399206,33.68343238539822,0.0 -78.95036042520869,33.68343254258789,0.0 -78.9503644249718,33.683432542605715,0.0 -78.95036850462547,33.68343246404338,0.0 -78.9503734460488,33.683432308213916,0.0 -78.95040129377871,33.68343089519785,0.0 -78.95040615662117,33.683430739368134,0.0 -78.95040945177658,33.683430582221796,0.0 -78.95041431461891,33.68343058224347,0.0 -78.95042082503886,33.683430582272464,0.0 -78.95043212103,33.68343058232279,0.0 -78.95044514186978,33.68343073954181,0.0 -78.95045079052016,33.68343073956698,0.0 -78.95045392720424,33.68343058241994,0.0 -78.9504569866173,33.683430268111366,0.0 -78.95045996744992,33.68342956220944,0.0 -78.9504626352695,33.68342830755193,0.0 -78.95046459586158,33.683427208742735,0.0 -78.95046647787309,33.68342595408172,0.0 -78.95047079327178,33.683422973278915,0.0 -78.95050028728737,33.683401716063216,0.0 -78.95050334670204,33.683399598331214,0.0 -78.95050593463138,33.683397950770626,0.0 -78.95050883688386,33.68339646037254,0.0 -78.95051275937699,33.68339528430121,0.0 -78.95051668186903,33.68339520573818,0.0 -78.95051903405424,33.683395518761145,0.0 -78.95052130896825,33.6833959902545,0.0 -78.95052366246297,33.683396539019185,0.0 -78.95052672187498,33.68339740210913,0.0 -78.95053911537501,33.683400853159874,0.0 -78.95054994118833,33.68340383403013,0.0 -78.95059779034034,33.68341693362014,0.0 -78.95060241874876,33.68341818961987,0.0 -78.95060618407815,33.68341936572545,0.0 -78.95060845768225,33.68342007165078,0.0 -78.95061143851329,33.683421170481985,0.0 -78.95061583248867,33.68342273818346,0.0 -78.95065544506059,33.683437799631115,0.0 -78.95066281855728,33.68344054474429,0.0 -78.95066721122285,33.68344234949699,0.0 -78.95067152530761,33.68344415424945,0.0 -78.95067874164242,33.68344721237451,0.0 -78.9506931756217,33.6834534098245,0.0 -78.95069748970639,33.68345521457685,0.0 -78.95070117645464,33.68345670500429,0.0 -78.95070337278759,33.68345741092929,0.0 -78.95070564770147,33.683458038274125,0.0 -78.95070878569456,33.68345866562281,0.0 -78.95071121777025,33.683458978646144,0.0 -78.9507144330346,33.683459450143694,0.0 -78.95071921860529,33.683459998919126,0.0 -78.95073859401123,33.68346219533176,0.0 -78.95075632183976,33.68346423457587,0.0 -78.95076597025228,33.68346533343679,0.0 -78.95078063866808,33.68346721550616,0.0 -78.95078463843086,33.68346760842679,0.0 -78.95078754068204,33.683467687020226,0.0 -78.95079083583775,33.683467059700206,0.0 -78.95079224767494,33.68346478479975,0.0 -78.95079201193545,33.68346148965456,0.0 -78.9507914631828,33.683457802914866,0.0 -78.9507887181054,33.68344415477158,0.0 -78.95078393255591,33.68341968083944,0.0 -78.95078118747846,33.68340610996713,0.0 -78.95078063872478,33.68340344346486,0.0 -78.95078016724288,33.683400069738006,0.0 -78.95078001139356,33.68339716749587,0.0 -78.95078071731422,33.683393795083894,0.0 -78.95078220773212,33.68339167603519,0.0 -78.95078408974423,33.68338963687845,0.0 -78.95078691341668,33.683387204823184,0.0 -78.95079036573622,33.683384225326236,0.0 -78.95079617024287,33.68337943979683,0.0 -78.95079899391526,33.68337716490267,0.0 -78.95080134741191,33.68337543876044,0.0 -78.95080377817939,33.68337418410196,0.0 -78.95080730907739,33.683373792524584,0.0 -78.95081036848961,33.683374419872926,0.0 -78.95081319215902,33.683375517393806,0.0 -78.95081530991088,33.68337645906006,0.0 -78.95081813358009,33.683377792322545,0.0 -78.95082527133385,33.683381166079094,0.0 -78.9508309199818,33.68338391118469,0.0 -78.95084378365478,33.683389872885975,0.0 -78.95084723597004,33.683391599053984,0.0 -78.9508501382199,33.683393166748814,0.0 -78.95085319763058,33.68339552024978,0.0 -78.950854609464,33.683397559421195,0.0 -78.95085578555374,33.68340093315119,0.0 -78.95085649146819,33.68340446273048,0.0 -78.95085688436984,33.683407130541774,0.0 -78.95085860920796,33.6834191311084,0.0 -78.95085947228242,33.683424465421524,0.0 -78.95086072694883,33.68343246623631,0.0 -78.95086135559089,33.68343748753591,0.0 -78.95086151143883,33.68344195746004,0.0 -78.95086096268028,33.68344478242815,0.0 -78.95085970800467,33.683447134600186,0.0 -78.9508580604251,33.68344933222878,0.0 -78.95085586408902,33.683452155879934,0.0 -78.95085398207665,33.68345435219777,0.0 -78.95084315625004,33.68346643128899,0.0 -78.95084127423767,33.68346862760684,0.0 -78.95083892074003,33.68347137398641,0.0 -78.95083743032215,33.683473570305985,0.0 -78.95083641007854,33.68347662970399,0.0 -78.95083766605923,33.68347945337052,0.0 -78.95083970522982,33.68348110095173,0.0 -78.95084213730426,33.683482825805484,0.0 -78.95084543114801,33.68348486498528,0.0 -78.95085343197964,33.6834897291568,0.0 -78.95085876630385,33.68349302301501,0.0 -78.95086535530106,33.68349710268433,0.0 -78.95087186571733,33.683501259624194,0.0 -78.95087822028165,33.68350533929256,0.0 -78.95089437910573,33.683515928093,0.0 -78.95089814443402,33.68351836017763,0.0 -78.95090136100669,33.683520322086196,0.0 -78.95090473343134,33.68352220410534,0.0 -78.95091163675207,33.68352589087335,0.0 -78.95095046482086,33.68354628531717,0.0 -78.95095885855706,33.683550600736154,0.0 -78.95096874139882,33.68355569934796,0.0 -78.9509714877968,33.68355711119062,0.0 -78.95097352696772,33.68355828728852,0.0 -78.95097595904245,33.68355977771047,0.0 -78.95097807679375,33.683561503872454,0.0 -78.95097933146549,33.683563464462665,0.0 -78.95097948862512,33.6835657393702,0.0 -78.95097917429977,33.683568092856135,0.0 -78.95097846837989,33.68357068077222,0.0 -78.95097752802668,33.68357389733169,0.0 -78.95097407570061,33.683584330193355,0.0 -78.95097078184581,33.683594763055815,0.0 -78.95096544750362,33.6836116277267,0.0 -78.95096348690667,33.683618138116145,0.0 -78.95095932865947,33.68363257203404,0.0 -78.95095807398155,33.68363751343511,0.0 -78.95095744664155,33.68364104300846,0.0 -78.95095783823295,33.683644416734964,0.0 -78.95095972154994,33.683647867739,0.0 -78.95096168213895,33.68365029981558,0.0 -78.95096411421255,33.68365296632626,0.0 -78.95097227220258,33.68366151723565,0.0 -78.95097729220181,33.683666850257694,0.0 -78.95098725361929,33.68367767608187,0.0 -78.95098968569306,33.68368026401205,0.0 -78.95099180344403,33.68368222591572,0.0 -78.95099439268006,33.683684107931285,0.0 -78.95099800084769,33.68368536261679,0.0 -78.95100090309863,33.683685598371426,0.0 -78.95100404109229,33.68368559838541,0.0 -78.95100804085561,33.68368536266155,0.0 -78.95102412241894,33.68368426522492,0.0 -78.95103055425847,33.68368379507999,0.0 -78.95103533852034,33.68368355935971,0.0 -78.95104020267252,33.683683323639784,0.0 -78.95104506551499,33.68368316650035,0.0 -78.95105157593511,33.68368301067798,0.0 -78.95111519233913,33.683681833563035,0.0 -78.95112499791449,33.68368159917476,0.0 -78.95113817591633,33.683681206330796,0.0 -78.9511422555701,33.68368112776847,0.0 -78.95114531498274,33.68368128494313,0.0 -78.9511482172337,33.68368152069776,0.0 -78.95115135522593,33.68368308970328,0.0 -78.95115300149129,33.68368599195207,0.0 -78.95115355155374,33.683689521530766,0.0 -78.9511538645641,33.68369320826942,0.0 -78.95115551212096,33.68371666195016,0.0 -78.95115574786095,33.68371940703156,0.0 -78.9511560608715,33.683722780757805,0.0 -78.95115653235409,33.683725368679156,0.0 -78.95115731685027,33.683727800750496,0.0 -78.9511593560198,33.68373054584002,0.0 -78.95116202252703,33.68373227200454,0.0 -78.95116461176362,33.6837335266855,0.0 -78.95116821993096,33.68373509569312,0.0 -78.95117849567762,33.683739253959416,0.0 -78.95118131934696,33.68374043006082,0.0 -78.95118343709908,33.683741214566076,0.0 -78.95118610491677,33.68374207765429,0.0 -78.95118924160049,33.68374223482947,0.0 -78.9511913593557,33.68373948844876,0.0 -78.9511918308438,33.68373588029419,0.0 -78.95119206659058,33.68373093888857,0.0 -78.95119237961767,33.683715641877185,0.0 -78.9511925367866,33.683707406636664,0.0 -78.95119394867149,33.68365124250781,0.0 -78.95119410583797,33.683645751038014,0.0 -78.95119434028777,33.68362653285703,0.0 -78.95119465462332,33.683612648985694,0.0 -78.95119457604565,33.68360904082859,0.0 -78.95119355711795,33.683605196925775,0.0 -78.95118924172142,33.683605667080144,0.0 -78.95118594787398,33.68360778481111,0.0 -78.95118335863485,33.6836095109522,0.0 -78.95117441613327,33.683615864149445,0.0 -78.95117120086664,33.68361806046144,0.0 -78.95116923896468,33.68361923785122,0.0 -78.9511671997917,33.68362041393095,0.0 -78.95116445470113,33.68362151273664,0.0 -78.95116147386857,33.683622218638575,0.0 -78.95115919895397,33.68362237578953,0.0 -78.95115676687793,33.68362245304958,0.0 -78.9511526885341,33.683622375760514,0.0 -78.95112797880002,33.683621198251856,0.0 -78.95107879638374,33.68361908028692,0.0 -78.95106067565006,33.683618295710424,0.0 -78.95104412522265,33.68361774688246,0.0 -78.95104004556934,33.68361751112268,0.0 -78.95103690757597,33.683617198096194,0.0 -78.9510341624869,33.68361656943962,0.0 -78.95103196615445,33.683615314760424,0.0 -78.95103047574013,33.68361343274967,0.0 -78.95102914248858,33.68361021618007,0.0 -78.95102804367018,33.68360660801851,0.0 -78.95102529859012,33.68359593938761,0.0 -78.95102380817875,33.6835906063812,0.0 -78.95102200344544,33.683584016084836,0.0 -78.95101894535166,33.68357342734267,0.0 -78.95101808227538,33.68357013219466,0.0 -78.951017532212,33.68356754427297,0.0 -78.9510173763624,33.68356495504333,0.0 -78.9510176893782,33.683562522976786,0.0 -78.95101878820189,33.68356017080405,0.0 -78.95102098453816,33.68355703283069,0.0 -78.95102341661692,33.68355397343898,0.0 -78.95103000562465,33.68354620840074,0.0 -78.95103369237812,33.6835417371842,0.0 -78.95104106588529,33.68353271617042,0.0 -78.95104357523503,33.68352973535964,0.0 -78.95104624305596,33.6835269902911,0.0 -78.95104820364843,33.68352549988882,0.0 -78.95105134164255,33.68352487125847,0.0 -78.95105424389324,33.68352549991573,0.0 -78.95105683182024,33.68352659743557,0.0 -78.95105894957207,33.68352761768243,0.0 -78.95106169597004,33.68352902952509,0.0 -78.95107401088669,33.68353546139767,0.0 -78.95108491396867,33.68354118734864,0.0 -78.95108899362039,33.68354330511254,0.0 -78.95109244462611,33.68354495269996,0.0 -78.9510945623781,33.683545894366226,0.0 -78.95109675871099,33.68354667887183,0.0 -78.95109973954213,33.683547541961424,0.0 -78.95110209303692,33.683548012145515,0.0 -78.95110452511263,33.683548405059156,0.0 -78.95110852487528,33.683548953831085,0.0 -78.95113119543595,33.68355177759306,0.0 -78.95115543368338,33.683554915684226,0.0 -78.95116837725064,33.68355664058484,0.0 -78.95118304566634,33.68355868112505,0.0 -78.95118704542904,33.68355915131647,0.0 -78.95118994768013,33.683559308490516,0.0 -78.9511927726605,33.683558915600386,0.0 -78.95121606922945,33.68358299802194,0.0 -78.95122116778646,33.683614296676,0.0 -78.9512258747302,33.6836670085268,0.0 -78.95122406992554,33.68374097900561,0.0 -78.95124070020282,33.68378733898228,0.0 -78.95126321225504,33.68383212868394,0.0 -78.95126838939295,33.683863427338196,0.0 -78.95126336934693,33.68391104057804,0.0 -78.95125591721025,33.68397504963783,0.0 -78.951255211265,33.68400626968544,0.0 -78.95124650448098,33.684040704951286,0.0 -78.95125583846729,33.6841582889922,0.0 -78.9512545837914,33.684160878215565,0.0 -78.95125348496778,33.6841631531174,0.0 -78.95125152437492,33.68416503511277,0.0 -78.95124870070202,33.684167858761114,0.0 -78.95124571986773,33.684170526557374,0.0 -78.95124234743872,33.684173428783765,0.0 -78.95123089427747,33.68418291995291,0.0 -78.95122869794216,33.68418488052764,0.0 -78.95122642302596,33.68418684241183,0.0 -78.95122399094795,33.68418911599802,0.0 -78.95122187319313,33.6841914694759,0.0 -78.95122038277502,33.68419374437609,0.0 -78.95121912809935,33.68419617643834,0.0 -78.95121779484218,33.68419931441554,0.0 -78.95121677459913,33.684201823749724,0.0 -78.95121128440746,33.68421594333957,0.0 -78.95120610723055,33.68422880826147,0.0 -78.9512049298253,33.68423194623928,0.0 -78.95120406674377,33.68423445557417,0.0 -78.95120351798559,33.68423696622016,0.0 -78.95120351798359,33.684239241126996,0.0 -78.95120461680342,33.68424135887754,0.0 -78.95120642023123,33.68424324088971,0.0 -78.951208695144,33.68424512421352,0.0 -78.95121355798315,33.68424873239198,0.0 -78.95121606863823,33.684250771568315,0.0 -78.95121881372484,33.68425406672483,0.0 -78.95121920662545,33.684257909315235,0.0 -78.95121802921973,33.68426159604724,0.0 -78.95121653879991,33.68426599000278,0.0 -78.95121183310799,33.684278617875385,0.0 -78.9512060285917,33.68429430645535,0.0 -78.9512046167532,33.684298071766904,0.0 -78.95107495155776,33.684650901765714,0.0 -78.95107291238108,33.6846562360659,0.0 -78.95106812679849,33.68466894382842,0.0 -78.95106530312127,33.68467663030281,0.0 -78.9510636555398,33.68468102294793,0.0 -78.95103667213534,33.68475358148358,0.0 -78.95103180797116,33.684767230902544,0.0 -78.95102835695609,33.684776173353164,0.0 -78.95095203254344,33.68498184711184,0.0 -78.95094842436602,33.68499157405755,0.0 -78.95094489477017,33.68500043792729,0.0 -78.95094387452626,33.68500388891838,0.0 -78.95094050209174,33.685013067110944,0.0 -78.95087343320486,33.68520030591478,0.0 -78.95086825602637,33.68521473982812,0.0 -78.95086409908964,33.68522815350852,0.0 -78.95086315742678,33.68523129148745,0.0 -78.95086158842692,33.68523474247607,0.0 -78.95086033375081,33.6852376447119,0.0 -78.9508576672402,33.68523968386509,0.0 -78.950855548176,33.68524164574994,0.0 -78.95085264592261,33.68524399791458,0.0 -78.95084895917061,33.68524666570762,0.0 -78.95084040957293,33.685253018906366,0.0 -78.95083185866552,33.6852593734149,0.0 -78.95079412806498,33.68528753389415,0.0 -78.95077702886967,33.6853001617112,0.0 -78.95077467537274,33.685302045014396,0.0 -78.95077294921298,33.685303456837175,0.0 -78.95077075287765,33.68530549599247,0.0 -78.95076894944626,33.685307535149526,0.0 -78.95076824221651,33.6853102815364,0.0 -78.95076667452712,33.68531279086821,0.0 -78.95076510552752,33.68531592884424,0.0 -78.95076392812238,33.68531890966101,0.0 -78.95076275202712,33.685321733316584,0.0 -78.9507613401887,33.68532526419612,0.0 -78.9507596140268,33.68532918535763,0.0 -78.95075867236478,33.68533146026015,0.0 -78.9507572605266,33.685334755398074,0.0 -78.95075553567453,33.68533852070811,0.0 -78.95075396667488,33.68534173595502,0.0 -78.95075239767532,33.685344716770125,0.0 -78.95075082867643,33.68534707025035,0.0 -78.95074863234032,33.685349893901446,0.0 -78.95074573008611,33.6853531890327,0.0 -78.95072909975082,33.6853720142375,0.0 -78.95068917280123,33.68541735372366,0.0 -78.95068736936982,33.6854193928807,0.0 -78.95067936852563,33.685428492472006,0.0 -78.95067764236553,33.68543045304881,0.0 -78.95066854269838,33.6854409644657,0.0 -78.9506662677816,33.68544355368446,0.0 -78.95066320836686,33.68544567141648,0.0 -78.95066109061615,33.685443396500276,0.0</coordinates>
                    </LinearRing>
                </outerBoundaryIs>
            </Polygon>
        </Placemark>
        <Placemark id="1318">
            <name>Flood_143</name>
            <styleUrl>#1323</styleUrl>
            <Polygon id="1317">
                <outerBoundaryIs>
                    <LinearRing id="1321">
                        <coordinates>-78.94967664465753,33.68542699757301,0.0 -78.94968119449267,33.68542009429255,0.0 -78.94968260633051,33.68541711347696,0.0 -78.94968362657356,33.685414682723334,0.0 -78.9496843324934,33.685412172078095,0.0 -78.94968456692935,33.68540864250304,0.0 -78.94968433249925,33.68540566167999,0.0 -78.94968378374624,33.68540228795282,0.0 -78.94968025286536,33.6853836198191,0.0 -78.94967664471447,33.68536361712534,0.0 -78.94967578163894,33.68535961606216,0.0 -78.94967468413067,33.68535538056594,0.0 -78.94967358531166,33.68535247831953,0.0 -78.9496720163176,33.68534941891,0.0 -78.949669977149,33.68534565358317,0.0 -78.94965664200654,33.68532235570185,0.0 -78.94960032060985,33.6852237552023,0.0 -78.94959537919443,33.68521512572678,0.0 -78.94958824144862,33.68520281081395,0.0 -78.94958573079586,33.6851982609892,0.0 -78.94958408322158,33.68519449566404,0.0 -78.9495833773078,33.685190260169584,0.0 -78.94958369163446,33.685186494853276,0.0 -78.94958361305585,33.68518398551424,0.0 -78.94958314288303,33.68518147486364,0.0 -78.94958235838753,33.685178179716104,0.0 -78.94957953341567,33.68516908138608,0.0 -78.94957882750033,33.68516649215402,0.0 -78.94957820016609,33.68516374707082,0.0 -78.94957725981932,33.6851597460073,0.0 -78.94957584668052,33.68515299986127,0.0 -78.94957129818069,33.68513142948154,0.0 -78.94956792445913,33.68511526937754,0.0 -78.94956706138368,33.68511119104339,0.0 -78.94956612103591,33.68510828879778,0.0 -78.94956502221683,33.68510538655147,0.0 -78.94956376754548,33.68510295447795,0.0 -78.94956196280887,33.68509997364788,0.0 -78.94956039381411,33.68509762015356,0.0 -78.94955796305092,33.68509416914719,0.0 -78.94955215724623,33.68508593257053,0.0 -78.94955019665757,33.685083108900855,0.0 -78.94954831465003,33.68507989232893,0.0 -78.94954737299322,33.685076362748525,0.0 -78.9495485490888,33.6850732247707,0.0 -78.94955058957254,33.6850709498731,0.0 -78.9495541977442,33.68506781321586,0.0 -78.94957051375154,33.685054478170514,0.0 -78.94957396476121,33.685051653215346,0.0 -78.94957678843382,33.68504922246978,0.0 -78.94957890618844,33.68504726058504,0.0 -78.94958086809123,33.685045064267605,0.0 -78.94958243709016,33.68504278936791,0.0 -78.9495837703468,33.685040280035174,0.0 -78.94958518218486,33.68503706347781,0.0 -78.94958620111834,33.685034475563164,0.0 -78.94958729994299,33.68503118042388,0.0 -78.9495880058629,33.68502859250783,0.0 -78.94958808444679,33.68502514020297,0.0 -78.94958698562793,33.68502208079546,0.0 -78.94958471071565,33.6850197286077,0.0 -78.94958110254963,33.685016590608456,0.0 -78.94957906337947,33.68501455143424,0.0 -78.94957663130585,33.685011805033355,0.0 -78.9495738862194,33.68500835402558,0.0 -78.94956855189825,33.68500152928142,0.0 -78.9495332534402,33.68495556212461,0.0 -78.94952533119438,33.68494512921228,0.0 -78.94951827071698,33.68493587370232,0.0 -78.94951607438584,33.68493305003161,0.0 -78.94951427095833,33.68493085369735,0.0 -78.94951223047849,33.68492881321342,0.0 -78.94951003414636,33.68492716694121,0.0 -78.94950744621934,33.68492606811173,0.0 -78.94950524988614,33.68492559792831,0.0 -78.94950289639112,33.6849253621761,0.0 -78.94950046431534,33.684925126423614,0.0 -78.94949724905065,33.68492497055785,0.0 -78.9494857173173,33.68492457760359,0.0 -78.94947253931609,33.684924028790576,0.0 -78.94946846097223,33.684923950191745,0.0 -78.9494652443977,33.68492402875796,0.0 -78.94946289090225,33.684924264489055,0.0 -78.94946069456815,33.68492481323332,0.0 -78.94945787089682,33.6849258321484,0.0 -78.94945520438684,33.684927166696085,0.0 -78.94945324248502,33.684928264195506,0.0 -78.94945065455566,33.68492975459503,0.0 -78.94944798673585,33.68493132357461,0.0 -78.94943112197524,33.684941599215,0.0 -78.94942680788664,33.68494410984411,0.0 -78.94942382705314,33.684945600241775,0.0 -78.94942108196268,33.6849466191572,0.0 -78.94941888562872,33.68494701205009,0.0 -78.94941661071404,33.68494724778153,0.0 -78.94941355130132,33.68494724776785,0.0 -78.94941119780614,33.68494716917682,0.0 -78.94940805981267,33.68494693342119,0.0 -78.94940170655462,33.684946540490074,0.0 -78.949395351987,33.684945991707465,0.0 -78.94939064630658,33.684945600093435,0.0 -78.94938742973244,33.684945285756854,0.0 -78.94938413588719,33.68494489414904,0.0 -78.94937770273914,33.68494403104407,0.0 -78.94931604824394,33.68493555847604,0.0 -78.94928969093407,33.68493202878212,0.0 -78.94928663152177,33.68493155859484,0.0 -78.94928357341965,33.684930381182674,0.0 -78.94928655294325,33.68492896936559,0.0 -78.94928961235662,33.684928342044586,0.0 -78.94930749735177,33.68492496970955,0.0 -78.94932044092289,33.68492253769953,0.0 -78.94943245526588,33.68490135943402,0.0 -78.9494372408379,33.684900496379115,0.0 -78.94944202510028,33.6848996333242,0.0 -78.94944681067223,33.68489884884988,0.0 -78.94945159493449,33.68489814295599,0.0 -78.94952831207898,33.684886612913736,0.0 -78.94953309634124,33.68488590571022,0.0 -78.94953623433527,33.684885514131246,0.0 -78.94954980524255,33.6848837880393,0.0 -78.9495560799209,33.68488292499105,0.0 -78.94956408075791,33.68488174893801,0.0 -78.94960267441775,33.68487602320824,0.0 -78.94961075383564,33.68487484584585,0.0 -78.94961859882072,33.68487382695313,0.0 -78.94965177957098,33.684869668881035,0.0 -78.94965491756494,33.68486935588256,0.0 -78.94965805424927,33.684868962993875,0.0 -78.94966205532243,33.68486864999918,0.0 -78.9496661336666,33.684868414275805,0.0 -78.94967099781881,33.68486817855594,0.0 -78.94971821964756,33.68486684551712,0.0 -78.9497459874869,33.68486590529405,0.0 -78.94974998855986,33.68486582673144,0.0 -78.94975328371503,33.68486590532667,0.0 -78.94975642039886,33.68486613977267,0.0 -78.94975947981109,33.68486668854045,0.0 -78.94976246064235,33.684867551630084,0.0 -78.9497662259717,33.68486872904542,0.0 -78.94976920680286,33.68486982656704,0.0 -78.94978246338093,33.68487461218142,0.0 -78.94982591986387,33.684890378252206,0.0 -78.9497268471673,33.6855940783703,0.0 -78.9496978246202,33.68563275034551,0.0 -78.94969601987893,33.68563502524414,0.0 -78.94969335336694,33.685638476227794,0.0 -78.94968362636135,33.68565086964574,0.0 -78.94968111570157,33.68565408619803,0.0 -78.94967946812216,33.685656046775335,0.0 -78.94967782185252,33.685657930081675,0.0 -78.9496758599499,33.68565989065739,0.0 -78.94967366361452,33.68566185123215,0.0 -78.94967146727905,33.685663813116626,0.0 -78.94966581993292,33.685669774735246,0.0 -78.94966323069393,33.68567126513465,0.0 -78.94965875944281,33.68567463752963,0.0 -78.94965530843325,33.68567730532368,0.0 -78.94965295493651,33.68567895157553,0.0 -78.94965060144013,33.685680207544,0.0 -78.9496480135116,33.68568075628661,0.0 -78.94964534569338,33.68568044195245,0.0 -78.94964252202375,33.685679657444005,0.0 -78.94963961977349,33.685678481342215,0.0 -78.94963593302519,33.68567699091471,0.0 -78.94962769644991,33.68567338272113,0.0 -78.9496235395267,33.685671577969394,0.0 -78.94961844094377,33.68566946020086,0.0 -78.94960894969532,33.68566546040866,0.0 -78.94960534152786,33.685663891401006,0.0 -78.94960275229123,33.68566263541039,0.0 -78.94959985004179,33.685660674812794,0.0 -78.9495972608069,33.685657615398696,0.0 -78.94959498720557,33.685653771490216,0.0 -78.94959349679245,33.68565055622956,0.0 -78.94958933856567,33.68564200533812,0.0 -78.94958792673295,33.68563918167089,0.0 -78.94958675064231,33.68563682817833,0.0 -78.94958369123518,33.685630474927635,0.0 -78.94958008307295,33.68562318001767,0.0 -78.949578827092,33.68562051220254,0.0 -78.94957451301275,33.68561258995464,0.0 -78.94957278816705,33.68560913895141,0.0 -78.94957145360605,33.68560576522072,0.0 -78.94957137502809,33.68560254996647,0.0 -78.94957357136283,33.6856012939973,0.0 -78.94957623918162,33.68560098099666,0.0 -78.94957859267694,33.68560090242669,0.0 -78.94958180794164,33.685600981021594,0.0 -78.9495850245161,33.685600981035996,0.0 -78.94960087033596,33.68560137270004,0.0 -78.94963295226063,33.685602000178385,0.0 -78.94963609025416,33.68560207877303,0.0 -78.94964118883891,33.68560215737637,0.0 -78.94965358234197,33.68560247175398,0.0 -78.94965687749723,33.68560255034932,0.0 -78.94965923099255,33.68560247177927,0.0 -78.94966150590702,33.685602393208946,0.0 -78.94966425099707,33.685601844467136,0.0 -78.94966636875098,33.68560066707811,0.0 -78.94966754484571,33.68559847075718,0.0 -78.94966801633274,33.68559611727198,0.0 -78.94966825076783,33.68559352935374,0.0 -78.94966832935108,33.68559078427379,0.0 -78.94966848652257,33.685579801333766,0.0 -78.94966864369152,33.68557156609347,0.0 -78.9496700555745,33.68551846005831,0.0 -78.94967013415788,33.68551563639777,0.0 -78.94967131029154,33.68547014088728,0.0 -78.94967170321391,33.68544974530881,0.0 -78.9496719389606,33.68544496106437,0.0 -78.94967217339641,33.68544158734071,0.0 -78.94967256630284,33.685438920842664,0.0 -78.94967327222297,33.68543609718493,0.0 -78.94967452689956,33.68543280204634,0.0 -78.94967593873768,33.68542950821825,0.0 -78.94967664465753,33.68542699757301,0.0</coordinates>
                    </LinearRing>
                </outerBoundaryIs>
            </Polygon>
        </Placemark>
        <Placemark id="1327">
            <name>Flood_144</name>
            <styleUrl>#1332</styleUrl>
            <Polygon id="1326">
                <outerBoundaryIs>
                    <LinearRing id="1330">
                        <coordinates>-78.94054349423752,33.685678440606154,0.0 -78.94055447594408,33.68563914121919,0.0 -78.94057283117559,33.68557348595319,0.0 -78.94063895821249,33.6855979601575,0.0 -78.94069010254785,33.68558211462125,0.0 -78.94069410227594,33.685618120241166,0.0 -78.94077889881304,33.68563294614883,0.0 -78.94079890155436,33.685636788826635,0.0 -78.9408662047069,33.68563788794592,0.0 -78.9408931094672,33.685637024990086,0.0 -78.94093209472088,33.68563255393215,0.0 -78.9409731990595,33.68560494222506,0.0 -78.94098543539677,33.68560949209304,0.0 -78.94101571388141,33.685620709600244,0.0 -78.94102285294535,33.68562337613176,0.0 -78.94104434609874,33.685631299765525,0.0 -78.9409852009341,33.68564024196588,0.0 -78.94096723735842,33.6856429083849,0.0 -78.94096449226831,33.68564345712675,0.0 -78.94090981834488,33.685659459808306,0.0 -78.94089522719497,33.68566275357716,0.0 -78.94082894426754,33.68567781454988,0.0 -78.94080556909127,33.68568267727075,0.0 -78.94073991218936,33.6856993072377,0.0 -78.94072398909408,33.68570322964483,0.0 -78.94066170593346,33.68571452400843,0.0 -78.94063660459723,33.68572103429351,0.0 -78.94060875817068,33.685728173210535,0.0 -78.94058679352025,33.685732722925245,0.0 -78.94056796817851,33.6857318597647,0.0 -78.94055376993447,33.685733271531376,0.0 -78.94054835704323,33.68571601391154,0.0 -78.94054506320782,33.685705659601446,0.0 -78.94054349423752,33.685678440606154,0.0</coordinates>
                    </LinearRing>
                </outerBoundaryIs>
            </Polygon>
        </Placemark>
        <Placemark id="1336">
            <name>Flood_145</name>
            <styleUrl>#1341</styleUrl>
            <Polygon id="1335">
                <outerBoundaryIs>
                    <LinearRing id="1339">
                        <coordinates>-78.94559829056566,33.686410951755605,0.0 -78.94559546689672,33.6864093041709,0.0 -78.94559225163151,33.68640969574946,0.0 -78.94558903505525,33.68641157904866,0.0 -78.94558581847849,33.68641401110203,0.0 -78.9455725618861,33.68642444391904,0.0 -78.94555467688073,33.686438406291224,0.0 -78.94554989261552,33.68644217158731,0.0 -78.94554283212449,33.6864478974577,0.0 -78.9455287137615,33.68645934919856,0.0 -78.94552173185106,33.68646515495951,0.0 -78.94551349526621,33.68647197833286,0.0 -78.94551051443192,33.68647433180669,0.0 -78.94550816093496,33.68647613652926,0.0 -78.94550549442461,33.68647778277962,0.0 -78.94550212068775,33.68647856726015,0.0 -78.94549953276031,33.68647801849447,0.0 -78.94549584601208,33.68647637090589,0.0 -78.94549223784524,33.6864742531441,0.0 -78.94547890268936,33.686466173695095,0.0 -78.9454682340406,33.68645982041042,0.0 -78.94545756670163,33.686453465816214,0.0 -78.9454440743839,33.686445622108025,0.0 -78.94544077923038,33.68644366150873,0.0 -78.9454383484655,33.6864420139258,0.0 -78.94543623071434,33.68644020918326,0.0 -78.9454344259779,33.68643722835329,0.0 -78.94543379864452,33.68643354161343,0.0 -78.9454337200672,33.68642985487604,0.0 -78.94543379865053,33.686427109796206,0.0 -78.9454342688359,33.686416206748284,0.0 -78.94543442600269,33.686410715278825,0.0 -78.94543466175278,33.68640247872953,0.0 -78.94543481761373,33.686392830349526,0.0 -78.94543489619767,33.686389536515534,0.0 -78.94543513194249,33.6863869472878,0.0 -78.9454360736055,33.686383809309056,0.0 -78.94543842710216,33.68638232021839,0.0 -78.94544085786849,33.68638232022929,0.0 -78.94544368153844,33.686382868996034,0.0 -78.94544595645249,33.68638333917982,0.0 -78.94544909444537,33.686384123689656,0.0 -78.94545999753005,33.686387025979926,0.0 -78.94547858843549,33.686391890198735,0.0 -78.9454910605167,33.686395105508524,0.0 -78.94549482584628,33.6863961257627,0.0 -78.94549788525855,33.68639675311109,0.0 -78.94550086609028,33.686397144717525,0.0 -78.94550361117987,33.686397144729845,0.0 -78.94550620041835,33.686396282974805,0.0 -78.94550855391499,33.68639479257444,0.0 -78.94551075025039,33.68639290927065,0.0 -78.94551239782946,33.686391418867196,0.0 -78.94551451558415,33.6863893797116,0.0 -78.94551984991631,33.68638420258763,0.0 -78.94552408542582,33.68638004569592,0.0 -78.94553381242909,33.68637078895183,0.0 -78.94553663610219,33.68636796530381,0.0 -78.94553922403303,33.686364984493544,0.0 -78.94554063587024,33.68636278817377,0.0 -78.94554134179002,33.68636043468973,0.0 -78.94554149895495,33.68635690511448,0.0 -78.94554126452554,33.68635329695688,0.0 -78.94554016571271,33.686343883003225,0.0 -78.94553985139252,33.68634058916747,0.0 -78.94553969554318,33.68633784408658,0.0 -78.94553985139846,33.68633423593074,0.0 -78.94554032288615,33.68633125511097,0.0 -78.94554095022603,33.686327959969816,0.0 -78.94554181330899,33.68632395891444,0.0 -78.94554620599463,33.68630427057967,0.0 -78.9455470690776,33.68630034810489,0.0 -78.94554785357964,33.686296426939386,0.0 -78.94554887251576,33.686291092634875,0.0 -78.9455510688606,33.68627909077683,0.0 -78.94555193194482,33.68627383505212,0.0 -78.94555240343212,33.68627116855463,0.0 -78.94555271644883,33.68626779483139,0.0 -78.94555303077523,33.68626442241802,0.0 -78.94555318663103,33.6862602655081,0.0 -78.94555357954773,33.68624669465042,0.0 -78.94555373671321,33.68624261501139,0.0 -78.94555397114912,33.68623924259758,0.0 -78.94555428547496,33.68623649751872,0.0 -78.94555483423404,33.68623312379661,0.0 -78.94555569731692,33.68622912405095,0.0 -78.9455611102477,33.686204963178305,0.0 -78.9455694241313,33.68616864459928,0.0 -78.94557420972141,33.68614848609267,0.0 -78.94557483706132,33.686145190951414,0.0 -78.94557522996783,33.68614252445349,0.0 -78.9455749942288,33.68613891629589,0.0 -78.94557413115204,33.68613616990221,0.0 -78.94557295506148,33.686133816409736,0.0 -78.9455712289059,33.68613075830924,0.0 -78.9455644041725,33.68612016824108,0.0 -78.94556244358435,33.68611687308823,0.0 -78.94556087459053,33.68611357924692,0.0 -78.94556016867529,33.68611106859546,0.0 -78.94555993293616,33.686107539018366,0.0 -78.94556024726289,33.686103852282805,0.0 -78.9455604830077,33.68610126305497,0.0 -78.9455615019464,33.68609326225087,0.0 -78.94556244361394,33.68608518286574,0.0 -78.94556283521135,33.68608196761374,0.0 -78.94556330669857,33.68607937838704,0.0 -78.94556409119943,33.68607671189087,0.0 -78.94556605179314,33.68607404409026,0.0 -78.9455683267088,33.68607278943121,0.0 -78.9455709932185,33.68607184778639,0.0 -78.9455739740513,33.686071063303984,0.0 -78.94557789654417,33.686070200245304,0.0 -78.94558887821451,33.68606784811695,0.0 -78.94560291929842,33.6860647887775,0.0 -78.94560605729262,33.68606416145699,0.0 -78.94560841078832,33.68606368998425,0.0 -78.94561154878248,33.686063219824746,0.0 -78.94561554854613,33.686062749669105,0.0 -78.94561868654004,33.68606251394156,0.0 -78.94562190311466,33.686062278214386,0.0 -78.94563633579102,33.68606133662222,0.0 -78.94563955236563,33.68606110220466,0.0 -78.94564190586111,33.6860608664736,0.0 -78.94564425804704,33.68606055216196,0.0 -78.9456465329618,33.68606016057918,0.0 -78.94564888645765,33.686059533255055,0.0 -78.94565108279201,33.68605882734972,0.0 -78.94565476954297,33.686057336955315,0.0 -78.94565759321459,33.686056082298634,0.0 -78.94568355763485,33.68604431497906,0.0 -78.94569948204277,33.686036941576326,0.0 -78.94570230571438,33.686035686919645,0.0 -78.94570442346797,33.68603490243338,0.0 -78.9457070899776,33.686034039369055,0.0 -78.94571046371341,33.68603435370637,0.0 -78.94571313022016,33.686036550044435,0.0 -78.9457145420533,33.68603874637687,0.0 -78.9457161896281,33.686041805786736,0.0 -78.94572262145559,33.68605451359866,0.0 -78.94572983909005,33.686068318922366,0.0 -78.94574089931915,33.68608965489851,0.0 -78.94574952747688,33.68610589229634,0.0 -78.94575101789,33.686109030286,0.0 -78.94575219398016,33.686111932532555,0.0 -78.94575274404164,33.68611632518725,0.0 -78.94575211670126,33.68612024766309,0.0 -78.94575109645712,33.68612377723457,0.0 -78.94574803703577,33.686132876847495,0.0 -78.94574693952079,33.68613609209633,0.0 -78.94574568353497,33.686138838480616,0.0 -78.94574395868337,33.68614181929467,0.0 -78.94574207536198,33.68614323111667,0.0 -78.94573956470435,33.68614401560118,0.0 -78.9457365851817,33.68614432860021,0.0 -78.9457334471879,33.686144407166736,0.0 -78.94572944611514,33.686144328568204,0.0 -78.94571148254235,33.68614393689468,0.0 -78.94570661969999,33.686143858292375,0.0 -78.94569838312181,33.686143465352764,0.0 -78.9456786947008,33.68614244633684,0.0 -78.94566708438678,33.686141818950034,0.0 -78.9456554753825,33.68614111298282,0.0 -78.94565218153703,33.68614095580704,0.0 -78.94564982804184,33.68614087721589,0.0 -78.94564669004804,33.68614095578242,0.0 -78.94564402353886,33.68614134736345,0.0 -78.9456414342993,33.68614338782657,0.0 -78.94564025820361,33.68614652449455,0.0 -78.94563986529722,33.68614903514101,0.0 -78.94563947369974,33.686152328973606,0.0 -78.94563845344878,33.6861631547483,0.0 -78.94563743450755,33.686173979213194,0.0 -78.94563657142078,33.68618205859869,0.0 -78.94563515957425,33.686194139040786,0.0 -78.94563476666706,33.686197511453884,0.0 -78.94563468808386,33.68620010068242,0.0 -78.9456347666623,33.68620261002136,0.0 -78.94563547257786,33.68620488493122,0.0 -78.94563696299221,33.68620668967095,0.0 -78.94563915932437,33.686208258672245,0.0 -78.9456417485608,33.6862095919337,0.0 -78.94564661140119,33.686211788281604,0.0 -78.9456499065549,33.68621343586842,0.0 -78.94565249448142,33.686215083452055,0.0 -78.94565461223199,33.68621751421956,0.0 -78.94565500513399,33.68621971054751,0.0 -78.94565461222672,33.68622316285083,0.0 -78.945653827725,33.68622669242327,0.0 -78.94565139694994,33.68623594789039,0.0 -78.94565053386756,33.68623932161109,0.0 -78.94565006238025,33.68624190952815,0.0 -78.94564982794516,33.68624449875591,0.0 -78.94565014095637,33.68624700809591,0.0 -78.94565092545245,33.68624951874773,0.0 -78.94565273018863,33.6862528138998,0.0 -78.94565484793841,33.68625610774366,0.0 -78.94565955492234,33.68626316822638,0.0 -78.94566112391688,33.68626559899151,0.0 -78.94566300592426,33.68626889414393,0.0 -78.9456646534979,33.68627312964253,0.0 -78.94566481065696,33.68627587472343,0.0 -78.9456641047371,33.686278306787976,0.0 -78.9456627701697,33.68628183635795,0.0 -78.94566120116967,33.68628528865599,0.0 -78.94565633831778,33.68629540718855,0.0 -78.94565476931757,33.686298936757474,0.0 -78.94565343606006,33.686302389056564,0.0 -78.94565296588155,33.6863059186305,0.0 -78.94565367179557,33.686309762531735,0.0 -78.945654690724,33.686312664777674,0.0 -78.94565610255617,33.68631588003776,0.0 -78.94566057379465,33.6863262343538,0.0 -78.94566441769746,33.6863353339976,0.0 -78.9456659081105,33.68633855056785,0.0 -78.9456671627817,33.68634105991207,0.0 -78.94566865319571,33.68634333482537,0.0 -78.9456704579331,33.68634529672769,0.0 -78.94567273284596,33.68634694300022,0.0 -78.94567524219191,33.68634827757093,0.0 -78.9456787730882,33.68634984526858,0.0 -78.94568300859231,33.68635157144012,0.0 -78.94569595084694,33.68635667006567,0.0 -78.94569877582599,33.6863577688962,0.0 -78.94570254115486,33.68635957233651,0.0 -78.9457059921602,33.68636153424613,0.0 -78.94570818849213,33.686363337679396,0.0 -78.94571007050068,33.686365376852855,0.0 -78.94571218825092,33.68636820183285,0.0 -78.94571462032373,33.68637165283921,0.0 -78.94572191523248,33.68638208574842,0.0 -78.94572387713066,33.68638498799851,0.0 -78.94572575913809,33.68638820457043,0.0 -78.94572693653714,33.68639189131276,0.0 -78.94572701380567,33.6863947149739,0.0 -78.94572630788453,33.68639840170779,0.0 -78.94572536753081,33.686402009860025,0.0 -78.945722308108,33.68641267715477,0.0 -78.94572003318608,33.68642075784355,0.0 -78.94571822844048,33.68642750266518,0.0 -78.94571564050361,33.68643707245388,0.0 -78.94571422866379,33.68644193658297,0.0 -78.94571297267774,33.686444917399214,0.0 -78.94571109066611,33.68644617206011,0.0 -78.94570850142946,33.68644507454016,0.0 -78.94570654083995,33.68644334837892,0.0 -78.94570395291424,33.68644083771892,0.0 -78.94569140226086,33.686428287040606,0.0 -78.94567469337676,33.68641173659402,0.0 -78.94564872899896,33.68637800578039,0.0 -78.94564535657672,33.68637353453245,0.0 -78.94564300308446,33.68637031926812,0.0 -78.94564072817298,33.68636710269445,0.0 -78.94563845326155,33.68636380884989,0.0 -78.94563696284759,33.68636168978788,0.0 -78.94563523800132,33.68635894469996,0.0 -78.94563390343971,33.68635635677478,0.0 -78.94563249160736,33.68635321878556,0.0 -78.94563147267863,33.686350629552194,0.0 -78.94563053102095,33.68634804162879,0.0 -78.94562237304505,33.68632458792014,0.0 -78.94562111837516,33.68632066543578,0.0 -78.94562009813738,33.686317370287234,0.0 -78.94561939222302,33.686313919288615,0.0 -78.94561899932204,33.68631062414287,0.0 -78.94561852915147,33.68630568273437,0.0 -78.94561805898003,33.68630168298274,0.0 -78.94561735306735,33.68629642725107,0.0 -78.94561609709255,33.68628724903822,0.0 -78.94561554834027,33.68628332655711,0.0 -78.94561531260035,33.68628066005637,0.0 -78.94561507817028,33.68627775781404,0.0 -78.94561507817379,33.68627399249648,0.0 -78.94561523533915,33.686269991437946,0.0 -78.94561554835776,33.68626457985938,0.0 -78.94561570552187,33.68626191205079,0.0 -78.94561594126685,33.68625916697157,0.0 -78.94561649002793,33.686253675503934,0.0 -78.94561774471181,33.68624269387892,0.0 -78.94561805903822,33.686239321465465,0.0 -78.94561813762186,33.68623626206344,0.0 -78.94561743170829,33.68623194798856,0.0 -78.94561499963497,33.68622904573637,0.0 -78.9456123318182,33.68622716241077,0.0 -78.94560958673,33.68622567198752,0.0 -78.94560605714348,33.68622394712887,0.0 -78.9456039393916,33.686223005462516,0.0 -78.94560127157409,33.686221906632596,0.0 -78.94559884080819,33.68622135786762,0.0 -78.94559633015037,33.68622245667432,0.0 -78.94559499689326,33.686225358909624,0.0 -78.94559436955417,33.68622778966489,0.0 -78.94559382079512,33.686231084806415,0.0 -78.9455910743809,33.68624708641154,0.0 -78.94559060420323,33.68624975421883,0.0 -78.9455902112966,33.68625242071675,0.0 -78.94558989828056,33.68625508852474,0.0 -78.94558974111638,33.68625783360423,0.0 -78.9455895053714,33.68626057868336,0.0 -78.94558903518609,33.6862714031508,0.0 -78.94558879943982,33.686275561370074,0.0 -78.94558840784036,33.6862809742579,0.0 -78.94558738758677,33.68629462238356,0.0 -78.94558715315019,33.68629877929313,0.0 -78.94558691740389,33.68630285893181,0.0 -78.94558691740131,33.6863056040121,0.0 -78.94558699597962,33.68630834909264,0.0 -78.94558715313745,33.68631242873308,0.0 -78.94558746614712,33.68631658564511,0.0 -78.94558778046724,33.68631995937108,0.0 -78.94558825063929,33.68632333178805,0.0 -78.94558879939281,33.6863259210194,0.0 -78.94558958388754,33.68632992077246,0.0 -78.94559154577973,33.68633917756889,0.0 -78.94559248612637,33.686343177322726,0.0 -78.94559303618963,33.686345766554,0.0 -78.94559389795607,33.68634906039222,0.0 -78.94559499677486,33.68635219838003,0.0 -78.94559735026434,33.68635839577584,0.0 -78.94559946801178,33.68636420026809,0.0 -78.94560072268277,33.6863669453539,0.0 -78.94560197735434,33.686369141685645,0.0 -78.94560386067178,33.68637196535487,0.0 -78.94560550824725,33.68637424026888,0.0 -78.94560723309404,33.68637643660272,0.0 -78.94561484232648,33.68638639933976,0.0 -78.94561829332957,33.686390870588056,0.0 -78.94562268599164,33.686396439348734,0.0 -78.94564676836242,33.68642648341695,0.0 -78.94565029794639,33.6864309546656,0.0 -78.94565280860004,33.68643440567223,0.0 -78.94565688693864,33.68644021017318,0.0 -78.94567477190698,33.68646593883219,0.0 -78.9456821453966,33.68647645032234,0.0 -78.9457011278757,33.68650343496525,0.0 -78.9457129726076,33.686520142551124,0.0 -78.94571477734426,33.68652288763941,0.0 -78.94571509166475,33.6865258684627,0.0 -78.94571265958908,33.68652547685872,0.0 -78.94571007035242,33.68652437802923,0.0 -78.94570575626776,33.68652241742536,0.0 -78.94569548052156,33.686517710404836,0.0 -78.94568677377154,33.68651371061624,0.0 -78.94566080937312,33.686501944373404,0.0 -78.94564778853844,33.686496061251816,0.0 -78.94563468781311,33.68649025671038,0.0 -78.9456311582266,33.6864886091226,0.0 -78.9456284917191,33.6864871972802,0.0 -78.9456261382253,33.6864856282782,0.0 -78.94562449064946,33.686483666376674,0.0 -78.9456234704116,33.686480451118236,0.0 -78.94562315740076,33.68647754887555,0.0 -78.94562307882313,33.686474175150636,0.0 -78.94562323600138,33.686456368800755,0.0 -78.94562323600387,33.68645370230108,0.0 -78.94562315742559,33.68645095722052,0.0 -78.9456230002671,33.68644766207576,0.0 -78.94562260867518,33.68644499557431,0.0 -78.94562190275984,33.68644248492285,0.0 -78.94562064677886,33.686440131430096,0.0 -78.94561915636501,33.68643777924583,0.0 -78.94561711719557,33.68643495426628,0.0 -78.94560919494978,33.68642475709586,0.0 -78.94560229163417,33.68641558016737,0.0 -78.94560009530302,33.686412912348125,0.0 -78.94559829056566,33.686410951755605,0.0</coordinates>
                    </LinearRing>
                </outerBoundaryIs>
            </Polygon>
        </Placemark>
        <Placemark id="1345">
            <name>Flood_146</name>
            <styleUrl>#1350</styleUrl>
            <Polygon id="1344">
                <outerBoundaryIs>
                    <LinearRing id="1348">
                        <coordinates>-78.94962267576057,33.686435678151284,0.0 -78.94964228692511,33.68642046111685,0.0 -78.94967884011078,33.68640689042082,0.0 -78.94970002023972,33.68642775626976,0.0 -78.949702137991,33.68642940385136,0.0 -78.94970456875552,33.68643152160787,0.0 -78.94970637349313,33.686433326349174,0.0 -78.9497078639074,33.686435286940366,0.0 -78.94970872698445,33.68643771901215,0.0 -78.94970841265913,33.68644007118833,0.0 -78.94970747099688,33.68644250325192,0.0 -78.94970605915901,33.686445484067576,0.0 -78.94970339264567,33.68645042546213,0.0 -78.94969531321557,33.686465173684404,0.0 -78.94969397995891,33.68646768301712,0.0 -78.94969241095896,33.686471056734796,0.0 -78.94969123355317,33.686474743466725,0.0 -78.94969154787354,33.68647795872203,0.0 -78.94969264669307,33.686480312214265,0.0 -78.94969413710699,33.686482665708255,0.0 -78.94969617627638,33.6864855679589,0.0 -78.94970221651407,33.68649364737561,0.0 -78.94970480443902,33.68649709838274,0.0 -78.94970676502759,33.68650007921353,0.0 -78.94970817817027,33.68650251128778,0.0 -78.94970935426086,33.68650494336086,0.0 -78.94971029591792,33.686508315780095,0.0 -78.94971162916629,33.68651506192579,0.0 -78.94971225650069,33.6865176511576,0.0 -78.94971327673858,33.68652094499659,0.0 -78.94971594324001,33.68652918155927,0.0 -78.94971664915492,33.68653216238444,0.0 -78.94971704205575,33.686535849123416,0.0 -78.94971711932355,33.68653945728036,0.0 -78.94971704205004,33.686542202360414,0.0 -78.94971680630401,33.68654620341868,0.0 -78.94971547302403,33.68657459980205,0.0 -78.94971539444015,33.68657805079729,0.0 -78.94971539443776,33.68658071729708,0.0 -78.94971578602976,33.68658330652776,0.0 -78.94971672768673,33.686586757527586,0.0 -78.94971782519634,33.686589425342014,0.0 -78.94971947277114,33.68659256202272,0.0 -78.94972214058677,33.6865957785983,0.0 -78.94972457135121,33.6865979749355,0.0 -78.94972849384028,33.68660134736811,0.0 -78.94973657325124,33.68660801496358,0.0 -78.94973884816403,33.6866098982875,0.0 -78.94974206473628,33.68661240764064,0.0 -78.94974575148377,33.68661476114449,0.0 -78.94974959539395,33.68661601714076,0.0 -78.94975273207761,33.68661640874792,0.0 -78.94975587007119,33.686616565923025,0.0 -78.9497599497249,33.68661656594133,0.0 -78.94978112856312,33.68661633029477,0.0 -78.94978434513762,33.68661633030921,0.0 -78.94978842348156,33.686616487488614,0.0 -78.94979148289421,33.68661672324395,0.0 -78.94979446372572,33.68661727201143,0.0 -78.94979815047392,33.68661891960008,0.0 -78.94980089556206,33.686620644455395,0.0 -78.94980270030017,33.686621979023016,0.0 -78.94980505379384,33.68662378245707,0.0 -78.94981776030146,33.686634136810525,0.0 -78.94982003521427,33.68663602013445,0.0 -78.94982238870793,33.68663782356851,0.0 -78.94982419344605,33.68663915682651,0.0 -78.94982670279174,33.686640804409876,0.0 -78.94982874327239,33.686641903236946,0.0 -78.94983086102434,33.68664292217415,0.0 -78.94983297877636,33.68664386384056,0.0 -78.94983595960724,33.68664511852332,0.0 -78.94983894043826,33.686646295935134,0.0 -78.94985674684352,33.686653355167266,0.0 -78.94989392734075,33.686668023702495,0.0 -78.94991330274236,33.68667563300551,0.0 -78.94991620499253,33.68667688768784,0.0 -78.94991832274447,33.686677829354245,0.0 -78.9499210691425,33.68667924119698,0.0 -78.94992365706887,33.686681124522316,0.0 -78.94992624630416,33.68668379103383,0.0 -78.94992875564847,33.68668700760872,0.0 -78.94993071754679,33.68668983127843,0.0 -78.94993220796073,33.68669218477234,0.0 -78.94993377695546,33.68669461553758,0.0 -78.94994452286599,33.68671163744139,0.0 -78.94995840676587,33.68673344491451,0.0 -78.94996303516916,33.68674066124861,0.0 -78.94997017291631,33.686751642911716,0.0 -78.94997197765278,33.68675470232241,0.0 -78.94997323232431,33.68675705581536,0.0 -78.94997409540116,33.68675972231904,0.0 -78.94997378107507,33.686762860300654,0.0 -78.9499724478187,33.68676505662088,0.0 -78.94997064438712,33.686767252938985,0.0 -78.94996821230869,33.68676992073759,0.0 -78.9499579365483,33.6867807451614,0.0 -78.94994773936892,33.686791491005145,0.0 -78.94993965994415,33.68680019900282,0.0 -78.94993063885832,33.68681000319494,0.0 -78.94992726511907,33.68681345548502,0.0 -78.94992483435091,33.68681549463921,0.0 -78.94992146061324,33.68681722077676,0.0 -78.949918245348,33.68681761235532,0.0 -78.94991518593535,33.68681737659998,0.0 -78.94991126344368,33.68681690640877,0.0 -78.94990804686967,33.68681635764014,0.0 -78.94989502603129,33.686814239835975,0.0 -78.9498837300415,33.68681235647163,0.0 -78.94987070920297,33.686810395828566,0.0 -78.94985604078704,33.686808199436484,0.0 -78.94985282421304,33.686807650667944,0.0 -78.94985054929896,33.68680717917443,0.0 -78.94984788279086,33.686806473247245,0.0 -78.94984545071648,33.686804512651726,0.0 -78.94984513639602,33.6868014532478,0.0 -78.94984607805907,33.686798079527314,0.0 -78.94984741131671,33.686794471376594,0.0 -78.94985541217164,33.68677360696836,0.0 -78.94985690259112,33.686769684496234,0.0 -78.94985800141563,33.68676654651806,0.0 -78.94985870733555,33.68676395860193,0.0 -78.94985902166093,33.68676160511603,0.0 -78.94985855017808,33.6867593302072,0.0 -78.94985643242765,33.686756585117394,0.0 -78.9498532158558,33.686753760132326,0.0 -78.94984882319152,33.68675030911701,0.0 -78.94983666543858,33.68674136659649,0.0 -78.94983423336404,33.68673956316208,0.0 -78.94983117395303,33.68673752267362,0.0 -78.94982850744567,33.68673587639917,0.0 -78.94982646827464,33.68673477757209,0.0 -78.94982364329576,33.68673344430951,0.0 -78.94981579962452,33.686729757537094,0.0 -78.94981376045334,33.68672873729053,0.0 -78.94981179855345,33.68672763977343,0.0 -78.94980921062717,33.6867256778676,0.0 -78.94980685713443,33.68672285419612,0.0 -78.94980560246299,33.686720500703174,0.0 -78.94980419063046,33.68671744129433,0.0 -78.94980309181109,33.68671493195071,0.0 -78.9497989348953,33.686704813377226,0.0 -78.94979736590186,33.68670104805247,0.0 -78.94979626708238,33.686698537399124,0.0 -78.9497948552496,33.68669587089298,0.0 -78.94979328625517,33.686693203076516,0.0 -78.94979148282741,33.68669116390323,0.0 -78.94978850199779,33.68668841880955,0.0 -78.94978544258717,33.686685908147396,0.0 -78.94976543985574,33.686670533774084,0.0 -78.94976191027015,33.68666778867793,0.0 -78.94975853653656,33.68666496369219,0.0 -78.94975626293345,33.68666308167797,0.0 -78.94975406529196,33.68666112108351,0.0 -78.94975085002983,33.68665806166657,0.0 -78.94974120162416,33.68664904057684,0.0 -78.94973900529226,33.68664700140178,0.0 -78.9497368089605,33.68664503949771,0.0 -78.94973461262845,33.68664315748386,0.0 -78.94973116031409,33.68664033380746,0.0 -78.94971021723329,33.68662386061202,0.0 -78.9497066876477,33.686621115515884,0.0 -78.94970441273499,33.68661923219196,0.0 -78.94970221640301,33.68661727159741,0.0 -78.94969994149038,33.6866153110027,0.0 -78.94969013592308,33.686606289912184,0.0 -78.9496868407704,33.68660330907538,0.0 -78.94968464443843,33.686601425751824,0.0 -78.94968244810643,33.68659962231847,0.0 -78.94967358419751,33.68659240596539,0.0 -78.9496713878655,33.68659060122241,0.0 -78.94966911295276,33.686588640627605,0.0 -78.94966456312754,33.68658463954779,0.0 -78.94965232679544,33.68657373644236,0.0 -78.94964220821451,33.68656479393104,0.0 -78.949638913062,33.686561734513745,0.0 -78.94963624655544,33.68655922385338,0.0 -78.94963428465647,33.68655702751837,0.0 -78.9496320097448,33.686553968105656,0.0 -78.94963004915648,33.686550752842955,0.0 -78.94962871590425,33.68654832076908,0.0 -78.94962416608296,33.686539849765964,0.0 -78.94962149957844,33.686535064198885,0.0 -78.94961945909998,33.68653145603313,0.0 -78.9496160866787,33.6865257301156,0.0 -78.94961436052307,33.686522592124845,0.0 -78.94961294869071,33.68651945413541,0.0 -78.9496123999367,33.68651717922623,0.0 -78.94961287011479,33.686513963974456,0.0 -78.94961396893889,33.68651121758928,0.0 -78.94961561651932,33.68650815819426,0.0 -78.94961977345066,33.6865009418996,0.0 -78.9496214996118,33.686497961085266,0.0 -78.94962267570676,33.68649552902273,0.0 -78.94962377453074,33.68649301968896,0.0 -78.94962455903206,33.68648972454837,0.0 -78.94962526495398,33.68648501888654,0.0 -78.94962612672686,33.68648125357271,0.0 -78.9496282457952,33.68647474318412,0.0 -78.94962903029582,33.68647223253923,0.0 -78.9496295790542,33.686469643312776,0.0 -78.94963020639467,33.6864655649853,0.0 -78.9496304421395,33.68646289848665,0.0 -78.94963036356104,33.686460309257306,0.0 -78.94962957906583,33.68645670109717,0.0 -78.94962267576057,33.686435678151284,0.0</coordinates>
                    </LinearRing>
                </outerBoundaryIs>
            </Polygon>
        </Placemark>
        <Placemark id="1354">
            <name>Flood_147</name>
            <styleUrl>#1359</styleUrl>
            <Polygon id="1353">
                <outerBoundaryIs>
                    <LinearRing id="1357">
                        <coordinates>-79.111742374437,33.80809577619309,0.0 -79.11168338664685,33.808013176351054,0.0 -79.11174292313348,33.80793410732564,0.0 -79.11164604780265,33.807982663570264,0.0 -79.11160015940575,33.807967995239004,0.0 -79.11158494227847,33.80792916601144,0.0 -79.11157097981058,33.807864138049865,0.0 -79.11157756877915,33.8078466460306,0.0 -79.1115871385556,33.80779416866882,0.0 -79.11159184420723,33.80776436046945,0.0 -79.11158815746167,33.807734709435834,0.0 -79.11157827463556,33.8076816833312,0.0 -79.11159537504456,33.80763328429223,0.0 -79.1116014139439,33.80759955492613,0.0 -79.111605493553,33.80751930853419,0.0 -79.11160831719593,33.807473184408174,0.0 -79.11161059208779,33.80743474807321,0.0 -79.11160212109318,33.80738713485341,0.0 -79.11159404038618,33.80735207093656,0.0 -79.1115620371527,33.80730712422778,0.0 -79.11150885387124,33.80730633976255,0.0 -79.111512069139,33.80735081631425,0.0 -79.11150187202159,33.80738431125097,0.0 -79.1115286208406,33.8074334934508,0.0 -79.11152869943565,33.80747475344323,0.0 -79.11152877804342,33.807551940432596,0.0 -79.11151395253914,33.8075982204166,0.0 -79.1115288566621,33.807659718804175,0.0 -79.11153615155928,33.807681054710976,0.0 -79.11152579729016,33.80774106270287,0.0 -79.11152360097302,33.80776334027116,0.0 -79.11152948405605,33.80782828965662,0.0 -79.11145198272754,33.80782170072654,0.0 -79.11143127414884,33.80782719220429,0.0 -79.11138138601554,33.80784366532091,0.0 -79.1113675807361,33.807856137360986,0.0 -79.11135236231345,33.807857627779356,0.0 -79.11133934151967,33.80784295942972,0.0 -79.11131557352704,33.80781103350235,0.0 -79.11127039103197,33.80775949651774,0.0 -79.11125619283868,33.80774012250752,0.0 -79.11121344240571,33.80767611348912,0.0 -79.11116049483793,33.80759680878551,0.0 -79.11114496340097,33.807592573306124,0.0 -79.11114982622097,33.807583552263964,0.0 -79.11110064266094,33.80750950328272,0.0 -79.11108942659536,33.80748353898772,0.0 -79.1110654228521,33.807425805920204,0.0 -79.11108095428794,33.80742666898712,0.0 -79.11116410293471,33.807432866321165,0.0 -79.11118371270229,33.80744486816936,0.0 -79.11117155498356,33.807428080765575,0.0 -79.11116465168004,33.80740894118308,0.0 -79.11115429736735,33.80734532504896,0.0 -79.11114825714102,33.807330186522286,0.0 -79.11112943184916,33.80726249075627,0.0 -79.11107036417751,33.807203581620485,0.0 -79.11098211827199,33.807186324086224,0.0 -79.11097191983248,33.8071849908431,0.0 -79.11096266435685,33.807177460218625,0.0 -79.11096391902308,33.80717055823218,0.0 -79.11097246988788,33.807161771619676,0.0 -79.11102573174182,33.80714004408618,0.0 -79.11107624717077,33.80701430218781,0.0 -79.11117202503115,33.8070715637321,0.0 -79.11118622320184,33.807027009899834,0.0 -79.11127180260307,33.807027244283425,0.0 -79.11135306796096,33.80710098023429,0.0 -79.11136867798099,33.80711235344079,0.0 -79.11139103413552,33.80712035423104,0.0 -79.11146712232535,33.80712914079599,0.0 -79.11152979684118,33.80718616661764,0.0 -79.11156352753865,33.80723887969653,0.0 -79.11166738343744,33.8071916580064,0.0 -79.11176221961969,33.807187029562606,0.0 -79.11176857413581,33.80711125570861,0.0 -79.11186254593623,33.80711706013421,0.0 -79.11187517512916,33.807108902163215,0.0 -79.1118639590534,33.807054698661794,0.0 -79.11181006855327,33.807070151544146,0.0 -79.11176410290251,33.80710301916679,0.0 -79.11175076778945,33.80709580286656,0.0 -79.11166636446157,33.80705422859965,0.0 -79.11160008050983,33.807077133538094,0.0 -79.11157396033263,33.80702183253764,0.0 -79.11153583698457,33.80696684455621,0.0 -79.11147088757988,33.80695664746533,0.0 -79.11144531616932,33.80693742931287,0.0 -79.11146343551728,33.80692260378476,0.0 -79.11147182922174,33.80691570048457,0.0 -79.11148430126057,33.80692738801481,0.0 -79.11149700903658,33.806926682093,0.0 -79.1115704294137,33.80692236798315,0.0 -79.1116274565848,33.80690503309649,0.0 -79.11167067846024,33.80685459487917,0.0 -79.11173821708103,33.8068329446084,0.0 -79.1117700631366,33.806830278092754,0.0 -79.11180206765455,33.80680423519287,0.0 -79.11186960627907,33.806793174951814,0.0 -79.11188098080459,33.80678854655497,0.0 -79.11190192381378,33.806779446923215,0.0 -79.11196938385099,33.80674940425676,0.0 -79.1120366867296,33.80672579340292,0.0 -79.11206892568485,33.80671528193539,0.0 -79.11208437984848,33.80671261542904,0.0 -79.1121692533303,33.80670006476835,0.0 -79.11226683459309,33.80670084920851,0.0 -79.11230119129736,33.8067031227845,0.0 -79.11236535751664,33.806714184261146,0.0 -79.11242787487743,33.80678744743004,0.0 -79.11246183999941,33.8068193733517,0.0 -79.11247894043849,33.8068557705124,0.0 -79.11247878328282,33.80687075319135,0.0 -79.11247831311493,33.80688573587045,0.0 -79.11247015517353,33.80695303874954,0.0 -79.1124700765964,33.80696260854271,0.0 -79.11246403640142,33.80703548015758,0.0 -79.1124612913255,33.80704324653016,0.0 -79.11245666293891,33.80705673749214,0.0 -79.1124422303385,33.80710646977859,0.0 -79.11244207318146,33.807117608562194,0.0 -79.1124511728327,33.80720020712266,0.0 -79.11245329057981,33.80720789491206,0.0 -79.11247203857997,33.80721628860686,0.0 -79.11255063612565,33.807276923883144,0.0 -79.11262727437227,33.80726672671276,0.0 -79.11264955194436,33.807269236037016,0.0 -79.11269559619349,33.807286415014524,0.0 -79.11274728907627,33.80731928258237,0.0 -79.1127915312247,33.807370346775166,0.0 -79.11278494226171,33.80740321437575,0.0 -79.11274321079593,33.80745208360192,0.0 -79.11270116631702,33.8074986779232,0.0 -79.11265386610805,33.807533191807835,0.0 -79.11264351182162,33.807544173436185,0.0 -79.11262641139656,33.80754691983367,0.0 -79.11254475316079,33.80754331172565,0.0 -79.11252129949705,33.80753115271867,0.0 -79.11244670171277,33.80750989543002,0.0 -79.11242654188703,33.807512954841485,0.0 -79.11234637408616,33.80757884593152,0.0 -79.11228495426106,33.80758441470296,0.0 -79.1122963287973,33.807610143256525,0.0 -79.11234457069338,33.80766207183222,0.0 -79.11236316154088,33.807693683440704,0.0 -79.11244113175542,33.80776310532516,0.0 -79.11246105584598,33.807777616509895,0.0 -79.11246756755804,33.80780044282704,0.0 -79.11244803508673,33.807859902070525,0.0 -79.11244772076735,33.807867275539415,0.0 -79.11246082147298,33.807942579209396,0.0 -79.11245878100588,33.80796085572134,0.0 -79.1124366605985,33.80796909227808,0.0 -79.11237155405573,33.80802368741511,0.0 -79.11235272879244,33.80803702253375,0.0 -79.11233641286101,33.808035297701224,0.0 -79.11225153937363,33.80803341443648,0.0 -79.11223734119233,33.80804761262808,0.0 -79.1121885505514,33.80802086385883,0.0 -79.11223828283393,33.80800643121553,0.0 -79.11231790059507,33.8080069013442,0.0 -79.11240253831697,33.807941637585955,0.0 -79.11239642081283,33.80790688798988,0.0 -79.11242073753118,33.80785950918341,0.0 -79.11243093465805,33.8078527630432,0.0 -79.112415481776,33.807776910620774,0.0 -79.1123433933151,33.80771690267497,0.0 -79.11230880087173,33.807721609665336,0.0 -79.11221718125188,33.80772851170245,0.0 -79.11221953475399,33.80777392991089,0.0 -79.11214289653081,33.807850409719066,0.0 -79.11213395537872,33.807847586065364,0.0 -79.11213575880384,33.807855116694036,0.0 -79.11210265678648,33.80790445608849,0.0 -79.11204296310936,33.8079000634729,0.0 -79.11195589197442,33.80786147133651,0.0 -79.11194444018652,33.80788970923969,0.0 -79.11187470521924,33.80785111709368,0.0 -79.11184701475212,33.80782538723957,0.0 -79.11182371825566,33.807830957299224,0.0 -79.11184058294732,33.80785064562986,0.0 -79.1117999502968,33.80789441629158,0.0 -79.11174943352692,33.807931676565694,0.0 -79.11181030461064,33.80796085608444,0.0 -79.11181038321045,33.80801513817265,0.0 -79.11184230916689,33.808042199963566,0.0 -79.11187376363074,33.808042357106935,0.0 -79.111912827297,33.808016707105594,0.0 -79.11195455875469,33.80794422706372,0.0 -79.11204139414517,33.80797458396555,0.0 -79.11209849859243,33.80797183754568,0.0 -79.11212391416205,33.80801992223893,0.0 -79.11213873968912,33.80803788572916,0.0 -79.11221522080808,33.808120877154295,0.0 -79.11220447363843,33.808186062290694,0.0 -79.11219474670033,33.80823626474759,0.0 -79.11217898084433,33.80826811211672,0.0 -79.11218290202606,33.8083099994412,0.0 -79.11213238656022,33.8083314139609,0.0 -79.11211936446466,33.80833894459778,0.0 -79.11208571367946,33.80834922032445,0.0 -79.11210242122418,33.808408365225645,0.0 -79.11210273555457,33.80843189746099,0.0 -79.11203104002321,33.808448292009196,0.0 -79.11196561914227,33.80845786183896,0.0 -79.1119317326166,33.80847096253419,0.0 -79.11183375843761,33.8084330750088,0.0 -79.1118296801078,33.80842774070599,0.0 -79.11173625573423,33.80837440032603,0.0 -79.11169350531267,33.80834318032395,0.0 -79.11171382229375,33.808323883565215,0.0 -79.11173155003206,33.8082612876519,0.0 -79.11173900076867,33.8082492857886,0.0 -79.11178292855226,33.80817962940418,0.0 -79.111742374437,33.80809577619309,0.0</coordinates>
                    </LinearRing>
                </outerBoundaryIs>
            </Polygon>
        </Placemark>
        <Placemark id="1363">
            <name>Flood_148</name>
            <styleUrl>#1368</styleUrl>
            <Polygon id="1362">
                <outerBoundaryIs>
                    <LinearRing id="1366">
                        <coordinates>-79.11518008410364,33.82283314721761,0.0 -79.11518455533255,33.8228285188248,0.0 -79.11521640268279,33.82278059126126,0.0 -79.11524730838197,33.822747017733235,0.0 -79.11527578201668,33.82271901425313,0.0 -79.11533837924428,33.82271822972522,0.0 -79.11538834594735,33.82266669399822,0.0 -79.11544137206003,33.822639317839446,0.0 -79.115449530006,33.822585114326884,0.0 -79.11544631474442,33.822559621509846,0.0 -79.11547675028443,33.82256487721858,0.0 -79.11550616559349,33.82258597737292,0.0 -79.11557441015125,33.82261641286821,0.0 -79.11560445278542,33.82261249037665,0.0 -79.1156010017825,33.822587467732966,0.0 -79.11557691944718,33.822503378769525,0.0 -79.11568108965929,33.8224207015682,0.0 -79.11577647459883,33.82241309230795,0.0 -79.11579106568837,33.82241324946127,0.0 -79.11582189282397,33.82242587863856,0.0 -79.11582338324888,33.82246596123308,0.0 -79.11585319146833,33.822508790200665,0.0 -79.11587264408125,33.82253506881403,0.0 -79.11588723516576,33.822521263525,0.0 -79.11588770533471,33.82250934024595,0.0 -79.11588966591331,33.822495847975816,0.0 -79.115892490857,33.82242697610897,0.0 -79.11592700470864,33.82238767668104,0.0 -79.11597485368306,33.822379518692046,0.0 -79.11602670371978,33.82238563746517,0.0 -79.11607314087337,33.82240171762724,0.0 -79.11614185559478,33.82240571864753,0.0 -79.1161392676557,33.82234822130853,0.0 -79.1160758086371,33.822281467220535,0.0 -79.116032273723,33.8222641310789,0.0 -79.1160448243261,33.822229695794384,0.0 -79.11609173165536,33.82225220776887,0.0 -79.11609235899445,33.822265072703445,0.0 -79.11617362566194,33.82232508064762,0.0 -79.1162402213368,33.82234978893623,0.0 -79.11627151995717,33.82236736082572,0.0 -79.11635874695835,33.82243403632086,0.0 -79.11636047311252,33.822441016886316,0.0 -79.11636878823866,33.8224391348793,0.0 -79.11644620970728,33.82251781092925,0.0 -79.11645460344214,33.82259240868824,0.0 -79.11639098728963,33.82259946917812,0.0 -79.11637482852201,33.82260739140906,0.0 -79.1164165587252,33.82268230347253,0.0 -79.11636282669839,33.82271156163429,0.0 -79.11631505501093,33.82276325452124,0.0 -79.11634658939286,33.82283487275808,0.0 -79.11626163731667,33.82282114479192,0.0 -79.11623888826298,33.82282561603343,0.0 -79.11616232990544,33.822842637916054,0.0 -79.11615503501578,33.822843265254086,0.0 -79.1160803586598,33.82285644324035,0.0 -79.1160631010744,33.822863189383945,0.0 -79.11604074491359,33.82284154047227,0.0 -79.1159661471098,33.82277784579021,0.0 -79.11593696625454,33.822816282139684,0.0 -79.1159191612311,33.8228397358042,0.0 -79.11593743776862,33.82290068543745,0.0 -79.11586480056928,33.82289386076047,0.0 -79.11582354054661,33.822838245444416,0.0 -79.11576784660483,33.822808281425274,0.0 -79.11572760552777,33.8228031043021,0.0 -79.11566720596782,33.82289370370295,0.0 -79.11557644939316,33.82282891152196,0.0 -79.11556978183746,33.82282875436447,0.0 -79.11556389877924,33.822834323104495,0.0 -79.11555142676893,33.82290256764211,0.0 -79.11553926775099,33.82291637292992,0.0 -79.11546835671844,33.82295057381303,0.0 -79.1154234099979,33.82299708955421,0.0 -79.11541925179549,33.82304015428098,0.0 -79.11536724591441,33.823053567996745,0.0 -79.11527562495648,33.82299481472648,0.0 -79.11526982047533,33.82299112799514,0.0 -79.1151809459253,33.82298516640229,0.0 -79.11518424104064,33.82291096153974,0.0 -79.11518008410364,33.82283314721761,0.0</coordinates>
                    </LinearRing>
                </outerBoundaryIs>
            </Polygon>
        </Placemark>
        <Placemark id="1372">
            <name>Flood_149</name>
            <styleUrl>#1377</styleUrl>
            <Polygon id="1371">
                <outerBoundaryIs>
                    <LinearRing id="1375">
                        <coordinates>-79.17133016728887,33.82597831259174,0.0 -79.17126521786939,33.8259513293931,0.0 -79.17113422021349,33.82589845919413,0.0 -79.17112943465857,33.8258941451275,0.0 -79.17103718765406,33.82581538918393,0.0 -79.1709898088464,33.825809663309705,0.0 -79.17093890045682,33.82578942492952,0.0 -79.17089630589577,33.82579044518838,0.0 -79.1707416974362,33.82577067834478,0.0 -79.17072977412899,33.825723299551356,0.0 -79.17073346216976,33.82571553317714,0.0 -79.17074334495437,33.82567254702217,0.0 -79.1708206891249,33.82567427313373,0.0 -79.17077079965564,33.82564148413844,0.0 -79.17078397758858,33.82560924517401,0.0 -79.17083049329045,33.82555990576701,0.0 -79.17083818107993,33.82555417986434,0.0 -79.170845240225,33.82554790389853,0.0 -79.17089669862965,33.82547840466304,0.0 -79.17094713679323,33.82540113905583,0.0 -79.17095647084086,33.8253892170803,0.0 -79.17101734187757,33.8253152466098,0.0 -79.17103154005746,33.82530167575098,0.0 -79.17104887489526,33.82526276791975,0.0 -79.17108417324134,33.82523374550542,0.0 -79.17112982719561,33.82521868422033,0.0 -79.17114912393485,33.82519507339098,0.0 -79.17122128962653,33.82515326329166,0.0 -79.17124898008171,33.8251453410538,0.0 -79.17128655333714,33.825123299205565,0.0 -79.17136436765949,33.82508572590164,0.0 -79.17138397741718,33.825073253857305,0.0 -79.1714298658033,33.825058428313525,0.0 -79.17144853521874,33.8250541915055,0.0 -79.17152430908874,33.82505607477875,0.0 -79.1715481556299,33.8250154421021,0.0 -79.171591220327,33.82494602145132,0.0 -79.1715962403048,33.82493378384637,0.0 -79.17163302902811,33.82484412479232,0.0 -79.17164103113471,33.824829613590175,0.0 -79.17165122825776,33.824816984389614,0.0 -79.17172284518082,33.82474834821928,0.0 -79.17173900394593,33.824737993920984,0.0 -79.17175186887965,33.824730306122525,0.0 -79.17183540909495,33.82468120243764,0.0 -79.17185172502526,33.82467869178234,0.0 -79.17185870559359,33.824679476274014,0.0 -79.17195032522632,33.82468967335535,0.0 -79.17201213800945,33.82478184300505,0.0 -79.17203880830355,33.824913310778584,0.0 -79.17202829689239,33.824988144298985,0.0 -79.17202649347634,33.82500022343165,0.0 -79.17200719673995,33.825029011406016,0.0 -79.17204163203428,33.825044465552104,0.0 -79.17211089549882,33.82502650201514,0.0 -79.17206634169446,33.82508329347157,0.0 -79.1721385074379,33.825136869615555,0.0 -79.17215419603725,33.82514063492287,0.0 -79.172171217886,33.82514471324169,0.0 -79.17222393100374,33.825157342409575,0.0 -79.17223671605443,33.82516275528938,0.0 -79.17224212894456,33.82516840260483,0.0 -79.1722438550995,33.82517452140511,0.0 -79.17224542410985,33.82521068283847,0.0 -79.17224714897385,33.8252509225993,0.0 -79.17228684131977,33.82529563488039,0.0 -79.17229468498458,33.82533407121577,0.0 -79.17220353555507,33.82537933231843,0.0 -79.1721945930964,33.825383803553166,0.0 -79.17216604088767,33.8254150235986,0.0 -79.1721464298196,33.82542608381343,0.0 -79.17214956782308,33.82546671647607,0.0 -79.1721519213256,33.825496916268655,0.0 -79.17214964642875,33.82551283929746,0.0 -79.17213050683702,33.82551174179976,0.0 -79.17204414293215,33.82550554446279,0.0 -79.1720381027501,33.82557771148274,0.0 -79.17204516190549,33.82559041925484,0.0 -79.17202994479456,33.82559661533471,0.0 -79.17195032570838,33.82557637827906,0.0 -79.17194405104968,33.82556602268277,0.0 -79.17193189202311,33.82555966945605,0.0 -79.17192749938184,33.82557606396886,0.0 -79.17188906306438,33.825623364207985,0.0 -79.17185015656625,33.825657407917866,0.0 -79.17186357027323,33.82568525421889,0.0 -79.17183015392182,33.8256989036682,0.0 -79.1717389258668,33.825661486303,0.0 -79.17177940272582,33.825738830443804,0.0 -79.17182748749025,33.8258219004795,0.0 -79.17191840120735,33.82582982265609,0.0 -79.17191714523301,33.82583735328743,0.0 -79.17190412448083,33.82590559652498,0.0 -79.17185784450812,33.82593218818832,0.0 -79.17182419243242,33.82597752784157,0.0 -79.17177744092218,33.825903714587476,0.0 -79.17172818008379,33.82584700176015,0.0 -79.17169625415114,33.8258764170752,0.0 -79.17162887267682,33.82587100422358,0.0 -79.17160510469976,33.825881594267216,0.0 -79.17158753410978,33.82590089102648,0.0 -79.17157765001434,33.82594175943725,0.0 -79.17152776189232,33.825978233909304,0.0 -79.17142916038095,33.825967016594625,0.0 -79.17141872751236,33.82597227232541,0.0 -79.17133016728887,33.82597831259174,0.0</coordinates>
                    </LinearRing>
                </outerBoundaryIs>
            </Polygon>
        </Placemark>
    </Document>
</kml>
