<?xml version="1.0" encoding="UTF-8"?>
<kml xmlns="http://www.opengis.net/kml/2.2" xmlns:gx="http://www.google.com/kml/ext/2.2">
    <Document id="1197">
        <Style id="1204">
            <LineStyle id="1206">
                <colorMode>normal</colorMode>
                <width>1</width>
            </LineStyle>
            <PolyStyle id="1205">
                <color>80ebce87</color>
                <colorMode>normal</colorMode>
                <fill>1</fill>
                <outline>1</outline>
            </PolyStyle>
        </Style>
        <Style id="1213">
            <LineStyle id="1215">
                <colorMode>normal</colorMode>
                <width>1</width>
            </LineStyle>
            <PolyStyle id="1214">
                <color>80ebce87</color>
                <colorMode>normal</colorMode>
                <fill>1</fill>
                <outline>1</outline>
            </PolyStyle>
        </Style>
        <Style id="1222">
            <LineStyle id="1224">
                <colorMode>normal</colorMode>
                <width>1</width>
            </LineStyle>
            <PolyStyle id="1223">
                <color>80ebce87</color>
                <colorMode>normal</colorMode>
                <fill>1</fill>
                <outline>1</outline>
            </PolyStyle>
        </Style>
        <Style id="1231">
            <LineStyle id="1233">
                <colorMode>normal</colorMode>
                <width>1</width>
            </LineStyle>
            <PolyStyle id="1232">
                <color>80ebce87</color>
                <colorMode>normal</colorMode>
                <fill>1</fill>
                <outline>1</outline>
            </PolyStyle>
        </Style>
        <Style id="1240">
            <LineStyle id="1242">
                <colorMode>normal</colorMode>
                <width>1</width>
            </LineStyle>
            <PolyStyle id="1241">
                <color>80ebce87</color>
                <colorMode>normal</colorMode>
                <fill>1</fill>
                <outline>1</outline>
            </PolyStyle>
        </Style>
        <Style id="1249">
            <LineStyle id="1251">
                <colorMode>normal</colorMode>
                <width>1</width>
            </LineStyle>
            <PolyStyle id="1250">
                <color>80ebce87</color>
                <colorMode>normal</colorMode>
                <fill>1</fill>
                <outline>1</outline>
            </PolyStyle>
        </Style>
        <Style id="1258">
            <LineStyle id="1260">
                <colorMode>normal</colorMode>
                <width>1</width>
            </LineStyle>
            <PolyStyle id="1259">
                <color>80ebce87</color>
                <colorMode>normal</colorMode>
                <fill>1</fill>
                <outline>1</outline>
            </PolyStyle>
        </Style>
        <Style id="1267">
            <LineStyle id="1269">
                <colorMode>normal</colorMode>
                <width>1</width>
            </LineStyle>
            <PolyStyle id="1268">
                <color>80ebce87</color>
                <colorMode>normal</colorMode>
                <fill>1</fill>
                <outline>1</outline>
            </PolyStyle>
        </Style>
        <Style id="1276">
            <LineStyle id="1278">
                <colorMode>normal</colorMode>
                <width>1</width>
            </LineStyle>
            <PolyStyle id="1277">
                <color>80ebce87</color>
                <colorMode>normal</colorMode>
                <fill>1</fill>
                <outline>1</outline>
            </PolyStyle>
        </Style>
        <Style id="1285">
            <LineStyle id="1287">
                <colorMode>normal</colorMode>
                <width>1</width>
            </LineStyle>
            <PolyStyle id="1286">
                <color>80ebce87</color>
                <colorMode>normal</colorMode>
                <fill>1</fill>
                <outline>1</outline>
            </PolyStyle>
        </Style>
        <Placemark id="1199">
            <name>Flood_130</name>
            <styleUrl>#1204</styleUrl>
            <Polygon id="1198">
                <outerBoundaryIs>
                    <LinearRing id="1202">
                        <coordinates>-78.94554686731166,33.649918243955,0.0 -78.94550897958413,33.649920125803334,0.0 -78.94550748916147,33.64992781359341,0.0 -78.94546340535447,33.6499131450447,0.0 -78.94541382997159,33.64999338997957,0.0 -78.94548921255127,33.649959032257584,0.0 -78.94551313776576,33.64997542687602,0.0 -78.94552780620876,33.649943579552726,0.0 -78.94554184728291,33.64994632600032,0.0 -78.94557808742645,33.6499516591486,0.0 -78.94556843899682,33.649971897527315,0.0 -78.94555071113746,33.65000853039295,0.0 -78.94554043537367,33.6500261009596,0.0 -78.94551886361741,33.65004845703482,0.0 -78.9455134507066,33.65005316267735,0.0 -78.94550427377764,33.650056222041925,0.0 -78.94547838795063,33.65006335966802,0.0 -78.94548983978225,33.650071989168225,0.0 -78.94548866368083,33.6500816375441,0.0 -78.94548152461613,33.650082029107814,0.0 -78.9454654443601,33.65009050133359,0.0 -78.94545312942844,33.65010430657437,0.0 -78.9454478736965,33.65009050126137,0.0 -78.94542700786992,33.65009975665368,0.0 -78.94541061329878,33.6500995994252,0.0 -78.94541437861822,33.65011011089763,0.0 -78.94541014310717,33.65011732850292,0.0 -78.94539892568262,33.65013599657399,0.0 -78.94539116057925,33.65014886148622,0.0 -78.94539476876149,33.65013340863773,0.0 -78.94539774960465,33.65012046512523,0.0 -78.94538676664634,33.65010320879333,0.0 -78.94538080631148,33.650084225019846,0.0 -78.94537805992242,33.65007418503479,0.0 -78.94536072499852,33.650077008624315,0.0 -78.94534095667854,33.65009167691071,0.0 -78.9453349950284,33.650078656090585,0.0 -78.94532801444993,33.65006296745697,0.0 -78.94534331020417,33.650058339125934,0.0 -78.94534872312639,33.65004147445452,0.0 -78.94534103531008,33.65003739609282,0.0 -78.94531114972905,33.65003590555915,0.0 -78.94527537978179,33.650007744765674,0.0 -78.94529075417238,33.64994381432037,0.0 -78.94531844471021,33.64996648361045,0.0 -78.94529106850655,33.649932048195375,0.0 -78.94531813043766,33.64991251580343,0.0 -78.94530793327897,33.649904044779305,0.0 -78.94531028677606,33.649901299708795,0.0 -78.94532189577625,33.64990255442574,0.0 -78.94534417342837,33.64990318185185,0.0 -78.94542834130371,33.64990733910836,0.0 -78.94535319451167,33.64989337634722,0.0 -78.9453546849392,33.649880591299315,0.0 -78.9453585288521,33.649877610493235,0.0 -78.94536394044985,33.649876511697606,0.0 -78.94541743825567,33.64986898128222,0.0 -78.94543030324488,33.64986364702608,0.0 -78.94544559899704,33.649861216330834,0.0 -78.94547634765887,33.649860666393366,0.0 -78.94550050862557,33.64986655086549,0.0 -78.9455016061337,33.64987031487792,0.0 -78.94550231204596,33.649875806350906,0.0 -78.9455053714569,33.64987682660084,0.0 -78.94552317785109,33.64988945587657,0.0 -78.9455168245822,33.649902712387714,0.0 -78.94554686731166,33.649918243955,0.0</coordinates>
                    </LinearRing>
                </outerBoundaryIs>
            </Polygon>
        </Placemark>
        <Placemark id="1208">
            <name>Flood_131</name>
            <styleUrl>#1213</styleUrl>
            <Polygon id="1207">
                <outerBoundaryIs>
                    <LinearRing id="1211">
                        <coordinates>-78.9455747919624,33.65028362524941,0.0 -78.94556004497097,33.650280722947485,0.0 -78.94553674838588,33.65028229184312,0.0 -78.94553470791908,33.65026699482284,0.0 -78.94553415917778,33.650251384796135,0.0 -78.94555557375975,33.650242678160254,0.0 -78.94556286867774,33.650240873457136,0.0 -78.9456123654159,33.65022910753434,0.0 -78.94562868141045,33.65022471494921,0.0 -78.94558114667149,33.65013050716263,0.0 -78.94558867734025,33.65011968141442,0.0 -78.94558546076915,33.65011709348202,0.0 -78.94558828444087,33.65011481858692,0.0 -78.94559275569189,33.65011011163089,0.0 -78.94560059937206,33.650101483519784,0.0 -78.94561016920221,33.65010132639802,0.0 -78.94561589643152,33.650101640743756,0.0 -78.94563848708374,33.650116544945824,0.0 -78.94562781973814,33.65012085897369,0.0 -78.94564342842266,33.65020534097745,0.0 -78.94565794103056,33.650155530141916,0.0 -78.9457392066532,33.650162511047334,0.0 -78.9457432077432,33.65014290128977,0.0 -78.9457543465694,33.650143058496745,0.0 -78.94575991532668,33.65014415602779,0.0 -78.94576211165561,33.65014847010855,0.0 -78.94575607141401,33.6501469024019,0.0 -78.9457535620469,33.65016910139441,0.0 -78.94575246322078,33.65017427853788,0.0 -78.94573449960205,33.65022910803655,0.0 -78.94573677450252,33.65024330623996,0.0 -78.94572610714067,33.65026503502533,0.0 -78.9457203799071,33.650269270493006,0.0 -78.94571700747824,33.65027303579669,0.0 -78.94571583139121,33.65026715272869,0.0 -78.94571245767882,33.65024291454698,0.0 -78.94568680759973,33.650243933369154,0.0 -78.94567911977896,33.65024448340133,0.0 -78.94565370541815,33.65027138796442,0.0 -78.94563997736763,33.65025766119713,0.0 -78.9456195830162,33.65027711372617,0.0 -78.94560475742843,33.650290920266244,0.0 -78.9455747919624,33.65028362524941,0.0</coordinates>
                    </LinearRing>
                </outerBoundaryIs>
            </Polygon>
        </Placemark>
        <Placemark id="1217">
            <name>Flood_132</name>
            <styleUrl>#1222</styleUrl>
            <Polygon id="1216">
                <outerBoundaryIs>
                    <LinearRing id="1220">
                        <coordinates>-78.94590283668997,33.650208478717325,0.0 -78.94585388871457,33.65021279258779,0.0 -78.94583655248147,33.65021506742313,0.0 -78.94581568796671,33.65022204921847,0.0 -78.94580564666948,33.6502032225892,0.0 -78.9458028230049,33.65019796684909,0.0 -78.945832944331,33.65019655514251,0.0 -78.9458548303884,33.65019773263094,0.0 -78.94586141938271,33.65020259548385,0.0 -78.94590283668997,33.650208478717325,0.0</coordinates>
                    </LinearRing>
                </outerBoundaryIs>
            </Polygon>
        </Placemark>
        <Placemark id="1226">
            <name>Flood_133</name>
            <styleUrl>#1231</styleUrl>
            <Polygon id="1225">
                <outerBoundaryIs>
                    <LinearRing id="1229">
                        <coordinates>-78.93997992450466,33.64960500299318,0.0 -78.93998227798917,33.649615200137134,0.0 -78.9399785126586,33.64961645610056,0.0 -78.9399788256753,33.64961323953856,0.0 -78.93997992450466,33.64960500299318,0.0</coordinates>
                    </LinearRing>
                </outerBoundaryIs>
            </Polygon>
        </Placemark>
        <Placemark id="1235">
            <name>Flood_134</name>
            <styleUrl>#1240</styleUrl>
            <Polygon id="1234">
                <outerBoundaryIs>
                    <LinearRing id="1238">
                        <coordinates>-78.9428884711475,33.65026682677948,0.0 -78.94289207931708,33.65026494479045,0.0 -78.94292533861804,33.65028220252315,0.0 -78.94293232050582,33.65029796842736,0.0 -78.94292980984851,33.650299224395965,0.0 -78.9428884711475,33.65026682677948,0.0</coordinates>
                    </LinearRing>
                </outerBoundaryIs>
            </Polygon>
        </Placemark>
        <Placemark id="1244">
            <name>Flood_135</name>
            <styleUrl>#1249</styleUrl>
            <Polygon id="1243">
                <outerBoundaryIs>
                    <LinearRing id="1247">
                        <coordinates>-78.94449605972763,33.650381515140204,0.0 -78.94446491817953,33.65036308132707,0.0 -78.94444805213398,33.650352021046686,0.0 -78.94444162029774,33.650350923512086,0.0 -78.94443832645372,33.65035029616387,0.0 -78.9444253043089,33.650349197292456,0.0 -78.94439918406945,33.650334607398015,0.0 -78.9444196569674,33.650351707917416,0.0 -78.94441832370427,33.65036135629253,0.0 -78.94443565862632,33.65036057186816,0.0 -78.94445526975537,33.65037727948134,0.0 -78.9444643680945,33.650383789916425,0.0 -78.944482095921,33.65038253532011,0.0 -78.94449605972763,33.650381515140204,0.0 -78.94448578266682,33.65038543757653,0.0 -78.94447252608335,33.650390614669924,0.0 -78.94448052821684,33.650401047579194,0.0 -78.94449135271627,33.65040512595371,0.0 -78.94450947212817,33.65041312814663,0.0 -78.94451433627897,33.65041297100556,0.0 -78.94451684562429,33.65041422568511,0.0 -78.94452241568834,33.650418461199195,0.0 -78.94453018077186,33.65042669778141,0.0 -78.944536063849,33.65043132619939,0.0 -78.9445487716669,33.6504365033996,0.0 -78.9445478313104,33.650443328115585,0.0 -78.9445617937991,33.650451014659524,0.0 -78.94457724670501,33.65045697636679,0.0 -78.94458312978405,33.65045956561976,0.0 -78.94458422729292,33.650462467865545,0.0 -78.94458587486587,33.65046693910508,0.0 -78.94459073901263,33.65047109603568,0.0 -78.94459921001841,33.65047423405347,0.0 -78.94461403558815,33.650479725584496,0.0 -78.94463788221552,33.65050286503233,0.0 -78.94465302079695,33.65051023856865,0.0 -78.94466188470511,33.65051502416008,0.0 -78.94466572860843,33.650522161908235,0.0 -78.94467019984957,33.65052812357025,0.0 -78.94467318067984,33.65052906523936,0.0 -78.9446887907486,33.65053361511687,0.0 -78.94471271596046,33.65055291197665,0.0 -78.94472479512858,33.65056177591132,0.0 -78.94471734304608,33.65056671728691,0.0 -78.94468298619448,33.65059040655902,0.0 -78.9446791422487,33.65062829415059,0.0 -78.94467600422664,33.65065951418631,0.0 -78.94468871203348,33.65067637893227,0.0 -78.9446955367663,33.65068540000631,0.0 -78.94477429166932,33.650760232579,0.0 -78.94480174647092,33.65077662721214,0.0 -78.94482167061959,33.650786824428984,0.0 -78.94481759226038,33.650804239169545,0.0 -78.94480990441001,33.65083624368223,0.0 -78.94479194215424,33.65083396870157,0.0 -78.94477656651458,33.65083310556208,0.0 -78.94476291834721,33.65082722244267,0.0 -78.94474848437383,33.65081937742601,0.0 -78.94474040495996,33.650818750058164,0.0 -78.94468494658975,33.650797962657535,0.0 -78.94467490659166,33.65079051056157,0.0 -78.94462313502204,33.65071450070166,0.0 -78.94457873690331,33.65068759585166,0.0 -78.94451810140355,33.65063025407223,0.0 -78.94450829583563,33.650625391206134,0.0 -78.94443463948015,33.65058883654549,0.0 -78.94438420110687,33.65057416797048,0.0 -78.9443642769628,33.650559106618296,0.0 -78.9443130540915,33.650544359459495,0.0 -78.94430560201491,33.6505429475985,0.0 -78.94428646235836,33.650539182202145,0.0 -78.94427799004161,33.65053745732448,0.0 -78.94424818304569,33.65053125981656,0.0 -78.94423273013763,33.65052757301597,0.0 -78.94413130468469,33.65044615006267,0.0 -78.94407929736587,33.65037782668885,0.0 -78.94423414229651,33.65018462659134,0.0 -78.9445787376791,33.649864193591505,0.0 -78.94458579685747,33.64985940806555,0.0 -78.94459262160434,33.6498533678694,0.0 -78.9447126381378,33.64974731606544,0.0 -78.94472220798282,33.64973131317773,0.0 -78.94474244516755,33.64971727222803,0.0 -78.94481429818961,33.64965177433303,0.0 -78.94496286837825,33.649526896057985,0.0 -78.94498459598043,33.64951089322011,0.0 -78.94501652206723,33.649485792107136,0.0 -78.94502201355978,33.649480144808244,0.0 -78.94503691642026,33.64946461342553,0.0 -78.94504248649267,33.64945990647409,0.0 -78.94512351643571,33.64939935002272,0.0 -78.9451323017785,33.64938758393251,0.0 -78.9452175685386,33.649323732354425,0.0 -78.94522203979133,33.649317300555566,0.0 -78.94523168820945,33.64930937836691,0.0 -78.94534903691526,33.649212737880106,0.0 -78.94535492131095,33.64920787507846,0.0 -78.94536409824775,33.64919626615081,0.0 -78.94536001990805,33.64919304957062,0.0 -78.94536174475763,33.64919155916676,0.0 -78.94546442503967,33.649105980140284,0.0 -78.9454664655192,33.64910770499148,0.0 -78.94547854470504,33.64909750790615,0.0 -78.94554875014174,33.64903985365118,0.0 -78.94563895963653,33.64897192376275,0.0 -78.94564570449195,33.64896682522301,0.0 -78.94567151305924,33.64894729282558,0.0 -78.94571645999018,33.648913327880656,0.0 -78.94572155857752,33.64890901382991,0.0 -78.94575866183442,33.64887708801782,0.0 -78.94579443052677,33.64884626101811,0.0 -78.94579466627626,33.64883857322276,0.0 -78.94580360877613,33.648831514107485,0.0 -78.9458167082001,33.64882382636486,0.0 -78.9458239245412,33.64881770758965,0.0 -78.94586071478264,33.64878797941204,0.0 -78.94590134762741,33.64875503337696,0.0 -78.94591264362673,33.64874263996221,0.0 -78.94594794214592,33.648709616634434,0.0 -78.94596308074743,33.648695339921765,0.0 -78.94596849365844,33.64869024137644,0.0 -78.94597908373792,33.64868051445856,0.0 -78.94600473383747,33.64865713816218,0.0 -78.94600959668293,33.648652196775785,0.0 -78.94605658410624,33.648605838377904,0.0 -78.9460638790323,33.648595169789644,0.0 -78.94607384177425,33.64858638452588,0.0 -78.94612043631415,33.648517905704004,0.0 -78.94613079066283,33.6484957067434,0.0 -78.94617126637154,33.64843499296352,0.0 -78.94618193504063,33.64841577482606,0.0 -78.94620036881393,33.64838243710695,0.0 -78.94620570183865,33.648372945909024,0.0 -78.94625363094917,33.64829662213498,0.0 -78.94627018140218,33.64826414748421,0.0 -78.94630187176368,33.64822014120095,0.0 -78.94630948101539,33.64820672753372,0.0 -78.94635560536409,33.64815527056443,0.0 -78.94635889921425,33.648149230353695,0.0 -78.94641333875646,33.64805800249654,0.0 -78.94641569225793,33.6480504731807,0.0 -78.94644714687507,33.64800842748079,0.0 -78.94645695246075,33.64799383773374,0.0 -78.94647232681227,33.64797109003944,0.0 -78.94647554339035,33.64796607006565,0.0 -78.9464821323988,33.64795555863543,0.0 -78.94652535320328,33.64788700121867,0.0 -78.94652880552361,33.64788205851664,0.0 -78.94655225930127,33.6478464459111,0.0 -78.9466125805014,33.647877901948505,0.0 -78.94666427353562,33.647904885408096,0.0 -78.94671447743642,33.64796175697086,0.0 -78.94678178055428,33.6479769743679,0.0 -78.94681260779078,33.64798246596419,0.0 -78.9468431220224,33.64797877935185,0.0 -78.94687010534474,33.64798881943601,0.0 -78.94689418772755,33.64799768341963,0.0 -78.94690862038001,33.648017450413995,0.0 -78.94692258287284,33.648020509873504,0.0 -78.94693003493938,33.648032590352656,0.0 -78.94695105788729,33.648066555568214,0.0 -78.94694462474145,33.64806545672402,0.0 -78.94691568082386,33.64806043661869,0.0 -78.94691034649911,33.64805949494001,0.0 -78.94686422218378,33.64807510477605,0.0 -78.94685222024422,33.64811236500062,0.0 -78.94685269170326,33.64814021132718,0.0 -78.94685300470276,33.64815535117954,0.0 -78.94686532086335,33.64822869437878,0.0 -78.94684288603176,33.64824783388766,0.0 -78.94683300188773,33.64823810688579,0.0 -78.94681582409576,33.648273405195,0.0 -78.94680484111335,33.64828219045461,0.0 -78.94679746761103,33.648287917636196,0.0 -78.94679425234165,33.648294035118255,0.0 -78.94677621017671,33.6483123128785,0.0 -78.94676915097511,33.64834243408095,0.0 -78.94676883663956,33.648355847778184,0.0 -78.94678256468075,33.64837945866779,0.0 -78.94679064408841,33.648386753594544,0.0 -78.94679378076879,33.6483895772682,0.0 -78.94678389788102,33.64843774055147,0.0 -78.94678170154664,33.648439309534034,0.0 -78.94678044556073,33.64844252609241,0.0 -78.94677707312411,33.64845476237864,0.0 -78.9468041350193,33.6484735890776,0.0 -78.94690352138063,33.64846872534889,0.0 -78.9469363891193,33.64845146919642,0.0 -78.94695192060937,33.64845358700563,0.0 -78.9469843168677,33.64843162256703,0.0 -78.94701451676268,33.64844268290196,0.0 -78.94703875499745,33.64845154688634,0.0 -78.94703326481506,33.64845695975353,0.0 -78.94701467389434,33.64847515762125,0.0 -78.94703546112099,33.648486296498255,0.0 -78.9470038480712,33.64848645352993,0.0 -78.94699074863614,33.64850629899218,0.0 -78.94701185017473,33.64852951831906,0.0 -78.94698462979493,33.648525282716335,0.0 -78.94695944984245,33.648579250419886,0.0 -78.94694901823877,33.64858419178354,0.0 -78.94694376248,33.6485992530326,0.0 -78.94692862253885,33.64864623889603,0.0 -78.94692313235436,33.648653848089346,0.0 -78.94688155785266,33.64868412631154,0.0 -78.94687677227927,33.64868804877063,0.0 -78.94688179227407,33.64869628534167,0.0 -78.94687190942211,33.64870569794051,0.0 -78.94684696394,33.64871864005347,0.0 -78.94681166545163,33.64871856132837,0.0 -78.9468050764499,33.64872177786491,0.0 -78.94679566378281,33.64872044457648,0.0 -78.94678405479208,33.648709069995455,0.0 -78.94676742449145,33.64869510747473,0.0 -78.94674695160302,33.64866780982036,0.0 -78.94670443546627,33.64867126064171,0.0 -78.94669784644955,33.648690714537466,0.0 -78.94670874951527,33.648710247085454,0.0 -78.94671204465288,33.64872828788171,0.0 -78.94671588855707,33.64873464244389,0.0 -78.94674757885318,33.648761391390224,0.0 -78.94675252027308,33.6487632734144,0.0 -78.94676663990484,33.648790963945565,0.0 -78.9467522845136,33.64878186426001,0.0 -78.94673691013969,33.64882877154175,0.0 -78.94672577129246,33.64885152056296,0.0 -78.94674820608546,33.648874268412115,0.0 -78.94672514391897,33.64889144733372,0.0 -78.94672122142596,33.64889380080487,0.0 -78.94667902093384,33.648884386683,0.0 -78.94665972410469,33.64889285889598,0.0 -78.94666160610785,33.64889999663627,0.0 -78.94665086016917,33.648917724362406,0.0 -78.94664827092826,33.64892211700414,0.0 -78.94664599601451,33.64892211699482,0.0 -78.94661171777116,33.64891709686739,0.0 -78.94660967729155,33.64891552786749,0.0 -78.94657210389892,33.648905094837005,0.0 -78.94652221558682,33.648895603412754,0.0 -78.94649766301734,33.64889913288812,0.0 -78.94647012960193,33.648918665278565,0.0 -78.94644730320663,33.64890462415196,0.0 -78.94643765480228,33.64889779939234,0.0 -78.94641624021563,33.64891191891822,0.0 -78.94641467120384,33.64892862644464,0.0 -78.94641600443225,33.64895623834272,0.0 -78.94643067282894,33.64897396617297,0.0 -78.94637647037293,33.649028012337624,0.0 -78.9463732537956,33.64903216923509,0.0 -78.94636878254366,33.64903781784798,0.0 -78.94635638900152,33.64908386337516,0.0 -78.94631826551363,33.64910559073861,0.0 -78.94628477174703,33.64912347553248,0.0 -78.9462759065242,33.6491242599919,0.0 -78.94626782711042,33.6491235540436,0.0 -78.94623676410713,33.64914410534712,0.0 -78.94626351300589,33.64914457694001,0.0 -78.94622758715346,33.649173913528166,0.0 -78.9462159768434,33.64917289324318,0.0 -78.94619236592803,33.64918238436612,0.0 -78.94619189575795,33.64917705136478,0.0 -78.9461779332609,33.64917838455737,0.0 -78.94613314222487,33.649166068183504,0.0 -78.9461519688511,33.64918787567065,0.0 -78.9461018447761,33.64920034750664,0.0 -78.94606858546379,33.64919501306113,0.0 -78.9460268538061,33.649218859464824,0.0 -78.94602300988143,33.64923454805418,0.0 -78.94601697094484,33.649238077605375,0.0 -78.94602324562143,33.64923705870345,0.0 -78.9460268537872,33.64923917646378,0.0 -78.9460357176997,33.64923925508074,0.0 -78.94610561007663,33.64923133182948,0.0 -78.94612122015944,33.64922074316551,0.0 -78.94616859915358,33.64919964186515,0.0 -78.94617973667071,33.649199093156746,0.0 -78.94619409208032,33.64918842459749,0.0 -78.94621668405301,33.64919171983414,0.0 -78.94622593955475,33.6491971314521,0.0 -78.94623919611603,33.64921564377233,0.0 -78.94622578236522,33.64922725399224,0.0 -78.94621040801795,33.64924529471184,0.0 -78.94618169851805,33.64925604179282,0.0 -78.9461794236038,33.64925666911816,0.0 -78.94617667851414,33.64925768934426,0.0 -78.94618052111318,33.64925910119038,0.0 -78.9462012297734,33.64925478720358,0.0 -78.9462198206771,33.64925510029241,0.0 -78.94623252849685,33.649258238327434,0.0 -78.94624241264879,33.64925949303733,0.0 -78.94625606081809,33.649263101249794,0.0 -78.94626006189665,33.649255649211554,0.0 -78.9463057933074,33.649241373934125,0.0 -78.9463145000594,33.64924027515196,0.0 -78.94631308823362,33.649230626765295,0.0 -78.94631395132015,33.649222468798925,0.0 -78.94632446281173,33.649220351096496,0.0 -78.94634713210863,33.64916630480267,0.0 -78.94639757047005,33.64919336814804,0.0 -78.94641043545893,33.649188346904154,0.0 -78.94641961238446,33.64918889700559,0.0 -78.94643357487872,33.64919054332519,0.0 -78.946443144708,33.6491912492797,0.0 -78.94645522518975,33.64919587772311,0.0 -78.9464582846011,33.64919642648974,0.0 -78.94646314743824,33.649200506149455,0.0 -78.94647161975267,33.649204663094864,0.0 -78.94649201407974,33.64921117488611,0.0 -78.94650527064584,33.64922450874865,0.0 -78.9465093502965,33.64922631349853,0.0 -78.9465314707706,33.64924459011358,0.0 -78.9465307648475,33.64925078749601,0.0 -78.94653609915933,33.64926561304682,0.0 -78.94654433571309,33.64928969408756,0.0 -78.94652566621424,33.64930483386201,0.0 -78.94651774395699,33.64930954080396,0.0 -78.94652197945484,33.649316599973396,0.0 -78.94650668368769,33.64933534791817,0.0 -78.94648989620194,33.64934687823412,0.0 -78.94646244139076,33.64934099505827,0.0 -78.94648597500033,33.64936899864044,0.0 -78.94651013464723,33.64938562900155,0.0 -78.946517821151,33.64939284534624,0.0 -78.94651907713114,33.64939590475372,0.0 -78.94651672363379,33.64939896414647,0.0 -78.94649499471554,33.64942210340755,0.0 -78.9465113893111,33.64939574756108,0.0 -78.94648338574486,33.64938900130668,0.0 -78.94646942323305,33.64940625884604,0.0 -78.94646401032273,33.649410494314985,0.0 -78.94642541666342,33.649428143346256,0.0 -78.94640910066987,33.64943159558448,0.0 -78.94638784324776,33.6494424985473,0.0 -78.94641027803527,33.649471208040325,0.0 -78.94635748614185,33.649484464360924,0.0 -78.94635332921554,33.64948744516577,0.0 -78.94633677747228,33.64949874105075,0.0 -78.94632156029188,33.649511055868786,0.0 -78.9463160688052,33.649510428511576,0.0 -78.9462482169236,33.64950281901733,0.0 -78.94624672650413,33.649507133082956,0.0 -78.94621158389556,33.64947669869498,0.0 -78.9462076627174,33.6494734035349,0.0 -78.94618726708991,33.64945693035036,0.0 -78.94618616958059,33.64945442100725,0.0 -78.94618428626481,33.64945041994026,0.0 -78.94617432484023,33.649450890072956,0.0 -78.94614475227056,33.64945183160837,0.0 -78.94612200444914,33.64944508537555,0.0 -78.94612153297334,33.64943543699285,0.0 -78.94612066990373,33.64942539701548,0.0 -78.94611917949705,33.6494158272091,0.0 -78.946114708265,33.6494001385857,0.0 -78.94611157160881,33.64937127201096,0.0 -78.94611282628526,33.64936782102063,0.0 -78.94610560995945,33.649357466694994,0.0 -78.9460809788293,33.64933918876008,0.0 -78.94607682190947,33.649335188993476,0.0 -78.94606858532272,33.64934679792497,0.0 -78.9460871762129,33.64936178069111,0.0 -78.94607682187309,33.64937433127078,0.0 -78.94606960422021,33.64938264637207,0.0 -78.94607478135667,33.64941237603153,0.0 -78.94607525283872,33.64941527827467,0.0 -78.94607784075909,33.649422573178924,0.0 -78.94607964549395,33.64942673009698,0.0 -78.94608042998507,33.649434339315924,0.0 -78.94608066441558,33.6494366142236,0.0 -78.94608709755576,33.64944390914354,0.0 -78.94607227195415,33.64947277564457,0.0 -78.94607784068401,33.649503367072114,0.0 -78.94607933109191,33.64951160362863,0.0 -78.94607870374357,33.64952423282871,0.0 -78.94605485709475,33.64952415415032,0.0 -78.94604442419524,33.64951395697258,0.0 -78.94603367826362,33.64952399821192,0.0 -78.94590817165604,33.649520466811175,0.0 -78.94588401068337,33.64952117262726,0.0 -78.94587310760313,33.64951717283289,0.0 -78.94587020537625,33.64949191441573,0.0 -78.9458904438795,33.64946822508498,0.0 -78.94594378321112,33.64946359691006,0.0 -78.94594817718709,33.64946328391552,0.0 -78.94595154961324,33.6494624208531,0.0 -78.94597445461517,33.64944869292659,0.0 -78.9459763366289,33.64944453602368,0.0 -78.9459739058634,33.6494443788526,0.0 -78.94596998337393,33.64944280984506,0.0 -78.94594982345767,33.64945991019779,0.0 -78.94590479798475,33.649452066365306,0.0 -78.94589726732775,33.649450340181865,0.0 -78.94590173861074,33.6494112765035,0.0 -78.94591672134791,33.6494104920692,0.0 -78.94592001650906,33.6494029614476,0.0 -78.94590903353586,33.64940178531369,0.0 -78.94590118988738,33.649376448295754,0.0 -78.94589915072201,33.64937001647013,0.0 -78.9458966400711,33.64936444640904,0.0 -78.94589162007972,33.64935252310108,0.0 -78.94591225014021,33.649368604693436,0.0 -78.94592284020278,33.64937699713867,0.0 -78.94593695985029,33.649387744395305,0.0 -78.9459393133421,33.64939064664625,0.0 -78.94595860884021,33.649405315093176,0.0 -78.94599218247998,33.64940609972661,0.0 -78.94600057622365,33.64939951078271,0.0 -78.946003085576,33.64939307897574,0.0 -78.94600559623828,33.64938633284649,0.0 -78.94598810415357,33.64938845052034,0.0 -78.94595586377775,33.649377075854666,0.0 -78.94596174687868,33.64935605427439,0.0 -78.94597516062288,33.64935158309668,0.0 -78.94602693227986,33.649333934119454,0.0 -78.9460330511035,33.64933416857654,0.0 -78.94606207491941,33.64933103071271,0.0 -78.94603383561603,33.64931863713581,0.0 -78.94602889288636,33.649316833692104,0.0 -78.94602371572118,33.64931800975962,0.0 -78.94601830412647,33.64931589199181,0.0 -78.945966060983,33.649335424280665,0.0 -78.94595711848355,33.64934201322242,0.0 -78.94588707026342,33.649340522524085,0.0 -78.94588361925688,33.64934091410291,0.0 -78.94587475535053,33.64933432508819,0.0 -78.94587106860186,33.64933448223416,0.0 -78.94586722468894,33.64933754162078,0.0 -78.94584384951291,33.6493501707275,0.0 -78.94583945553514,33.64935252288705,0.0 -78.94583506286686,33.649355112097844,0.0 -78.94581223644568,33.649368838715056,0.0 -78.94580721643902,33.64937338850778,0.0 -78.94579333252045,33.64937715376837,0.0 -78.94578995878452,33.64937809541139,0.0 -78.94576250527015,33.649386017526936,0.0 -78.94576909426559,33.64938962571043,0.0 -78.94579286101757,33.649396607689,0.0 -78.94579803818019,33.64939817670177,0.0 -78.94582878816229,33.649386174959915,0.0 -78.94586063566602,33.649363348753155,0.0 -78.94586526407738,33.64936005362807,0.0 -78.9458691066806,33.64935699424145,0.0 -78.94588103001368,33.649347738812324,0.0 -78.94588103000207,33.64936021085386,0.0 -78.94588095141708,33.64936468208627,0.0 -78.9458812657352,33.64937009497725,0.0 -78.94588361919438,33.64940805986566,0.0 -78.94588871777552,33.649410413373786,0.0 -78.94587106850678,33.64943661336347,0.0 -78.94585326210365,33.649433632468515,0.0 -78.9458567916867,33.64943778939364,0.0 -78.94586581275077,33.649448536629265,0.0 -78.94586291046578,33.64948579558092,0.0 -78.94586408654992,33.64949465947082,0.0 -78.94586840061197,33.64951944772027,0.0 -78.94586651859554,33.649526506864476,0.0 -78.94585600707849,33.6495559221372,0.0 -78.94583820066026,33.64956910133051,0.0 -78.9458322389884,33.64957937702154,0.0 -78.94581953115981,33.64958580878662,0.0 -78.94581874665963,33.649587926528916,0.0 -78.94581427671065,33.64960079145488,0.0 -78.94580760912378,33.64960863507518,0.0 -78.94580439254642,33.64961279328224,0.0 -78.94578768365045,33.64961459663706,0.0 -78.94577944838323,33.649615538260015,0.0 -78.94576932848673,33.6496166357268,0.0 -78.9457179497496,33.64961702841856,0.0 -78.94570932029224,33.64959286879579,0.0 -78.94568406309834,33.64961420461866,0.0 -78.94567747278549,33.64961883167571,0.0 -78.94567700260606,33.64962353864819,0.0 -78.94567104093888,33.6496287943523,0.0 -78.9456658637691,33.64963499171631,0.0 -78.94565300009648,33.649632872608265,0.0 -78.9456585688667,33.64962008757714,0.0 -78.9456567641314,33.649616400832684,0.0 -78.94565496070524,33.6496133414229,0.0 -78.94564617536872,33.64961843995423,0.0 -78.94562397628927,33.64962659783295,0.0 -78.94561597545342,33.64962895128731,0.0 -78.94557785197641,33.64963859951149,0.0 -78.94557738179766,33.649642677839594,0.0 -78.94557181172642,33.649646051541296,0.0 -78.94555659454005,33.649664641015434,0.0 -78.94554741628568,33.649684566383534,0.0 -78.9455619288323,33.649700410899555,0.0 -78.94554765200297,33.64971147105207,0.0 -78.94553353234208,33.64971515773114,0.0 -78.94552631601374,33.64970754848572,0.0 -78.94551407837406,33.64969899887263,0.0 -78.94550011587937,33.64969774414605,0.0 -78.94549674345703,33.649694527568734,0.0 -78.94549235078945,33.64969633228381,0.0 -78.94548529030698,33.64969515485637,0.0 -78.9454697588158,33.64969397870384,0.0 -78.94546356271194,33.6497035484786,0.0 -78.94543312706757,33.649699861616476,0.0 -78.94542614515956,33.649705508909356,0.0 -78.94543257829051,33.64972253079064,0.0 -78.9454088102279,33.649716569049296,0.0 -78.94539931767066,33.64971484416749,0.0 -78.94539743564938,33.64972715904013,0.0 -78.94538072805905,33.64973319919576,0.0 -78.94535970507704,33.6497359441896,0.0 -78.94535554814746,33.64974237598984,0.0 -78.94533287759057,33.64974269021892,0.0 -78.94531012975904,33.64974684703612,0.0 -78.94529828501618,33.64974598522082,0.0 -78.94528134168644,33.649748808812014,0.0 -78.94526298654297,33.64972927623358,0.0 -78.94525726062516,33.649727079883974,0.0 -78.94524925848312,33.64972574660117,0.0 -78.9452316092292,33.649735943663536,0.0 -78.94521505880469,33.6497374340065,0.0 -78.94519285972953,33.64974096349126,0.0 -78.94518611356294,33.64974747386136,0.0 -78.94516964039136,33.649768496707665,0.0 -78.94516940463305,33.649785439980924,0.0 -78.94518124936359,33.649799559643036,0.0 -78.94519050616857,33.64981187456141,0.0 -78.9452009390717,33.649818071989586,0.0 -78.94519780107234,33.64982513243828,0.0 -78.9451935655532,33.64984097687725,0.0 -78.9451651690345,33.649886002100565,0.0 -78.94515889434096,33.64990498582383,0.0 -78.94516563917578,33.64992200770627,0.0 -78.9451485399941,33.649924988457784,0.0 -78.94513818566082,33.64993039999518,0.0 -78.94511622101464,33.64993785195949,0.0 -78.94507762740757,33.649899415439286,0.0 -78.94511575088184,33.64989282661753,0.0 -78.94511245573239,33.649887728036624,0.0 -78.94506735166601,33.64989321801175,0.0 -78.94506131142552,33.64989047290668,0.0 -78.94505613426452,33.64988717905106,0.0 -78.94505668432421,33.64989337512902,0.0 -78.9450525260841,33.64990074858589,0.0 -78.9450493108093,33.64991251469894,0.0 -78.94503715170204,33.64995550082398,0.0 -78.94500765769955,33.649970719134174,0.0 -78.94497235922235,33.6499583242185,0.0 -78.94496584749625,33.64995659934893,0.0 -78.94496835814877,33.64996044325736,0.0 -78.9449692212236,33.649964835913096,0.0 -78.94497173187057,33.64997456288457,0.0 -78.9449903214541,33.64998625050671,0.0 -78.94500687319237,33.6499803675116,0.0 -78.94501189319512,33.649980131790635,0.0 -78.94503762183592,33.64999935007717,0.0 -78.94503746597103,33.65001323394837,0.0 -78.94503268039767,33.65001699924623,0.0 -78.94501228606245,33.65001911690801,0.0 -78.94499244048411,33.650020137063805,0.0 -78.94498396816387,33.65002217619399,0.0 -78.94497651607854,33.650030098391575,0.0 -78.94494082468304,33.65003300179578,0.0 -78.94493768800258,33.650030255393006,0.0 -78.94493470716813,33.65003378495668,0.0 -78.94493407851975,33.65003605986078,0.0 -78.94493039176216,33.650045708226365,0.0 -78.94491988154937,33.65008053638822,0.0 -78.94491956721707,33.65009034192875,0.0 -78.9449203517031,33.650103206876075,0.0 -78.94492811678059,33.65011787527558,0.0 -78.94491493878931,33.65011105050143,0.0 -78.94488724954329,33.65010736365059,0.0 -78.94487595354467,33.650118738137415,0.0 -78.94486928594922,33.65013552422308,0.0 -78.94486567776994,33.650147839088554,0.0 -78.94488175801195,33.65015427228157,0.0 -78.94489862273232,33.65018188293345,0.0 -78.94491682201743,33.650208317502006,0.0 -78.94494121743044,33.650199689458944,0.0 -78.94495517992436,33.65020180726194,0.0 -78.94496012133538,33.65021326039602,0.0 -78.94496953529466,33.65023326311129,0.0 -78.94497471244611,33.65024675541134,0.0 -78.94498161445344,33.650252167019644,0.0 -78.94503597529167,33.650294368922424,0.0 -78.94504609387056,33.650301742438096,0.0 -78.94507033210691,33.65030927317292,0.0 -78.94505550651459,33.6503278639581,0.0 -78.94505566366762,33.65033688500482,0.0 -78.9450915907665,33.65037571310739,0.0 -78.94509959164175,33.65033139371544,0.0 -78.94510186656134,33.6503251190686,0.0 -78.94510327840537,33.65031531353265,0.0 -78.94512351557817,33.65031405894655,0.0 -78.94513606623023,33.65032378464981,0.0 -78.94514791095324,33.650345906430324,0.0 -78.94511975021145,33.65035398570373,0.0 -78.94511794678029,33.65035626060292,0.0 -78.94509551194714,33.6503762618775,0.0 -78.94510680793923,33.65037194785236,0.0 -78.94512320251675,33.65036520178041,0.0 -78.94513849825789,33.65037469437261,0.0 -78.94514548014098,33.650395716005555,0.0 -78.94514940134323,33.65037320400652,0.0 -78.94516258065642,33.650367085256,0.0 -78.94517513130916,33.65037610635363,0.0 -78.94520282056737,33.65036692826043,0.0 -78.94521089995675,33.65039359852916,0.0 -78.94522964799991,33.650417836774004,0.0 -78.94524721862868,33.65045517569983,0.0 -78.94524510086679,33.65046552998706,0.0 -78.94525396478222,33.650462549201656,0.0 -78.94526369176995,33.650466627571696,0.0 -78.94527679118315,33.65047078584592,0.0 -78.94529852009506,33.65045478300821,0.0 -78.94529263701857,33.650449449984656,0.0 -78.94528902885614,33.65044372275805,0.0 -78.9453015009429,33.65043697666995,0.0 -78.94530746259647,33.650446233482185,0.0 -78.94530150092558,33.65045548893565,0.0 -78.94530071642464,33.65045839117378,0.0 -78.9452820469142,33.650485532815686,0.0 -78.94526808441287,33.650491180079776,0.0 -78.94525631824055,33.65050122131473,0.0 -78.94525459207587,33.65050835904011,0.0 -78.94525168978801,33.65054844296189,0.0 -78.94525435628638,33.6505587186882,0.0 -78.94529161667575,33.650558718841545,0.0 -78.94529420591248,33.65055887601329,0.0 -78.94531044332281,33.650558247435825,0.0 -78.9453139729091,33.65055895336552,0.0 -78.94533719089975,33.65057197556632,0.0 -78.9453557818001,33.65057621113403,0.0 -78.94536221494117,33.65058256570685,0.0 -78.94539688607682,33.65060044947096,0.0 -78.94542975250486,33.650585153903975,0.0 -78.94538166763226,33.650563817779606,0.0 -78.9453641755486,33.65056460220338,0.0 -78.9453598614649,33.6505630331941,0.0 -78.94535084040173,33.6505511884501,0.0 -78.94536637189921,33.650545619773055,0.0 -78.9453800213915,33.65053526553337,0.0 -78.94539539573233,33.650524439817396,0.0 -78.9454027692281,33.650525851678175,0.0 -78.9454132807076,33.650536911932555,0.0 -78.94544261753029,33.65054114885411,0.0 -78.94545234451994,33.65054326663965,0.0 -78.94547007234206,33.65054671770805,0.0 -78.94547454358572,33.65054993428992,0.0 -78.94548152416937,33.65056013145351,0.0 -78.9454784660492,33.65057934962191,0.0 -78.94548929056067,33.65057048578144,0.0 -78.94548175988677,33.650586801690054,0.0 -78.94549525219165,33.65060405934197,0.0 -78.94549948769723,33.65060272479985,0.0 -78.9455394145609,33.65063880914859,0.0 -78.94554474888521,33.65064029958149,0.0 -78.94561456271843,33.65059354837605,0.0 -78.94561644475158,33.65056852572022,0.0 -78.94557847845752,33.650554954704525,0.0 -78.94563017151047,33.65056287714544,0.0 -78.94562860383425,33.65055173834734,0.0 -78.94564774349044,33.65055581806585,0.0 -78.94564052583755,33.6505640545865,0.0 -78.94563974132281,33.650581860933855,0.0 -78.94563613313225,33.65060625624793,0.0 -78.94555337705036,33.65064578977747,0.0 -78.94557455716782,33.65067120543091,0.0 -78.94567504106695,33.650640377388584,0.0 -78.9456930819098,33.65063606339121,0.0 -78.94569684724186,33.65063308258483,0.0 -78.9457115156797,33.65060680531235,0.0 -78.94569896499232,33.65063496590718,0.0 -78.94569755315486,33.65063778956216,0.0 -78.94569896498778,33.650639828732984,0.0 -78.9457123001276,33.650660773121444,0.0 -78.94571896767252,33.65069811069299,0.0 -78.94571983074626,33.65070368074714,0.0 -78.9457289303762,33.65073058545223,0.0 -78.94571316316699,33.6507032092365,0.0 -78.94568853334158,33.650690031178335,0.0 -78.94560538438843,33.650694423488254,0.0 -78.94560836521448,33.65069991497071,0.0 -78.94563079999196,33.65073944893316,0.0 -78.94568006095953,33.65075827572393,0.0 -78.94568060969651,33.650778435563986,0.0 -78.9456858654404,33.650779611674466,0.0 -78.94567849194263,33.65078023897868,0.0 -78.94566256882301,33.65081569445319,0.0 -78.94566288186552,33.65078447571525,0.0 -78.94560499141562,33.65076823811783,0.0 -78.94559926549188,33.65077231642429,0.0 -78.94559040158403,33.650767139239804,0.0 -78.94558318524683,33.65076894394321,0.0 -78.94557487009229,33.650766511841184,0.0 -78.94553517892126,33.65078369069365,0.0 -78.94555478877692,33.65076164762308,0.0 -78.94554694511231,33.65075356820152,0.0 -78.94553211958478,33.6507028168981,0.0 -78.94552780550889,33.65069285417745,0.0 -78.94549705555062,33.650678970178944,0.0 -78.94553125652347,33.65068391303583,0.0 -78.94553400162468,33.65067065520017,0.0 -78.94553815987724,33.650649946625364,0.0 -78.94549391893011,33.65061213872574,0.0 -78.94548356459511,33.65061935499621,0.0 -78.94546144408302,33.65064163248843,0.0 -78.94546364040559,33.6506528498697,0.0 -78.94548144547961,33.65067677378858,0.0 -78.9454654437987,33.650691207658404,0.0 -78.945454304969,33.65069473718849,0.0 -78.94542402647149,33.65070650319014,0.0 -78.94539163020225,33.65073913493597,0.0 -78.94538307929923,33.65074329181138,0.0 -78.94538041277536,33.650760156494165,0.0 -78.94533115179692,33.65075309713945,0.0 -78.94531475721894,33.65076015622383,0.0 -78.94530958002808,33.650788709751666,0.0 -78.94533852526142,33.6507879253751,0.0 -78.94538606009334,33.650782827003354,0.0 -78.94539296340372,33.650795299073245,0.0 -78.94540017970617,33.65083067606244,0.0 -78.94540017969332,33.650844404082946,0.0 -78.94540253318267,33.6508499728336,0.0 -78.94541916350627,33.65083938286454,0.0 -78.94543908768485,33.65081765542703,0.0 -78.94546277715098,33.65084079487458,0.0 -78.94546207124868,33.65082455751257,0.0 -78.94547642533978,33.65082369580503,0.0 -78.94550286125585,33.65079161278883,0.0 -78.94550419447394,33.65083004915611,0.0 -78.94551682371045,33.65083593227138,0.0 -78.94551235245798,33.650842129638214,0.0 -78.9455445915177,33.65086072061731,0.0 -78.94556043732135,33.65087342715603,0.0 -78.94557887106338,33.65087421172772,0.0 -78.94559251923549,33.6508750748602,0.0 -78.94559746196568,33.65087640813031,0.0 -78.94558969557687,33.650863308722165,0.0 -78.94558702906741,33.650864877702716,0.0 -78.94557581167942,33.65084424764516,0.0 -78.94559769642282,33.650850130798446,0.0 -78.94562507265707,33.6508523272373,0.0 -78.94563762331046,33.65086064241995,0.0 -78.94564484095491,33.650861504216245,0.0 -78.94565809753358,33.65086142699995,0.0 -78.94565739162016,33.6508571901962,0.0 -78.9456671958726,33.65086817186714,0.0 -78.9456686077035,33.650872408673806,0.0 -78.94566327467746,33.650883154540885,0.0 -78.94568249290818,33.650894057670016,0.0 -78.94568257149186,33.65089099957767,0.0 -78.94568288451717,33.65087829179576,0.0 -78.94569112109946,33.65087154569025,0.0 -78.9457210080002,33.65086252476729,0.0 -78.94572681250011,33.65086346644797,0.0 -78.94573763699375,33.65087374220803,0.0 -78.94574304990016,33.65087382081083,0.0 -78.9457574039784,33.650886841665546,0.0 -78.94577442589802,33.65087429111363,0.0 -78.9458041556475,33.65085420997876,0.0 -78.94581011731078,33.650853112495156,0.0 -78.94582980703423,33.650855466063454,0.0 -78.94584165177457,33.65085915284921,0.0 -78.94585114301995,33.65086338837952,0.0 -78.94585435828162,33.650865663299385,0.0 -78.9458517703472,33.650873349775324,0.0 -78.94584878951372,33.65087593899185,0.0 -78.94583498418068,33.65087444852414,0.0 -78.94581749078654,33.650876017443544,0.0 -78.94577583773095,33.650876253013585,0.0 -78.94575669805698,33.650891078463474,0.0 -78.94573332289329,33.650890215291014,0.0 -78.945717948549,33.650904647853714,0.0 -78.94571371173436,33.65090527517085,0.0 -78.9456911996484,33.65090574656141,0.0 -78.9456881402364,33.650905825129314,0.0 -78.94568139407525,33.650906531016794,0.0 -78.94564695867153,33.65089962757434,0.0 -78.9456310342691,33.65090613790667,0.0 -78.9456242881099,33.650904804628944,0.0 -78.94561887651405,33.650903705788785,0.0 -78.94560805070043,33.65090441165937,0.0 -78.94557400688501,33.65090394134557,0.0 -78.94556114321414,33.65089986296256,0.0 -78.94555141621983,33.65090268658327,0.0 -78.94551603915656,33.65089554739544,0.0 -78.94550631216454,33.65089601883858,0.0 -78.94549611499835,33.65089547004241,0.0 -78.94548968185131,33.65089547001591,0.0 -78.94547164101628,33.650891390301965,0.0 -78.94546426752109,33.65088935110658,0.0 -78.94546136526884,33.65089139025964,0.0 -78.94545869745096,33.65089154740966,0.0 -78.94544175412499,33.65089036994151,0.0 -78.94542441920146,33.650892566196205,0.0 -78.94541955505795,33.65088487968961,0.0 -78.94541822180959,33.65087883945988,0.0 -78.94539053125119,33.65087789768906,0.0 -78.94538056982888,33.650875701321844,0.0 -78.94537021550275,33.65087350495309,0.0 -78.94535829218113,33.65087028965023,0.0 -78.94535225194059,33.65086754323546,0.0 -78.94533499429215,33.65086550399937,0.0 -78.94533224920244,33.65086652422543,0.0 -78.94533021003429,33.65086307191187,0.0 -78.94531844388607,33.65084714882652,0.0 -78.945309031228,33.65083600999614,0.0 -78.94530581465627,33.65083412666926,0.0 -78.94529522458821,33.65083138154539,0.0 -78.94523309863733,33.650811614354616,0.0 -78.94522588228895,33.65082534103559,0.0 -78.9452206265455,33.65082369475164,0.0 -78.94519882040038,33.650799142172026,0.0 -78.9451990548358,33.65079623993163,0.0 -78.9451945050094,33.65079506251445,0.0 -78.94518587682927,33.650805495355435,0.0 -78.9451733261737,33.65079953366003,0.0 -78.94514398935709,33.650788630489224,0.0 -78.9451385764529,33.650786198399146,0.0 -78.94513136011983,33.650783610450354,0.0 -78.94514124296997,33.65077655002947,0.0 -78.94518470076794,33.650772314717294,0.0 -78.945190583851,33.650770667169496,0.0 -78.9452087032705,33.650770745824694,0.0 -78.9452248620902,33.650780708594084,0.0 -78.94522815727113,33.650752233639025,0.0 -78.94520815452705,33.65075756786573,0.0 -78.94518995653223,33.65075168472767,0.0 -78.94516720740357,33.65074211483383,0.0 -78.94517497381526,33.65073074033262,0.0 -78.94518446509456,33.65069873713685,0.0 -78.94518226876599,33.65069403015342,0.0 -78.94519128984788,33.65068579364023,0.0 -78.94519999660127,33.65068344018888,0.0 -78.94523011793758,33.65067128259353,0.0 -78.94523607961122,33.6506591235891,0.0 -78.94523741288138,33.65064186599825,0.0 -78.94524314012064,33.65063159030639,0.0 -78.94522603962949,33.65063417946489,0.0 -78.94521560671541,33.65063959100179,0.0 -78.9452101937985,33.650650729771115,0.0 -78.94519889780283,33.65065896627504,0.0 -78.94519011246693,33.65066328031049,0.0 -78.94517395363219,33.65066947762929,0.0 -78.94515983396057,33.6506843816804,0.0 -78.9451494010415,33.65069512752626,0.0 -78.9451497153587,33.65070148207398,0.0 -78.94513402669166,33.65071552304234,0.0 -78.94514532266183,33.65073450552808,0.0 -78.94515324490663,33.65074313501371,0.0 -78.94514014546145,33.650773177610105,0.0 -78.94511935823452,33.650762195893925,0.0 -78.94512563292018,33.65075160588233,0.0 -78.94510767067278,33.65074030985559,0.0 -78.9450977865069,33.65075380209377,0.0 -78.94510594449191,33.650764783757865,0.0 -78.94508060743085,33.650760783904026,0.0 -78.94507480293083,33.65075999938436,0.0 -78.9450730780868,33.65075552814456,0.0 -78.9450610761871,33.650749409290334,0.0 -78.94505652635904,33.65075011518685,0.0 -78.94504695653485,33.65074384049126,0.0 -78.94505448720419,33.650732387408496,0.0 -78.94506868413995,33.650724856831886,0.0 -78.94508696204186,33.65071309078079,0.0 -78.94510108171558,33.65069575597172,0.0 -78.94511198480393,33.650691284783825,0.0 -78.9451051600693,33.65068414571363,0.0 -78.94510586600795,33.650661476540286,0.0 -78.9451217904214,33.65064320008178,0.0 -78.94513088876397,33.6506461023606,0.0 -78.94512516285647,33.65063284579982,0.0 -78.94511394543947,33.65064327732037,0.0 -78.94508272527658,33.65066108354234,0.0 -78.94509064881811,33.650683439738735,0.0 -78.94506366417808,33.65068147904314,0.0 -78.94502836566143,33.650710894213454,0.0 -78.94502381583193,33.65071301194032,0.0 -78.945019423165,33.6507141107401,0.0 -78.94501754115636,33.6507127774826,0.0 -78.94501550067712,33.65071089416049,0.0 -78.94501244126991,33.65070579558053,0.0 -78.94501589361498,33.6506747327071,0.0 -78.94499643966593,33.65063825684983,0.0 -78.94498757576152,33.650629471508964,0.0 -78.94498122250475,33.650629707224404,0.0 -78.94494506095288,33.65061252805978,0.0 -78.94493054838684,33.65061739082581,0.0 -78.94490301498057,33.65062649033904,0.0 -78.94492325347674,33.65061072454661,0.0 -78.94493439231694,33.65059613349575,0.0 -78.94494286464592,33.65058483757795,0.0 -78.94493988381902,33.65058028906202,0.0 -78.94490442819539,33.65055157820606,0.0 -78.94492231184962,33.65057605218898,0.0 -78.94489587726405,33.65058577904142,0.0 -78.94487014860668,33.65058405409263,0.0 -78.94486449997957,33.650560991990496,0.0 -78.9448496756761,33.65060162461721,0.0 -78.94484049743775,33.650604369659604,0.0 -78.94483532027436,33.65060358514254,0.0 -78.9448311633493,33.650605154116946,0.0 -78.94483084903302,33.65059793780271,0.0 -78.94479978606253,33.6505827192436,0.0 -78.94478754973171,33.65057503270672,0.0 -78.94476809576405,33.650558559526075,0.0 -78.94475013220027,33.65055440254156,0.0 -78.94474440628329,33.650551264535046,0.0 -78.94472189291093,33.65052702627481,0.0 -78.94470047835122,33.65051196491645,0.0 -78.94469404651446,33.65051141613591,0.0 -78.94469161444034,33.65051008287607,0.0 -78.94468478970165,33.650507415038625,0.0 -78.94467726036288,33.65049659053828,0.0 -78.94467090580127,33.650491647796166,0.0 -78.94464949123221,33.650486627721214,0.0 -78.9446218020023,33.650465761854456,0.0 -78.94461387844488,33.65046027166153,0.0 -78.9446100345409,33.65045376124795,0.0 -78.94460219086885,33.6504536826351,0.0 -78.94459968021296,33.65045352546376,0.0 -78.94459105204433,33.65045172069515,0.0 -78.9445879926364,33.650447485191485,0.0 -78.94458469879564,33.65044340684785,0.0 -78.94457034340277,33.65043595473427,0.0 -78.94456359724609,33.65043195364733,0.0 -78.94455685108882,33.65042858120475,0.0 -78.94454328150032,33.65042473725082,0.0 -78.9445373198477,33.650414540091525,0.0 -78.94452241570697,33.650398694264325,0.0 -78.94451331605089,33.65039987162534,0.0 -78.94449605972763,33.650381515140204,0.0</coordinates>
                    </LinearRing>
                </outerBoundaryIs>
            </Polygon>
        </Placemark>
        <Placemark id="1253">
            <name>Flood_136</name>
            <styleUrl>#1258</styleUrl>
            <Polygon id="1252">
                <outerBoundaryIs>
                    <LinearRing id="1256">
                        <coordinates>-78.9411348227723,33.65054567963024,0.0 -78.94109968140967,33.65058191951976,0.0 -78.9410821107282,33.650600118699856,0.0 -78.94105661645722,33.6506460070093,0.0 -78.94103065206689,33.65063471095022,0.0 -78.94099605948509,33.65064514368381,0.0 -78.94098099814614,33.65066734262355,0.0 -78.94101567058271,33.65069362009795,0.0 -78.94103912434096,33.65068028507727,0.0 -78.94105959726095,33.6506742462473,0.0 -78.94107152059486,33.65066467649662,0.0 -78.94106963858833,33.65066130276455,0.0 -78.94107434426871,33.65066028254652,0.0 -78.94110321095634,33.65062325944528,0.0 -78.94112886236252,33.6506045115443,0.0 -78.9411348227723,33.65054567963024,0.0 -78.94115992535924,33.65059211821182,0.0 -78.94117459376108,33.65060396297846,0.0 -78.9412303651265,33.65064279116117,0.0 -78.94125170112925,33.65063290712703,0.0 -78.94125538787756,33.6506331428838,0.0 -78.94125452610487,33.650636595185254,0.0 -78.94126111507424,33.65066702945447,0.0 -78.94126503624908,33.650673618448735,0.0 -78.94129272679486,33.65068758232423,0.0 -78.94132418136154,33.65070021165575,0.0 -78.94133877249183,33.650712605176174,0.0 -78.94135289214498,33.650717076466925,0.0 -78.94135697046909,33.65073637324438,0.0 -78.94137014844375,33.65076021856271,0.0 -78.94135202897108,33.65081497078726,0.0 -78.94134763625028,33.650871527801286,0.0 -78.9413015119362,33.65088392107175,0.0 -78.94129398129267,33.650868311017064,0.0 -78.94126433016437,33.650846033312554,0.0 -78.9412518580691,33.6508612516919,0.0 -78.94124040622003,33.65087074286401,0.0 -78.94122542349254,33.65086140874411,0.0 -78.94122424741582,33.650845248651756,0.0 -78.94123044351453,33.65084140608901,0.0 -78.941235307685,33.650821010530585,0.0 -78.94120636247699,33.65079575200728,0.0 -78.9411951450741,33.65079128072856,0.0 -78.94115443364548,33.65082524568847,0.0 -78.94114862913816,33.65083207038419,0.0 -78.94115608119962,33.6508489351079,0.0 -78.94117184710325,33.65087097832324,0.0 -78.94119004640227,33.6508824302018,0.0 -78.94118290730945,33.650911611054966,0.0 -78.94117623971937,33.65092235691597,0.0 -78.9411584346057,33.65094000603129,0.0 -78.94115247293766,33.650945967650124,0.0 -78.94111819335549,33.65097051999786,0.0 -78.94116612108837,33.65096871677198,0.0 -78.94119694831589,33.65098409118105,0.0 -78.94118871303277,33.65100127016224,0.0 -78.94122024618704,33.651006996193956,0.0 -78.9412258149464,33.65100605456018,0.0 -78.94126244800566,33.650999465733065,0.0 -78.94123883708001,33.65101876239643,0.0 -78.94122863990513,33.6510271560655,0.0 -78.94122879573486,33.651049982402576,0.0 -78.94124040604116,33.65105500243699,0.0 -78.94124479870955,33.651052570387485,0.0 -78.94124440578635,33.651072337320066,0.0 -78.94124126909455,33.651081358352776,0.0 -78.9412414249371,33.65109092815319,0.0 -78.94122409000123,33.651105832190375,0.0 -78.9411943602503,33.651126540658765,0.0 -78.9411851034182,33.651142464966554,0.0 -78.94115937474295,33.65115909381186,0.0 -78.94114423614575,33.65116811479518,0.0 -78.94113607814765,33.65117093842221,0.0 -78.94111458500284,33.65116081977971,0.0 -78.94112823318447,33.651151798790345,0.0 -78.94112180136574,33.651132659164304,0.0 -78.94110830905257,33.65112450113921,0.0 -78.94108822773688,33.65112018698494,0.0 -78.94107002974816,33.651108106462,0.0 -78.94104186903222,33.6510891239076,0.0 -78.94102939695185,33.651088966695035,0.0 -78.94099660782072,33.65107704327316,0.0 -78.94099629481047,33.65107374943767,0.0 -78.94098468451378,33.651058845281256,0.0 -78.94097950734971,33.65105876667943,0.0 -78.94097566475034,33.65105766784578,0.0 -78.94095040627731,33.65104637309912,0.0 -78.94093495339699,33.65101421133122,0.0 -78.94091565658991,33.65099914998214,0.0 -78.94091526369164,33.650993345498236,0.0 -78.94090310594248,33.650984953046716,0.0 -78.94089988937041,33.6509834626226,0.0 -78.94090075245191,33.65098095197807,0.0 -78.94090271304388,33.650979461575275,0.0 -78.94091032229474,33.65096785264188,0.0 -78.94091400905933,33.65095137955722,0.0 -78.94089110408125,33.65093961333712,0.0 -78.94087659283608,33.65093270997707,0.0 -78.94085047126745,33.65093851435185,0.0 -78.94084882370947,33.65091890457212,0.0 -78.94084356797494,33.65090815735233,0.0 -78.94082544855391,33.65090964768847,0.0 -78.9408150942211,33.65091427603951,0.0 -78.94080144473834,33.65091459030546,0.0 -78.94078936425855,33.65090800127761,0.0 -78.94078622758774,33.65089545064322,0.0 -78.94080207212069,33.65086760307589,0.0 -78.94079116904311,33.650860935472394,0.0 -78.94076779388665,33.650852698826256,0.0 -78.94076857839916,33.65083803046252,0.0 -78.94076104772915,33.65084964070587,0.0 -78.94076073340275,33.65085293453876,0.0 -78.94074747681292,33.65086454344882,0.0 -78.94072974899412,33.65085779723672,0.0 -78.9407400247531,33.6508459525728,0.0 -78.94073829860368,33.650837245842105,0.0 -78.94071814002454,33.6508250880404,0.0 -78.9407198648518,33.65084658113403,0.0 -78.94070558936379,33.65082461650546,0.0 -78.94068527231444,33.650811359885196,0.0 -78.94065593550707,33.65079151424991,0.0 -78.94064456094239,33.65078727871208,0.0 -78.94064338485211,33.65078508238123,0.0 -78.9406131063862,33.65076398076309,0.0 -78.94060047715797,33.650749782517714,0.0 -78.94058463135313,33.65073887940298,0.0 -78.94059286794173,33.65072601580299,0.0 -78.94058447421979,33.65070993426161,0.0 -78.94057882688148,33.65070914974264,0.0 -78.94056007882942,33.65069495278179,0.0 -78.94054815682749,33.650681696196145,0.0 -78.94053042903342,33.65064977016074,0.0 -78.94053082066661,33.65060984339158,0.0 -78.9405258006689,33.65060490065526,0.0 -78.94049834587727,33.6505789362232,0.0 -78.94048767722632,33.65057854458633,0.0 -78.94048916765502,33.65056513089482,0.0 -78.94047340173906,33.65055587535232,0.0 -78.9404704209026,33.650561286919725,0.0 -78.94045700715868,33.65056520934296,0.0 -78.94046367474535,33.650557993057774,0.0 -78.94046485084628,33.650549286339135,0.0 -78.94046798884379,33.65054442221681,0.0 -78.94047842178675,33.6505096726368,0.0 -78.94046861623201,33.65049163050523,0.0 -78.9404677531742,33.65046998156373,0.0 -78.94044233884556,33.65046260798555,0.0 -78.94049340458271,33.650448801595346,0.0 -78.94050218992108,33.65044213407292,0.0 -78.94052752569257,33.650425269484224,0.0 -78.94053748843571,33.650415856886596,0.0 -78.9405447833604,33.650407306044585,0.0 -78.9405561579592,33.650376478946754,0.0 -78.94057914151782,33.65038832374759,0.0 -78.940585494784,33.65037843965184,0.0 -78.9405878482822,33.65037467565379,0.0 -78.94057514047147,33.650362437992634,0.0 -78.94064918979758,33.65032933624599,0.0 -78.94066801647372,33.6502989793524,0.0 -78.94069225471935,33.6502967045455,0.0 -78.94073171013208,33.650296390385584,0.0 -78.94073994670757,33.65029701906381,0.0 -78.94077916765748,33.65032768920871,0.0 -78.94079368021563,33.65033106299271,0.0 -78.9407969740737,33.65031725640599,0.0 -78.9407961110121,33.650299450052756,0.0 -78.94081015208275,33.65030572607605,0.0 -78.94084592206009,33.650301882325195,0.0 -78.940849687389,33.65030235251424,0.0 -78.94084953022436,33.65030549049632,0.0 -78.94084545188284,33.650304157229854,0.0 -78.94081407456184,33.65031780523038,0.0 -78.94082678237132,33.650331376141416,0.0 -78.9408615320937,33.650342436494945,0.0 -78.94086545453368,33.650394679471404,0.0 -78.9409143239502,33.65036816528959,0.0 -78.94094844504048,33.65036471443465,0.0 -78.94095448528012,33.65036824403529,0.0 -78.94096985959034,33.65038926701156,0.0 -78.94097895923159,33.65040338666184,0.0 -78.94099096112531,33.65041530999807,0.0 -78.94101378751911,33.65043052721293,0.0 -78.94103473189276,33.6504564130378,0.0 -78.9410162981458,33.65046080561398,0.0 -78.94100476641985,33.65045633433402,0.0 -78.94097833182866,33.65047163123642,0.0 -78.94100398190241,33.65047610126485,0.0 -78.94102202405142,33.650475474004445,0.0 -78.94103520205552,33.65046904224173,0.0 -78.94105285130252,33.65046645439529,0.0 -78.94105120373123,33.65046041416454,0.0 -78.94106210812346,33.65046198320077,0.0 -78.94106751971158,33.650470924378524,0.0 -78.94108720942168,33.65048677022486,0.0 -78.94107434441857,33.65050614551312,0.0 -78.94107387423712,33.65051273448922,0.0 -78.94108760097214,33.65053187414522,0.0 -78.94109654345999,33.650537600083815,0.0 -78.9411348227723,33.65054567963024,0.0</coordinates>
                    </LinearRing>
                </outerBoundaryIs>
            </Polygon>
        </Placemark>
        <Placemark id="1262">
            <name>Flood_137</name>
            <styleUrl>#1267</styleUrl>
            <Polygon id="1261">
                <outerBoundaryIs>
                    <LinearRing id="1265">
                        <coordinates>-78.94376741188856,33.65138705622848,0.0 -78.94376364656073,33.65138548722145,0.0 -78.94376097874033,33.65138838945177,0.0 -78.94376184180975,33.65139843073854,0.0 -78.94374474129701,33.6514236104922,0.0 -78.94372458142871,33.651389409539014,0.0 -78.94372638617818,33.65137803501334,0.0 -78.94372167919646,33.6513703485075,0.0 -78.94371681636744,33.6513576407046,0.0 -78.94371407127808,33.65135826802785,0.0 -78.94370991303224,33.6513715245477,0.0 -78.94369783385123,33.651376231472206,0.0 -78.9436739872176,33.65135960111247,0.0 -78.94367171230543,33.65135795353108,0.0 -78.9436481800023,33.65133371526672,0.0 -78.94363923752218,33.65131967419712,0.0 -78.94362919621001,33.65131692907549,0.0 -78.94361131253049,33.65131912532782,0.0 -78.94360942920866,33.6513215573878,0.0 -78.94360825311871,33.6513190467347,0.0 -78.94359703572665,33.651303045071245,0.0 -78.9435751509966,33.651283042304755,0.0 -78.94357577833934,33.65127660918061,0.0 -78.94357138567102,33.65127911981066,0.0 -78.94353436104393,33.65125801816392,0.0 -78.94353200755079,33.651256527743314,0.0 -78.94352596732459,33.65123872267793,0.0 -78.94350910258677,33.651229622981965,0.0 -78.9435036110979,33.65123134911183,0.0 -78.94350306234558,33.651227583792014,0.0 -78.94349757085985,33.65122601477796,0.0 -78.94349082470366,33.651221464936945,0.0 -78.94346478305236,33.65119903008569,0.0 -78.94346454731264,33.65119628500451,0.0 -78.94345372283199,33.65117251696618,0.0 -78.943449407448,33.65116106514452,0.0 -78.9434431327809,33.65115188691164,0.0 -78.94344697668227,33.651161220985884,0.0 -78.94343936742548,33.651179420207384,0.0 -78.94342995477182,33.65116373156397,0.0 -78.9434134816253,33.65115776985246,0.0 -78.94342830721509,33.65114223847004,0.0 -78.94343819136687,33.65114380750218,0.0 -78.94344015195905,33.65114215993827,0.0 -78.94344862429578,33.65112294179269,0.0 -78.94344634939185,33.651112666068165,0.0 -78.94344132808084,33.65111133279766,0.0 -78.94342077659186,33.651104978166664,0.0 -78.94341497209095,33.651105213884335,0.0 -78.9433930873393,33.65110795887436,0.0 -78.94337386909709,33.651109293354594,0.0 -78.94336445512276,33.65110521367615,0.0 -78.94331456684115,33.65106301179208,0.0 -78.94328570021968,33.6510311642904,0.0 -78.9432850728909,33.65102300631815,0.0 -78.9432752673341,33.65100653317741,0.0 -78.94324232106062,33.650974294065875,0.0 -78.94320702260987,33.65093397555561,0.0 -78.94320490486065,33.65093091614458,0.0 -78.9431998848664,33.65092220809047,0.0 -78.94314058260777,33.65087890865957,0.0 -78.94313234605126,33.650858435775916,0.0 -78.94312473682439,33.65084525647854,0.0 -78.94312387506584,33.650833961832156,0.0 -78.94310904950841,33.65081560666693,0.0 -78.94311297070823,33.65079615276106,0.0 -78.94309798926753,33.650810585325,0.0 -78.94307476993914,33.65082713691019,0.0 -78.94305092330654,33.650809722054845,0.0 -78.94302276258077,33.65080078078329,0.0 -78.94301735101584,33.650767364386866,0.0 -78.94301491894288,33.650764932309215,0.0 -78.94301240829441,33.65075693149032,0.0 -78.94299585788062,33.65074712588063,0.0 -78.94297781572217,33.650757480102044,0.0 -78.94297601100764,33.650732221690035,0.0 -78.94289733464744,33.65069825623795,0.0 -78.94289451098304,33.65069284333689,0.0 -78.94289215748947,33.65069182439958,0.0 -78.94288784341016,33.65068570557723,0.0 -78.94288509702099,33.6506759786049,0.0 -78.94287380236096,33.650656917539024,0.0 -78.9428902742119,33.65064797514154,0.0 -78.94289992264433,33.65062546316653,0.0 -78.94288729338803,33.65064044449429,0.0 -78.94288517563055,33.65064593595559,0.0 -78.9428625849596,33.65065079868827,0.0 -78.9428454844723,33.65064930820698,0.0 -78.94282477581548,33.65064970102442,0.0 -78.94280830266631,33.65064664155432,0.0 -78.94279379142287,33.6506379347709,0.0 -78.94279206528095,33.65062122592195,0.0 -78.94278343711618,33.65061542140395,0.0 -78.94278829999747,33.65057329832622,0.0 -78.9427755136079,33.650558708486926,0.0 -78.94276515928632,33.650551805144076,0.0 -78.9427622570372,33.65055055046283,0.0 -78.94272350752784,33.650565218670536,0.0 -78.9427062498889,33.650553452473545,0.0 -78.94271691855896,33.65053392001493,0.0 -78.94271793749198,33.65053172369307,0.0 -78.94271785891941,33.65052309554966,0.0 -78.94271503524966,33.65052325269904,0.0 -78.94270609275257,33.65052709656026,0.0 -78.94269715024969,33.65053697933587,0.0 -78.94268985534599,33.65052380134958,0.0 -78.94267683455362,33.65047799146136,0.0 -78.94267385373061,33.65046959773788,0.0 -78.94267973681842,33.65046300878396,0.0 -78.94267071574079,33.65046661690319,0.0 -78.94262255225651,33.65047791265751,0.0 -78.94262004291319,33.65047469608381,0.0 -78.94259070480473,33.650445594970314,0.0 -78.94258443012978,33.650444810448754,0.0 -78.94258568480896,33.65043853448826,0.0 -78.94254811143489,33.650408727425834,0.0 -78.9425620739565,33.65038197866801,0.0 -78.94256246555327,33.65037931086031,0.0 -78.94256960463059,33.65036589719174,0.0 -78.94258490039387,33.65035201338316,0.0 -78.94260364847256,33.650338521181844,0.0 -78.94265424274663,33.650301811181755,0.0 -78.9426787953435,33.65027019964169,0.0 -78.94271660446397,33.65029584979465,0.0 -78.94271417236145,33.650324167591364,0.0 -78.94274798176325,33.65030463522788,0.0 -78.94278241716314,33.65031514682627,0.0 -78.94281191113433,33.650333031878134,0.0 -78.94285042618166,33.65034879922166,0.0 -78.94286462441771,33.65035115145748,0.0 -78.94288831388648,33.65037076263807,0.0 -78.94288266652609,33.650393040197514,0.0 -78.94289176483753,33.650428417193496,0.0 -78.9428882352415,33.650437908398416,0.0 -78.94289482423444,33.65044410581061,0.0 -78.94290823794428,33.65047579608742,0.0 -78.94292439676376,33.65048575754681,0.0 -78.94295326340396,33.65049768095268,0.0 -78.94297075677785,33.65051729210782,0.0 -78.94296612835728,33.650530078452114,0.0 -78.94296542243153,33.65053886375341,0.0 -78.94298652267557,33.65054584441146,0.0 -78.94299617109233,33.65053956979511,0.0 -78.94301264424863,33.65053525579138,0.0 -78.94304394299122,33.65051886140038,0.0 -78.94301021221209,33.650494621784716,0.0 -78.94300605529511,33.650487719776976,0.0 -78.94298487520209,33.65043736004185,0.0 -78.94297750170612,33.650436261193676,0.0 -78.94298518953237,33.650429907988745,0.0 -78.94298832752317,33.65043194716662,0.0 -78.94301797862785,33.6504791689538,0.0 -78.9430536686843,33.65050725116577,0.0 -78.94306716099773,33.65051509617847,0.0 -78.94307265247612,33.65052443025934,0.0 -78.94305100213974,33.65054553166433,0.0 -78.94303947170424,33.65056106306034,0.0 -78.94302417463923,33.6505666317383,0.0 -78.9430440987946,33.65056969122259,0.0 -78.94304707962594,33.650569534073774,0.0 -78.94305947442936,33.65057565292938,0.0 -78.94310049885297,33.65056027881584,0.0 -78.94312716916957,33.65056255383223,0.0 -78.94314003419011,33.6505246662783,0.0 -78.9431431708884,33.65050858609358,0.0 -78.94316991979028,33.650506075555406,0.0 -78.9431747839385,33.650508742075125,0.0 -78.94318286334233,33.65051988089974,0.0 -78.94317337208834,33.650524823576575,0.0 -78.94313469982478,33.6505661620196,0.0 -78.94313626881736,33.65057008319489,0.0 -78.9431742337688,33.65061785508009,0.0 -78.94319721731965,33.65063817086343,0.0 -78.94321518089346,33.6506317391203,0.0 -78.94323635972239,33.65063440570701,0.0 -78.94323785013613,33.65063636760732,0.0 -78.94320388488799,33.650650094178,0.0 -78.94322945766997,33.65067645150567,0.0 -78.94324153686007,33.65066217478111,0.0 -78.94324373449257,33.65067284340807,0.0 -78.9432626383849,33.650699435140254,0.0 -78.94327722820302,33.65071473090223,0.0 -78.9432907205084,33.650731046897015,0.0 -78.94331825388112,33.65075732434268,0.0 -78.94332170488612,33.65075850175522,0.0 -78.94332649044222,33.65077293440059,0.0 -78.94332962712383,33.6507744248245,0.0 -78.94334578726505,33.65077175839132,0.0 -78.94334908112859,33.65075191288985,0.0 -78.94333433413341,33.65075293175667,0.0 -78.94333543296689,33.6507402239784,0.0 -78.94335527854746,33.65073700880642,0.0 -78.94335527853893,33.65074595127176,0.0 -78.9433551999557,33.65074846060996,0.0 -78.9433614746318,33.650748147623325,0.0 -78.94340195157282,33.65077105270742,0.0 -78.9434056383219,33.65077050265883,0.0 -78.94340830482767,33.65077285615697,0.0 -78.94340846198223,33.65078022963154,0.0 -78.9434192078732,33.6508133330376,0.0 -78.9434088535273,33.65083192253117,0.0 -78.94338814487531,33.650827216781195,0.0 -78.94338194878235,33.650825020429714,0.0 -78.94337755611365,33.650827922652844,0.0 -78.94338383078303,33.65083466881795,0.0 -78.9433856355235,33.650832785511795,0.0 -78.94340901068448,33.650836550925526,0.0 -78.94343317032558,33.65085914293,0.0 -78.94343419056226,33.650863299844744,0.0 -78.94345403612736,33.650876320721835,0.0 -78.94345709555499,33.65085984894379,0.0 -78.94345740991062,33.650825648075035,0.0 -78.94343991652094,33.65082258860069,0.0 -78.94345835027339,33.65081231296144,0.0 -78.94346509643304,33.650813176065476,0.0 -78.94346878317808,33.65081686281763,0.0 -78.94348949180142,33.65085169110752,0.0 -78.94350306269095,33.6508645547977,0.0 -78.94350831840364,33.650898519947724,0.0 -78.94350737673966,33.650902912595974,0.0 -78.94353310539407,33.65090777683734,0.0 -78.94353420421209,33.650911227837256,0.0 -78.94355836386167,33.65092511180839,0.0 -78.94356448268209,33.65092872129969,0.0 -78.94359429097796,33.65094519321316,0.0 -78.94359954671765,33.650950763285365,0.0 -78.94359868362938,33.650960568823415,0.0 -78.94362190162326,33.650970060138576,0.0 -78.9436332761891,33.650973119587746,0.0 -78.94363955085292,33.65098574881593,0.0 -78.94364708150663,33.65099100326571,0.0 -78.94366692706129,33.651015085663424,0.0 -78.94367014361828,33.651032499124206,0.0 -78.9436683401451,33.65107893759616,0.0 -78.94370073642021,33.65104073580046,0.0 -78.94368591085647,33.651028891032695,0.0 -78.94368598944936,33.65101610466959,0.0 -78.94372411162414,33.650999240133274,0.0 -78.94369195116215,33.65096292138518,0.0 -78.94368944050751,33.65096143096392,0.0 -78.94367296737086,33.650945114956656,0.0 -78.943664496367,33.65093993777396,0.0 -78.94364668996674,33.65093374162511,0.0 -78.94364339481353,33.6509326427936,0.0 -78.94363688440342,33.6509241717847,0.0 -78.9436462970722,33.65092385750128,0.0 -78.94366394631827,33.65092228858258,0.0 -78.94367147697884,33.65092032802912,0.0 -78.94368065520696,33.65092848603663,0.0 -78.94369595093714,33.65094935185218,0.0 -78.94371454184133,33.65094943050926,0.0 -78.94373046621826,33.65096990342473,0.0 -78.94373015187237,33.6509938285783,0.0 -78.94372591636137,33.65100073055152,0.0 -78.94369901027859,33.651023556777695,0.0 -78.9437206605846,33.65103430406535,0.0 -78.94375815539824,33.651043325265704,0.0 -78.94377054889078,33.65105085595183,0.0 -78.94378584595103,33.651050227370575,0.0 -78.94379706336841,33.651039560108636,0.0 -78.94379776927828,33.651047482339564,0.0 -78.94379965128184,33.65105414990604,0.0 -78.94383424382822,33.651080820283696,0.0 -78.9437991810922,33.651069524186674,0.0 -78.94378639470281,33.6510545427541,0.0 -78.94376984296925,33.651055248601146,0.0 -78.94376764663053,33.65106121023564,0.0 -78.94376482296428,33.65105767933851,0.0 -78.94373109347198,33.65105713044536,0.0 -78.94373226953597,33.651087173100095,0.0 -78.94375454718256,33.651093762170106,0.0 -78.94379470980911,33.65110780467808,0.0 -78.94379651323466,33.65111149142249,0.0 -78.94378796363664,33.65112043254291,0.0 -78.94380521996375,33.65113470938839,0.0 -78.94382067417118,33.65114937781941,0.0 -78.94382930233574,33.65115541807911,0.0 -78.94383542115604,33.65115918342182,0.0 -78.94383746031522,33.651172048374264,0.0 -78.94383251887622,33.6511902462972,0.0 -78.94382145863082,33.65118993192943,0.0 -78.94382883212208,33.65119612934497,0.0 -78.94383244028185,33.65120460165174,0.0 -78.94385581542231,33.65123001600419,0.0 -78.94386601259016,33.651228839957504,0.0 -78.943875269401,33.651234958800394,0.0 -78.94387691695943,33.65125464716134,0.0 -78.94388044652425,33.6512781008476,0.0 -78.94388860450819,33.651290024168354,0.0 -78.94388970200879,33.65130171171849,0.0 -78.94387777866909,33.65131755743511,0.0 -78.94389189830427,33.651341246906625,0.0 -78.94387268004218,33.65136344582979,0.0 -78.94385181425312,33.651332774449536,0.0 -78.9438475787506,33.65133081384759,0.0 -78.94384130406547,33.65134061936335,0.0 -78.94385895327983,33.65137254539965,0.0 -78.94382694861869,33.65138995871523,0.0 -78.94383157701806,33.65139944995386,0.0 -78.943835028012,33.65141231491204,0.0 -78.94383283167726,33.65141419690686,0.0 -78.94380490666927,33.65143090563372,0.0 -78.94379431659817,33.65143137576359,0.0 -78.94378764901742,33.65143239597345,0.0 -78.94377345079131,33.65141945239044,0.0 -78.94376850938669,33.65140141158785,0.0 -78.94376733330385,33.651391213138695,0.0 -78.94376741188856,33.65138705622848,0.0</coordinates>
                    </LinearRing>
                </outerBoundaryIs>
            </Polygon>
        </Placemark>
        <Placemark id="1271">
            <name>Flood_138</name>
            <styleUrl>#1276</styleUrl>
            <Polygon id="1270">
                <outerBoundaryIs>
                    <LinearRing id="1274">
                        <coordinates>-78.94038491789136,33.65114175575354,0.0 -78.94041237269873,33.65115171725935,0.0 -78.94041958904094,33.65114489256944,0.0 -78.94045104493983,33.651134538403745,0.0 -78.94048948141962,33.651136656307656,0.0 -78.9404872851436,33.651078453004665,0.0 -78.94048697082864,33.651070060602066,0.0 -78.94048359840838,33.65106480485996,0.0 -78.94043025777778,33.65105750843734,0.0 -78.94048242102434,33.651046292590344,0.0 -78.94048924577324,33.65103844766149,0.0 -78.9404925409312,33.65103476093822,0.0 -78.9404939527593,33.6510415856637,0.0 -78.94049638482241,33.65105413629505,0.0 -78.94049709073144,33.651062685860346,0.0 -78.94049889415834,33.65106488350349,0.0 -78.9404932468081,33.65107617812265,0.0 -78.94054690045144,33.65108425773268,0.0 -78.94056227477218,33.65109453351088,0.0 -78.94052289788475,33.65115132612192,0.0 -78.94055121444,33.65118309503997,0.0 -78.94062816602167,33.65114520775125,0.0 -78.94063255868754,33.65114528634994,0.0 -78.94066268128343,33.65118521324483,0.0 -78.94064346301506,33.65121321664962,0.0 -78.94064056074834,33.65123000275001,0.0 -78.9406142820253,33.65122827779886,0.0 -78.94058494516638,33.65126114398747,0.0 -78.94057153142658,33.651260673758614,0.0 -78.94056384362175,33.65124482796168,0.0 -78.94058902355602,33.65121313784472,0.0 -78.9405388994885,33.65121651136249,0.0 -78.94052093591881,33.65121847187277,0.0 -78.94048830396214,33.651193370495506,0.0 -78.94047512597567,33.65118168289599,0.0 -78.94041315719387,33.651154776664804,0.0 -78.94041096086173,33.65115391357962,0.0 -78.94038491789136,33.65114175575354,0.0</coordinates>
                    </LinearRing>
                </outerBoundaryIs>
            </Polygon>
        </Placemark>
        <Placemark id="1280">
            <name>Flood_139</name>
            <styleUrl>#1285</styleUrl>
            <Polygon id="1279">
                <outerBoundaryIs>
                    <LinearRing id="1283">
                        <coordinates>-78.94038491789136,33.65114175575354,0.0 -78.94037166128057,33.651174622008384,0.0 -78.94036303308494,33.651200507711266,0.0 -78.94036624834669,33.65120262546992,0.0 -78.94036303307459,33.65121109774817,0.0 -78.94035871899415,33.65120623359523,0.0 -78.94031447669256,33.65121572594167,0.0 -78.94030796627149,33.65121870673646,0.0 -78.94030529975515,33.65122709912685,0.0 -78.94031141857499,33.65123133595267,0.0 -78.94033024388867,33.6512551812941,0.0 -78.94034506945954,33.651259418155824,0.0 -78.94034859904266,33.65126333933919,0.0 -78.94036946485629,33.65126804639937,0.0 -78.94037636816233,33.65128436236658,0.0 -78.94038648674538,33.651287264649426,0.0 -78.94040005763932,33.651295344094216,0.0 -78.94041841278398,33.651313071938915,0.0 -78.94046014440418,33.651329623791426,0.0 -78.94051371945851,33.65134617438307,0.0 -78.9404971677835,33.65128679493219,0.0 -78.94049795229137,33.651276910813635,0.0 -78.9405048556149,33.651275420431155,0.0 -78.94051411244251,33.65126420309775,0.0 -78.94051607302242,33.651275184735816,0.0 -78.94056533396689,33.65131707360373,0.0 -78.94057992510935,33.6513169165028,0.0 -78.94058070958543,33.65133958568123,0.0 -78.9405936518355,33.65134515578507,0.0 -78.94060769290526,33.65135237215561,0.0 -78.94061663538731,33.651364059737595,0.0 -78.94060722270328,33.65138006131549,0.0 -78.94054666573611,33.65137362924878,0.0 -78.94054007543139,33.651369629472285,0.0 -78.94051709318397,33.65135605851878,0.0 -78.94047834237264,33.65136233301488,0.0 -78.94049144175831,33.6513945733534,0.0 -78.94050979691274,33.65140233849585,0.0 -78.94054478241445,33.65137582556701,0.0 -78.9405801594513,33.65140986942084,0.0 -78.94059835873409,33.65143787297989,0.0 -78.94060196689922,33.65144054080395,0.0 -78.94060314298966,33.65144257997371,0.0 -78.94064306984437,33.65148658523903,0.0 -78.94066275956033,33.651496626603226,0.0 -78.94069735212106,33.65150807854947,0.0 -78.94070488276641,33.651521806600385,0.0 -78.94071813932926,33.6515380440133,0.0 -78.94073421959318,33.651522042462986,0.0 -78.94076308624633,33.65152070802268,0.0 -78.94075759473402,33.6515464378871,0.0 -78.94075194738913,33.65155224234616,0.0 -78.94075971378884,33.651553654208485,0.0 -78.94077924503144,33.651565812007846,0.0 -78.94078371627411,33.65157004882692,0.0 -78.94080183699572,33.651578049710054,0.0 -78.94084129240798,33.65157875578798,0.0 -78.94085392165792,33.65157067645112,0.0 -78.94085957031265,33.651564636250555,0.0 -78.94083878309341,33.65154604531938,0.0 -78.94082317302588,33.651540162192106,0.0 -78.94078552103029,33.6515520853236,0.0 -78.94076277189659,33.651548084170706,0.0 -78.94077155856579,33.651519689129934,0.0 -78.94079375764922,33.65150823610824,0.0 -78.94076441951444,33.6515062754028,0.0 -78.940737121871,33.65149388182983,0.0 -78.94073900520627,33.65147772175016,0.0 -78.94073641597156,33.65147536956219,0.0 -78.94072527715282,33.65146744597876,0.0 -78.94068919417505,33.65145748443715,0.0 -78.94068542883625,33.65146721138243,0.0 -78.9406637785174,33.651469720631596,0.0 -78.94061459614252,33.651439284877135,0.0 -78.9406189888201,33.65142736291816,0.0 -78.94064189383415,33.65140233904062,0.0 -78.94064722816555,33.65139645599977,0.0 -78.940677270908,33.6513984180177,0.0 -78.94065836697979,33.65140908524765,0.0 -78.94067640778765,33.65144093270394,0.0 -78.94071335384606,33.65144909082577,0.0 -78.94072966983838,33.65144736474061,0.0 -78.94074073007728,33.651454346667,0.0 -78.94074363232701,33.65145497401352,0.0 -78.94079650279318,33.651451601816895,0.0 -78.94082340753548,33.6514612503081,0.0 -78.94082654554039,33.65144869969967,0.0 -78.94083525229719,33.65144289525321,0.0 -78.94085933471416,33.651416931033374,0.0 -78.94088365160465,33.65134907814963,0.0 -78.94092099056066,33.65136382525098,0.0 -78.94092985446544,33.651371983257015,0.0 -78.94093871837495,33.65137527843747,0.0 -78.94093667788466,33.65138461248712,0.0 -78.94095424983394,33.651409635222045,0.0 -78.94097174190745,33.651419440835525,0.0 -78.9409488369175,33.651419833643736,0.0 -78.94092381415052,33.651445719279124,0.0 -78.9409178524828,33.651451209414745,0.0 -78.94089949729855,33.651474035675385,0.0 -78.9408785528952,33.651478506821505,0.0 -78.94086459038759,33.65149035147024,0.0 -78.94084474477489,33.651526356990445,0.0 -78.94089455453289,33.65150917818077,0.0 -78.94090224236135,33.651500705921016,0.0 -78.94091989160768,33.651498981151,0.0 -78.94094969992005,33.65149835393932,0.0 -78.94094813094522,33.65147615493112,0.0 -78.9409704086248,33.65144885614442,0.0 -78.94099448971143,33.65144407199867,0.0 -78.94100657019686,33.65144493512473,0.0 -78.9410298667766,33.65144917071183,0.0 -78.94104979092513,33.65145936792831,0.0 -78.94107395187767,33.65147984218699,0.0 -78.94107669695005,33.65149678547182,0.0 -78.94109622950683,33.65150439345802,0.0 -78.94111066217175,33.65151074806371,0.0 -78.94112705672259,33.65153200547629,0.0 -78.94113827410878,33.651553655770286,0.0 -78.94114423575525,33.65157005031435,0.0 -78.94115239374753,33.65157310844053,0.0 -78.94115160923691,33.65158597338099,0.0 -78.94115600187826,33.65161131038371,0.0 -78.94116008020654,33.65162621450905,0.0 -78.94112486027427,33.651650609691494,0.0 -78.94111803555425,33.65162872367404,0.0 -78.94109128666467,33.65161829068767,0.0 -78.9410808537467,33.65162731169033,0.0 -78.941061871233,33.651642843055235,0.0 -78.94103386764077,33.65166260987374,0.0 -78.94102319898954,33.651662375397834,0.0 -78.94098288049112,33.65166896420937,0.0 -78.94095793632869,33.65167045451739,0.0 -78.94094263925595,33.65168371099079,0.0 -78.94091997000037,33.651692260459676,0.0 -78.94090639909557,33.651695241225475,0.0 -78.94089824109042,33.65170536105522,0.0 -78.94087902285673,33.65169775176059,0.0 -78.9408340759772,33.65167649423011,0.0 -78.94079085393503,33.65166629691746,0.0 -78.94080089527951,33.65163593998774,0.0 -78.94080167980219,33.65161083743843,0.0 -78.9407788533883,33.65161601449197,0.0 -78.94077297030911,33.65161358370974,0.0 -78.94075430079583,33.65164237161248,0.0 -78.94075830053461,33.65166621820252,0.0 -78.94073563128055,33.65167319868003,0.0 -78.94072088428601,33.65167343436076,0.0 -78.94066346530525,33.651673355543295,0.0 -78.94064252091174,33.65166770813559,0.0 -78.94060526054555,33.65164370424723,0.0 -78.94060345711789,33.65164229240942,0.0 -78.94057521783193,33.6516121710634,0.0 -78.94054062526595,33.65160605211623,0.0 -78.94052791746104,33.65158761837961,0.0 -78.94051520965218,33.6515733415533,0.0 -78.94048979400813,33.651571615295914,0.0 -78.94047002702918,33.65155326011067,0.0 -78.94047151744853,33.65154941752859,0.0 -78.94045057306185,33.65153678824027,0.0 -78.94044476859145,33.65150580260102,0.0 -78.94044963275172,33.65149591980894,0.0 -78.94044319960682,33.651493723456404,0.0 -78.94043598326374,33.651501409912804,0.0 -78.94041166642461,33.65151647108198,0.0 -78.94038719246959,33.65148485934082,0.0 -78.94038021190208,33.651458580670905,0.0 -78.94035534502913,33.651441245701896,0.0 -78.940329146191,33.651445245343155,0.0 -78.9403074172842,33.65145512937539,0.0 -78.94028859066337,33.65142861622468,0.0 -78.9402913370912,33.65139865085807,0.0 -78.94026129302125,33.651414966672895,0.0 -78.94025705752078,33.651410888325536,0.0 -78.94023242639227,33.6513915128831,0.0 -78.9402277992987,33.651386335716325,0.0 -78.9402310931693,33.651359822656865,0.0 -78.9402397999289,33.65135119324018,0.0 -78.94022136618491,33.65135237056257,0.0 -78.94021807233307,33.65135982260317,0.0 -78.94021673905829,33.651380922781335,0.0 -78.9401964220047,33.65137198023252,0.0 -78.94019202934588,33.651364685321305,0.0 -78.94018316545959,33.65133770203818,0.0 -78.94013413893369,33.65131048284787,0.0 -78.94012747135824,33.651306088858696,0.0 -78.94012707977033,33.65129965704021,0.0 -78.94011798012501,33.65128961702948,0.0 -78.94010535088736,33.65128514574484,0.0 -78.94010488072433,33.65127298671459,0.0 -78.94010660557863,33.65126679064642,0.0 -78.94012574659568,33.65121870598532,0.0 -78.94013837584986,33.651206311267465,0.0 -78.94014629810415,33.65120489946986,0.0 -78.94016394736153,33.65119187874769,0.0 -78.94016692820793,33.651176347316884,0.0 -78.94020489453253,33.65115830538229,0.0 -78.94023642765455,33.65119697761364,0.0 -78.9403004356338,33.65119721361907,0.0 -78.9403175361243,33.65119548753711,0.0 -78.9403581689357,33.651199017280355,0.0 -78.94035377629686,33.65117132810049,0.0 -78.94034051973178,33.65115744286497,0.0 -78.94033502956393,33.6511474814497,0.0 -78.9403420101618,33.65114269592381,0.0 -78.94034726590847,33.65114089252214,0.0 -78.94038491789136,33.65114175575354,0.0</coordinates>
                    </LinearRing>
                </outerBoundaryIs>
            </Polygon>
        </Placemark>
    </Document>
</kml>
