<?xml version="1.0" encoding="UTF-8"?>
<kml xmlns="http://www.opengis.net/kml/2.2" xmlns:gx="http://www.google.com/kml/ext/2.2">
    <Document id="3681">
        <Style id="3688">
            <LineStyle id="3690">
                <colorMode>normal</colorMode>
                <width>1</width>
            </LineStyle>
            <PolyStyle id="3689">
                <color>80ebce87</color>
                <colorMode>normal</colorMode>
                <fill>1</fill>
                <outline>1</outline>
            </PolyStyle>
        </Style>
        <Style id="3697">
            <LineStyle id="3699">
                <colorMode>normal</colorMode>
                <width>1</width>
            </LineStyle>
            <PolyStyle id="3698">
                <color>80ebce87</color>
                <colorMode>normal</colorMode>
                <fill>1</fill>
                <outline>1</outline>
            </PolyStyle>
        </Style>
        <Style id="3706">
            <LineStyle id="3708">
                <colorMode>normal</colorMode>
                <width>1</width>
            </LineStyle>
            <PolyStyle id="3707">
                <color>80ebce87</color>
                <colorMode>normal</colorMode>
                <fill>1</fill>
                <outline>1</outline>
            </PolyStyle>
        </Style>
        <Style id="3715">
            <LineStyle id="3717">
                <colorMode>normal</colorMode>
                <width>1</width>
            </LineStyle>
            <PolyStyle id="3716">
                <color>80ebce87</color>
                <colorMode>normal</colorMode>
                <fill>1</fill>
                <outline>1</outline>
            </PolyStyle>
        </Style>
        <Style id="3724">
            <LineStyle id="3726">
                <colorMode>normal</colorMode>
                <width>1</width>
            </LineStyle>
            <PolyStyle id="3725">
                <color>80ebce87</color>
                <colorMode>normal</colorMode>
                <fill>1</fill>
                <outline>1</outline>
            </PolyStyle>
        </Style>
        <Style id="3733">
            <LineStyle id="3735">
                <colorMode>normal</colorMode>
                <width>1</width>
            </LineStyle>
            <PolyStyle id="3734">
                <color>80ebce87</color>
                <colorMode>normal</colorMode>
                <fill>1</fill>
                <outline>1</outline>
            </PolyStyle>
        </Style>
        <Style id="3742">
            <LineStyle id="3744">
                <colorMode>normal</colorMode>
                <width>1</width>
            </LineStyle>
            <PolyStyle id="3743">
                <color>80ebce87</color>
                <colorMode>normal</colorMode>
                <fill>1</fill>
                <outline>1</outline>
            </PolyStyle>
        </Style>
        <Style id="3751">
            <LineStyle id="3753">
                <colorMode>normal</colorMode>
                <width>1</width>
            </LineStyle>
            <PolyStyle id="3752">
                <color>80ebce87</color>
                <colorMode>normal</colorMode>
                <fill>1</fill>
                <outline>1</outline>
            </PolyStyle>
        </Style>
        <Style id="3760">
            <LineStyle id="3762">
                <colorMode>normal</colorMode>
                <width>1</width>
            </LineStyle>
            <PolyStyle id="3761">
                <color>80ebce87</color>
                <colorMode>normal</colorMode>
                <fill>1</fill>
                <outline>1</outline>
            </PolyStyle>
        </Style>
        <Style id="3769">
            <LineStyle id="3771">
                <colorMode>normal</colorMode>
                <width>1</width>
            </LineStyle>
            <PolyStyle id="3770">
                <color>80ebce87</color>
                <colorMode>normal</colorMode>
                <fill>1</fill>
                <outline>1</outline>
            </PolyStyle>
        </Style>
        <Placemark id="3683">
            <name>Flood_400</name>
            <styleUrl>#3688</styleUrl>
            <Polygon id="3682">
                <outerBoundaryIs>
                    <LinearRing id="3686">
                        <coordinates>-78.93872796132455,33.67966344741861,0.0 -78.93874717958596,33.679647524467676,0.0 -78.93874490470459,33.67961426524604,0.0 -78.9387235687338,33.67958649610033,0.0 -78.93865422647036,33.6795274294252,0.0 -78.93864551971167,33.67953299943704,0.0 -78.93860959255773,33.679542726238935,0.0 -78.9385819032938,33.67955025544171,0.0 -78.938565743185,33.67951621166314,0.0 -78.93852283548311,33.67947879535189,0.0 -78.93855436997016,33.67946883278891,0.0 -78.93856684205255,33.67947001024226,0.0 -78.93857931413048,33.67947557903796,0.0 -78.93863234045233,33.67948114932231,0.0 -78.9386579132632,33.679483815934695,0.0 -78.9386896036068,33.67946914770803,0.0 -78.93872427479037,33.67944647868623,0.0 -78.93874906312608,33.67942561304417,0.0 -78.93879291124895,33.67939180527206,0.0 -78.93881895426216,33.67936693857656,0.0 -78.93888162905765,33.67931155922077,0.0 -78.9389133207141,33.67929367443077,0.0 -78.93895881640988,33.679264573639905,0.0 -78.93896893499688,33.679265906934205,0.0 -78.93898336898913,33.67925774902868,0.0 -78.93900439065703,33.67926504401452,0.0 -78.93901827588195,33.679268416490416,0.0 -78.93901945196812,33.679275006783115,0.0 -78.93908055766998,33.679317443161324,0.0 -78.93908863839359,33.6793200324257,0.0 -78.93910558171302,33.67933203305795,0.0 -78.93915303794202,33.67936137131032,0.0 -78.93916143168437,33.67935870353815,0.0 -78.93917304069227,33.679355016852575,0.0 -78.9392071631,33.67935227192315,0.0 -78.93922944076103,33.67934944836087,0.0 -78.93924826740749,33.67935431126943,0.0 -78.93926238706558,33.67935729215342,0.0 -78.93930749112299,33.67937266663424,0.0 -78.93931305988008,33.679375334468034,0.0 -78.9393162764536,33.679376118977856,0.0 -78.93932223811368,33.67937980574097,0.0 -78.9393685968189,33.6794212231267,0.0 -78.93937000865166,33.679423655200495,0.0 -78.9393767548089,33.67942859663634,0.0 -78.93938522709503,33.67946342487687,0.0 -78.93935502587561,33.67945997243871,0.0 -78.9393383968814,33.67944593133329,0.0 -78.93929690096593,33.67945762000471,0.0 -78.93924418765795,33.67945157954826,0.0 -78.93923383333015,33.67944852010029,0.0 -78.93923108823842,33.679450873575234,0.0 -78.9392015156375,33.67947566036503,0.0 -78.93919829906055,33.67947832816005,0.0 -78.93917068836248,33.679500997213026,0.0 -78.93915774478393,33.67951143003167,0.0 -78.93913876226533,33.6795268828102,0.0 -78.93910314941532,33.679556219386306,0.0 -78.9390986781639,33.679559906103364,0.0 -78.93907012580466,33.67958375255052,0.0 -78.9390634582177,33.67958940115188,0.0 -78.93907561596708,33.67960046141596,0.0 -78.93908597027966,33.679618816565096,0.0 -78.9390960888549,33.679632073146145,0.0 -78.93910401240471,33.67964697728933,0.0 -78.9391080907451,33.67965050688315,0.0 -78.93911154305876,33.679653566300566,0.0 -78.93909891378703,33.679680470910576,0.0 -78.93908400959592,33.67971247538719,0.0 -78.93908730343809,33.67971577054549,0.0 -78.93909169609775,33.679723222618996,0.0 -78.93910314921693,33.67975679489384,0.0 -78.9390735766275,33.67976989544811,0.0 -78.93905255362425,33.67978848489061,0.0 -78.93895324710415,33.679815860600826,0.0 -78.93886468524396,33.67979828960191,0.0 -78.93885456665924,33.67979460282042,0.0 -78.93884052558415,33.67978942561078,0.0 -78.93875690645278,33.67977577711201,0.0 -78.93875580763525,33.679771618887216,0.0 -78.93872796132455,33.67966344741861,0.0</coordinates>
                    </LinearRing>
                </outerBoundaryIs>
            </Polygon>
        </Placemark>
        <Placemark id="3692">
            <name>Flood_401</name>
            <styleUrl>#3697</styleUrl>
            <Polygon id="3691">
                <outerBoundaryIs>
                    <LinearRing id="3695">
                        <coordinates>-78.93804865304966,33.68045060659024,0.0 -78.93804739838056,33.680446213932804,0.0 -78.9380468496311,33.68043962495256,0.0 -78.9380390059912,33.68040542404973,0.0 -78.9380395547505,33.68040205163757,0.0 -78.93803994635039,33.68039656016954,0.0 -78.93804002493358,33.680394129412086,0.0 -78.93804026067988,33.680390206934796,0.0 -78.93803986777822,33.68038785344603,0.0 -78.93803955476734,33.68038518694517,0.0 -78.93803829878735,33.68038197037639,0.0 -78.93803649536098,33.68037883238569,0.0 -78.93803469062357,33.680377028954425,0.0 -78.93802527800189,33.680327766775555,0.0 -78.93802323883149,33.68032627635571,0.0 -78.93802017942068,33.680324394338406,0.0 -78.93801657125351,33.680322825331125,0.0 -78.93801382616509,33.680321805081704,0.0 -78.93801084533409,33.680320864721445,0.0 -78.93800786450304,33.68032000163207,0.0 -78.93800480509103,33.68031929570332,0.0 -78.93794958116627,33.68027301414351,0.0 -78.93794667891535,33.6802727796988,0.0 -78.93794252199125,33.680272308197175,0.0 -78.93793459972922,33.6802793686232,0.0 -78.93789373111967,33.680321491538066,0.0 -78.93789122046314,33.68032125578539,0.0 -78.93788886696831,33.68032094276243,0.0 -78.93788627904047,33.68032086417048,0.0 -78.93788400412626,33.68032078557993,0.0 -78.93788008163448,33.680320706981995,0.0 -78.93787506163042,33.680320942701364,0.0 -78.93787113913832,33.68032117711598,0.0 -78.93786878695256,33.68032149142773,0.0 -78.93786643345686,33.68032204017136,0.0 -78.93786360978618,33.68032243306154,0.0 -78.93786031463068,33.680322746059424,0.0 -78.93784580337885,33.68031913783907,0.0 -78.93784321414294,33.68031741167513,0.0 -78.93784062621668,33.68031584267237,0.0 -78.93783803698064,33.68031435225009,0.0 -78.93783513473097,33.68031286182653,0.0 -78.93783262407555,33.680311607146194,0.0 -78.93782972182548,33.68031050962519,0.0 -78.93782744691238,33.68030933221686,0.0 -78.9378246232431,33.68030831327671,0.0 -78.93782179957365,33.680307450188025,0.0 -78.93776485076381,33.68029756581455,0.0 -78.93776234141731,33.68029701704941,0.0 -78.93775873193928,33.68029670271128,0.0 -78.9377432004435,33.680296232469054,0.0 -78.93766734770168,33.68029568337955,0.0 -78.93765158046342,33.68029529040715,0.0 -78.93756090215022,33.68028752493959,0.0 -78.93757533489666,33.68021590801408,0.0 -78.93759314131765,33.680205553797705,0.0 -78.93763589191647,33.68018445249392,0.0 -78.93766217065516,33.68017700055612,0.0 -78.937701783209,33.68020735770146,0.0 -78.93775936064432,33.68023810782882,0.0 -78.93777285167764,33.680219517043646,0.0 -78.93782415316686,33.6802093974074,0.0 -78.93776085112353,33.68017488324701,0.0 -78.93770852945362,33.68012499354396,0.0 -78.93772296347112,33.68009189155764,0.0 -78.93776304754958,33.680082400515985,0.0 -78.93779897339286,33.68007385111264,0.0 -78.93779505093089,33.68004396429863,0.0 -78.93780375902628,33.68001156820207,0.0 -78.937765243974,33.679991565356765,0.0 -78.93769550875533,33.6799838772529,0.0 -78.93766695511799,33.6799758763186,0.0 -78.93764867854905,33.679959090126,0.0 -78.93764954164347,33.67994387169967,0.0 -78.93762436180177,33.67987617707736,0.0 -78.93757251164308,33.67980016720708,0.0 -78.93755925506863,33.67979263651394,0.0 -78.93754042975483,33.67976486737962,0.0 -78.93757345334132,33.67976196528445,0.0 -78.93759769162234,33.67973043233272,0.0 -78.93767252542177,33.67974172861508,0.0 -78.9377244542226,33.679756554371934,0.0 -78.93769488169035,33.679712390671305,0.0 -78.93775732072451,33.67967662239736,0.0 -78.93780014985086,33.67970862581891,0.0 -78.93781474098581,33.679719607513114,0.0 -78.93778587426083,33.67978565563449,0.0 -78.93787098384334,33.679764005763566,0.0 -78.93793287403989,33.67980989444984,0.0 -78.9378671398402,33.67985609689447,0.0 -78.93780085565393,33.679823073131935,0.0 -78.93777340208428,33.679878687074265,0.0 -78.9378657279484,33.67991280976969,0.0 -78.93792518609638,33.67993132229678,0.0 -78.9378964766497,33.67988072809262,0.0 -78.93797350682853,33.679846213242804,0.0 -78.93808795315977,33.679910144252254,0.0 -78.93811580086589,33.67993187320276,0.0 -78.93811854595462,33.67993257913001,0.0 -78.93813705826578,33.67994967833628,0.0 -78.9381951831241,33.68000372497539,0.0 -78.93824601437922,33.68005267301523,0.0 -78.93825801493733,33.68009338433373,0.0 -78.93826562415313,33.68011911294417,0.0 -78.93833065239168,33.68011668247384,0.0 -78.93834336021807,33.680116211046766,0.0 -78.93835755845116,33.68012515357441,0.0 -78.93836822578751,33.68013315442973,0.0 -78.93837410882007,33.6801838284234,0.0 -78.93843694202955,33.680186730942296,0.0 -78.93846690618494,33.680202419678686,0.0 -78.93847153459133,33.6802054791013,0.0 -78.9385080877391,33.68022940310688,0.0 -78.93844706044773,33.68035796976017,0.0 -78.93843207770567,33.6803596159561,0.0 -78.93841176192356,33.680384168354315,0.0 -78.93834688950233,33.68042119259616,0.0 -78.93826452631157,33.68044998021071,0.0 -78.93824758298041,33.68044966712329,0.0 -78.93824373905515,33.680463863989615,0.0 -78.93822201009056,33.680526146825486,0.0 -78.93813070443636,33.6805223811041,0.0 -78.93809956288908,33.680496182216075,0.0 -78.93806897009773,33.68046998202063,0.0 -78.93806693092743,33.680468413020286,0.0 -78.93806434169153,33.68046676543702,0.0 -78.93805940027207,33.68046315725889,0.0 -78.93804865304966,33.68045060659024,0.0</coordinates>
                    </LinearRing>
                </outerBoundaryIs>
            </Polygon>
        </Placemark>
        <Placemark id="3701">
            <name>Flood_402</name>
            <styleUrl>#3706</styleUrl>
            <Polygon id="3700">
                <outerBoundaryIs>
                    <LinearRing id="3704">
                        <coordinates>-78.92693554598213,33.68518105923303,0.0 -78.92678391814077,33.68483528852595,0.0 -78.92677850526132,33.68480916702531,0.0 -78.92678423126138,33.684737471489065,0.0 -78.92677677919433,33.68472562675117,0.0 -78.92676995578908,33.68469974098587,0.0 -78.92675842411768,33.68464279231776,0.0 -78.92670798578845,33.68457650941908,0.0 -78.92670131821504,33.68456905733615,0.0 -78.92669535656619,33.68455517213069,0.0 -78.92669308166107,33.684546701139844,0.0 -78.926674492138,33.684476495905606,0.0 -78.92661401249326,33.684408329648974,0.0 -78.9266056200745,33.6843977395761,0.0 -78.92660389393544,33.68438009038238,0.0 -78.92660326666508,33.68431945502677,0.0 -78.92659400987445,33.68429333350903,0.0 -78.92659448136631,33.68428690169517,0.0 -78.92659714795307,33.68421583347984,0.0 -78.92659628488032,33.68420995041398,0.0 -78.92658655795697,33.684145079527475,0.0 -78.92655988898946,33.68410020992842,0.0 -78.92655816284075,33.68409126876664,0.0 -78.92655267138404,33.68406200928341,0.0 -78.92652066806713,33.68403737807497,0.0 -78.92649580124815,33.68396638831745,0.0 -78.92649893930505,33.68390873379989,0.0 -78.92649172299942,33.68387963277984,0.0 -78.92649078140225,33.6838223698371,0.0 -78.92645234499123,33.68374792902438,0.0 -78.92648999705416,33.683685331945675,0.0 -78.9265005871471,33.6836676042264,0.0 -78.92651627582582,33.68364909203424,0.0 -78.92652553137704,33.68361104862377,0.0 -78.92653149306824,33.683586260423624,0.0 -78.926582088602,33.683612930879384,0.0 -78.92663017353783,33.68358586927042,0.0 -78.92669614213905,33.68357418202098,0.0 -78.92670077058006,33.68354547133689,0.0 -78.92669245548493,33.68348703227265,0.0 -78.92667959185499,33.683442869959975,0.0 -78.92673175508341,33.68346263712361,0.0 -78.92677670201716,33.683443184714754,0.0 -78.9268120804467,33.68340663052157,0.0 -78.92681843371739,33.68339533459923,0.0 -78.92683200462074,33.6833973751341,0.0 -78.92685279185292,33.683407258037384,0.0 -78.92688714865251,33.68344326378741,0.0 -78.92692911471221,33.68346232499052,0.0 -78.92694801993078,33.68347526728733,0.0 -78.92694519625181,33.68348311223062,0.0 -78.92694221541089,33.683491270185534,0.0 -78.92693617515899,33.68349778055519,0.0 -78.9269319396417,33.6835085264232,0.0 -78.92692770281498,33.68351903785928,0.0 -78.9268839319761,33.68353652968931,0.0 -78.92682800336664,33.68356304381908,0.0 -78.9268037651296,33.6835508846844,0.0 -78.92679341077097,33.68357598587755,0.0 -78.92683161151622,33.683580535860145,0.0 -78.92684832039708,33.68359732204465,0.0 -78.92692503618436,33.68363050301351,0.0 -78.92699014300513,33.683628857041704,0.0 -78.92700591023521,33.68363709366076,0.0 -78.92702332373237,33.683646192053544,0.0 -78.92703760054287,33.68365780238998,0.0 -78.92704316928666,33.68367254936008,0.0 -78.92704811200537,33.68368557017528,0.0 -78.92707995812691,33.68374102852336,0.0 -78.92709062675516,33.68376503230216,0.0 -78.9271157280628,33.68378503508694,0.0 -78.92712953336077,33.68382198109252,0.0 -78.9271314166731,33.68382904025139,0.0 -78.92714388869756,33.68388363543714,0.0 -78.92716397000501,33.683900187204785,0.0 -78.92719879828879,33.683937054723586,0.0 -78.92721032870402,33.683944977001694,0.0 -78.92721597735014,33.683948978085276,0.0 -78.92725292339789,33.68397549131965,0.0 -78.92731332322242,33.683979335486406,0.0 -78.92735850585612,33.683999024038826,0.0 -78.92737035055437,33.684043893571996,0.0 -78.9273091662006,33.68406836720389,0.0 -78.92729496795977,33.684066954000755,0.0 -78.92721080006535,33.684058246902936,0.0 -78.92719864098981,33.68406287524162,0.0 -78.92717071597943,33.68407244491542,0.0 -78.92720993694738,33.684093781012976,0.0 -78.92726210017123,33.68411801940894,0.0 -78.92730861610852,33.68409260536467,0.0 -78.92732328584168,33.684087192541554,0.0 -78.92740651204659,33.684123041348904,0.0 -78.92745138037957,33.68412209989254,0.0 -78.92746055857707,33.68415975179259,0.0 -78.92747977675425,33.68422328947246,0.0 -78.92748966088915,33.68424274343554,0.0 -78.92750189721194,33.684259999773715,0.0 -78.9275568854599,33.68424384124355,0.0 -78.9275782214799,33.68422478032251,0.0 -78.9276011264649,33.68423489897724,0.0 -78.92761367713031,33.6842343502792,0.0 -78.92769988420879,33.684232075757784,0.0 -78.92771925960103,33.6842465883578,0.0 -78.92772553556406,33.68426886465538,0.0 -78.92765046598974,33.68428565173999,0.0 -78.92760010617774,33.68427749354692,0.0 -78.92759037916257,33.68429663310036,0.0 -78.9275753191179,33.684326597097424,0.0 -78.92759830266611,33.68435303299883,0.0 -78.92765768222681,33.68437813450337,0.0 -78.92771557269009,33.68439507803302,0.0 -78.92776459923799,33.68441225726466,0.0 -78.92779401464499,33.684420571215725,0.0 -78.92781331141035,33.68447759849959,0.0 -78.92781935163559,33.684495640615424,0.0 -78.9277951918812,33.68457368930575,0.0 -78.92779401447088,33.684580906921795,0.0 -78.92778993611827,33.68458890771086,0.0 -78.92775228408046,33.68462875572767,0.0 -78.92772129832505,33.684658955395136,0.0 -78.92772067095946,33.68468546846194,0.0 -78.9277436544752,33.68474178984733,0.0 -78.92778436579673,33.68482085906457,0.0 -78.92778530745005,33.684827056452995,0.0 -78.92771925894266,33.68485254899022,0.0 -78.92773706529628,33.68490565509916,0.0 -78.92776334400642,33.68492604948263,0.0 -78.92777950282903,33.68493624668787,0.0 -78.92780476129175,33.68496260401907,0.0 -78.92778538588134,33.68496472167757,0.0 -78.92776193205182,33.68503594565216,0.0 -78.92776067604777,33.685055086553135,0.0 -78.9277525180413,33.68506324448502,0.0 -78.92771510165291,33.68518843619291,0.0 -78.92770851262804,33.68521055658164,0.0 -78.92767572336565,33.68531182577857,0.0 -78.92767384134865,33.68531794326415,0.0 -78.92766827126788,33.68532814037213,0.0 -78.92764921014484,33.6853631256469,0.0 -78.92764246397024,33.6853742644063,0.0 -78.92763681662395,33.68537928436698,0.0 -78.92762285407085,33.68542799768246,0.0 -78.92761179379097,33.685456549867176,0.0 -78.9275935158596,33.68548878875594,0.0 -78.9275811223694,33.68547670956383,0.0 -78.9275313113187,33.68546321706452,0.0 -78.92746973542619,33.68543591922383,0.0 -78.92746173328729,33.68542964322325,0.0 -78.9274484767137,33.685421406615184,0.0 -78.9274026667522,33.68539293275648,0.0 -78.92733991347367,33.68535065222362,0.0 -78.92732908897099,33.68534712259981,0.0 -78.92729402491655,33.68533574791181,0.0 -78.92719322673214,33.6853000561858,0.0 -78.92718326530868,33.68529652656594,0.0 -78.92717306814018,33.68529542901238,0.0 -78.92713643508479,33.685287976795195,0.0 -78.92709941044644,33.68526993454081,0.0 -78.92708764428124,33.685268758399644,0.0 -78.92708081953877,33.6852679738735,0.0 -78.92708144688399,33.68526036466206,0.0 -78.92704128558073,33.68522490894913,0.0 -78.92703610841943,33.6852209078675,0.0 -78.92699053289824,33.68518568787202,0.0 -78.92695319522886,33.68518380570135,0.0 -78.92693554598213,33.68518105923303,0.0</coordinates>
                    </LinearRing>
                </outerBoundaryIs>
            </Polygon>
        </Placemark>
        <Placemark id="3710">
            <name>Flood_403</name>
            <styleUrl>#3715</styleUrl>
            <Polygon id="3709">
                <outerBoundaryIs>
                    <LinearRing id="3713">
                        <coordinates>-78.8868416019618,33.68488288038796,0.0 -78.88684638622333,33.68488288040934,0.0 -78.88685164196961,33.68488303759384,0.0 -78.8868539168839,33.684883116184466,0.0 -78.8868651342927,33.68488429232273,0.0 -78.88686842813753,33.68488476382037,0.0 -78.88687846945281,33.684886488707114,0.0 -78.88688097879938,33.68488696020133,0.0 -78.88689172603078,33.684889626747356,0.0 -78.88689407952523,33.68489017551171,0.0 -78.88690576710562,33.684893862298765,0.0 -78.88690827776107,33.68489480396619,0.0 -78.88692035693417,33.68489966684303,0.0 -78.88693251599655,33.684905315525235,0.0 -78.8869347123288,33.68490625719126,0.0 -78.8869449880716,33.684911590233334,0.0 -78.88694702724199,33.684912689059644,0.0 -78.88694906641247,33.68491378657634,0.0 -78.8869597350585,33.68491966968362,0.0 -78.88696224571333,33.68492108283405,0.0 -78.88698436619242,33.68493410372071,0.0 -78.88698742560265,33.68493590715671,0.0 -78.8870114280897,33.68495057693245,0.0 -78.88701448749983,33.684952458948906,0.0 -78.8870377067984,33.684966970250535,0.0 -78.8870398245493,33.68496830481865,0.0 -78.8870613176904,33.68498211019783,0.0 -78.88706390561593,33.684983836360885,0.0 -78.88707355402043,33.684990268217376,0.0 -78.88707582893267,33.68499175863758,0.0 -78.88708508574264,33.684998269072864,0.0 -78.88708735934492,33.68499999523452,0.0 -78.88709716490985,33.685007211587,0.0 -78.887098969647,33.68500870200511,0.0 -78.88710665615068,33.68501505527237,0.0 -78.88710908822354,33.68501725291773,0.0 -78.88711308929092,33.68502109552173,0.0 -78.88711583437653,33.68502384192225,0.0 -78.88711779496471,33.68502595967534,0.0 -78.88712461969577,33.68503450926354,0.0 -78.88712736477812,33.685039529259676,0.0 -78.8871294838344,33.68504384464787,0.0 -78.88713026701986,33.685046118247,0.0 -78.88713105151247,33.68505019788778,0.0 -78.88713191458537,33.685054590541206,0.0 -78.88713215032384,33.68505733562088,0.0 -78.88713207173699,33.6850615724188,0.0 -78.88713191456873,33.68506619949942,0.0 -78.88712979679812,33.68507859425315,0.0 -78.88712697311229,33.685089340122985,0.0 -78.88712611002947,33.68509185076591,0.0 -78.88712226610278,33.685102675211624,0.0 -78.88712140302033,33.68510487153255,0.0 -78.88711685448577,33.68511561870439,0.0 -78.88711575566067,33.68511804945608,0.0 -78.88711065706067,33.68512863946445,0.0 -78.88710414662289,33.68514095430828,0.0 -78.88709810636338,33.68515115271959,0.0 -78.88709669452507,33.685153349038146,0.0 -78.88708884952456,33.68516480080026,0.0 -78.88708124157844,33.68517460630219,0.0 -78.88707982974081,33.685176331137654,0.0 -78.88707151456784,33.6851859022045,0.0 -78.88706249347673,33.685195706390395,0.0 -78.88706045430172,33.6851978241256,0.0 -78.88705300221078,33.68520543330336,0.0 -78.88705088445501,33.685207472457755,0.0 -78.88703299943775,33.68522496570515,0.0 -78.88703064593936,33.685227162019416,0.0 -78.88701127050497,33.685245438445804,0.0 -78.88700876115443,33.685247791920354,0.0 -78.88698020746999,33.6852740691096,0.0 -78.88697777670043,33.685276265423504,0.0 -78.88695785251085,33.6852939930936,0.0 -78.88695581202667,33.685295719236045,0.0 -78.88694679224831,33.68530348556768,0.0 -78.8869443601693,33.68530552472066,0.0 -78.88692427881999,33.685321919141,0.0 -78.88692176816028,33.68532387971309,0.0 -78.88690341297223,33.685338312248206,0.0 -78.88690121663625,33.68533995980941,0.0 -78.88689274561585,33.685346314314,0.0 -78.88689031353724,33.685348117725525,0.0 -78.88688184120777,33.68535407932766,0.0 -78.88687995919554,33.685355333987815,0.0 -78.88687156544775,33.685360668256,0.0 -78.88686952627405,33.68536184564463,0.0 -78.88685995643375,33.68536702274664,0.0 -78.88685697559985,33.685368355982334,0.0 -78.8868532102671,33.68536992495597,0.0 -78.88684968067706,33.68537133676967,0.0 -78.88684740576156,33.68537212125477,0.0 -78.8868376787631,33.6853747877093,0.0 -78.88683532526717,33.68537533645261,0.0 -78.88682583401311,33.685376670968786,0.0 -78.88682324608477,33.68537690538904,0.0 -78.88681398926518,33.68537706250852,0.0 -78.88681140133735,33.68537698391649,0.0 -78.88680183019633,33.68537588636616,0.0 -78.88679147586858,33.6853734542535,0.0 -78.88678880936091,33.685372669746286,0.0 -78.88678402510219,33.685370630561096,0.0 -78.88677869077837,33.68536827705145,0.0 -78.88677225763476,33.6853645117074,0.0 -78.88676708047369,33.68536137370317,0.0 -78.88675719763764,33.685354078769876,0.0 -78.88675547148137,33.68535258835212,0.0 -78.88674762781659,33.68534584218169,0.0 -78.88674558864709,33.68534411733071,0.0 -78.88673601751752,33.68533509624732,0.0 -78.8867271536152,33.68532607516701,0.0 -78.88672527160767,33.68532403599482,0.0 -78.88671774095826,33.68531603515723,0.0 -78.88671554462813,33.68531368166162,0.0 -78.88669915007887,33.68529493359234,0.0 -78.88669734665223,33.6852928944205,0.0 -78.88668942310126,33.68528316742967,0.0 -78.88668048193139,33.68527163701196,0.0 -78.88667255838276,33.68526034103065,0.0 -78.88666589081676,33.6852494379574,0.0 -78.88666306715434,33.68524386789749,0.0 -78.88666118514939,33.68524010257372,0.0 -78.88666024349226,33.68523806340573,0.0 -78.88665820432853,33.685232337498036,0.0 -78.88665639959676,33.685227160345136,0.0 -78.88665585084411,33.6852248068569,0.0 -78.88665514493194,33.68522104153849,0.0 -78.886654046119,33.685215001313,0.0 -78.88665349737752,33.68520488276242,0.0 -78.88665341880116,33.68520182336155,0.0 -78.88665396757334,33.68519052741806,0.0 -78.88665530215516,33.685178212551136,0.0 -78.88665718418287,33.68516613211841,0.0 -78.88665773294262,33.68516354420326,0.0 -78.88666236138464,33.68514103091279,0.0 -78.88666283156297,33.68513883459011,0.0 -78.88666840166582,33.68511577254993,0.0 -78.88666918616833,33.685112948894385,0.0 -78.8866753822975,33.68509043692053,0.0 -78.88667891321191,33.685078748087996,0.0 -78.88667977498523,33.68507616017425,0.0 -78.88668338447927,33.68506533572753,0.0 -78.88668424625227,33.68506290366507,0.0 -78.88668840450248,33.68505200064034,0.0 -78.88669358168572,33.68503976306134,0.0 -78.88669852312333,33.68502972311576,0.0 -78.88669985638143,33.6850271338945,0.0 -78.88670511214148,33.68501772128462,0.0 -78.886706368128,33.68501544638492,0.0 -78.88671232849671,33.68500548371473,0.0 -78.88671389749723,33.68500289580423,0.0 -78.88672723269023,33.684982265864974,0.0 -78.8867288802714,33.684979755225655,0.0 -78.88674197971945,33.68496085143691,0.0 -78.88674354871948,33.684958655119146,0.0 -78.88675154957146,33.68494751637005,0.0 -78.88675821716576,33.68493873110067,0.0 -78.88675986474634,33.684936690634636,0.0 -78.8867670038259,33.68492759235507,0.0 -78.88676849424442,33.68492586621026,0.0 -78.88677563201301,33.684917629696805,0.0 -78.88677720101226,33.68491590486196,0.0 -78.88678496611745,33.68490790278315,0.0 -78.88679453596235,33.68489951042929,0.0 -78.8867997917142,33.68489574513752,0.0 -78.88680418438567,33.684892764337086,0.0 -78.88681046037756,33.68488954780362,0.0 -78.88681469588606,33.68488758723923,0.0 -78.88681681363991,33.68488680275341,0.0 -78.88682152063218,33.68488554810597,0.0 -78.88682607046262,33.68488444930902,0.0 -78.88682850122967,33.6848839791466,0.0 -78.88683383555774,33.684883429107074,0.0 -78.88683932704724,33.68488295895834,0.0 -78.8868416019618,33.68488288038796,0.0</coordinates>
                    </LinearRing>
                </outerBoundaryIs>
            </Polygon>
        </Placemark>
        <Placemark id="3719">
            <name>Flood_404</name>
            <styleUrl>#3724</styleUrl>
            <Polygon id="3718">
                <outerBoundaryIs>
                    <LinearRing id="3722">
                        <coordinates>-78.92889157162513,33.686398953524424,0.0 -78.92892153698375,33.68651379255115,0.0 -78.92891102548789,33.686516459003215,0.0 -78.92875806402151,33.686507594433465,0.0 -78.9287464550124,33.68651143827877,0.0 -78.9287293544692,33.686557090868995,0.0 -78.92863098830625,33.68657058270408,0.0 -78.92865726579205,33.686512222374205,0.0 -78.92868095531452,33.68648664975751,0.0 -78.92870629240059,33.6864740992514,0.0 -78.92873162948676,33.68646147016469,0.0 -78.92879697079651,33.6864089930721,0.0 -78.92883313238285,33.68640224709606,0.0 -78.92889157162513,33.686398953524424,0.0</coordinates>
                    </LinearRing>
                </outerBoundaryIs>
            </Polygon>
        </Placemark>
        <Placemark id="3728">
            <name>Flood_405</name>
            <styleUrl>#3733</styleUrl>
            <Polygon id="3727">
                <outerBoundaryIs>
                    <LinearRing id="3731">
                        <coordinates>-78.82662970348395,33.74086784595525,0.0 -78.82663197839973,33.74086768880583,0.0 -78.82663425331482,33.74086792455863,0.0 -78.82663817580782,33.74086839475142,0.0 -78.82664068515525,33.74086886624671,0.0 -78.82664727415523,33.740870905442485,0.0 -78.82664994197287,33.74087200427256,0.0 -78.82665355014,33.740873729131486,0.0 -78.82665911889721,33.74087655281691,0.0 -78.82666861014191,33.74088267166216,0.0 -78.82667912162462,33.740890438082474,0.0 -78.82668131795576,33.74089224151476,0.0 -78.82671034174545,33.74091585246552,0.0 -78.8267127738191,33.74091765720863,0.0 -78.8267218721582,33.740924481966104,0.0 -78.82672406849011,33.74092589380589,0.0 -78.8267342669613,33.740932561408115,0.0 -78.82674564021693,33.74093883611399,0.0 -78.82674768069745,33.74093993494081,0.0 -78.8267599956143,33.74094581805902,0.0 -78.82679592143698,33.74096158409691,0.0 -78.82679882368687,33.740962997249895,0.0 -78.82680910074218,33.74096801728252,0.0 -78.82681153150719,33.7409692719625,0.0 -78.82682133707614,33.740974919326646,0.0 -78.82682329766553,33.740976332474865,0.0 -78.82682667139832,33.74097884182742,0.0 -78.82683114264198,33.740982215570426,0.0 -78.8268380446465,33.7409889604268,0.0 -78.82684353612595,33.74099515783219,0.0 -78.82684518370063,33.74099704115183,0.0 -78.82687381456489,33.74103155513734,0.0 -78.82687577515208,33.741034064482754,0.0 -78.8268823641387,33.74104300697068,0.0 -78.82690597630862,33.741076266262986,0.0 -78.82691374138682,33.741086071832065,0.0 -78.82692229227445,33.741095407232045,0.0 -78.82692770386608,33.74110019149872,0.0 -78.8269317835149,33.74110372109104,0.0 -78.8269339012656,33.74110529009124,0.0 -78.82694072600333,33.74110983993346,0.0 -78.82695743358164,33.741119802708525,0.0 -78.82696559157158,33.7411257643861,0.0 -78.82697061156853,33.741130627231286,0.0 -78.8269723377235,33.74113282356351,0.0 -78.82697586730342,33.741137843561994,0.0 -78.82697727913414,33.74114051137525,0.0 -78.82697916244639,33.74114498261209,0.0 -78.8269799469404,33.74114741337107,0.0 -78.82698073012108,33.741151727441455,0.0 -78.82698096585895,33.741154159507374,0.0 -78.82698025992788,33.741160905635056,0.0 -78.82697837790752,33.741165534013774,0.0 -78.82697649457846,33.7411696909097,0.0 -78.82697523990056,33.74117157421468,0.0 -78.82697312214138,33.741174319280894,0.0 -78.82697108296306,33.74117706434742,0.0 -78.82696904247574,33.74117949640192,0.0 -78.82696174753951,33.741186791249625,0.0 -78.82695970836305,33.74118859597024,0.0 -78.82695162892902,33.74119541933126,0.0 -78.82694982418612,33.74119683115085,0.0 -78.82693939125342,33.741204833206716,0.0 -78.82692840956497,33.74121259820878,0.0 -78.82692605606555,33.7412141671865,0.0 -78.82690370109472,33.74122930690586,0.0 -78.82690173919049,33.74123056156366,0.0 -78.8268657347105,33.74125393644468,0.0 -78.82686385269704,33.741255113832096,0.0 -78.82682439589561,33.74127997910467,0.0 -78.8268131784667,33.74128664659881,0.0 -78.82681121787225,33.741287822676206,0.0 -78.82680054920068,33.74129394141954,0.0 -78.82679851002534,33.74129511880616,0.0 -78.82678839142123,33.741300451747854,0.0 -78.82678619377486,33.74130147197293,0.0 -78.82677725257626,33.74130555025278,0.0 -78.82677497765872,33.74130657047739,0.0 -78.82676980048704,33.74130837518205,0.0 -78.82676587799037,33.74130978699093,0.0 -78.82676321147886,33.74131057147226,0.0 -78.82675356305697,33.74131237484461,0.0 -78.82675113097964,33.74131245341282,0.0 -78.82674838588898,33.74131229623804,0.0 -78.82674516931328,33.74131214037059,0.0 -78.82674234564259,33.74131159029321,0.0 -78.82673685415551,33.74130931536155,0.0 -78.82673450066144,33.741308139262365,0.0 -78.82672689273691,33.74130241332888,0.0 -78.82671928350705,33.74129448976228,0.0 -78.82671136126747,33.741284528341296,0.0 -78.82668947524992,33.74125479862926,0.0 -78.8266878276756,33.741252680877935,0.0 -78.82667935668103,33.74124209081057,0.0 -78.82666994402554,33.74123165789936,0.0 -78.82666155029762,33.741223344045935,0.0 -78.82665966828958,33.74122169646641,0.0 -78.82665433396814,33.74121738237314,0.0 -78.82665049006094,33.74121440153551,0.0 -78.8266482151486,33.741212753954095,0.0 -78.82664288082518,33.741209458787125,0.0 -78.82663801798626,33.741206477944345,0.0 -78.82663542875,33.741205144683065,0.0 -78.82662483999128,33.741199810327046,0.0 -78.82662264365848,33.74119886996995,0.0 -78.82661017026896,33.741193614184915,0.0 -78.82659738517455,33.74118882857129,0.0 -78.82659401143921,33.741187573886535,0.0 -78.826554947618,33.741173532673436,0.0 -78.82655282986569,33.74117274816802,0.0 -78.82654004346233,33.741167570961814,0.0 -78.82652623813011,33.74116098192176,0.0 -78.8265205122122,33.74115768675291,0.0 -78.82651674688427,33.741155490410485,0.0 -78.82651455055198,33.7411542357316,0.0 -78.82650333315229,33.74114592055429,0.0 -78.82650152841514,33.741144430136075,0.0 -78.8264931359954,33.741136899467755,0.0 -78.82649148842003,33.74113533177954,0.0 -78.82648325185416,33.7411268594564,0.0 -78.82648129126648,33.74112458454259,0.0 -78.82647281896037,33.74111493613097,0.0 -78.82646497530143,33.74110505198112,0.0 -78.82646309198554,33.74110246405571,0.0 -78.82645618998593,33.74109320855422,0.0 -78.82644944383941,33.741083402990334,0.0 -78.82644795342695,33.74108120665949,0.0 -78.82644073579822,33.74106991068411,0.0 -78.82643532421595,33.741060340868344,0.0 -78.8264339123851,33.74105775163561,0.0 -78.82642904825042,33.74104763306922,0.0 -78.82642685192764,33.74104159284131,0.0 -78.82642559726001,33.74103822042419,0.0 -78.82642489134669,33.74103586693631,0.0 -78.82642387111548,33.74103068978964,0.0 -78.82642308662554,33.74102613997797,0.0 -78.82642300804979,33.74102355206158,0.0 -78.82642332238056,33.74101978675025,0.0 -78.82642355812936,33.74101657019193,0.0 -78.8264240283095,33.74101413812959,0.0 -78.82642567589608,33.741009981232324,0.0 -78.82642795082118,33.7410050398436,0.0 -78.82643077450095,33.74100096022315,0.0 -78.82643351959933,33.7409971163436,0.0 -78.82643571593898,33.740994607019196,0.0 -78.82643822660201,33.74099201780617,0.0 -78.82644222637524,33.74098786092095,0.0 -78.82645148321507,33.74097962442748,0.0 -78.82645391529633,33.74097758527718,0.0 -78.82646175898654,33.740971387939155,0.0 -78.8264636423104,33.740969897539564,0.0 -78.82647336801378,33.74096275986497,0.0 -78.8264761144182,33.74096079929682,0.0 -78.82653259185905,33.74092157877262,0.0 -78.8265351811016,33.74091969547438,0.0 -78.82656789173454,33.74089624199637,0.0 -78.82657016665308,33.74089467301825,0.0 -78.82657989235547,33.740888084097136,0.0 -78.82658193284064,33.74088675085923,0.0 -78.82659189428415,33.740880867853605,0.0 -78.8265945621067,33.74087945472876,0.0 -78.82660209146889,33.74087561218298,0.0 -78.82660515088588,33.740874277640614,0.0 -78.82661495647302,33.740870590957606,0.0 -78.82661785872737,33.74086972920676,0.0 -78.82662193838489,33.74086870899125,0.0 -78.82662429057238,33.74086831741054,0.0 -78.82662970348395,33.74086784595525,0.0</coordinates>
                    </LinearRing>
                </outerBoundaryIs>
            </Polygon>
        </Placemark>
        <Placemark id="3737">
            <name>Flood_406</name>
            <styleUrl>#3742</styleUrl>
            <Polygon id="3736">
                <outerBoundaryIs>
                    <LinearRing id="3740">
                        <coordinates>-78.82278902119907,33.744260660219446,0.0 -78.82279270795071,33.744260581657784,0.0 -78.82279655186346,33.74426081610893,0.0 -78.82280259211076,33.744261130461425,0.0 -78.82281506419741,33.74426301252645,0.0 -78.82281726053145,33.74426340543982,0.0 -78.82282832078057,33.74426607199234,0.0 -78.8228306742759,33.74426662075778,0.0 -78.82284149878167,33.74426975879172,0.0 -78.82284447961335,33.744270700462444,0.0 -78.82285663868194,33.74427477884921,0.0 -78.8228587564343,33.744275563354655,0.0 -78.8228697380998,33.74427964304514,0.0 -78.82287185585191,33.74428050613108,0.0 -78.82288472083603,33.74428584049871,0.0 -78.82289593824214,33.744290939116766,0.0 -78.82289805599409,33.7442918794734,0.0 -78.82290809599711,33.744296978085465,0.0 -78.822910919666,33.74429846850887,0.0 -78.82292143115237,33.74430443019841,0.0 -78.82292354890347,33.744305842037825,0.0 -78.82293335447065,33.744312432367366,0.0 -78.82293531506006,33.7443138442059,0.0 -78.82294512062437,33.74432192363478,0.0 -78.82295453328287,33.74433070897594,0.0 -78.82295618085809,33.74433235655426,0.0 -78.8229647317466,33.74434122047154,0.0 -78.82296629943114,33.744342945320234,0.0 -78.82300152059906,33.74438240204853,0.0 -78.82300355976801,33.74438444122141,0.0 -78.82302379822438,33.74440530705076,0.0 -78.82302560165074,33.74440734622245,0.0 -78.82303070022577,33.744413622206274,0.0 -78.82303485844803,33.74442083853128,0.0 -78.82303579879435,33.744423113439886,0.0 -78.82303658328681,33.74442633000327,0.0 -78.823037446359,33.74443009401074,0.0 -78.82303776067651,33.74443307483043,0.0 -78.82303776067107,33.74443582121686,0.0 -78.82303768207927,33.74444131136997,0.0 -78.82303595590038,33.744451195471065,0.0 -78.82303266203179,33.74446194132965,0.0 -78.8230276406932,33.74447323724254,0.0 -78.82302317073687,33.74448115943794,0.0 -78.82302199332989,33.74448312132369,0.0 -78.82301446264479,33.744493396987735,0.0 -78.8230074820307,33.74450116200947,0.0 -78.82300575586741,33.74450312389243,0.0 -78.82299736210719,33.74451112464828,0.0 -78.82299500991635,33.744513242379234,0.0 -78.82297814381714,33.74452814638384,0.0 -78.8229760260595,33.7445300283746,0.0 -78.82296786804294,33.74453748037835,0.0 -78.82296622177104,33.744539049359425,0.0 -78.82295829818528,33.74454752160033,0.0 -78.82295508291065,33.74455167848933,0.0 -78.82295147341998,33.74455685561231,0.0 -78.82294935565774,33.744561091087384,0.0 -78.82294770938243,33.7445643862188,0.0 -78.82294684629787,33.744566818279125,0.0 -78.82294606179087,33.74457097518049,0.0 -78.82294519869954,33.7445768582318,0.0 -78.82294551170331,33.74458187821392,0.0 -78.82294582601646,33.74458705535694,0.0 -78.82294629618751,33.74458925168257,0.0 -78.82294715925987,33.74459293841942,0.0 -78.82294880682551,33.7445993715465,0.0 -78.8229526507182,33.7446097258489,0.0 -78.82295829803859,33.74462149198904,0.0 -78.82296504418207,33.744632786652076,0.0 -78.82297139873572,33.74464172913869,0.0 -78.82297288783857,33.74464384819881,0.0 -78.82298041848512,33.744653025123014,0.0 -78.82298253623428,33.74465537861801,0.0 -78.82299814628529,33.744672870703646,0.0 -78.82299963669865,33.74467459686158,0.0 -78.82300654000916,33.744683225029206,0.0 -78.82300842201516,33.7446858928448,0.0 -78.82301038391101,33.7446889522532,0.0 -78.82301344331562,33.74469389366889,0.0 -78.82301783596502,33.744704012232795,0.0 -78.82301979654166,33.744711857190126,0.0 -78.82302011086058,33.74471413209545,0.0 -78.82302050244296,33.74472024958483,0.0 -78.82302034527612,33.74472283880956,0.0 -78.82301909058732,33.744730212267925,0.0 -78.82301642406411,33.74473680122443,0.0 -78.82301501222364,33.74473907612097,0.0 -78.82300999089513,33.74474527216321,0.0 -78.82300285312233,33.74475146950437,0.0 -78.8230005782035,33.744753117062736,0.0 -78.82299453794731,33.74475727393727,0.0 -78.82299210717673,33.74475876433404,0.0 -78.82298410501735,33.74476354984216,0.0 -78.82298167424719,33.74476488307786,0.0 -78.82296441656383,33.744774531358594,0.0 -78.8229619844838,33.74477594317486,0.0 -78.82295304197257,33.744781277431585,0.0 -78.82295084563505,33.74478268924904,0.0 -78.82294472810764,33.744786846123176,0.0 -78.82294229602682,33.74478865084164,0.0 -78.82293045125444,33.74479822056942,0.0 -78.82292817633547,33.74479994670819,0.0 -78.82292292057818,33.7448040250063,0.0 -78.82292080282123,33.74480559398507,0.0 -78.82291029130955,33.74481234006244,0.0 -78.8228986037054,33.74481861465122,0.0 -78.82289656453023,33.74481971345732,0.0 -78.82288573869845,33.74482481196314,0.0 -78.82288283644311,33.74482614519652,0.0 -78.82284596889463,33.74484293110078,0.0 -78.82284377255787,33.74484395132567,0.0 -78.82283286945413,33.744849442733376,0.0 -78.82283043737424,33.74485077596915,0.0 -78.82281976870213,33.74485689471184,0.0 -78.82280933708034,33.74486395380168,0.0 -78.8228073751757,33.74486536562034,0.0 -78.8227989827266,33.74487258188147,0.0 -78.82279709940231,33.74487422944182,0.0 -78.822788392627,33.74488293611038,0.0 -78.82278650930225,33.74488481941194,0.0 -78.82277137066885,33.74490129241478,0.0 -78.82276956592474,33.74490325298754,0.0 -78.82276211382549,33.7449110180069,0.0 -78.82276007464873,33.74491290130777,0.0 -78.82275270113246,33.74491956882059,0.0 -78.82275042621318,33.74492145081063,0.0 -78.82274572052329,33.74492482450696,0.0 -78.82273983742901,33.744928824221454,0.0 -78.8227346602554,33.74493149200102,0.0 -78.82272948308189,33.74493415847105,0.0 -78.82272650224583,33.744935413123535,0.0 -78.82272234400605,33.74493698209181,0.0 -78.82271497049796,33.74493957127979,0.0 -78.82270304715735,33.744942786468854,0.0 -78.8226995961468,33.74494357094597,0.0 -78.82268947754889,33.744945532786176,0.0 -78.82268704547086,33.744945924366284,0.0 -78.82267786722542,33.74494702313602,0.0 -78.82267465195827,33.744947414712236,0.0 -78.82266327737916,33.744947963407704,0.0 -78.82265347179964,33.744947571765294,0.0 -78.82265088387093,33.74494725743033,0.0 -78.82264264729213,33.74494529680646,0.0 -78.82263747012951,33.74494247312292,0.0 -78.82263511663743,33.744940276787524,0.0 -78.82263323463367,33.74493643288478,0.0 -78.8226327631536,33.744933922237266,0.0 -78.82263260599679,33.74493141290107,0.0 -78.8226326845822,33.74492913799765,0.0 -78.82263370483417,33.74492380370064,0.0 -78.82263472508193,33.74492058714645,0.0 -78.82263715586124,33.74491470410314,0.0 -78.82264249020986,33.744905291503144,0.0 -78.8226441377932,33.744902859446825,0.0 -78.82265025663888,33.7448943885064,0.0 -78.82265825749843,33.744884583017786,0.0 -78.82265982649956,33.74488285687543,0.0 -78.82266712143789,33.74487469895316,0.0 -78.82266900345326,33.744872659800315,0.0 -78.82267708289129,33.74486411028937,0.0 -78.82267927923047,33.74486183539683,0.0 -78.82268814316772,33.74485305014857,0.0 -78.82269010507339,33.744851166847326,0.0 -78.82269849752397,33.74484316609153,0.0 -78.82270108676776,33.74484073404009,0.0 -78.82270900904136,33.74483351777649,0.0 -78.82271136254201,33.74483140004565,0.0 -78.82272195263921,33.74482230048447,0.0 -78.82273332592538,33.74481327950768,0.0 -78.82274438619581,33.74480527876538,0.0 -78.82274626951933,33.74480402410722,0.0 -78.82275544646438,33.74479821967873,0.0 -78.82275756553027,33.744797042292554,0.0 -78.82276368305578,33.744793827074005,0.0 -78.8227688602293,33.74479115929444,0.0 -78.82277191964633,33.74478982606176,0.0 -78.82278125505859,33.74478613937691,0.0 -78.82278345139488,33.744785354893324,0.0 -78.82280533617642,33.74477782437916,0.0 -78.82280784683635,33.74477688404598,0.0 -78.82281325844221,33.74477453058931,0.0 -78.8228195344383,33.744771706964045,0.0 -78.82282479019362,33.744768569011896,0.0 -78.8228304375442,33.74476511804957,0.0 -78.82284165497758,33.74475648866454,0.0 -78.82285028317084,33.74474840932943,0.0 -78.82285232234788,33.74474637017739,0.0 -78.82286008877182,33.7447379765161,0.0 -78.82286165777322,33.744736094522466,0.0 -78.8228693443088,33.74472660335401,0.0 -78.8228771893185,33.744715699048,0.0 -78.82288424852067,33.74470432587472,0.0 -78.82289021021077,33.74469271564486,0.0 -78.82289232797572,33.744687146921734,0.0 -78.82289428988824,33.744681812629395,0.0 -78.82289578031747,33.7446755379888,0.0 -78.82289687784184,33.744669576358284,0.0 -78.8228970350156,33.74466345756199,0.0 -78.82289687786799,33.74465639841824,0.0 -78.82289617196007,33.744651298544014,0.0 -78.82289483871868,33.744644396555174,0.0 -78.8228917007456,33.7446332577616,0.0 -78.82288691650598,33.74462094156277,0.0 -78.82288111202443,33.74460894099026,0.0 -78.82287515037831,33.7445983509357,0.0 -78.82287342422461,33.74459552726973,0.0 -78.82286667807833,33.74458564312564,0.0 -78.82285883441934,33.744575837556376,0.0 -78.8228486359562,33.74456501304868,0.0 -78.82283961620085,33.74455677646288,0.0 -78.82283734128896,33.74455489444977,0.0 -78.82282832022223,33.744547442358744,0.0 -78.82282596672937,33.74454563761593,0.0 -78.8228163183256,33.74453818552171,0.0 -78.82281412199414,33.74453653925031,0.0 -78.8228020415157,33.74452775258576,0.0 -78.82277835204174,33.74451128069515,0.0 -78.82271646184795,33.74446947034705,0.0 -78.82271387392228,33.74446766691267,0.0 -78.82269128195998,33.744451663891034,0.0 -78.82268932137072,33.74445017347202,0.0 -78.82267990870888,33.74444303570071,0.0 -78.82267810397131,33.74444170244339,0.0 -78.82266931864692,33.74443440751438,0.0 -78.82266704373542,33.744432367030775,0.0 -78.82265959166523,33.74442546501083,0.0 -78.82265504184419,33.74442036642669,0.0 -78.82265213959792,33.744417149852545,0.0 -78.82265064918504,33.744415189262945,0.0 -78.82264829569593,33.7444115025187,0.0 -78.82264578635542,33.74440750145179,0.0 -78.82264398162566,33.744402245720714,0.0 -78.82264296270009,33.74439918631703,0.0 -78.82264264838196,33.74439651981914,0.0 -78.82264288413212,33.74439267592708,0.0 -78.8226434328992,33.74438726304726,0.0 -78.82264515906769,33.74438263597762,0.0 -78.82264688392662,33.74437792901807,0.0 -78.82264986477061,33.744372673311325,0.0 -78.8226522968565,33.744368359257535,0.0 -78.82265394443976,33.744365927201216,0.0 -78.82265959179904,33.744358083592225,0.0 -78.82266131796271,33.744355887277685,0.0 -78.82266884864548,33.74434678770091,0.0 -78.82267755542289,33.74433706079625,0.0 -78.82268665379462,33.74432741247406,0.0 -78.82268853711938,33.7443255304821,0.0 -78.82269763679976,33.7443164309133,0.0 -78.8227073625081,33.744307096916,0.0 -78.82270932441351,33.74430529219523,0.0 -78.82271873710633,33.744296821271504,0.0 -78.82272046326861,33.74429533087124,0.0 -78.82272940578397,33.744287878871475,0.0 -78.82273128779832,33.74428638847209,0.0 -78.822740466055,33.7442795638074,0.0 -78.82274242664998,33.74427815198882,0.0 -78.82274760382481,33.744274856875265,0.0 -78.82275191791881,33.744272111820486,0.0 -78.82275419283691,33.74427085716431,0.0 -78.82275937001035,33.74426826796512,0.0 -78.82276446860253,33.744265837236036,0.0 -78.82277129335368,33.74426364094741,0.0 -78.82277670626758,33.74426207198549,0.0 -78.82277945135964,33.74426152193635,0.0 -78.8227840797726,33.7442610517869,0.0 -78.82278902119907,33.744260660219446,0.0</coordinates>
                    </LinearRing>
                </outerBoundaryIs>
            </Polygon>
        </Placemark>
        <Placemark id="3746">
            <name>Flood_407</name>
            <styleUrl>#3751</styleUrl>
            <Polygon id="3745">
                <outerBoundaryIs>
                    <LinearRing id="3749">
                        <coordinates>-78.82569976480153,33.745467419172535,0.0 -78.82571176671918,33.745466164566004,0.0 -78.82571435464875,33.745466007418294,0.0 -78.82572714106374,33.74546545873006,0.0 -78.82572996473577,33.74546538016396,0.0 -78.82574290831172,33.745465223069026,0.0 -78.82574620215904,33.74546522308581,0.0 -78.82576102774554,33.745465458902764,0.0 -78.82576369556519,33.74546553749676,0.0 -78.82582472275975,33.74546710679729,0.0 -78.82582762501245,33.745467106812086,0.0 -78.82583876384813,33.745467028288445,0.0 -78.8258415102488,33.74546702830244,0.0 -78.82585288351797,33.745466556877695,0.0 -78.82585586435185,33.7454664010417,0.0 -78.82586472827357,33.74546545943127,0.0 -78.82586716035145,33.74546514512186,0.0 -78.82587626001794,33.745463106005744,0.0 -78.82588159304304,33.74546067396815,0.0 -78.82588371079994,33.74545910498943,0.0 -78.82588606430423,33.745455105256845,0.0 -78.82588582988453,33.74544835912457,0.0 -78.82588347639738,33.745443652144,0.0 -78.82588167166102,33.74544169155271,0.0 -78.82587924089752,33.74543957379734,0.0 -78.82587696598458,33.74543824053764,0.0 -78.82587359224935,33.74543690596255,0.0 -78.82587076857855,33.74543635719476,0.0 -78.825866533071,33.745436200012186,0.0 -78.82586425815515,33.74543635716159,0.0 -78.8258616689154,33.7454367500505,0.0 -78.8258561787312,33.745437847529416,0.0 -78.82585327647705,33.74543855342892,0.0 -78.82583711631722,33.74544271156174,0.0 -78.82583491998157,33.745443181723545,0.0 -78.82582715488127,33.745444514932174,0.0 -78.82582464422279,33.745444672080275,0.0 -78.82581648622096,33.7454446720387,0.0 -78.82581397687326,33.745444279123696,0.0 -78.82581036870424,33.745443417339736,0.0 -78.82580683780634,33.74544263282703,0.0 -78.82580440704007,33.74544192690026,0.0 -78.82579954288974,33.74543973055208,0.0 -78.8257958561416,33.7454380043829,0.0 -78.8257937383898,33.74543690555559,0.0 -78.82578918856476,33.74543376886304,0.0 -78.82578471732046,33.74543070944166,0.0 -78.8257824424085,33.74542882611877,0.0 -78.82577569756441,33.745422630016435,0.0 -78.82577404998929,33.74542090385755,0.0 -78.82576808833527,33.74541423627659,0.0 -78.82576636218,33.74541211852481,0.0 -78.82576016609553,33.74540419627488,0.0 -78.82575859710224,33.745401999943496,0.0 -78.82575294846437,33.745394076386646,0.0 -78.82575153663255,33.74539195863646,0.0 -78.82574588930522,33.74538356621633,0.0 -78.82574447747365,33.745381369885756,0.0 -78.82573090660277,33.745360032606804,0.0 -78.82572918044892,33.745357208940725,0.0 -78.8257075314943,33.74532175333431,0.0 -78.82569443080031,33.74529963287278,0.0 -78.82569325471079,33.74529767228471,0.0 -78.82569215589245,33.74529571038731,0.0 -78.82568015532851,33.74527453158699,0.0 -78.82567889934907,33.74527225667672,0.0 -78.82567356634875,33.7452620595274,0.0 -78.82567207593749,33.74525923586253,0.0 -78.82566658446795,33.74524793989581,0.0 -78.82566101573072,33.74523484050752,0.0 -78.82565701467813,33.74522346596791,0.0 -78.8256563873453,33.74522126964133,0.0 -78.82565364227592,33.745210209429914,0.0 -78.82565317079555,33.745207777362815,0.0 -78.82565128880576,33.7451967957362,0.0 -78.82565011142498,33.74518542121107,0.0 -78.82564995426858,33.745182754713895,0.0 -78.82564956269565,33.74517169451446,0.0 -78.82564987704261,33.74515969266294,0.0 -78.82565089599424,33.74514949554598,0.0 -78.82565121032245,33.7451470634829,0.0 -78.82565348525982,33.74513592471655,0.0 -78.82565772079074,33.745124158626396,0.0 -78.82566038731028,33.745119374400616,0.0 -78.82566187773229,33.745116706602204,0.0 -78.82566352531562,33.74511419727512,0.0 -78.82566689906098,33.74511035339892,0.0 -78.82567035007736,33.74510658810353,0.0 -78.82567568441647,33.745101959742605,0.0 -78.82568015567367,33.745098430193806,0.0 -78.82569019569978,33.74509184127477,0.0 -78.82569262777997,33.745090350878066,0.0 -78.8257027463846,33.74508493804663,0.0 -78.82570541420725,33.74508352623162,0.0 -78.8257145911491,33.74507929079248,0.0 -78.825716708905,33.74507827056716,0.0 -78.82572792633013,33.745073720816606,0.0 -78.82573082858505,33.7450726233245,0.0 -78.82574063417226,33.745069093802854,0.0 -78.82574314483212,33.74506823074044,0.0 -78.82575538118745,33.74506446548987,0.0 -78.82575781326594,33.74506383816836,0.0 -78.82576957944424,33.745060935990494,0.0 -78.82577208879377,33.74506038594026,0.0 -78.8257856597111,33.745058033834695,0.0 -78.82578895486884,33.745057562368864,0.0 -78.82580229004213,33.74505599344727,0.0 -78.82581758580709,33.74505466027688,0.0 -78.82582017373673,33.745054503129246,0.0 -78.82583256855725,33.74505387585847,0.0 -78.82583562666215,33.74505379729355,0.0 -78.82585013923614,33.74505340577495,0.0 -78.82585257131339,33.74505340578734,0.0 -78.82586512198475,33.745053405851245,0.0 -78.82586755275237,33.74505340586362,0.0 -78.82588159383964,33.74505387610811,0.0 -78.82588410449753,33.745053954701305,0.0 -78.82589712534264,33.7450548178429,0.0 -78.82589955741943,33.74505505359659,0.0 -78.82591195092618,33.74505654406871,0.0 -78.82591477590707,33.74505685709527,0.0 -78.82592097200482,33.74505803452374,0.0 -78.82592607059054,33.74505889631528,0.0 -78.82592858124762,33.745059446391174,0.0 -78.82593571900436,33.74506132842912,0.0 -78.82594034741385,33.74506266170088,0.0 -78.82594332824543,33.74506368195216,0.0 -78.82594866257138,33.74506572114181,0.0 -78.82595438849133,33.745068074655265,0.0 -78.82595682056652,33.745069173484254,0.0 -78.8259655273159,33.74507364475579,0.0 -78.82596756648677,33.74507474227305,0.0 -78.82597635181557,33.74507991945938,0.0 -78.8259788624705,33.745081567042156,0.0 -78.82598733347521,33.74508713581938,0.0 -78.82598968696844,33.74508878340136,0.0 -78.82599855087601,33.7450950594046,0.0 -78.82600098294974,33.74509686283817,0.0 -78.8260303983373,33.745119219124135,0.0 -78.82603996816125,33.74512627831615,0.0 -78.826042400235,33.74512808305934,0.0 -78.82605047964503,33.74513373041508,0.0 -78.82605251881546,33.74513506367365,0.0 -78.82606208864097,33.74514133968049,0.0 -78.82606514805168,33.74514322169775,0.0 -78.82609597659193,33.74516196983896,0.0 -78.82609793718167,33.74516322451673,0.0 -78.82610711410365,33.74516910761936,0.0 -78.82610931174534,33.745170520768866,0.0 -78.82611691967102,33.745175775219906,0.0 -78.82611888157024,33.7451771097878,0.0 -78.82612688239847,33.74518322731613,0.0 -78.82612876440687,33.745184717734816,0.0 -78.82613645222017,33.745191463905066,0.0 -78.82613809979536,33.745193111483374,0.0 -78.82616092617874,33.745215467735925,0.0 -78.82616320108994,33.74521774265141,0.0 -78.82617128049668,33.745225037577065,0.0 -78.82617833966582,33.74523045049602,0.0 -78.82618061457799,33.7452321753483,0.0 -78.82618947848758,33.74523743111545,0.0 -78.82619238073765,33.745238764378435,0.0 -78.82619559731114,33.74524009895273,0.0 -78.82620006855775,33.745241980977106,0.0 -78.82620234347185,33.74524276548349,0.0 -78.82621246206007,33.745245746353234,0.0 -78.82621544289243,33.74524637370222,0.0 -78.82622454255082,33.74524841291108,0.0 -78.8262268960465,33.74524880582536,0.0 -78.82624705464679,33.745252414080056,0.0 -78.82624995689841,33.74525296284834,0.0 -78.82625999821728,33.74525500206199,0.0 -78.82626988106365,33.74525766991844,0.0 -78.8262781962203,33.74526119953239,0.0 -78.82628000095781,33.74526253278978,0.0 -78.82628392213533,33.74526606238137,0.0 -78.82628682568395,33.74527312284898,0.0 -78.82628698152612,33.745278142830564,0.0 -78.8262866685069,33.74528096648626,0.0 -78.8262850994961,33.74528771260938,0.0 -78.82628141272586,33.745297282379,0.0 -78.82628031389923,33.74529955727721,0.0 -78.8262764712815,33.74530677356173,0.0 -78.82627176427398,33.74531430416365,0.0 -78.82627019527183,33.74531657905946,0.0 -78.82626352766978,33.7453252857387,0.0 -78.82625583982703,33.745333600820224,0.0 -78.82624752595918,33.74534073850147,0.0 -78.82624556405456,33.74534215162978,0.0 -78.82624156428447,33.74534458236448,0.0 -78.8262370930288,33.745347328728215,0.0 -78.82623489669193,33.74534842622391,0.0 -78.82622799335861,33.745351328426445,0.0 -78.82622532684674,33.74535219148807,0.0 -78.82621654150272,33.74535477935928,0.0 -78.82621434516697,33.7453552508308,0.0 -78.8262062644331,33.74535689835953,0.0 -78.82620328359862,33.74535736851734,0.0 -78.82619026274826,33.7453591731819,0.0 -78.8261770061566,33.74536034920164,0.0 -78.82617410390345,33.745360584928164,0.0 -78.82614743355921,33.74536254537436,0.0 -78.82614421698264,33.745362781099274,0.0 -78.82613182347067,33.74536395712343,0.0 -78.82612946997375,33.74536419285274,0.0 -78.82611793954091,33.74536568320309,0.0 -78.82611550746277,33.74536607478328,0.0 -78.82610146636961,33.74536866393734,0.0 -78.82608750385587,33.74537195769648,0.0 -78.8260846016017,33.74537266359599,0.0 -78.82607401151662,33.74537572294063,0.0 -78.8260715807476,33.745376428842626,0.0 -78.82606106924263,33.74537980250938,0.0 -78.8260576955026,33.74538097857948,0.0 -78.82604694956349,33.745384979579015,0.0 -78.82604467464625,33.74538584133292,0.0 -78.8260344774627,33.74539023523755,0.0 -78.82603204538313,33.745391411312454,0.0 -78.82602435754896,33.74539533374708,0.0 -78.82602161245491,33.74539690272259,0.0 -78.8260139246186,33.7454019226641,0.0 -78.82601165100914,33.74540372607369,0.0 -78.82600639524986,33.745408903188505,0.0 -78.82600294291771,33.745415806462894,0.0 -78.82600270847499,33.74542082644239,0.0 -78.82600310006322,33.74542404300388,0.0 -78.82600466905325,33.74542796548567,0.0 -78.82600615946343,33.74543133790395,0.0 -78.82600757129457,33.74543376997594,0.0 -78.82600992478504,33.745436829386534,0.0 -78.82601306277195,33.74544106488841,0.0 -78.82602027909873,33.74544851697058,0.0 -78.82602255401008,33.74545071330566,0.0 -78.82603173092909,33.745458165397814,0.0 -78.82603400584156,33.745459734398914,0.0 -78.82604137933474,33.745464832997584,0.0 -78.8260434198148,33.745466166256264,0.0 -78.8260528324797,33.74547189219923,0.0 -78.82605510739275,33.745473225459016,0.0 -78.82606381414138,33.74547808963279,0.0 -78.82606655922969,33.74547950147548,0.0 -78.82610366244946,33.74549895556316,0.0 -78.82610617310462,33.74550044598496,0.0 -78.82611033002675,33.74550295534172,0.0 -78.82611236919719,33.74550428860031,0.0 -78.82611613452386,33.7455071908572,0.0 -78.82611840943551,33.745509231340996,0.0 -78.82612264493346,33.74551425134328,0.0 -78.82612594007745,33.74552091891076,0.0 -78.82612688172763,33.74552617463757,0.0 -78.8261267245581,33.74553017438135,0.0 -78.82612594005273,33.74553354809766,0.0 -78.82612491980737,33.74553558725505,0.0 -78.8261220175457,33.74554013704795,0.0 -78.826116448771,33.74554617723636,0.0 -78.82610585867279,33.74555590413158,0.0 -78.82610421109105,33.74555755038356,0.0 -78.82610060291243,33.74556162999987,0.0 -78.8260991910723,33.745563747735666,0.0 -78.82609738763459,33.74556743445888,0.0 -78.82609668171018,33.74557072959528,0.0 -78.82609644596168,33.74557378768305,0.0 -78.82609683755152,33.74557621974975,0.0 -78.8260979363665,33.745579906487755,0.0 -78.82609887802299,33.74558194565515,0.0 -78.82610068144781,33.74558484790204,0.0 -78.8261023290219,33.74558712281433,0.0 -78.82610640735966,33.74559135963072,0.0 -78.8261086822718,33.74559316306342,0.0 -78.82611276192249,33.7455957523099,0.0 -78.82611511541619,33.74559716415052,0.0 -78.8261246852468,33.74560085093179,0.0 -78.82612994099365,33.74560202704588,0.0 -78.8261333134201,33.74560289013836,0.0 -78.82613550975401,33.745603360322555,0.0 -78.82613770608798,33.74560375323596,0.0 -78.82614766882713,33.74560524369584,0.0 -78.8261504139175,33.74560555672184,0.0 -78.82616076825234,33.74560649843033,0.0 -78.82616312174834,33.745606734183625,0.0 -78.82617551525651,33.74560751874161,0.0 -78.82617786875282,33.74560759733401,0.0 -78.82621763851732,33.74560940095794,0.0 -78.82622101225469,33.74560963671654,0.0 -78.82623403309985,33.745610499858124,0.0 -78.82623724967553,33.745610734306126,0.0 -78.82624932885935,33.7456119903452,0.0 -78.826251760936,33.745612303369604,0.0 -78.82626439018472,33.74561410816489,0.0 -78.82626721385569,33.74561457835228,0.0 -78.82627866701041,33.74561669615366,0.0 -78.82628101919633,33.74561716764827,0.0 -78.8262920794461,33.74561959845975,0.0 -78.82629435436068,33.74562014853445,0.0 -78.82630690502583,33.74562336384832,0.0 -78.82630980727698,33.74562414835783,0.0 -78.8263200843365,33.74562720780882,0.0 -78.82632251510277,33.745627913735525,0.0 -78.82633381109227,33.745631836266924,0.0 -78.82633679192361,33.745632933789096,0.0 -78.82634714625202,33.745637170637416,0.0 -78.82635765774015,33.7456424264131,0.0 -78.8263597754917,33.745643602511194,0.0 -78.82636369798094,33.74564611317631,0.0 -78.82636832507742,33.745649094018106,0.0 -78.82637012981472,33.745650584436405,0.0 -78.82637303206222,33.745653250947605,0.0 -78.82637593430985,33.74565583887839,0.0 -78.82637773904625,33.745657800779306,0.0 -78.82638056271047,33.74566172326752,0.0 -78.82638401370953,33.74566682184631,0.0 -78.82638621003507,33.745671527516414,0.0 -78.82638864210115,33.74567725473352,0.0 -78.82639201450768,33.74568831494824,0.0 -78.8263942893991,33.74570070840556,0.0 -78.82639570121124,33.745712866117074,0.0 -78.82639632983434,33.7457250251343,0.0 -78.82639632980937,33.74573781148223,0.0 -78.82639570114137,33.745748635935236,0.0 -78.82639546670309,33.74575138101085,0.0 -78.82639381910198,33.74576299126307,0.0 -78.82639107398761,33.74577491452179,0.0 -78.826389190656,33.74578032608548,0.0 -78.82638691572926,33.74578605196888,0.0 -78.82638424920957,33.74579091608471,0.0 -78.82638087546117,33.74579632895042,0.0 -78.82637711012038,33.74580064299771,0.0 -78.82637303176547,33.745805114204124,0.0 -78.82636722725042,33.74581005557472,0.0 -78.82636205007411,33.745814133873424,0.0 -78.82634957796738,33.74582237035002,0.0 -78.82633734029623,33.745829273579616,0.0 -78.82633475236412,33.74583068539511,0.0 -78.82632377067948,33.74583625538282,0.0 -78.826321260019,33.7458374314574,0.0 -78.82631129726772,33.74584213837511,0.0 -78.8263081605792,33.74584362876821,0.0 -78.82629553131575,33.745849354598796,0.0 -78.826292157575,33.7458508449907,0.0 -78.82626697763027,33.74586159073797,0.0 -78.82626384094208,33.74586292527987,0.0 -78.82625097593701,33.74586817962664,0.0 -78.82624830942486,33.745869199849054,0.0 -78.82623732643283,33.74587351385943,0.0 -78.82623434559719,33.74587461266082,0.0 -78.82622054024148,33.74587971115152,0.0 -78.82620595038757,33.74588457389688,0.0 -78.8261929282236,33.74588833914336,0.0 -78.8261906546167,33.74588888788526,0.0 -78.8261843786237,33.74589014383066,0.0 -78.82617904429132,33.74589131989074,0.0 -78.82617606345681,33.74589179135824,0.0 -78.82617041611195,33.745892340082825,0.0 -78.82616625918429,33.74589273165413,0.0 -78.82616319976933,33.745892967379916,0.0 -78.82615731668365,33.74589265302811,0.0 -78.8261508049515,33.74589218282198,0.0 -78.82614429453129,33.74589053521878,0.0 -78.82613778411137,33.745888731764296,0.0 -78.82613276410933,33.74588637825448,0.0 -78.82612711546099,33.74588378900006,0.0 -78.82611613379989,33.745877278554254,0.0 -78.82611385888747,33.745875630972655,0.0 -78.82610507356058,33.745869434859856,0.0 -78.82610272006781,33.74586755153655,0.0 -78.8260940133232,33.745860649509765,0.0 -78.82608444350146,33.745852412920755,0.0 -78.8260824043318,33.74585068675996,0.0 -78.82607275593008,33.745841979997564,0.0 -78.82607102977398,33.74584033241885,0.0 -78.82601094303737,33.74578393230852,0.0 -78.82600835511262,33.74578158012064,0.0 -78.82597901831318,33.745755458521984,0.0 -78.8259764290787,33.745753105024484,0.0 -78.82587751429104,33.7456679167707,0.0 -78.82587508221776,33.745665877595805,0.0 -78.82586715997095,33.745659445746135,0.0 -78.82586464931678,33.74565740526114,0.0 -78.82585515807429,33.74565003174778,0.0 -78.8258466084901,33.745643757055724,0.0 -78.8258436276605,33.74564171787803,0.0 -78.82583366493137,33.74563512754737,0.0 -78.82583115558596,33.745633559854774,0.0 -78.82582150717839,33.74562791118131,0.0 -78.82581907510364,33.745626577920724,0.0 -78.82580762195659,33.74562053764565,0.0 -78.82580550420467,33.74561951870837,0.0 -78.82579216904708,33.745613085521406,0.0 -78.82576651897057,33.74560155502021,0.0 -78.82576345955863,33.74560030033691,0.0 -78.82572157207156,33.74558249379486,0.0 -78.82571921857709,33.74558147354678,0.0 -78.82569513618651,33.74557096198006,0.0 -78.82569231251702,33.74556978587829,0.0 -78.82568101783995,33.745564451518334,0.0 -78.82567889877838,33.74556343127144,0.0 -78.825667054037,33.7455573137235,0.0 -78.8256574842101,33.745551743630955,0.0 -78.82565489628382,33.74555017462826,0.0 -78.82565066078179,33.7455471937885,0.0 -78.82564634538947,33.74554413436791,0.0 -78.82564414905859,33.74554217377463,0.0 -78.82564179687631,33.74553989885886,0.0 -78.82563826598383,33.74553629068879,0.0 -78.82563677557104,33.745534251518706,0.0 -78.82563567806231,33.74553229093103,0.0 -78.8256336388965,33.74552860287854,0.0 -78.82563246150588,33.74552224964368,0.0 -78.82563246151172,33.7455192688255,0.0 -78.82563332460023,33.74551479760263,0.0 -78.82563426626763,33.745511268035855,0.0 -78.82563732569524,33.74550452192039,0.0 -78.82563842321166,33.7455025613439,0.0 -78.82564344323227,33.74549542233621,0.0 -78.82565050373657,33.74548781447565,0.0 -78.82565222858939,33.74548616691445,0.0 -78.82565552375125,33.74548365628606,0.0 -78.82566038660332,33.745480048158775,0.0 -78.82566517218227,33.74547738168678,0.0 -78.82566964343742,33.74547494964487,0.0 -78.82567662404102,33.745472517615674,0.0 -78.82568290003553,33.74547047848517,0.0 -78.82568533211388,33.74546992974416,0.0 -78.82569090087891,33.74546883095604,0.0 -78.82569498053604,33.74546812506245,0.0 -78.82569741130462,33.745467654901844,0.0 -78.82569976480153,33.745467419172535,0.0</coordinates>
                    </LinearRing>
                </outerBoundaryIs>
            </Polygon>
        </Placemark>
        <Placemark id="3755">
            <name>Flood_408</name>
            <styleUrl>#3760</styleUrl>
            <Polygon id="3754">
                <outerBoundaryIs>
                    <LinearRing id="3758">
                        <coordinates>-78.8056017478576,33.74948015067635,0.0 -78.80560527747346,33.749467992992685,0.0 -78.80561147362633,33.749443283409185,0.0 -78.80561202369766,33.74944077407705,0.0 -78.8056227697354,33.74939096330916,0.0 -78.80562324122513,33.74938876698857,0.0 -78.80562849571366,33.74936586213073,0.0 -78.80562920294688,33.7493632729093,0.0 -78.80563218380462,33.74935197829783,0.0 -78.80563571341848,33.74934076095996,0.0 -78.80563665377487,33.74933817173973,0.0 -78.80564065487188,33.74932789605985,0.0 -78.80564645940301,33.749315894239025,0.0 -78.80564983315232,33.7493105612647,0.0 -78.80565210807565,33.74930695312515,0.0 -78.80565344133504,33.749304991240614,0.0 -78.80565736252937,33.74930036287363,0.0 -78.80566175651926,33.74929542149696,0.0 -78.80567116921458,33.74928655767309,0.0 -78.80567344413447,33.7492845971031,0.0 -78.80568332700294,33.74927675220791,0.0 -78.80569462301777,33.74926867288834,0.0 -78.80569650634152,33.74926741823049,0.0 -78.80570787962593,33.74926004482546,0.0 -78.80572003871902,33.74925259284408,0.0 -78.80572246948965,33.749251181028264,0.0 -78.80573243224431,33.749245455185644,0.0 -78.80573486432466,33.749244043369735,0.0 -78.80574561026874,33.749238160370275,0.0 -78.80574827809171,33.74923674724596,0.0 -78.80575925977783,33.749231099988954,0.0 -78.80576161327669,33.74923000249438,0.0 -78.80577494846082,33.7492236480257,0.0 -78.80578836091465,33.74921800078117,0.0 -78.80579157749361,33.74921674613025,0.0 -78.80580318651371,33.74921258797554,0.0 -78.80580561859273,33.7492118034934,0.0 -78.80581824785303,33.74920819540702,0.0 -78.80582052276992,33.74920764666532,0.0 -78.8058338579472,33.749204508755454,0.0 -78.80583636729672,33.749204038595444,0.0 -78.80584970247276,33.74920152801925,0.0 -78.80585307621205,33.7492009007028,0.0 -78.80586586263088,33.749198783026,0.0 -78.8058690778984,33.74919831155991,0.0 -78.80590955471722,33.74928200909068,0.0 -78.80591222122597,33.749282715018616,0.0 -78.80593810705237,33.749290245775796,0.0 -78.80594124504567,33.74929118744732,0.0 -78.80595285404905,33.74929487423867,0.0 -78.80595497180157,33.749295580163796,0.0 -78.80595716813497,33.749296286089226,0.0 -78.80596854270493,33.74930020862063,0.0 -78.80597105205146,33.749301148979306,0.0 -78.80598226945882,33.7493055416829,0.0 -78.80598462295333,33.7493064833504,0.0 -78.80599678201868,33.7493120534555,0.0 -78.80600258651752,33.74931526873442,0.0 -78.80600815527386,33.74931840674138,0.0 -78.80601960841524,33.74932680049956,0.0 -78.80602392249511,33.749330957426345,0.0 -78.80602690332245,33.749333938259234,0.0 -78.80602870674895,33.74933589885018,0.0 -78.80603655171612,33.749345861578995,0.0 -78.8060430621194,33.74935543139884,0.0 -78.80604447395066,33.74935762772903,0.0 -78.80605655440583,33.749377003105245,0.0 -78.80605780907614,33.7493788851129,0.0 -78.80606392788602,33.74938782759696,0.0 -78.80606573131183,33.74939010250965,0.0 -78.80607326195725,33.74939928074223,0.0 -78.80608110692889,33.749407202999286,0.0 -78.80608322467886,33.74940908501145,0.0 -78.80609020526511,33.74941512526277,0.0 -78.80609232301533,33.74941685142379,0.0 -78.80610142266303,33.74942391061226,0.0 -78.80610369757508,33.749425636774,0.0 -78.8061327213683,33.74944658122636,0.0 -78.80613460337678,33.74944799306443,0.0 -78.80614370302479,33.74945489640175,0.0 -78.80614558503318,33.74945630823973,0.0 -78.80615539059633,33.7494645448286,0.0 -78.80616370574359,33.749472388507684,0.0 -78.80616574491216,33.74947450626071,0.0 -78.80617280538442,33.74948266425501,0.0 -78.80617468739096,33.749484939168106,0.0 -78.80618159069901,33.74949427324864,0.0 -78.80618864985622,33.7495049418877,0.0 -78.80619594475304,33.74951702235628,0.0 -78.80620214214002,33.74952776826151,0.0 -78.80620339680932,33.749530121751775,0.0 -78.80622834220202,33.74957663756422,0.0 -78.8062336752022,33.749586207378044,0.0 -78.80623516561336,33.74958887388155,0.0 -78.80624097140763,33.749598758019545,0.0 -78.8062421474969,33.749600718607184,0.0 -78.80624889364039,33.749611387244556,0.0 -78.80625681587622,33.74962260464137,0.0 -78.80626411077914,33.749631781563146,0.0 -78.80626583693395,33.749633977894966,0.0 -78.80627266166526,33.74964135270323,0.0 -78.80627462225306,33.74964347045578,0.0 -78.80628223148308,33.749650922538834,0.0 -78.80628395632951,33.74965249022718,0.0 -78.80631894176737,33.74968418189357,0.0 -78.80632129525914,33.74968637822862,0.0 -78.80632913892217,33.74969383031281,0.0 -78.80633086507797,33.74969547658163,0.0 -78.80633949323646,33.749704497659124,0.0 -78.80634718104447,33.749713282990434,0.0 -78.80635227961785,33.74972002914637,0.0 -78.80635361286882,33.74972198973491,0.0 -78.80635635925942,33.74972677529705,0.0 -78.80635831984189,33.749731403694376,0.0 -78.80635918291524,33.7497343845163,0.0 -78.80635941733765,33.749739325916785,0.0 -78.80635714240574,33.74974693510984,0.0 -78.80635573056513,33.749749131425524,0.0 -78.80635078912597,33.74975532746693,0.0 -78.80634341560828,33.749762073558735,0.0 -78.80634153359372,33.74976356395777,0.0 -78.80633368859272,33.74976944697213,0.0 -78.80632466749805,33.749775487141314,0.0 -78.80632184382208,33.74977737043771,0.0 -78.80631290130896,33.74978301770517,0.0 -78.80631086213302,33.749784350942605,0.0 -78.80626873881116,33.74981062933073,0.0 -78.80626614956866,33.74981219830661,0.0 -78.80625759996147,33.749817139661914,0.0 -78.8062552464621,33.74981847289774,0.0 -78.80624732419388,33.74982247391048,0.0 -78.80624520643782,33.749823492825776,0.0 -78.80623618534803,33.74982717951113,0.0 -78.80623406759254,33.749827885414405,0.0 -78.80622881184019,33.749829297215776,0.0 -78.80622379183055,33.74983063174751,0.0 -78.80622128117145,33.749831023327104,0.0 -78.80621673133923,33.749831416205836,0.0 -78.80620975073899,33.74983196492324,0.0 -78.80620371049126,33.74983172915092,0.0 -78.80619743450102,33.74983149337739,0.0 -78.80619461082968,33.74983118035085,0.0 -78.80618449223826,33.74982976847042,0.0 -78.80618166856728,33.74982929697338,0.0 -78.80617099991137,33.74982717917598,0.0 -78.8061680190791,33.74982655182689,0.0 -78.80615578273708,33.749823492366005,0.0 -78.8061534292417,33.74982294360061,0.0 -78.80614174165662,33.74981964840121,0.0 -78.806138682244,33.74981870803968,0.0 -78.80611240351408,33.74981078437811,0.0 -78.80605553327926,33.749792979070556,0.0 -78.806052239434,33.74979195881772,0.0 -78.80599725120724,33.749775721199406,0.0 -78.80599380020028,33.74977470094568,0.0 -78.80596681555372,33.749766151256544,0.0 -78.8059530102178,33.74976136563756,0.0 -78.80595081388473,33.749760502551155,0.0 -78.80593896914078,33.749755875412745,0.0 -78.8059270458174,33.74975054105017,0.0 -78.80592445658117,33.74974920778894,0.0 -78.80591449516007,33.74974371627548,0.0 -78.80591237740883,33.74974246159716,0.0 -78.8059072002478,33.74973893199968,0.0 -78.80590280758452,33.74973595115953,0.0 -78.80590037551117,33.74973406783612,0.0 -78.8058908842701,33.74972638131185,0.0 -78.80588892237202,33.749724576571246,0.0 -78.80588100012778,33.74971736022795,0.0 -78.80587935255255,33.749715791230294,0.0 -78.80587166605203,33.74970802482521,0.0 -78.8058693125605,33.74970567263901,0.0 -78.80586068440265,33.749696415820225,0.0 -78.80585864392468,33.749694140906406,0.0 -78.80584264228209,33.74967610006776,0.0 -78.80584052453317,33.749673746573066,0.0 -78.80574843324398,33.7495651820007,0.0 -78.80574694283098,33.74956337857223,0.0 -78.8057212927967,33.749532551338774,0.0 -78.80571933220986,33.74953004068403,0.0 -78.80571313481681,33.74952211843546,0.0 -78.80571133139108,33.74951984352286,0.0 -78.80570411376031,33.74951019511894,0.0 -78.80570254476751,33.74950792020755,0.0 -78.8056017478576,33.74948015067635,0.0</coordinates>
                    </LinearRing>
                </outerBoundaryIs>
            </Polygon>
        </Placemark>
        <Placemark id="3764">
            <name>Flood_409</name>
            <styleUrl>#3769</styleUrl>
            <Polygon id="3763">
                <outerBoundaryIs>
                    <LinearRing id="3767">
                        <coordinates>-78.77829837932558,33.766973347055895,0.0 -78.77831908790125,33.766955697900706,0.0 -78.77832144138604,33.76695358015859,0.0 -78.77837627221369,33.76690455384155,0.0 -78.77839588197034,33.76688745343734,0.0 -78.77839752954067,33.766885963028734,0.0 -78.7784067064325,33.766878432409925,0.0 -78.7784085111649,33.76687702058303,0.0 -78.77841674771265,33.76687074594321,0.0 -78.77841910119986,33.7668690983764,0.0 -78.77842663052624,33.76686399982634,0.0 -78.77842874958225,33.76686266658175,0.0 -78.77843337666977,33.76686007736551,0.0 -78.77843612306188,33.76685858696234,0.0 -78.77843855382267,33.76685741088092,0.0 -78.77844302506335,33.766855841905134,0.0 -78.77844647737528,33.76685474309967,0.0 -78.77844922246209,33.76685411577584,0.0 -78.77845494838384,33.76685395864158,0.0 -78.77845777205674,33.76685435155924,0.0 -78.77846279338054,33.76685615501331,0.0 -78.77846491113846,33.766857096683765,0.0 -78.77847181318093,33.76686235246458,0.0 -78.77847346076639,33.766863842888874,0.0 -78.77847989264282,33.76687090340718,0.0 -78.77848601150876,33.76687858995125,0.0 -78.7784874233534,33.766880394697665,0.0 -78.77850013127228,33.766898044012706,0.0 -78.77850170028015,33.7669001617736,0.0 -78.77850813216418,33.766908711398585,0.0 -78.7785095440084,33.76691043756421,0.0 -78.77851597719645,33.76691788967693,0.0 -78.77851754620242,33.7669196158434,0.0 -78.77852209474436,33.76692392995261,0.0 -78.77852586009382,33.766927538140415,0.0 -78.77853166461848,33.76693169509407,0.0 -78.77853605730205,33.76693475452869,0.0 -78.77853809778969,33.76693585336035,0.0 -78.77854272490086,33.766937892554985,0.0 -78.77854829498472,33.76694048051032,0.0 -78.77855511973958,33.76694252102519,0.0 -78.77856225750755,33.76694448165105,0.0 -78.7785744165921,33.766946835205076,0.0 -78.77857692594205,33.766947305392385,0.0 -78.77858963377953,33.766949031612064,0.0 -78.77859253603282,33.76694934594929,0.0 -78.77863167846999,33.76695326731993,0.0 -78.77863395338603,33.766953503073275,0.0 -78.77864524938641,33.76695491496294,0.0 -78.77864854323535,33.766955463734796,0.0 -78.77866572232553,33.76695797447451,0.0 -78.77866815440353,33.76695828749977,0.0 -78.77867654814784,33.76695883760574,0.0 -78.77867968483194,33.766958759039966,0.0 -78.77868666673392,33.766957974574744,0.0 -78.77869482472096,33.76695562111795,0.0 -78.77869741264381,33.76695452361807,0.0 -78.7787049432863,33.76695067974188,0.0 -78.77870737535511,33.76694918933721,0.0 -78.77871451308984,33.76694463954138,0.0 -78.7787163964038,33.76694338487646,0.0 -78.77873396701236,33.766930990144544,0.0 -78.7787441641517,33.766924715514136,0.0 -78.77874902829171,33.76692220488001,0.0 -78.77875232212986,33.7669206358985,0.0 -78.77875475420075,33.76691953839788,0.0 -78.77875922544226,33.76691812658376,0.0 -78.77876526568014,33.76691655761548,0.0 -78.77877052142422,33.766915930303675,0.0 -78.77877522710385,33.76691553742197,0.0 -78.77877773776105,33.76691553743399,0.0 -78.77878181610737,33.76691585177685,0.0 -78.778786601681,33.76691616481348,0.0 -78.77878918961106,33.76691647914911,0.0 -78.7787992309396,33.7669182826272,0.0 -78.77881186020308,33.76692134210123,0.0 -78.77881452671582,33.766922048031745,0.0 -78.77882393940273,33.76692479447684,0.0 -78.77882676438723,33.76692557898891,0.0 -78.77883570558957,33.766928402702824,0.0 -78.77883813766998,33.766929187213094,0.0 -78.77884025542677,33.76692989314099,0.0 -78.77884919793992,33.766932952597365,0.0 -78.77885163002072,33.76693381568844,0.0 -78.7788608069691,33.76693734532123,0.0 -78.77886402355087,33.766938678591345,0.0 -78.77887445648831,33.766943307052124,0.0 -78.77888269309136,33.76694785692151,0.0 -78.77888535960979,33.76694966036429,0.0 -78.7788888905225,33.766952484052304,0.0 -78.77889108686806,33.766954758977754,0.0 -78.7788943807418,33.76696017190291,0.0 -78.77889461651466,33.7669661335696,0.0 -78.77889391061098,33.766968878656456,0.0 -78.77889171430301,33.766973977232,0.0 -78.77889045833076,33.76697617356023,0.0 -78.77888692877012,33.76698166503352,0.0 -78.77887657451163,33.76699625482448,0.0 -78.77887343654464,33.76700158913807,0.0 -78.77887233904416,33.767003864047744,0.0 -78.7788711616655,33.76700856972413,0.0 -78.77887131883868,33.76701084463982,0.0 -78.77887257483704,33.767013746897824,0.0 -78.77887531994264,33.767016806324534,0.0 -78.77887712337932,33.76701814089752,0.0 -78.77888253630427,33.76702127760815,0.0 -78.77889861659624,33.76702841675333,0.0 -78.77890677461808,33.767032888041534,0.0 -78.77890865794606,33.767034378466924,0.0 -78.77891265772989,33.76703829966935,0.0 -78.7789143839014,33.76704081033509,0.0 -78.77891548273439,33.7670430066745,0.0 -78.77891634451854,33.76704583034973,0.0 -78.77891697319268,33.76705124326213,0.0 -78.77891681604584,33.767054145513285,0.0 -78.77891626730579,33.7670572835051,0.0 -78.77891556009318,33.76706018575363,0.0 -78.77891391384698,33.76706449983325,0.0 -78.7789125020259,33.76706732349762,0.0 -78.77890755932631,33.767073991057295,0.0 -78.77890285366591,33.76707814796053,0.0 -78.77890073592035,33.76707963836689,0.0 -78.77889453852933,33.7670828549124,0.0 -78.77889210645765,33.767083796561074,0.0 -78.77888700788164,33.7670856785475,0.0 -78.77888363545982,33.76708669877247,0.0 -78.7788781439777,33.76708818916259,0.0 -78.77887586906577,33.76708873790789,0.0 -78.77883045202171,33.76709885628199,0.0 -78.7788280199485,33.76709948491705,0.0 -78.77882033213555,33.76710160263355,0.0 -78.77881797864353,33.767102308540046,0.0 -78.77881131107327,33.767104739275155,0.0 -78.7788084874088,33.7671059952452,0.0 -78.77880166268402,33.767109839124785,0.0 -78.77879962352091,33.76711164254505,0.0 -78.77879695702892,33.76711501626922,0.0 -78.77879570107028,33.76711987910682,0.0 -78.77879570108509,33.76712278135872,0.0 -78.77879774160145,33.76712952753262,0.0 -78.77879993795551,33.76713345003621,0.0 -78.77880260448747,33.767137921298065,0.0 -78.77880950785438,33.76714607933081,0.0 -78.77881366479947,33.76714992195318,0.0 -78.77881782305379,33.7671536873044,0.0 -78.77882009797734,33.767155413474136,0.0 -78.77882331325469,33.767157766985335,0.0 -78.77882825469666,33.767161296597834,0.0 -78.77883045234674,33.76716255128227,0.0 -78.77883931628827,33.767167415477964,0.0 -78.77884158989899,33.767168513001,0.0 -78.77885108248424,33.7671728271339,0.0 -78.778853591837,33.76717384738699,0.0 -78.77886316169062,33.76717761276408,0.0 -78.77886582951474,33.767178633017934,0.0 -78.77888700839586,33.767186476795565,0.0 -78.77888967491027,33.76718749704941,0.0 -78.77890089234491,33.76719188977133,0.0 -78.77891101226835,33.76719643833996,0.0 -78.77891901312802,33.76720083235622,0.0 -78.7789214452121,33.767202322784236,0.0 -78.77892889601561,33.76720859749905,0.0 -78.77893187686855,33.76721259858717,0.0 -78.77893321144568,33.76721510794132,0.0 -78.77893438755784,33.76721887327827,0.0 -78.77893462331349,33.767221462517675,0.0 -78.7789345447495,33.7672247563637,0.0 -78.7789341518601,33.76722765861373,0.0 -78.77893329010888,33.767231266779355,0.0 -78.77893242704353,33.76723401317517,0.0 -78.77892983784271,33.767241308083086,0.0 -78.77892230727544,33.767259898961356,0.0 -78.77892136693694,33.76726225245268,0.0 -78.77891768023834,33.76727237102637,0.0 -78.7789154053648,33.76728045043443,0.0 -78.77891477804191,33.76728319552166,0.0 -78.77891391500697,33.767291902273335,0.0 -78.77891399360016,33.76729433435032,0.0 -78.7789145423711,33.76729723660493,0.0 -78.77891548405682,33.767302256614606,0.0 -78.77891768041398,33.76730680645506,0.0 -78.77892018978474,33.767311356297114,0.0 -78.77892756332876,33.767319907236086,0.0 -78.77893548693295,33.76732735804618,0.0 -78.7789548611189,33.76734390988053,0.0 -78.77896403940281,33.767352538099374,0.0 -78.77897243319184,33.76736187354186,0.0 -78.77897933525256,33.76737073749228,0.0 -78.7789805912456,33.76737261950908,0.0 -78.7789863172137,33.76738156203477,0.0 -78.77899188602854,33.76739215213759,0.0 -78.77899541697039,33.767400701748564,0.0 -78.77899620017085,33.76740297666733,0.0 -78.77899761334075,33.76740784082737,0.0 -78.77899847512796,33.76741129183947,0.0 -78.77899902520812,33.767414115513205,0.0 -78.77899941682418,33.767418351021774,0.0 -78.7789997311719,33.767423136595696,0.0 -78.778999103867,33.767429412581514,0.0 -78.77899839666317,33.76743403967926,0.0 -78.77899761349033,33.76743717766996,0.0 -78.77899651468455,33.76744031565907,0.0 -78.77899431838092,33.767446277314136,0.0 -78.77899180774975,33.76745137588819,0.0 -78.77898859251452,33.76745725895752,0.0 -78.77898553312393,33.76746173019199,0.0 -78.778982003561,33.767466750180475,0.0 -78.77898019883233,33.76746886792512,0.0 -78.77897768818947,33.76747169158424,0.0 -78.77897251105102,33.7674771830497,0.0 -78.77896372575483,33.76748494810332,0.0 -78.77895376436446,33.76749247871842,0.0 -78.77895148945815,33.76749412628561,0.0 -78.77892144680777,33.76751514913315,0.0 -78.77891917190136,33.76751679539065,0.0 -78.77888755896241,33.767541347819666,0.0 -78.77888473530234,33.767543465559456,0.0 -78.77887430242545,33.767550683158696,0.0 -78.77887242042121,33.76755193782364,0.0 -78.77886159463867,33.767558841097774,0.0 -78.77885971263395,33.767560017181836,0.0 -78.77884778934046,33.76756715488356,0.0 -78.77884512283937,33.76756872386801,0.0 -78.77883421847237,33.767574921224,0.0 -78.7788315519708,33.76757641162767,0.0 -78.7788068423001,33.76758982525721,0.0 -78.77880370562407,33.76759147151059,0.0 -78.77877883878892,33.76760433638322,0.0 -78.7787759365449,33.76760582678576,0.0 -78.7787500507781,33.767618613072756,0.0 -78.77874762001736,33.76761978915421,0.0 -78.77872306749836,33.767631242192934,0.0 -78.77871992951141,33.76763265401349,0.0 -78.77870722171149,33.767638222714226,0.0 -78.7787043194658,33.76763940010314,0.0 -78.77867317795301,33.76765242079793,0.0 -78.77867043286906,33.76765359687789,0.0 -78.77865968565776,33.767658618141525,0.0 -78.77864823384408,33.76766473560445,0.0 -78.77864611609695,33.767665912997124,0.0 -78.77863670214272,33.7676714031328,0.0 -78.7786338784807,33.76767312927819,0.0 -78.77856249719675,33.76771697834987,0.0 -78.77855943779349,33.76771893892697,0.0 -78.77854861332196,33.76772607663402,0.0 -78.77854649426632,33.76772748976916,0.0 -78.77853755180182,33.767733921567405,0.0 -78.7785351210448,33.76773580356664,0.0 -78.77852712023999,33.767742158098145,0.0 -78.77852539408883,33.76774364850631,0.0 -78.7785172361289,33.76775125640139,0.0 -78.77851543139938,33.76775321829411,0.0 -78.77851080432566,33.76775847401981,0.0 -78.77850915675738,33.76776035602286,0.0 -78.77849778225291,33.76777392687784,0.0 -78.77849613468432,33.76777573029993,0.0 -78.77848962429499,33.767781927677056,0.0 -78.77848507448313,33.76778537866338,0.0 -78.77848021165799,33.767788909538815,0.0 -78.77847809391135,33.767790164202566,0.0 -78.77847448575196,33.76779212477707,0.0 -78.77846970019365,33.767794792573355,0.0 -78.77846750386533,33.76779589007524,0.0 -78.77845746387788,33.76780020411482,0.0 -78.77845416872862,33.767801460082765,0.0 -78.77844522624687,33.76780451814402,0.0 -78.77844302991646,33.767805224051315,0.0 -78.77843346009546,33.767807813244076,0.0 -78.77843102802231,33.76780844056937,0.0 -78.77842875441961,33.76780891073383,0.0 -78.77841863452923,33.76781079400613,0.0 -78.77841620376371,33.76781102973709,0.0 -78.77840718268996,33.76781189146379,0.0 -78.7784048291948,33.767811970033364,0.0 -78.77839439627839,33.767811421227535,0.0 -78.77839219994246,33.76781102962264,0.0 -78.77838874893033,33.76781016652667,0.0 -78.77838600252704,33.767809460595814,0.0 -78.77838255151339,33.76780828317658,0.0 -78.7783791790768,33.76780640114967,0.0 -78.77837619823589,33.767804753557385,0.0 -78.77837415774718,33.767803420292914,0.0 -78.77837047098136,33.767800360861735,0.0 -78.77836819605655,33.767798400259174,0.0 -78.7783663926187,33.76779683125338,0.0 -78.77836011659599,33.76779008505926,0.0 -78.77835862617093,33.76778835889328,0.0 -78.7783445850058,33.76777227856927,0.0 -78.77833650554837,33.767764590706236,0.0 -78.77833179984886,33.76776106109489,0.0 -78.77832850468072,33.76775862900253,0.0 -78.77832615117792,33.767757217155776,0.0 -78.77832215140371,33.76775517796411,0.0 -78.77831869907794,33.76775353036965,0.0 -78.77831642415832,33.76775259000821,0.0 -78.7783061483883,33.76774905906058,0.0 -78.77830387347029,33.76774843171275,0.0 -78.77829320611022,33.7677457651524,0.0 -78.7782704582467,33.767740745038594,0.0 -78.77826763326293,33.767740116378526,0.0 -78.77825602424194,33.767737292652,0.0 -78.77824410089322,33.76773360584455,0.0 -78.77824174739362,33.76773282133468,0.0 -78.7782288051048,33.767727409673206,0.0 -78.77821727333888,33.767721447952546,0.0 -78.77821507699892,33.767720270539286,0.0 -78.77820503695929,33.76771438740672,0.0 -78.77820276203735,33.76771297556026,0.0 -78.77819256483237,33.76770638650907,0.0 -78.77819060423454,33.76770513182577,0.0 -78.77818872090776,33.76770387583321,0.0 -78.77817883671526,33.76769705235068,0.0 -78.77817609161485,33.76769501185536,0.0 -78.77815514712843,33.76767971599698,0.0 -78.77815255919042,33.76767783397379,0.0 -78.77811843664462,33.76765163365267,0.0 -78.77811647604591,33.767650221807706,0.0 -78.77800947997558,33.76756730804424,0.0 -78.77800751937646,33.76756581761847,0.0 -78.77798453570237,33.76754754091739,0.0 -78.77797386700085,33.76753867694883,0.0 -78.77797151480533,33.76753679361704,0.0 -78.77796147344102,33.76752800823234,0.0 -78.77795959142158,33.7675262833741,0.0 -78.77795080604393,33.76751812533237,0.0 -78.77794915845767,33.76751647774642,0.0 -78.77794060751002,33.7675077709497,0.0 -78.77793856832568,33.7675054174441,0.0 -78.77793056743975,33.767495926151284,0.0 -78.77792319388591,33.76748549320121,0.0 -78.77791715358876,33.76747545185192,0.0 -78.77791574173922,33.76747270675489,0.0 -78.7779106431034,33.76746290115256,0.0 -78.7779057802036,33.767451840877584,0.0 -78.77790201482306,33.7674421924433,0.0 -78.7779010731509,33.76743983894293,0.0 -78.777897386342,33.76742838707904,0.0 -78.77789440545081,33.76741693390882,0.0 -78.77789228763703,33.7674050891482,0.0 -78.77789118875043,33.76739245989396,0.0 -78.77789158159223,33.76738030213171,0.0 -78.77789307194537,33.7673679872131,0.0 -78.7778953467986,33.76735598531179,0.0 -78.77789597412064,33.76735308306282,0.0 -78.77789832756437,33.76734296317282,0.0 -78.7779112695692,33.767292917723324,0.0 -78.77791189689324,33.76729040706878,0.0 -78.77791385874825,33.767281387308536,0.0 -78.77791440749142,33.76727887665363,0.0 -78.77791676092032,33.7672658558213,0.0 -78.77791832985667,33.76725401107838,0.0 -78.77791864285781,33.76725157900322,0.0 -78.77792209368712,33.767216750686075,0.0 -78.77792240799798,33.76721431861092,0.0 -78.77792413409558,33.767202395287875,0.0 -78.77792680054571,33.76719086487348,0.0 -78.7779287611075,33.76718506037892,0.0 -78.77793088014135,33.767179411737,0.0 -78.77793370378649,33.76717439174513,0.0 -78.77793558578026,33.767171097907735,0.0 -78.77793691902481,33.767169136012676,0.0 -78.77794068433462,33.767164979104756,0.0 -78.7779435865698,33.767161762543324,0.0 -78.77794531272005,33.76716011628319,0.0 -78.77794986253114,33.7671565068255,0.0 -78.77795543127071,33.76715234992621,0.0 -78.7779610013241,33.76714897752557,0.0 -78.77796743314505,33.76714521222484,0.0 -78.77797802319346,33.76713995652765,0.0 -78.7779804552639,33.76713877913657,0.0 -78.77799229998816,33.767133916349536,0.0 -78.7779947307501,33.767132974700836,0.0 -78.77800579098108,33.76712913084144,0.0 -78.77800790873064,33.767128424933794,0.0 -78.77802108802283,33.76712426807091,0.0 -78.77802430328326,33.76712332642597,0.0 -78.77807787961005,33.767108188085324,0.0 -78.77808086043777,33.767107246439345,0.0 -78.77809231226476,33.7671037169051,0.0 -78.778094822918,33.767102932418545,0.0 -78.77810753072364,33.76709846123007,0.0 -78.77810988421483,33.76709759816188,0.0 -78.77812125745582,33.767093048386236,0.0 -78.77812455260396,33.76709155798567,0.0 -78.77813490691204,33.76708669519144,0.0 -78.77813733898242,33.76708551780037,0.0 -78.77814832062181,33.767079556187234,0.0 -78.77815035978819,33.76707838010391,0.0 -78.77816196875997,33.76707155541434,0.0 -78.77817475512883,33.76706363321821,0.0 -78.77817726577719,33.76706190707134,0.0 -78.77818903190592,33.76705414203193,0.0 -78.77821138676097,33.767038689218815,0.0 -78.77821405457058,33.767036884491816,0.0 -78.77824833270762,33.76701201906198,0.0 -78.77825092193606,33.76701013575382,0.0 -78.778273042352,33.766993428265586,0.0 -78.77827523867704,33.76699170211722,0.0 -78.77829610442004,33.76697515178468,0.0 -78.77829837932558,33.766973347055895,0.0</coordinates>
                    </LinearRing>
                </outerBoundaryIs>
            </Polygon>
        </Placemark>
    </Document>
</kml>
