<?xml version="1.0" encoding="UTF-8"?>
<kml xmlns="http://www.opengis.net/kml/2.2" xmlns:gx="http://www.google.com/kml/ext/2.2">
    <Document id="1933">
        <Style id="1940">
            <LineStyle id="1942">
                <colorMode>normal</colorMode>
                <width>1</width>
            </LineStyle>
            <PolyStyle id="1941">
                <color>80ebce87</color>
                <colorMode>normal</colorMode>
                <fill>1</fill>
                <outline>1</outline>
            </PolyStyle>
        </Style>
        <Style id="1949">
            <LineStyle id="1951">
                <colorMode>normal</colorMode>
                <width>1</width>
            </LineStyle>
            <PolyStyle id="1950">
                <color>80ebce87</color>
                <colorMode>normal</colorMode>
                <fill>1</fill>
                <outline>1</outline>
            </PolyStyle>
        </Style>
        <Style id="1958">
            <LineStyle id="1960">
                <colorMode>normal</colorMode>
                <width>1</width>
            </LineStyle>
            <PolyStyle id="1959">
                <color>80ebce87</color>
                <colorMode>normal</colorMode>
                <fill>1</fill>
                <outline>1</outline>
            </PolyStyle>
        </Style>
        <Style id="1967">
            <LineStyle id="1969">
                <colorMode>normal</colorMode>
                <width>1</width>
            </LineStyle>
            <PolyStyle id="1968">
                <color>80ebce87</color>
                <colorMode>normal</colorMode>
                <fill>1</fill>
                <outline>1</outline>
            </PolyStyle>
        </Style>
        <Style id="1976">
            <LineStyle id="1978">
                <colorMode>normal</colorMode>
                <width>1</width>
            </LineStyle>
            <PolyStyle id="1977">
                <color>80ebce87</color>
                <colorMode>normal</colorMode>
                <fill>1</fill>
                <outline>1</outline>
            </PolyStyle>
        </Style>
        <Style id="1985">
            <LineStyle id="1987">
                <colorMode>normal</colorMode>
                <width>1</width>
            </LineStyle>
            <PolyStyle id="1986">
                <color>80ebce87</color>
                <colorMode>normal</colorMode>
                <fill>1</fill>
                <outline>1</outline>
            </PolyStyle>
        </Style>
        <Style id="1994">
            <LineStyle id="1996">
                <colorMode>normal</colorMode>
                <width>1</width>
            </LineStyle>
            <PolyStyle id="1995">
                <color>80ebce87</color>
                <colorMode>normal</colorMode>
                <fill>1</fill>
                <outline>1</outline>
            </PolyStyle>
        </Style>
        <Style id="2003">
            <LineStyle id="2005">
                <colorMode>normal</colorMode>
                <width>1</width>
            </LineStyle>
            <PolyStyle id="2004">
                <color>80ebce87</color>
                <colorMode>normal</colorMode>
                <fill>1</fill>
                <outline>1</outline>
            </PolyStyle>
        </Style>
        <Style id="2012">
            <LineStyle id="2014">
                <colorMode>normal</colorMode>
                <width>1</width>
            </LineStyle>
            <PolyStyle id="2013">
                <color>80ebce87</color>
                <colorMode>normal</colorMode>
                <fill>1</fill>
                <outline>1</outline>
            </PolyStyle>
        </Style>
        <Style id="2021">
            <LineStyle id="2023">
                <colorMode>normal</colorMode>
                <width>1</width>
            </LineStyle>
            <PolyStyle id="2022">
                <color>80ebce87</color>
                <colorMode>normal</colorMode>
                <fill>1</fill>
                <outline>1</outline>
            </PolyStyle>
        </Style>
        <Placemark id="1935">
            <name>Flood_210</name>
            <styleUrl>#1940</styleUrl>
            <Polygon id="1934">
                <outerBoundaryIs>
                    <LinearRing id="1938">
                        <coordinates>-79.11341996801475,33.68876317001294,0.0 -79.1134592673834,33.688667314879694,0.0 -79.11350288080278,33.688510980256034,0.0 -79.11355182854969,33.688446815331304,0.0 -79.1135669670594,33.68839261180216,0.0 -79.11357010501881,33.68831762242071,0.0 -79.11356618253426,33.68827902891346,0.0 -79.11355284741933,33.68823392501264,0.0 -79.11348734927074,33.688115320841064,0.0 -79.1134977821267,33.688082297379786,0.0 -79.1134810732843,33.68801162076222,0.0 -79.11345958020787,33.68796290870776,0.0 -79.11346067901844,33.687939846637384,0.0 -79.1134678167392,33.68792627709165,0.0 -79.11351433243351,33.687909176654514,0.0 -79.11352421654279,33.68790164602056,0.0 -79.11353229591859,33.68788525150527,0.0 -79.1135448464833,33.68772350530978,0.0 -79.11356571218964,33.68763674849363,0.0 -79.11356751691366,33.68761054844159,0.0 -79.11353496361896,33.68748833741843,0.0 -79.11352256881261,33.687302037437135,0.0 -79.1135103325206,33.68727983844513,0.0 -79.11346750354313,33.68723606910837,0.0 -79.11345463860329,33.68719778861506,0.0 -79.11345236369013,33.68716390208004,0.0 -79.11346538575602,33.687070949192055,0.0 -79.11346248350807,33.687034003256045,0.0 -79.11344773526208,33.68701611833439,0.0 -79.1134046718639,33.68701298036017,0.0 -79.11341071206847,33.686964661203305,0.0 -79.1133824728588,33.68690990892789,0.0 -79.11339306155978,33.686853900667316,0.0 -79.11338113826889,33.68679005007559,0.0 -79.11338388460824,33.68661167362632,0.0 -79.11337101966176,33.68654813604717,0.0 -79.11338270718014,33.68649487417518,0.0 -79.1133937673719,33.68646945861701,0.0 -79.11341039760931,33.68644859286928,0.0 -79.11344091170132,33.68642184405845,0.0 -79.1134811514357,33.686402312865894,0.0 -79.11350319324305,33.68636693591643,0.0 -79.11351950914789,33.68630590767007,0.0 -79.11352099954881,33.68627476621362,0.0 -79.11351676405786,33.68625774436615,0.0 -79.11349142709292,33.68622762315105,0.0 -79.113490329583,33.68621664152495,0.0 -79.113528217142,33.68619522701989,0.0 -79.11360399095706,33.68617734208321,0.0 -79.1136412511876,33.6861762432595,0.0 -79.11371812382984,33.68619797206755,0.0 -79.11381664669278,33.6862065216106,0.0 -79.11398984588614,33.68628017902292,0.0 -79.11406789461347,33.686292572466016,0.0 -79.1141345701367,33.686329361230264,0.0 -79.11424352587115,33.68636317047639,0.0 -79.1142647046166,33.68637815184709,0.0 -79.11427317690395,33.68639650825266,0.0 -79.11424015218418,33.68648757914004,0.0 -79.1143080823403,33.68639509641702,0.0 -79.11432047709012,33.686370386773646,0.0 -79.1143258886572,33.68634591287295,0.0 -79.11431945683997,33.686319085488044,0.0 -79.11429223787668,33.68630253512754,0.0 -79.11420077415413,33.68628135507604,0.0 -79.11413480586275,33.686272962688605,0.0 -79.11403549849888,33.68624189982957,0.0 -79.11399070763377,33.686213660621085,0.0 -79.11391744314832,33.68620864064834,0.0 -79.11377217014393,33.68615733938647,0.0 -79.11363528954166,33.686142435305676,0.0 -79.11361277624282,33.68614447447362,0.0 -79.11355700508108,33.686159850069444,0.0 -79.11352523631403,33.68615930001104,0.0 -79.11338451181558,33.68613561062993,0.0 -79.11335054671957,33.68611490205165,0.0 -79.11333030832328,33.6861111367389,0.0 -79.11333376060655,33.686043755260336,0.0 -79.11330214766923,33.68596217690863,0.0 -79.11328881256675,33.68596264708421,0.0 -79.11325045483545,33.68598712099044,0.0 -79.11324386586428,33.685985866322746,0.0 -79.11323813996576,33.6859746489558,0.0 -79.11323727688199,33.68594264442373,0.0 -79.1132646529944,33.68591573976217,0.0 -79.11324755257493,33.68590209033023,0.0 -79.11324817990598,33.68589110870382,0.0 -79.11325555336865,33.685879969915284,0.0 -79.1132763405138,33.68586624189667,0.0 -79.11324927870731,33.68583345418313,0.0 -79.1132799486522,33.68581337292865,0.0 -79.11333674136107,33.685802940046976,0.0 -79.1134140841528,33.68573704896679,0.0 -79.11343008575187,33.68573657879081,0.0 -79.11346546398681,33.68575893494026,0.0 -79.11347644560537,33.68576089552223,0.0 -79.11354814109252,33.685734382446405,0.0 -79.11364140822536,33.685716027333804,0.0 -79.11364713411939,33.68571037870391,0.0 -79.11364501637502,33.68570598605365,0.0 -79.11360124574395,33.68566849137031,0.0 -79.1136059527081,33.68565021485254,0.0 -79.11362258163803,33.685638055825585,0.0 -79.11370314101177,33.68565546925366,0.0 -79.1138113908177,33.68563876171002,0.0 -79.11383900267856,33.68563852596406,0.0 -79.11384982713702,33.68564315435431,0.0 -79.11388598856007,33.68567672787142,0.0 -79.11396042913846,33.68570331950394,0.0 -79.11400098451477,33.68572316500524,0.0 -79.11408217122163,33.68573704885844,0.0 -79.11412484303025,33.68575281603086,0.0 -79.1141968528599,33.68580301848756,0.0 -79.11423623083806,33.68581886424095,0.0 -79.11425482035793,33.685835023010064,0.0 -79.1142825893967,33.68589722733706,0.0 -79.11430157182107,33.68592138691178,0.0 -79.11431828064657,33.685929466295114,0.0 -79.11436346309837,33.68593621242446,0.0 -79.11437899452756,33.685947194048104,0.0 -79.11438825000907,33.68599872976423,0.0 -79.11442323534784,33.68604297189509,0.0 -79.11441460591325,33.6860747406869,0.0 -79.11437562085055,33.68610776415248,0.0 -79.11437852309095,33.68611654945305,0.0 -79.11439366292643,33.686123217006816,0.0 -79.11443390266577,33.6861221967632,0.0 -79.11446214185702,33.686108627214196,0.0 -79.11456952854309,33.685928133004644,0.0 -79.11458811936237,33.68590656134198,0.0 -79.11459470833246,33.68590389484228,0.0 -79.11461000402095,33.68591707279128,0.0 -79.11462663426268,33.685912835989406,0.0 -79.11463306607382,33.6859173072193,0.0 -79.11461361218136,33.685946173772685,0.0 -79.11460427814224,33.68597857120868,0.0 -79.1145823934992,33.68602485120334,0.0 -79.11456137062981,33.686100782243535,0.0 -79.11449948070299,33.68623578095002,0.0 -79.11446057292393,33.686315948792455,0.0 -79.11439021071126,33.686438787166615,0.0 -79.11437687561876,33.68647596884677,0.0 -79.11436573685518,33.6865329960342,0.0 -79.1142725483325,33.6866619545245,0.0 -79.11425231125692,33.6866993706377,0.0 -79.11422320900908,33.68678228355796,0.0 -79.11417951698276,33.68683625134989,0.0 -79.11416061315418,33.6868688832195,0.0 -79.11411362600789,33.68699792028288,0.0 -79.11405071587083,33.68723151919493,0.0 -79.11397148983484,33.687548815521055,0.0 -79.1139773728948,33.68756152329809,0.0 -79.11401275110683,33.6874975928083,0.0 -79.11403243943418,33.687479001965805,0.0 -79.11402608621256,33.6875087315932,0.0 -79.11403275376854,33.68752567485965,0.0 -79.11402192801008,33.68755720922026,0.0 -79.11402679216275,33.687640983901055,0.0 -79.11401808416149,33.687724602732864,0.0 -79.11403620482915,33.68778123832249,0.0 -79.11403220378376,33.68781590935393,0.0 -79.11404098909455,33.68787591735867,0.0 -79.11403345978805,33.68791451086793,0.0 -79.11400153387743,33.68797953886494,0.0 -79.11400529920505,33.6880325649924,0.0 -79.11399125819875,33.688073119086525,0.0 -79.11398466923816,33.68811139827339,0.0 -79.11398843455947,33.68814104931852,0.0 -79.11400600516151,33.68818842812412,0.0 -79.1140172997964,33.68820497979677,0.0 -79.11403338128697,33.6882085093684,0.0 -79.11401659389492,33.68825298594013,0.0 -79.11401196681551,33.688251181208564,0.0 -79.11400090661724,33.68825322168451,0.0 -79.11399078677316,33.68828451899385,0.0 -79.1139778445726,33.68828483331829,0.0 -79.11397345192698,33.68829103070192,0.0 -79.11396976520322,33.68832491723787,0.0 -79.11398459072419,33.688357940694495,0.0 -79.11398623698886,33.68837355071251,0.0 -79.11397964802124,33.68838547399645,0.0 -79.11395697887413,33.68840006378198,0.0 -79.11399055238303,33.68843865728353,0.0 -79.11398733582571,33.68844814850001,0.0 -79.11396419519663,33.68846524893295,0.0 -79.11395901805948,33.688483839772935,0.0 -79.11396968667417,33.68851537281996,0.0 -79.11398074687705,33.68853066982378,0.0 -79.11397713872867,33.68854596552079,0.0 -79.11401298583576,33.68859836430785,0.0 -79.11400796586231,33.68862730943961,0.0 -79.11398435506761,33.68867202044448,0.0 -79.11399384629513,33.688740422157295,0.0 -79.11399094406136,33.68875650234954,0.0 -79.11393046594091,33.6888136081272,0.0 -79.1139010506742,33.688874007732025,0.0 -79.11387328165542,33.68888750001091,0.0 -79.11383272759471,33.688892520003485,0.0 -79.11377781819199,33.68888702985552,0.0 -79.11371969353613,33.6888703210307,0.0 -79.11369741597471,33.68885933940856,0.0 -79.1136901210856,33.68884529838239,0.0 -79.11368847350202,33.68879533165569,0.0 -79.11367584430864,33.68877689798002,0.0 -79.11366054862151,33.68876952451168,0.0 -79.11362258249237,33.68883196328255,0.0 -79.11358555802636,33.68892193666405,0.0 -79.11356837903514,33.68894280110248,0.0 -79.11354994537318,33.68895244948292,0.0 -79.11354327781659,33.68893330989131,0.0 -79.11354398370685,33.68884286765285,0.0 -79.11356037817656,33.68872245873394,0.0 -79.11355880918431,33.68871320325974,0.0 -79.1135544951181,33.688715321005326,0.0 -79.11353951245059,33.688736029591915,0.0 -79.11352813924822,33.6887679555457,0.0 -79.11342647851444,33.68917310619873,0.0 -79.11339392527324,33.689252881139076,0.0 -79.11337862959411,33.689275707470614,0.0 -79.1133701573121,33.689277512204576,0.0 -79.11335846977056,33.68924456601815,0.0 -79.11336450997636,33.68920056093119,0.0 -79.11335917566244,33.689159535357405,0.0 -79.1133836494888,33.68895009733779,0.0 -79.11337957114614,33.68888538235924,0.0 -79.11339949520675,33.68883580722118,0.0 -79.11341996801475,33.68876317001294,0.0</coordinates>
                    </LinearRing>
                </outerBoundaryIs>
            </Polygon>
        </Placemark>
        <Placemark id="1944">
            <name>Flood_211</name>
            <styleUrl>#1949</styleUrl>
            <Polygon id="1943">
                <outerBoundaryIs>
                    <LinearRing id="1947">
                        <coordinates>-79.12128695122419,33.6868367988855,0.0 -79.12129675675254,33.68682934683252,0.0 -79.12134664486943,33.68685209588029,0.0 -79.121428538812,33.68689916035005,0.0 -79.12145834569333,33.68691861425865,0.0 -79.1214705047131,33.68693281244411,0.0 -79.12147756386464,33.68695642326535,0.0 -79.12147826978898,33.68698779915121,0.0 -79.12145991471996,33.687034550625846,0.0 -79.1214557578279,33.68707808553603,0.0 -79.12144359881903,33.687098166786164,0.0 -79.12142312599676,33.68711338521426,0.0 -79.12131966174526,33.68714633010907,0.0 -79.1213082872282,33.68715715457558,0.0 -79.12129793295303,33.68718555095262,0.0 -79.12128561808943,33.6871949635896,0.0 -79.12122780645022,33.687193081596604,0.0 -79.12120317540943,33.687199121822324,0.0 -79.12113642133002,33.68724548040305,0.0 -79.12108551299286,33.68727356246517,0.0 -79.12106323544052,33.6872919175655,0.0 -79.12098424508766,33.68737867438627,0.0 -79.1209392983971,33.68743734914787,0.0 -79.12082995111088,33.687540656338335,0.0 -79.12063878851153,33.68775495850776,0.0 -79.12058270303966,33.68780704429629,0.0 -79.12050269244952,33.68789238797851,0.0 -79.12041177881783,33.687965652529414,0.0 -79.12036000741595,33.688028562781994,0.0 -79.12025881808795,33.68812677271653,0.0 -79.11998599864064,33.688441088242044,0.0 -79.1198348413288,33.68859404915413,0.0 -79.11981170070551,33.688628014272524,0.0 -79.11937650790398,33.68912980589356,0.0 -79.11929539849167,33.68920110855087,0.0 -79.11916573554826,33.68934316641546,0.0 -79.11896743521677,33.68954664412732,0.0 -79.11891197707632,33.68959496460131,0.0 -79.11879596093041,33.6897126271458,0.0 -79.11877007522567,33.68973349289476,0.0 -79.11874960240696,33.68976267246032,0.0 -79.1187230107875,33.68978251797252,0.0 -79.11870057607037,33.68979044151137,0.0 -79.11870057606629,33.6897768706578,0.0 -79.1187405813536,33.68970493936367,0.0 -79.1187696836143,33.689670974243604,0.0 -79.11879015643167,33.68963747929852,0.0 -79.11884585030852,33.68957284420157,0.0 -79.11890656415925,33.6894838910561,0.0 -79.11891142697829,33.68947941982437,0.0 -79.11892429190816,33.68947926266087,0.0 -79.11893252844696,33.68947165344688,0.0 -79.11895951164982,33.689421216543394,0.0 -79.11899614453236,33.689371484243324,0.0 -79.11920197548191,33.68913984589622,0.0 -79.1192923390488,33.68905677580618,0.0 -79.11937391862601,33.68895903735686,0.0 -79.1195067981288,33.68881729381437,0.0 -79.11952084044599,33.68878544644215,0.0 -79.11950609219365,33.6887492850056,0.0 -79.11951001466396,33.68873642006634,0.0 -79.11953605753062,33.688719712536106,0.0 -79.11958782894946,33.68871029989145,0.0 -79.1196167740532,33.68869045437919,0.0 -79.11982119186897,33.68847999479071,0.0 -79.11986409939992,33.68842908640189,0.0 -79.12001502097144,33.6882800466573,0.0 -79.12036243943317,33.68787505314425,0.0 -79.1211263027195,33.687031727024085,0.0 -79.12117846702058,33.686961128979476,0.0 -79.12128695122419,33.6868367988855,0.0</coordinates>
                    </LinearRing>
                </outerBoundaryIs>
            </Polygon>
        </Placemark>
        <Placemark id="1953">
            <name>Flood_212</name>
            <styleUrl>#1958</styleUrl>
            <Polygon id="1952">
                <outerBoundaryIs>
                    <LinearRing id="1956">
                        <coordinates>-79.11740919277709,33.689861665827216,0.0 -79.11741695914009,33.689844095224124,0.0 -79.11742597885012,33.68978808827521,0.0 -79.11741907686192,33.689770987848384,0.0 -79.1173942886534,33.68975529925481,0.0 -79.11740268233741,33.689693487825885,0.0 -79.1173735800559,33.68965716923057,0.0 -79.11735522495043,33.68958461061264,0.0 -79.11732792734874,33.689372190479595,0.0 -79.11732745716635,33.68933987293624,0.0 -79.11733522221331,33.68930057351312,0.0 -79.11732729998957,33.68928574799219,0.0 -79.11730949365781,33.68928182551861,0.0 -79.1172992179562,33.689289983486916,0.0 -79.11727474409834,33.68937321072678,0.0 -79.11725787942552,33.68938074005243,0.0 -79.1172490941304,33.68937909379249,0.0 -79.1172412491795,33.689370935827576,0.0 -79.1172544271061,33.689318144130205,0.0 -79.11726133037821,33.68924699733714,0.0 -79.11729451097071,33.68923389796005,0.0 -79.11730000243078,33.68922032710536,0.0 -79.11729043261249,33.689121491163874,0.0 -79.11727819500568,33.68908415232817,0.0 -79.1172675277091,33.68908368215681,0.0 -79.11726172323799,33.689101095598474,0.0 -79.11726893957572,33.689213738135756,0.0 -79.1172652528452,33.68922205326382,0.0 -79.11725230933637,33.689227151831545,0.0 -79.11718155549411,33.68921946405213,0.0 -79.11710491728986,33.68922652452545,0.0 -79.11699596286932,33.68921671900852,0.0 -79.11697729346439,33.68922032716713,0.0 -79.1169561147284,33.68924040841996,0.0 -79.11694536754277,33.689244016577064,0.0 -79.11691461900739,33.689229975555804,0.0 -79.11686222024743,33.68921569879717,0.0 -79.11676746269394,33.68920056028045,0.0 -79.11665897713956,33.68920009012781,0.0 -79.11658241882697,33.689212562178845,0.0 -79.11652350836745,33.689200717488035,0.0 -79.11640286641463,33.6891920880617,0.0 -79.11629289044205,33.68916024071229,0.0 -79.11621641068957,33.68910101852673,0.0 -79.11616769734978,33.68907568156058,0.0 -79.11614377352541,33.68905669782401,0.0 -79.1160785883933,33.68896170578855,0.0 -79.11607615632393,33.68894625293199,0.0 -79.11608470717756,33.68891354248397,0.0 -79.1160956887928,33.68890248227538,0.0 -79.11611851510254,33.68889479447795,0.0 -79.11625923959464,33.68888616631162,0.0 -79.11635493748989,33.68888695078901,0.0 -79.11649879995922,33.688870634828916,0.0 -79.11655763052846,33.688882479519826,0.0 -79.11664666217806,33.68886992888618,0.0 -79.11670008117132,33.68887447868753,0.0 -79.11679295540709,33.68886883004111,0.0 -79.1168502182883,33.688853221322084,0.0 -79.11691422599392,33.688844827602075,0.0 -79.11704169395497,33.68880678282518,0.0 -79.11707777678764,33.688800978338264,0.0 -79.11709660335514,33.688803174659924,0.0 -79.11717002369876,33.68882764854524,0.0 -79.11720830417958,33.68887275243992,0.0 -79.11723717072901,33.68894154574002,0.0 -79.11724336679836,33.688943742064126,0.0 -79.11724956417572,33.68894013390793,0.0 -79.11725379965826,33.68892679879489,0.0 -79.11724422985354,33.68887455716552,0.0 -79.11719292985818,33.688680962307,0.0 -79.11712531263501,33.68849780163305,0.0 -79.11707612909925,33.68839284689639,0.0 -79.11701918051223,33.68831260049219,0.0 -79.11699015810962,33.688236277869414,0.0 -79.11691077478542,33.688093669978,0.0 -79.11689038053042,33.688065117754114,0.0 -79.11687092662484,33.68804833165145,0.0 -79.11685500229541,33.68804566384606,0.0 -79.11681915520501,33.68805405756052,0.0 -79.11684002092089,33.68800683591008,0.0 -79.11684072683072,33.68799106873099,0.0 -79.11679099454855,33.687909724817345,0.0 -79.1166588208682,33.687737152877425,0.0 -79.11652107714804,33.68757925060934,0.0 -79.11639392345114,33.687412483148044,0.0 -79.1163796466849,33.687385421333076,0.0 -79.11636458542822,33.68737388964615,0.0 -79.1163488981435,33.68734878841512,0.0 -79.11630795117031,33.68731623513709,0.0 -79.1163118736433,33.68731192106647,0.0 -79.11633587604189,33.68731011763958,0.0 -79.11633877827846,33.687305017764075,0.0 -79.11633344397238,33.68729442904153,0.0 -79.116280810778,33.68726783740662,0.0 -79.11624990376629,33.68723214614511,0.0 -79.11622927377422,33.68721802654101,0.0 -79.11621358517625,33.68718029611264,0.0 -79.11617820824372,33.68713472204316,0.0 -79.11616369704174,33.68709291197641,0.0 -79.1161927207363,33.68710922790437,0.0 -79.11621742905606,33.68713142689372,0.0 -79.11627853585627,33.68720610324993,0.0 -79.11631085339037,33.68725356063265,0.0 -79.11636929237741,33.687304077411966,0.0 -79.11641235710096,33.68736157476236,0.0 -79.11650734910735,33.687454527629,0.0 -79.11662642341427,33.687586937074016,0.0 -79.11670251158367,33.68768106734156,0.0 -79.11678958267926,33.68776900022425,0.0 -79.11681766472859,33.68782100741888,0.0 -79.11689155657507,33.687916862528624,0.0 -79.11693344390414,33.687982361993896,0.0 -79.11699470655692,33.68805931325494,0.0 -79.11715033522826,33.68835213563126,0.0 -79.11722642341621,33.68850776431311,0.0 -79.1172631349276,33.68862260186034,0.0 -79.11733137817231,33.68879572256426,0.0 -79.11738526739653,33.6889990430695,0.0 -79.11743931383187,33.689373366546384,0.0 -79.11745814052722,33.68981264074852,0.0 -79.11746378785219,33.68984582136673,0.0 -79.11745939520715,33.68985358643148,0.0 -79.11744982541842,33.68985648867341,0.0 -79.11742339095308,33.68985366501903,0.0 -79.11741837097433,33.68986276464281,0.0 -79.11740919277709,33.689861665827216,0.0</coordinates>
                    </LinearRing>
                </outerBoundaryIs>
            </Polygon>
        </Placemark>
        <Placemark id="1962">
            <name>Flood_213</name>
            <styleUrl>#1967</styleUrl>
            <Polygon id="1961">
                <outerBoundaryIs>
                    <LinearRing id="1965">
                        <coordinates>-79.12954339711851,33.687987458276055,0.0 -79.12947993813832,33.687917331739925,0.0 -79.12943640325187,33.68790085865567,0.0 -79.12943773649663,33.68789113169922,0.0 -79.12944636593834,33.687886739047734,0.0 -79.12950809873821,33.68787693349994,0.0 -79.12951923751484,33.687869952930185,0.0 -79.12950315733171,33.68786132348455,0.0 -79.12943632465229,33.68784900862262,0.0 -79.12940118346599,33.687827672713475,0.0 -79.12934697995263,33.68775464393576,0.0 -79.12933686139851,33.68772420840031,0.0 -79.12932077990183,33.68770491165175,0.0 -79.12928046155224,33.68762607708211,0.0 -79.12928265787377,33.68762035118255,0.0 -79.12929709048197,33.68761619427162,0.0 -79.129309955408,33.68760607441062,0.0 -79.12933231153245,33.68756748221349,0.0 -79.1292810102686,33.687525514997,0.0 -79.12927395110363,33.68746825338789,0.0 -79.12929018844031,33.687457271760195,0.0 -79.1293019545531,33.68745656584331,0.0 -79.12930736745113,33.687496021111336,0.0 -79.1293151325113,33.68750080666238,0.0 -79.12933733148479,33.68748919638958,0.0 -79.12938392576076,33.687480568242506,0.0 -79.12942855947075,33.687515866595106,0.0 -79.1294496596352,33.68752504479379,0.0 -79.1294768000248,33.687554852991866,0.0 -79.12948401763988,33.68755618623973,0.0 -79.12949296009276,33.687549204360685,0.0 -79.12949617534392,33.68755179358766,0.0 -79.12951625658019,33.68755634339494,0.0 -79.12952064923014,33.68756363828392,0.0 -79.12948582107063,33.68758152321182,0.0 -79.12948213433953,33.687586307455256,0.0 -79.12948652698978,33.68759438683952,0.0 -79.12964599950016,33.68767714255475,0.0 -79.12965925602657,33.68768812548687,0.0 -79.12966725683437,33.687710010154646,0.0 -79.12971110603166,33.68769706662874,0.0 -79.12972789212667,33.687698635616364,0.0 -79.12977644699605,33.68772005010354,0.0 -79.12979566516896,33.68775644727786,0.0 -79.12981409882767,33.68774091583877,0.0 -79.12984006312554,33.68775911507791,0.0 -79.12985237931122,33.687784450738405,0.0 -79.12983182791608,33.68781794568,0.0 -79.12982876852406,33.68783653651701,0.0 -79.12983402424987,33.68784524323542,0.0 -79.12986038013258,33.68784241957138,0.0 -79.1298656358588,33.68785222510718,0.0 -79.12985543874545,33.68787920834279,0.0 -79.12984594624578,33.6879301167212,0.0 -79.1298270424172,33.68795419902836,0.0 -79.12981723688762,33.687957415591825,0.0 -79.12980782425805,33.68795466920507,0.0 -79.12974695320189,33.68790540841059,0.0 -79.12963258588883,33.687870893256424,0.0 -79.12960356219844,33.687870031495464,0.0 -79.12959022709876,33.68787858105632,0.0 -79.12959540424349,33.68788548435219,0.0 -79.129724911393,33.687926980071445,0.0 -79.12975573851101,33.68794455066552,0.0 -79.12976891776839,33.68796000351838,0.0 -79.12975817058557,33.68797012206937,0.0 -79.12973157896185,33.687974123131234,0.0 -79.12964388186094,33.687957337042704,0.0 -79.12957712776637,33.68795686557183,0.0 -79.12966513919288,33.68798377151899,0.0 -79.12968882858874,33.688007382335435,0.0 -79.129684278782,33.68801130481285,0.0 -79.12963925349366,33.688014834395204,0.0 -79.1295829322563,33.68799404724386,0.0 -79.12954339711851,33.687987458276055,0.0</coordinates>
                    </LinearRing>
                </outerBoundaryIs>
            </Polygon>
        </Placemark>
        <Placemark id="1971">
            <name>Flood_214</name>
            <styleUrl>#1976</styleUrl>
            <Polygon id="1970">
                <outerBoundaryIs>
                    <LinearRing id="1974">
                        <coordinates>-79.13229975644998,33.689675913006475,0.0 -79.1322908139883,33.68966022572155,0.0 -79.13225473115565,33.68966508855173,0.0 -79.13220688220669,33.6896619505798,0.0 -79.13218719255552,33.68963904567819,0.0 -79.13213573544604,33.68961504327511,0.0 -79.13214099116259,33.68959927609714,0.0 -79.13213620561135,33.68959504060925,0.0 -79.13204913583601,33.689559898117786,0.0 -79.13200709136356,33.68955746605956,0.0 -79.13194080744988,33.68957911630928,0.0 -79.13191484446772,33.68957817465807,0.0 -79.13191170648521,33.689570331015275,0.0 -79.13191837403245,33.68955934938939,0.0 -79.13196332073375,33.689537856304746,0.0 -79.13197798908047,33.689525854440426,0.0 -79.13198136279297,33.68950436136385,0.0 -79.13196449680113,33.68948569195045,0.0 -79.13194700479166,33.68948443728518,0.0 -79.13190237109733,33.68949243809824,0.0 -79.13186213134493,33.68946153239617,0.0 -79.13178070888141,33.689417055849894,0.0 -79.13176502029545,33.68942074258797,0.0 -79.13171419054201,33.689454001793685,0.0 -79.13165833948457,33.6894532958896,0.0 -79.13163002301638,33.68944874608432,0.0 -79.1316156676732,33.689438157364876,0.0 -79.13158617379334,33.689395249799055,0.0 -79.13155934642205,33.68938348368437,0.0 -79.13153479396135,33.689388503673186,0.0 -79.13149478865873,33.68940450528979,0.0 -79.13147274684667,33.68941768324358,0.0 -79.13145752974845,33.689434862253144,0.0 -79.13140097278799,33.689463807390766,0.0 -79.13138669735235,33.68949894990214,0.0 -79.13133908283731,33.6895014592486,0.0 -79.1313173540356,33.68951008870121,0.0 -79.13130543076652,33.689523266653175,0.0 -79.13129719555448,33.689574410772245,0.0 -79.13129021367851,33.689567271735314,0.0 -79.13129437058105,33.689558250693246,0.0 -79.1312854281227,33.6895509558054,0.0 -79.1312594651412,33.689551740305696,0.0 -79.13125224752513,33.68954805357203,0.0 -79.13124754185452,33.689518795434,0.0 -79.1312354614134,33.68950287109826,0.0 -79.13119686793739,33.689513146815685,0.0 -79.13117764977159,33.68949683088846,0.0 -79.13116164817163,33.689495890545,0.0 -79.13113638980472,33.68952248219062,0.0 -79.13113662555567,33.68954766200171,0.0 -79.13112674145471,33.68957511672016,0.0 -79.13111677876809,33.68958868626454,0.0 -79.13110391514982,33.68959386341224,0.0 -79.13108328515838,33.689585549599485,0.0 -79.13100774574671,33.6895281295341,0.0 -79.13100578516021,33.689517147909726,0.0 -79.13101049081712,33.689510401773006,0.0 -79.13103873000881,33.68950020463821,0.0 -79.13105896840501,33.68950122356139,0.0 -79.1310712832798,33.68952256078379,0.0 -79.13109175610376,33.689513461157986,0.0 -79.13109975690095,33.68950647927916,0.0 -79.13110179736226,33.68947722113969,0.0 -79.1311135634687,33.6894594147965,0.0 -79.13109771771379,33.68944223579289,0.0 -79.13103480750272,33.68941650724002,0.0 -79.13101449182687,33.6893919547671,0.0 -79.13100296012415,33.68933626215057,0.0 -79.131013785878,33.68930119822024,0.0 -79.13101166812744,33.68928198005003,0.0 -79.13104406421607,33.68924809351339,0.0 -79.13104398562997,33.689233346573126,0.0 -79.13101904156791,33.689215147334394,0.0 -79.13097950643045,33.689210363099235,0.0 -79.13094820783232,33.689200714729594,0.0 -79.1309469531607,33.6891910663543,0.0 -79.13096279890685,33.689185261871806,0.0 -79.13096436789355,33.68917710390601,0.0 -79.13091714494591,33.68911309486012,0.0 -79.13090922271104,33.68907207060249,0.0 -79.13089761375556,33.689063598317276,0.0 -79.13083995927342,33.68905394995269,0.0 -79.13082364334484,33.68903504610707,0.0 -79.13082756449995,33.68900986629513,0.0 -79.13082364333029,33.6889966097657,0.0 -79.13079783619412,33.688981627088815,0.0 -79.13077249923684,33.68898178425454,0.0 -79.13076496860826,33.6889769987036,0.0 -79.13076426268003,33.688940445675065,0.0 -79.13076943982128,33.68893793502713,0.0 -79.13079971818209,33.68894483831823,0.0 -79.1308240348933,33.688918402524145,0.0 -79.13082058389915,33.68891165769859,0.0 -79.13079885509003,33.68890059618784,0.0 -79.13079532551087,33.6888816923398,0.0 -79.13083995918704,33.68882599840284,0.0 -79.13082944773888,33.68881846777366,0.0 -79.13075971281768,33.68879744619366,0.0 -79.13073861264944,33.688779091102774,0.0 -79.13074135772044,33.68876269659079,0.0 -79.13076371385428,33.688749440056434,0.0 -79.13077069441404,33.68873955593801,0.0 -79.13075767361947,33.68870363024601,0.0 -79.13077924525835,33.68869021655079,0.0 -79.13078536274296,33.68868048959364,0.0 -79.13078042133661,33.68866597839571,0.0 -79.13074590748015,33.68863467978945,0.0 -79.13075320236152,33.688624011175634,0.0 -79.13078967809997,33.68862903246274,0.0 -79.13081470073475,33.68862699198445,0.0 -79.13083744846323,33.688619305497745,0.0 -79.13087792393601,33.68859608626247,0.0 -79.13094083414059,33.688605656045844,0.0 -79.13097299580883,33.688601969304784,0.0 -79.13103731785414,33.68864299486152,0.0 -79.13110909193287,33.6886502897378,0.0 -79.1311333300765,33.688657820364334,0.0 -79.13127876027131,33.68876536298825,0.0 -79.13132096191913,33.68880615280739,0.0 -79.13146207935114,33.688898086725445,0.0 -79.13150482976155,33.68896225162329,0.0 -79.13151887078139,33.68896907633695,0.0 -79.13154985505614,33.68897464506905,0.0 -79.13160374423624,33.6890138658953,0.0 -79.13164775062876,33.689089641061514,0.0 -79.1316563787816,33.689139216186504,0.0 -79.13166586999944,33.68916219967088,0.0 -79.13170407190029,33.68919749802341,0.0 -79.13171136678558,33.689197106429155,0.0 -79.13172768270158,33.689182986820256,0.0 -79.13173701675045,33.68918479024083,0.0 -79.1317446259615,33.68919483151741,0.0 -79.13174556631239,33.689207224971504,0.0 -79.13173505618023,33.68921624601466,0.0 -79.13166430103541,33.689228953804495,0.0 -79.13165269208544,33.689234915447145,0.0 -79.13165826082512,33.689247779073675,0.0 -79.13170509086824,33.68930504198351,0.0 -79.13172007355224,33.68933343704367,0.0 -79.13173176108631,33.68933681076415,0.0 -79.13175913720414,33.689330770537914,0.0 -79.13177255088493,33.68932402439957,0.0 -79.13177623761463,33.689315630691965,0.0 -79.13177482577976,33.68929978624439,0.0 -79.13176666781305,33.68928433339098,0.0 -79.1317286230753,33.68925483951797,0.0 -79.13172823148,33.68924785764073,0.0 -79.13173544778267,33.68924173883791,0.0 -79.13181232044117,33.689295079265335,0.0 -79.13184055964825,33.68932504462331,0.0 -79.13189280124845,33.68933861415561,0.0 -79.13189390007526,33.68936497136411,0.0 -79.13190684228282,33.68938269912204,0.0 -79.13191939288456,33.68936646176933,0.0 -79.13192355109156,33.68934394845587,0.0 -79.13191837394076,33.689321749466075,0.0 -79.13190205800959,33.689296491077776,0.0 -79.1319045673424,33.68928872601443,0.0 -79.13191617760462,33.68928935334644,0.0 -79.13194888803804,33.689315630658776,0.0 -79.1319601040894,33.68931916154036,0.0 -79.13201564081263,33.68928778433676,0.0 -79.13202913307589,33.6892863725046,0.0 -79.13204184084954,33.68929837436353,0.0 -79.13204466451343,33.68931461171318,0.0 -79.13202348577585,33.68932551476144,0.0 -79.13202019063831,33.68933288823216,0.0 -79.1320626280398,33.689404426599765,0.0 -79.1320698443693,33.689467886898896,0.0 -79.13209800499475,33.68949471296581,0.0 -79.13211141869083,33.68952750198568,0.0 -79.13212130149235,33.68952711039091,0.0 -79.13218515333566,33.689491653548124,0.0 -79.13219456596478,33.689492988105215,0.0 -79.13220758806153,33.689508205216065,0.0 -79.13222931555855,33.68951259786168,0.0 -79.1322425733895,33.6895096956194,0.0 -79.13224767194575,33.689495340271144,0.0 -79.13225637865955,33.68949424276181,0.0 -79.13234501742363,33.68952695318659,0.0 -79.1323681580575,33.68952718761386,0.0 -79.1323727078683,33.68953377658779,0.0 -79.13236305950655,33.68955487807266,0.0 -79.13232281846751,33.689583666045834,0.0 -79.13224563151095,33.68959245136058,0.0 -79.13224429826745,33.689604923395514,0.0 -79.13225308356779,33.68961959175338,0.0 -79.13226704600613,33.689623357066246,0.0 -79.13230422765736,33.68962327847845,0.0 -79.13232297564024,33.68961402300185,0.0 -79.13235435150347,33.68960853152866,0.0 -79.1323848655932,33.68958280295798,0.0 -79.13239137598772,33.689592922815166,0.0 -79.13237145192758,33.68962853419106,0.0 -79.13231599379054,33.689674658334745,0.0 -79.13229975644998,33.689675913006475,0.0</coordinates>
                    </LinearRing>
                </outerBoundaryIs>
            </Polygon>
        </Placemark>
        <Placemark id="1980">
            <name>Flood_215</name>
            <styleUrl>#1985</styleUrl>
            <Polygon id="1979">
                <outerBoundaryIs>
                    <LinearRing id="1983">
                        <coordinates>-79.13350069787191,33.690386829219804,0.0 -79.13347716564326,33.69038149491843,0.0 -79.13343888517558,33.69038251516292,0.0 -79.13340884255382,33.69037082762966,0.0 -79.13339676211301,33.690356393704484,0.0 -79.133404449896,33.69034439315133,0.0 -79.13344084704158,33.69031670268646,0.0 -79.1334501025017,33.69029740593384,0.0 -79.13342955109209,33.690293483461495,0.0 -79.13338931004701,33.69030666272861,0.0 -79.13337864275022,33.69030626982827,0.0 -79.13336318990038,33.69029709293895,0.0 -79.13335212969501,33.690280462688676,0.0 -79.13335832576354,33.69027983535303,0.0 -79.13337895575795,33.69029489661091,0.0 -79.13339691924763,33.690289953894045,0.0 -79.13339385983622,33.69025849943135,0.0 -79.13341864803746,33.690251283117405,0.0 -79.13342280493906,33.69024014433103,0.0 -79.13340735206566,33.69017119387691,0.0 -79.13344476814635,33.6901655452414,0.0 -79.13344445513171,33.69015919200818,0.0 -79.13343378652237,33.690151348367095,0.0 -79.13340397833646,33.69015024955578,0.0 -79.13336993598354,33.690173703221554,0.0 -79.13334616800954,33.69015809452023,0.0 -79.1333296949279,33.69016013368739,0.0 -79.13332820452469,33.69017527222044,0.0 -79.13334436329492,33.69019990327412,0.0 -79.13329604286086,33.69019111798412,0.0 -79.13327557003474,33.69019472614275,0.0 -79.13326702047522,33.6901790375482,0.0 -79.13325792085635,33.69017315449012,0.0 -79.13320952184645,33.690176135319994,0.0 -79.1331986188064,33.690170801016045,0.0 -79.13320026637105,33.69015668141002,0.0 -79.13323493736713,33.69013213023646,0.0 -79.13320144243706,33.69010232204108,0.0 -79.13316528101515,33.69008498588088,0.0 -79.1331487306611,33.69008286813974,0.0 -79.13312857084757,33.69008757511554,0.0 -79.13309570325738,33.69007274960158,0.0 -79.13306620940575,33.6901032637243,0.0 -79.13302228163148,33.69012601147732,0.0 -79.13297004004197,33.69014083700821,0.0 -79.13293646784949,33.69013228614716,0.0 -79.13292454457617,33.69013424804258,0.0 -79.13291771987045,33.6901513484699,0.0 -79.13291866153543,33.69017472354833,0.0 -79.13290807151057,33.69017739004866,0.0 -79.13290281579718,33.69020076643805,0.0 -79.13290085520761,33.69018256719523,0.0 -79.13289112825312,33.690172212907,0.0 -79.13286783045733,33.69016986073536,0.0 -79.13282021725215,33.690173390318854,0.0 -79.1327629543721,33.6901890789266,0.0 -79.13275479640932,33.690184057634475,0.0 -79.1328171578404,33.690140601297195,0.0 -79.13287253740548,33.690116205970725,0.0 -79.13288963781551,33.690099968617155,0.0 -79.13289465779194,33.690087496581555,0.0 -79.13284751476365,33.69010075312086,0.0 -79.13282908109495,33.69009071315628,0.0 -79.13280845110718,33.6900922035705,0.0 -79.13276130676866,33.69010420413155,0.0 -79.13273212723756,33.690131267260654,0.0 -79.13272028254295,33.69012907093811,0.0 -79.1327074176019,33.6901005959877,0.0 -79.132707889074,33.69007353417391,0.0 -79.13273142129937,33.690070631929565,0.0 -79.13275691410122,33.69005282558364,0.0 -79.13280492021018,33.69005321716698,0.0 -79.13281511863923,33.69004270571378,0.0 -79.13282751207295,33.69000827042753,0.0 -79.13280484158304,33.68993414282942,0.0 -79.13281786366728,33.6899171995618,0.0 -79.13281621609451,33.68991061058742,0.0 -79.13279103629212,33.689896020813336,0.0 -79.13277479895427,33.68990425736236,0.0 -79.13271400649863,33.68991084634913,0.0 -79.13270765326773,33.689907472627674,0.0 -79.1327049854566,33.689895393495966,0.0 -79.13272185142837,33.68986244730933,0.0 -79.13273173421666,33.68982816918476,0.0 -79.13274436340036,33.68981585299887,0.0 -79.13283935667543,33.689775613217066,0.0 -79.13286924213594,33.68978659483579,0.0 -79.13290187397726,33.68978243661136,0.0 -79.13292007321152,33.68978557458902,0.0 -79.13293395707095,33.689793105217326,0.0 -79.13298729748196,33.68979122189427,0.0 -79.13299976951174,33.68979647761741,0.0 -79.13303522504825,33.68988801996096,0.0 -79.13304393178142,33.68993618194611,0.0 -79.13305059933798,33.6899489683014,0.0 -79.13306150237743,33.689952890775714,0.0 -79.13309860544139,33.68993539874961,0.0 -79.13313060994692,33.689926534863254,0.0 -79.13316073114638,33.689931319099955,0.0 -79.13319179399197,33.689912022343016,0.0 -79.1332205046662,33.68990143230565,0.0 -79.13323548603034,33.68990300129328,0.0 -79.13325596017256,33.68991594480683,0.0 -79.13326592155538,33.68991751379544,0.0 -79.13331957628311,33.68990260968385,0.0 -79.13332828300051,33.689910531905994,0.0 -79.1333365195548,33.68994363393882,0.0 -79.13331486934912,33.68999164138816,0.0 -79.13330569115334,33.689994778061504,0.0 -79.1332752569396,33.689984345196834,0.0 -79.13325203772459,33.68998269894002,0.0 -79.1332363491389,33.68998732602475,0.0 -79.13322458303128,33.690001838535245,0.0 -79.13322568185077,33.690008819102566,0.0 -79.13323478016,33.69001470216065,0.0 -79.13325235074517,33.6900041134351,0.0 -79.13326003853322,33.690004897928915,0.0 -79.13327627589054,33.69004623650595,0.0 -79.13327713897978,33.690081299123655,0.0 -79.13327086302323,33.69008741792635,0.0 -79.13324662488516,33.69009455565962,0.0 -79.13324270372352,33.690102243452415,0.0 -79.13324654630954,33.690106950423456,0.0 -79.13326050874768,33.6901100870921,0.0 -79.13327690324846,33.690106950417416,0.0 -79.1333649932244,33.69005047197712,0.0 -79.1333901730214,33.690051492209015,0.0 -79.13342202037762,33.6900717293,0.0 -79.13344257178512,33.69007063178838,0.0 -79.13344837625975,33.690066630730215,0.0 -79.13344665141004,33.69004466748159,0.0 -79.13345261304092,33.690029057464635,0.0 -79.13346618256838,33.690010702367516,0.0 -79.13347881175498,33.69000575965176,0.0 -79.13349308851714,33.690014389097186,0.0 -79.13350407014597,33.6900408235742,0.0 -79.13350352140469,33.6900715721229,0.0 -79.13349175529787,33.6900880452167,0.0 -79.13345669139261,33.690095027100895,0.0 -79.13344563119688,33.69010294932686,0.0 -79.13348257712148,33.69013997383038,0.0 -79.13350289409976,33.690144915229965,0.0 -79.13351528754362,33.69013636566942,0.0 -79.1335276024115,33.69013934648718,0.0 -79.1335338783728,33.690145465287266,0.0 -79.13353223080864,33.690160446659334,0.0 -79.13355137039309,33.690174017507395,0.0 -79.13356972547493,33.69016766427055,0.0 -79.1335786679201,33.69014138564089,0.0 -79.13359514100465,33.690146641363164,0.0 -79.133647854083,33.690147504428445,0.0 -79.13370221342913,33.6901667225878,0.0 -79.13373406077856,33.6901699378335,0.0 -79.13375618117368,33.690163348854455,0.0 -79.13378120510873,33.69013715011172,0.0 -79.13379563771596,33.690130246812274,0.0 -79.13380034468763,33.690136678624974,0.0 -79.13379971737064,33.69017935176397,0.0 -79.13383093607743,33.690184763334585,0.0 -79.13384442834574,33.6901959021173,0.0 -79.13385125306323,33.690208767053015,0.0 -79.1338434866987,33.69021794525656,0.0 -79.13381650348339,33.690224768668436,0.0 -79.13371852937567,33.690229711401344,0.0 -79.13371492122474,33.690233711149276,0.0 -79.1337212757758,33.6902630491766,0.0 -79.13371868655447,33.690274893877316,0.0 -79.13370456695996,33.69028305184545,0.0 -79.13366613064501,33.69029395489711,0.0 -79.13364793272714,33.690307995925934,0.0 -79.1336196935351,33.69031725140445,0.0 -79.13358886643653,33.690351216520796,0.0 -79.13352493600404,33.69036455164396,0.0 -79.13351128658246,33.69037270961202,0.0 -79.13350069787191,33.690386829219804,0.0</coordinates>
                    </LinearRing>
                </outerBoundaryIs>
            </Polygon>
        </Placemark>
        <Placemark id="1989">
            <name>Flood_216</name>
            <styleUrl>#1994</styleUrl>
            <Polygon id="1988">
                <outerBoundaryIs>
                    <LinearRing id="1992">
                        <coordinates>-79.13329737779394,33.69114096760243,0.0 -79.13328757226083,33.69113579045944,0.0 -79.13319454087276,33.691165205778134,0.0 -79.1331461418653,33.691175011324646,0.0 -79.13312433578923,33.691174932748716,0.0 -79.1331230012294,33.69117046151866,0.0 -79.13314943699136,33.69113877130823,0.0 -79.13318253899577,33.691108571506554,0.0 -79.13318842204623,33.6910926471676,0.0 -79.1331859113956,33.69107993939199,0.0 -79.13314167059397,33.69106464370736,0.0 -79.13306801451924,33.6910753896056,0.0 -79.13303553984548,33.69109735417107,0.0 -79.13299098473277,33.69110951189287,0.0 -79.13296933451478,33.69112684806478,0.0 -79.13295199966467,33.691121828084256,0.0 -79.13294313447548,33.691110846461605,0.0 -79.13297961020501,33.691091705554506,0.0 -79.13299270955679,33.691066212728735,0.0 -79.13303797058649,33.691060721252335,0.0 -79.13304181447725,33.691052720447196,0.0 -79.13298839547109,33.69101851960635,0.0 -79.13298023751003,33.69101797085426,0.0 -79.13295152814628,33.69103091437781,0.0 -79.13293434914645,33.69102369676264,0.0 -79.1329298779119,33.691006440486305,0.0 -79.1329330944655,33.69099035898688,0.0 -79.13296345138859,33.69094957046374,0.0 -79.13291889626073,33.69092321326435,0.0 -79.13289159870962,33.69089489547804,0.0 -79.13288728465233,33.690919526535836,0.0 -79.13287387093355,33.690829633068795,0.0 -79.13279739114404,33.69069439866753,0.0 -79.13270804513084,33.69059940665114,0.0 -79.13263870311069,33.69057799216987,0.0 -79.13262427048706,33.69054308540602,0.0 -79.13258779472845,33.690487941549165,0.0 -79.13259375636403,33.69048394049093,0.0 -79.1326410565588,33.69048456781569,0.0 -79.13266192228664,33.69047970498836,0.0 -79.1326678839202,33.69047052678507,0.0 -79.13265423448377,33.6904407971662,0.0 -79.13269306368949,33.69040024307325,0.0 -79.13271518408602,33.69039734082902,0.0 -79.1327732301693,33.69042730618041,0.0 -79.132820060196,33.69044064128146,0.0 -79.13282578609576,33.69045099557057,0.0 -79.13282304102829,33.69047586105989,0.0 -79.13283041450022,33.690490999591226,0.0 -79.1328840679438,33.69054057470658,0.0 -79.13290124694247,33.69054512451392,0.0 -79.13293850716995,33.69053390714033,0.0 -79.13295537184467,33.6905331239513,0.0 -79.1329619608177,33.690537986773066,0.0 -79.13296815820846,33.69056944123532,0.0 -79.13297435428075,33.69057814926282,0.0 -79.13298980712979,33.690585522729705,0.0 -79.1330053385563,33.69058489539223,0.0 -79.133017183245,33.69057218761377,0.0 -79.1330242436889,33.69054700780159,0.0 -79.1330165558961,33.69053398570499,0.0 -79.13299263206851,33.69051257121464,0.0 -79.13299286649699,33.69050457041035,0.0 -79.13304118693723,33.690528652703584,0.0 -79.13311021594198,33.69054175205861,0.0 -79.1331255902106,33.69054881120349,0.0 -79.13312723778594,33.69056183330122,0.0 -79.13306401330077,33.690659257414715,0.0 -79.1330607967484,33.69067847558564,0.0 -79.13306887744227,33.69068820253992,0.0 -79.13307781858668,33.690684358642166,0.0 -79.1330960178117,33.69066372863845,0.0 -79.13312692349731,33.690646000872,0.0 -79.13326066610404,33.690605368179334,0.0 -79.13325870552643,33.690617134299515,0.0 -79.13324513468794,33.69063211698374,0.0 -79.13316088859824,33.690669926007246,0.0 -79.13315045574814,33.69070749927412,0.0 -79.13315359373046,33.69071495132394,0.0 -79.13316535984654,33.69072201046963,0.0 -79.13317665578656,33.69072146171346,0.0 -79.13318771597511,33.69069518308324,0.0 -79.13320387472952,33.69067933863231,0.0 -79.1332142290132,33.690677220885846,0.0 -79.13325690082192,33.69068459434716,0.0 -79.13328592450907,33.690675651880674,0.0 -79.1332984751111,33.6906602776038,0.0 -79.13330153449674,33.6906262339124,0.0 -79.13331196735454,33.69060842756968,0.0 -79.1333214585675,33.69061791878209,0.0 -79.13332161574102,33.69064984472841,0.0 -79.13336122816132,33.6906839669916,0.0 -79.1333652292283,33.69071479411987,0.0 -79.13337095512657,33.69072122593236,0.0 -79.1333830355624,33.69072295208148,0.0 -79.13339189943464,33.690715657190125,0.0 -79.13339613490682,33.690679338593156,0.0 -79.13340421428158,33.69066529756638,0.0 -79.1334635949192,33.69068545738085,0.0 -79.13347418494807,33.69069306528044,0.0 -79.13348422491838,33.690712362029245,0.0 -79.13346634001567,33.69073424801101,0.0 -79.13343598308599,33.6907577016762,0.0 -79.13332185154864,33.69081770969622,0.0 -79.13327847253676,33.69086344093514,0.0 -79.13327855111886,33.69086751926297,0.0 -79.13328827807015,33.69086940257356,0.0 -79.13336326870484,33.690863755239754,0.0 -79.13338531052561,33.69087246195432,0.0 -79.1333938600836,33.690884149491886,0.0 -79.13339323276232,33.69091615401881,0.0 -79.1333991944079,33.69093748993223,0.0 -79.13339268402056,33.69094580505982,0.0 -79.13338217257595,33.69094768706494,0.0 -79.13338625089693,33.69093623526625,0.0 -79.13337628950983,33.69092399766559,0.0 -79.1333573843608,33.690920232353946,0.0 -79.13334318749456,33.69092650831931,0.0 -79.13333283321715,33.69094431466212,0.0 -79.13331031991927,33.69094988340463,0.0 -79.13329855380991,33.690959924684954,0.0 -79.13329949546853,33.69096721957422,0.0 -79.13331808630149,33.690985338923376,0.0 -79.13330310363997,33.69101506854793,0.0 -79.13330859380122,33.691032404714164,0.0 -79.13332255754892,33.69103491404847,0.0 -79.13334036256848,33.69103075713649,0.0 -79.13340570482235,33.69099773235939,0.0 -79.13342798237551,33.69098376991015,0.0 -79.13344265071878,33.690963218487795,0.0 -79.1334785777082,33.69097788683983,0.0 -79.13355670500928,33.690963532786235,0.0 -79.13359341517757,33.690962198219864,0.0 -79.13359929823547,33.69096533619986,0.0 -79.1335942782587,33.6909768678888,0.0 -79.1335825907293,33.69098565319085,0.0 -79.13354391867487,33.6910017333878,0.0 -79.13347120426798,33.69104260180976,0.0 -79.13340170510436,33.691066291224686,0.0 -79.13337401467015,33.691086999810736,0.0 -79.1333512669518,33.691120886345225,0.0 -79.13335895343415,33.691131867968075,0.0 -79.13338515347,33.69113884983978,0.0 -79.13339660526978,33.69115955841783,0.0 -79.13339542918754,33.691172736367406,0.0 -79.13338076084221,33.69118834638624,0.0 -79.13336491509507,33.69119195454398,0.0 -79.13333283331369,33.6911886594085,0.0 -79.13329737779394,33.69114096760243,0.0</coordinates>
                    </LinearRing>
                </outerBoundaryIs>
            </Polygon>
        </Placemark>
        <Placemark id="1998">
            <name>Flood_217</name>
            <styleUrl>#2003</styleUrl>
            <Polygon id="1997">
                <outerBoundaryIs>
                    <LinearRing id="2001">
                        <coordinates>-79.13543734234186,33.691302477580535,0.0 -79.13542926296006,33.69129871357645,0.0 -79.1353694894311,33.691306714393114,0.0 -79.13534054564059,33.6913314227264,0.0 -79.13531693352458,33.69133361905619,0.0 -79.13528422440324,33.6913155782909,0.0 -79.13524806298582,33.69131071416572,0.0 -79.13522806032086,33.691285299927785,0.0 -79.1351241245637,33.69126129622735,0.0 -79.1350750196303,33.691242705401855,0.0 -79.13505964535953,33.6912307035439,0.0 -79.13504819355343,33.69119493501424,0.0 -79.13500481449316,33.69112049309983,0.0 -79.13499524470454,33.69112300374868,0.0 -79.13495665255644,33.69117854052239,0.0 -79.13495798581329,33.691199640694926,0.0 -79.13493986515924,33.69119626828576,0.0 -79.13493139418938,33.69120379891843,0.0 -79.13493492377492,33.6912372152737,0.0 -79.1349600250166,33.691299419589214,0.0 -79.13493217873146,33.691320362606945,0.0 -79.13492637294443,33.69131753894898,0.0 -79.13490746911111,33.69132899206025,0.0 -79.13489954689057,33.691326245673565,0.0 -79.13489460417661,33.69131808770947,0.0 -79.13489868379584,33.69127831811948,0.0 -79.1348853486816,33.69125094198705,0.0 -79.13490715474539,33.691220506446676,0.0 -79.13490770479997,33.691199484854096,0.0 -79.13489758493955,33.69118050111806,0.0 -79.1348584426935,33.69115053707327,0.0 -79.13485232519544,33.691126611932816,0.0 -79.13480424050152,33.69111602322085,0.0 -79.13476909800018,33.69108488177749,0.0 -79.13471128635341,33.691068172956605,0.0 -79.13469936307935,33.69106856586154,0.0 -79.13467857593635,33.69108464605476,0.0 -79.13466735988565,33.691083312808004,0.0 -79.13465716144817,33.691073037100566,0.0 -79.1346533961295,33.691059936422896,0.0 -79.1346724584263,33.69103099129315,0.0 -79.13467104659271,33.69101914659324,0.0 -79.13464108123304,33.690986437467814,0.0 -79.1345957416089,33.69095717802933,0.0 -79.13456075758664,33.690947059487975,0.0 -79.13453408737959,33.69094478458814,0.0 -79.13451290732935,33.690948235585914,0.0 -79.13449102267795,33.690960943366406,0.0 -79.13447729598158,33.690959217217674,0.0 -79.13447706023628,33.69094933441053,0.0 -79.1344860026874,33.69093780272087,0.0 -79.13454444165302,33.69091725128972,0.0 -79.13457417124951,33.69089583678861,0.0 -79.13459950688569,33.69086642148427,0.0 -79.1346009972916,33.69085802777727,0.0 -79.13459644748102,33.69085230187938,0.0 -79.13457597465155,33.690847752072834,0.0 -79.1344496840851,33.69087308907009,0.0 -79.13441258101346,33.69087144150669,0.0 -79.13437226268702,33.690858812319505,0.0 -79.13434386630173,33.690787665543695,0.0 -79.1342987624189,33.69075785866095,0.0 -79.13428770221996,33.690757780082755,0.0 -79.13428150484768,33.69077307577766,0.0 -79.13422463486863,33.690786019306685,0.0 -79.13419820040205,33.690781469501424,0.0 -79.1341719217824,33.69076601665205,0.0 -79.1341734121855,33.69075056379716,0.0 -79.13420282876953,33.69072828622031,0.0 -79.13421310446816,33.69071487252742,0.0 -79.13421451629371,33.69070679314242,0.0 -79.13419867053726,33.69068702491198,0.0 -79.13421122113726,33.690666552070695,0.0 -79.1342189089243,33.69066498307857,0.0 -79.1342297333841,33.69067055312391,0.0 -79.13423106663862,33.690685927397844,0.0 -79.13423836283752,33.69069526144971,0.0 -79.13425781543016,33.69069847800731,0.0 -79.13427381833733,33.69069259494421,0.0 -79.13425750240282,33.69066051184051,0.0 -79.1342414994901,33.6906523538785,0.0 -79.13421365319523,33.69064898147121,0.0 -79.13415999846612,33.690660983343285,0.0 -79.13418627706474,33.690623801666284,0.0 -79.13424926582495,33.690569206543785,0.0 -79.13424510760099,33.690548419383894,0.0 -79.13421796720462,33.6905053546579,0.0 -79.13420235719697,33.69050394283143,0.0 -79.13419137558245,33.69051382695047,0.0 -79.13420612252442,33.69053931977028,0.0 -79.134202514377,33.69055187038603,0.0 -79.13419082684602,33.6905563416186,0.0 -79.13415944967119,33.6905574404423,0.0 -79.13414925255135,33.69056677449772,0.0 -79.13413913403201,33.69062607658129,0.0 -79.13412352403688,33.690656197798475,0.0 -79.13410940444284,33.69066576759618,0.0 -79.13409379443243,33.69065776679509,0.0 -79.13408995053372,33.69064568635424,0.0 -79.13410595342788,33.69060748575214,0.0 -79.13411764093826,33.69055132164945,0.0 -79.13410093211735,33.690558537961785,0.0 -79.13404225873315,33.69061203557584,0.0 -79.13402915806266,33.690614231903375,0.0 -79.13400703765707,33.690594542254715,0.0 -79.13398538872777,33.69055877372666,0.0 -79.13397307253398,33.690515317404724,0.0 -79.13397942706645,33.69049821697773,0.0 -79.13399495849154,33.69049405875659,0.0 -79.13400915536147,33.6904974324764,0.0 -79.13401739191346,33.69052410269536,0.0 -79.13402531544304,33.69052527878184,0.0 -79.13404845475871,33.690503942862534,0.0 -79.13410532473601,33.690486842425344,0.0 -79.13414234921798,33.6904655850838,0.0 -79.13415497840093,33.69045154405622,0.0 -79.13417035264952,33.690408479321526,0.0 -79.13420839736122,33.69037114048121,0.0 -79.13426424841305,33.69035678643266,0.0 -79.134268091,33.69036392416027,0.0 -79.13425255957696,33.69037294520444,0.0 -79.13424942291374,33.69038933971597,0.0 -79.13430684166119,33.69041389218066,0.0 -79.1343217457497,33.690403302145974,0.0 -79.13432001958691,33.6903732595128,0.0 -79.13435618099821,33.69036345396926,0.0 -79.13438418444673,33.69034886418477,0.0 -79.13438536184941,33.690362669468165,0.0 -79.13437641940216,33.69038369237214,0.0 -79.13434135550868,33.690420088245766,0.0 -79.13430629293086,33.69047154669101,0.0 -79.13427248370303,33.6905025309877,0.0 -79.13427060170493,33.69051186504142,0.0 -79.13428778070225,33.690512963855284,0.0 -79.13435390614694,33.690495236081844,0.0 -79.1344112476148,33.69049758955613,0.0 -79.13443195617748,33.6904821353876,0.0 -79.13443893673217,33.69045978054465,0.0 -79.13444850651952,33.69045421049518,0.0 -79.13446176435335,33.690458290129946,0.0 -79.13449259147374,33.690479233135626,0.0 -79.13450278860296,33.690493039726896,0.0 -79.13449180698763,33.6905008047918,0.0 -79.13445164451564,33.690495784815866,0.0 -79.13444411389132,33.690501825038226,0.0 -79.13444929103852,33.690514375652164,0.0 -79.13444662454393,33.69051963137823,0.0 -79.13442897537254,33.69051602322729,0.0 -79.13441767943374,33.690519552803536,0.0 -79.13436473194673,33.69057642282931,0.0 -79.13436065231664,33.69058897344513,0.0 -79.13436559503036,33.69059689566784,0.0 -79.13446537254327,33.69055140015948,0.0 -79.1344736090896,33.69056379361179,0.0 -79.13446207741237,33.690574853819015,0.0 -79.1344662343271,33.690596504054646,0.0 -79.13450435763446,33.690596817059216,0.0 -79.13452090930214,33.69060866175598,0.0 -79.13450184700682,33.690641215040195,0.0 -79.13453157661368,33.69064568626444,0.0 -79.13455432435188,33.69066184633883,0.0 -79.13457150335047,33.690665846082595,0.0 -79.13459942822129,33.69065815828507,0.0 -79.13464774864185,33.69063290119401,0.0 -79.13466484905277,33.69061917317786,0.0 -79.13468469453449,33.69058967929416,0.0 -79.13469300965502,33.690586698472295,0.0 -79.13472822943858,33.69064662788069,0.0 -79.13477419640262,33.690690711529705,0.0 -79.1347715299113,33.690704125220975,0.0 -79.13475199743961,33.69072828610826,0.0 -79.13475866499388,33.690735266674245,0.0 -79.13487546435348,33.69071589131942,0.0 -79.13491735296172,33.69068529992374,0.0 -79.13496175091039,33.690666160325186,0.0 -79.13496826130178,33.6906680423268,0.0 -79.13497759535825,33.69068843789257,0.0 -79.13498653781663,33.69069494828486,0.0 -79.13500967844385,33.69067839660835,0.0 -79.13502340514003,33.69067972985464,0.0 -79.13502646454437,33.69069290911287,0.0 -79.13501485559861,33.69070922373595,0.0 -79.13499987292876,33.69071746028468,0.0 -79.13495735828836,33.69072859907866,0.0 -79.13493719848098,33.69074852316752,0.0 -79.1349346092602,33.690761230944,0.0 -79.13495069075887,33.690782959757556,0.0 -79.13496669236287,33.690793235463815,0.0 -79.13506074400492,33.69080907989197,0.0 -79.13508662972336,33.69082688622708,0.0 -79.13510333724959,33.690856381412836,0.0 -79.13510208258822,33.69087238302141,0.0 -79.13509117955401,33.69088171707693,0.0 -79.13508388466813,33.69088085400265,0.0 -79.13507619687716,33.69087301036103,0.0 -79.13507109830755,33.69085363503112,0.0 -79.13505909645039,33.69084767339331,0.0 -79.13504976240846,33.69086312624978,0.0 -79.13504740893325,33.69088626689664,0.0 -79.13505446808313,33.6909004650812,0.0 -79.13508545236455,33.69092125223542,0.0 -79.13508545237549,33.69094815688757,0.0 -79.13510843586835,33.69099663450051,0.0 -79.13512679226766,33.69100949943365,0.0 -79.1351566777267,33.691016088402044,0.0 -79.13518272059629,33.69100957669285,0.0 -79.13520954795682,33.69099373224002,0.0 -79.135212135869,33.690983769542285,0.0 -79.1351889952266,33.690963139547485,0.0 -79.13518146590422,33.69095035319267,0.0 -79.13517966116589,33.69093262543309,0.0 -79.1351852312059,33.69092156522712,0.0 -79.13523488358145,33.69093623488583,0.0 -79.13527661504847,33.690954039908014,0.0 -79.13528783241203,33.69096313952713,0.0 -79.13528791099566,33.69097098447991,0.0 -79.13527967445836,33.69098071012764,0.0 -79.13525065076549,33.69097529855684,0.0 -79.13524539504365,33.69097757346333,0.0 -79.13524264998078,33.691012636081105,0.0 -79.13524869020497,33.6910288734297,0.0 -79.13526877144216,33.69103420773159,0.0 -79.1353026579685,33.691071389395894,0.0 -79.13530477571531,33.69108033185587,0.0 -79.13529026452822,33.69108864698507,0.0 -79.13527324269138,33.69108660651504,0.0 -79.13524406183268,33.69106935024417,0.0 -79.13521535244972,33.691034835076934,0.0 -79.13519997818265,33.6910317756794,0.0 -79.13517895529283,33.69103420775014,0.0 -79.13515965855812,33.69104770002528,0.0 -79.13514765671334,33.691071938181814,0.0 -79.13515518734478,33.691083155546,0.0 -79.13519189752253,33.691105275948054,0.0 -79.13517832799796,33.69113029860014,0.0 -79.1352574755381,33.691123082274856,0.0 -79.13526273126273,33.69112786782594,0.0 -79.13525614229907,33.69114598718,0.0 -79.13526218120896,33.6911509285823,0.0 -79.13530634474019,33.69116630415682,0.0 -79.13534540840452,33.69119297305934,0.0 -79.13539302292129,33.69119360169336,0.0 -79.13538847311676,33.691202857167106,0.0 -79.1353658026606,33.69121478045232,0.0 -79.13528116496992,33.69123164515409,0.0 -79.13528155657716,33.69126741499578,0.0 -79.1353068935389,33.69127729779753,0.0 -79.135359998209,33.69127518004205,0.0 -79.1353802366005,33.69126404125256,0.0 -79.13539984634156,33.69123643068163,0.0 -79.13543090921318,33.691280592913735,0.0 -79.13546707064056,33.69131008678565,0.0 -79.13551154718537,33.6913289133534,0.0 -79.13552166704669,33.69134985636318,0.0 -79.13551170435721,33.691355818005505,0.0 -79.13549138869033,33.69135550499745,0.0 -79.13541396598222,33.691340992505765,0.0 -79.13541459331267,33.691332364367234,0.0 -79.13543859701227,33.69130843922051,0.0 -79.13543734234186,33.691302477580535,0.0</coordinates>
                    </LinearRing>
                </outerBoundaryIs>
            </Polygon>
        </Placemark>
        <Placemark id="2007">
            <name>Flood_218</name>
            <styleUrl>#2012</styleUrl>
            <Polygon id="2006">
                <outerBoundaryIs>
                    <LinearRing id="2010">
                        <coordinates>-79.13286736076343,33.691392058574785,0.0 -79.13281323583897,33.69134805350751,0.0 -79.13275385519323,33.6913075780153,0.0 -79.13272075316303,33.69127212119198,0.0 -79.13265290154335,33.69122913636425,0.0 -79.1325344545712,33.69114135935359,0.0 -79.13248801743286,33.69109264731266,0.0 -79.13243389251184,33.691057113222705,0.0 -79.13236988347141,33.691000713393336,0.0 -79.13229599162241,33.690926900127494,0.0 -79.13227755794807,33.69090250481572,0.0 -79.13224437734691,33.69089089586367,0.0 -79.1321853110205,33.6908433599132,0.0 -79.13215966103527,33.69080374748942,0.0 -79.13213691198911,33.69079143131069,0.0 -79.13212530303043,33.69077519396279,0.0 -79.13210498735832,33.69076138868314,0.0 -79.13209180809316,33.69072663907991,0.0 -79.13207596364985,33.690715264556104,0.0 -79.1320749434115,33.69070977439884,0.0 -79.13207949321671,33.69070185086434,0.0 -79.13208521911223,33.69070130210931,0.0 -79.1321271077403,33.6907205202712,0.0 -79.13213377530072,33.6907434251754,0.0 -79.13214616875548,33.6907628005043,0.0 -79.13216601425076,33.69076703598915,0.0 -79.13217103423818,33.69078272458452,0.0 -79.13219040956092,33.69078829462819,0.0 -79.13223645509892,33.690817474177024,0.0 -79.13229512983514,33.69087136336082,0.0 -79.13233505657108,33.6908899541887,0.0 -79.13235011652571,33.69091725174093,0.0 -79.13240596759606,33.690949805010284,0.0 -79.13251406028068,33.691030364404696,0.0 -79.13267023637442,33.69118536571381,0.0 -79.13276483810341,33.69126168962177,0.0 -79.13282327710185,33.69132373677042,0.0 -79.13285080908963,33.69136452659129,0.0 -79.13286249793421,33.691369703733876,0.0 -79.13287034157229,33.69136727166587,0.0 -79.13287677337733,33.69135401513459,0.0 -79.1328789696924,33.69133228631691,0.0 -79.13288069585623,33.691365702673124,0.0 -79.1328891668383,33.69138907774999,0.0 -79.13288595158677,33.691385705337666,0.0 -79.1328768519933,33.691444693099704,0.0 -79.13287716630875,33.691428377169004,0.0 -79.13287473423405,33.69140398185409,0.0 -79.13286736076343,33.691392058574785,0.0</coordinates>
                    </LinearRing>
                </outerBoundaryIs>
            </Polygon>
        </Placemark>
        <Placemark id="2016">
            <name>Flood_219</name>
            <styleUrl>#2021</styleUrl>
            <Polygon id="2015">
                <outerBoundaryIs>
                    <LinearRing id="2019">
                        <coordinates>-79.13958745339619,33.69944118673245,0.0 -79.13963859747425,33.69941059402265,0.0 -79.13967295545791,33.699382983447194,0.0 -79.13980810989476,33.699331682135,0.0 -79.13990765166864,33.69928202840369,0.0 -79.13995126643557,33.699266418376816,0.0 -79.13998068170858,33.69923959229813,0.0 -79.1400538675994,33.69919621322659,0.0 -79.140128701068,33.69916993588928,0.0 -79.14022275269859,33.69914695237889,0.0 -79.14028550572726,33.69911141826293,0.0 -79.14039046038653,33.69906607859958,0.0 -79.14044780052998,33.69902772082614,0.0 -79.14045815480927,33.69901477861621,0.0 -79.14045917503881,33.69899948161336,0.0 -79.14042920966475,33.69894025812372,0.0 -79.14040402983521,33.69886903408173,0.0 -79.1403740657817,33.69883467607921,0.0 -79.14028409371983,33.69870579623771,0.0 -79.14019631668207,33.69859919396504,0.0 -79.14015952790275,33.698534793332186,0.0 -79.14010171622715,33.69846027415678,0.0 -79.14005669090395,33.698390696381225,0.0 -79.14002076520936,33.69834747581017,0.0 -79.13999268315159,33.69829837086774,0.0 -79.13984505526652,33.69809536344245,0.0 -79.13980520708657,33.69802719880444,0.0 -79.13976096626634,33.69797542736805,0.0 -79.13968519107472,33.69784631177995,0.0 -79.13966463963986,33.69778708828715,0.0 -79.13966369796981,33.69775437784745,0.0 -79.13966989534359,33.69774292604867,0.0 -79.13968024962725,33.69774010238689,0.0 -79.13972449043689,33.697767634360645,0.0 -79.13977320246516,33.697773674568396,0.0 -79.1398099912153,33.6977720282974,0.0 -79.13986513635531,33.69775892760502,0.0 -79.13995934514118,33.69772488389144,0.0 -79.14003880568127,33.697682447785084,0.0 -79.14029287851908,33.6975786690811,0.0 -79.1404177572535,33.69753607580211,0.0 -79.14050255210631,33.697515444471705,0.0 -79.14052130009361,33.69751513145452,0.0 -79.14054287174412,33.69752697614841,0.0 -79.14055502945666,33.69754070284761,0.0 -79.14056114826276,33.69755866634661,0.0 -79.14056122685457,33.69758423774848,0.0 -79.1405351054215,33.697630910638836,0.0 -79.14051165178566,33.697656717788426,0.0 -79.14049431563222,33.6976684066412,0.0 -79.14044583935586,33.697686290264365,0.0 -79.14040018673997,33.69771021541696,0.0 -79.14034111912467,33.69772135421735,0.0 -79.14032103920427,33.697734610751645,0.0 -79.14023475263788,33.69776786996785,0.0 -79.14017474468771,33.697804737331516,0.0 -79.14013403346253,33.697805130244696,0.0 -79.14009144024388,33.697824975759346,0.0 -79.14004076763054,33.697812973912136,0.0 -79.14002092082596,33.69781218942208,0.0 -79.13995903086857,33.69783713481591,0.0 -79.13989219819724,33.697855097024515,0.0 -79.13987447045041,33.69786521688692,0.0 -79.13986246991132,33.69787980666837,0.0 -79.13984850618479,33.697927419902335,0.0 -79.13984003521001,33.69792420465277,0.0 -79.13983109274872,33.69791220279446,0.0 -79.1398090509045,33.69785297930214,0.0 -79.13979179332433,33.69784842949614,0.0 -79.13977916413766,33.69785399954676,0.0 -79.13977508581509,33.697861373017446,0.0 -79.13979218625515,33.69791353605385,0.0 -79.13984929071594,33.698010255528686,0.0 -79.13988639380867,33.69805606532699,0.0 -79.13996193323145,33.69812179919886,0.0 -79.13997471959931,33.69816227469764,0.0 -79.13998868204689,33.698184943856425,0.0 -79.14004304141757,33.698251855131545,0.0 -79.14013364212155,33.69837838148772,0.0 -79.14018172683366,33.698424582875504,0.0 -79.14019294420358,33.69844631168838,0.0 -79.140202435431,33.69848686576849,0.0 -79.14021263256254,33.69850357459782,0.0 -79.14023828385284,33.69852545925817,0.0 -79.14024573458853,33.69852224269458,0.0 -79.1402550699361,33.69849769152684,0.0 -79.1402695811315,33.69850710415626,0.0 -79.14027475829715,33.698559660098056,0.0 -79.14028519117319,33.6985836625067,0.0 -79.14035374873217,33.69867104661531,0.0 -79.1404019906028,33.69871120909201,0.0 -79.14041242347464,33.69872587744777,0.0 -79.14042717043519,33.69878918057893,0.0 -79.14041367818729,33.698827145437875,0.0 -79.14041673759087,33.698837186714364,0.0 -79.14042842512579,33.69884040196296,0.0 -79.14046803883164,33.698811692569244,0.0 -79.14049863150727,33.69879725994381,0.0 -79.1405135342911,33.69879718135931,0.0 -79.14052271249375,33.698808711734344,0.0 -79.14050929881722,33.69882612648485,0.0 -79.14046482228534,33.698842912599815,0.0 -79.14045619416079,33.69886487584984,0.0 -79.14046325332244,33.69890386093992,0.0 -79.14047251010723,33.69891931510096,0.0 -79.14049800292842,33.69894402342018,0.0 -79.14050341582215,33.698966300988275,0.0 -79.1404866297651,33.69905352795887,0.0 -79.14046497954982,33.699077610266485,0.0 -79.14031311630893,33.699175191563775,0.0 -79.14023702816479,33.699183819722826,0.0 -79.14019788593448,33.69919660608943,0.0 -79.14015270349115,33.69922052993281,0.0 -79.14009418593946,33.699234100800055,0.0 -79.14005425921033,33.69923786612638,0.0 -79.14000335087138,33.69926281020813,0.0 -79.13993353738073,33.69928077372806,0.0 -79.13988098278753,33.6993203088982,0.0 -79.13982983870794,33.69934705640248,0.0 -79.1398022268551,33.6993710601313,0.0 -79.13968989874236,33.69944706976364,0.0 -79.139677505295,33.699448481596654,0.0 -79.13964824585318,33.6994298121892,0.0 -79.13961279037434,33.6994848002088,0.0 -79.13959270913973,33.699488408368644,0.0 -79.13957380529702,33.69947962307479,0.0 -79.13957129464585,33.69946699388049,0.0 -79.13958745339619,33.69944118673245,0.0</coordinates>
                    </LinearRing>
                </outerBoundaryIs>
            </Polygon>
        </Placemark>
    </Document>
</kml>
