<?xml version="1.0" encoding="UTF-8"?>
<kml xmlns="http://www.opengis.net/kml/2.2" xmlns:gx="http://www.google.com/kml/ext/2.2">
    <Document id="461">
        <Style id="468">
            <LineStyle id="470">
                <colorMode>normal</colorMode>
                <width>1</width>
            </LineStyle>
            <PolyStyle id="469">
                <color>80ebce87</color>
                <colorMode>normal</colorMode>
                <fill>1</fill>
                <outline>1</outline>
            </PolyStyle>
        </Style>
        <Style id="477">
            <LineStyle id="479">
                <colorMode>normal</colorMode>
                <width>1</width>
            </LineStyle>
            <PolyStyle id="478">
                <color>80ebce87</color>
                <colorMode>normal</colorMode>
                <fill>1</fill>
                <outline>1</outline>
            </PolyStyle>
        </Style>
        <Style id="486">
            <LineStyle id="488">
                <colorMode>normal</colorMode>
                <width>1</width>
            </LineStyle>
            <PolyStyle id="487">
                <color>80ebce87</color>
                <colorMode>normal</colorMode>
                <fill>1</fill>
                <outline>1</outline>
            </PolyStyle>
        </Style>
        <Style id="495">
            <LineStyle id="497">
                <colorMode>normal</colorMode>
                <width>1</width>
            </LineStyle>
            <PolyStyle id="496">
                <color>80ebce87</color>
                <colorMode>normal</colorMode>
                <fill>1</fill>
                <outline>1</outline>
            </PolyStyle>
        </Style>
        <Style id="504">
            <LineStyle id="506">
                <colorMode>normal</colorMode>
                <width>1</width>
            </LineStyle>
            <PolyStyle id="505">
                <color>80ebce87</color>
                <colorMode>normal</colorMode>
                <fill>1</fill>
                <outline>1</outline>
            </PolyStyle>
        </Style>
        <Style id="513">
            <LineStyle id="515">
                <colorMode>normal</colorMode>
                <width>1</width>
            </LineStyle>
            <PolyStyle id="514">
                <color>80ebce87</color>
                <colorMode>normal</colorMode>
                <fill>1</fill>
                <outline>1</outline>
            </PolyStyle>
        </Style>
        <Style id="522">
            <LineStyle id="524">
                <colorMode>normal</colorMode>
                <width>1</width>
            </LineStyle>
            <PolyStyle id="523">
                <color>80ebce87</color>
                <colorMode>normal</colorMode>
                <fill>1</fill>
                <outline>1</outline>
            </PolyStyle>
        </Style>
        <Style id="531">
            <LineStyle id="533">
                <colorMode>normal</colorMode>
                <width>1</width>
            </LineStyle>
            <PolyStyle id="532">
                <color>80ebce87</color>
                <colorMode>normal</colorMode>
                <fill>1</fill>
                <outline>1</outline>
            </PolyStyle>
        </Style>
        <Style id="540">
            <LineStyle id="542">
                <colorMode>normal</colorMode>
                <width>1</width>
            </LineStyle>
            <PolyStyle id="541">
                <color>80ebce87</color>
                <colorMode>normal</colorMode>
                <fill>1</fill>
                <outline>1</outline>
            </PolyStyle>
        </Style>
        <Style id="549">
            <LineStyle id="551">
                <colorMode>normal</colorMode>
                <width>1</width>
            </LineStyle>
            <PolyStyle id="550">
                <color>80ebce87</color>
                <colorMode>normal</colorMode>
                <fill>1</fill>
                <outline>1</outline>
            </PolyStyle>
        </Style>
        <Placemark id="463">
            <name>Flood_50</name>
            <styleUrl>#468</styleUrl>
            <Polygon id="462">
                <outerBoundaryIs>
                    <LinearRing id="466">
                        <coordinates>-79.07011293851613,33.814782866978746,0.0 -79.07009732849968,33.814782474084865,0.0 -79.07007983648168,33.81478820130137,0.0 -79.07005379359934,33.814810949053424,0.0 -79.07003716334799,33.81481910702552,0.0 -79.06994311165766,33.81482169499355,0.0 -79.0699459366258,33.814817695245814,0.0 -79.06994891744186,33.814798634240276,0.0 -79.06994405329907,33.81475462786701,0.0 -79.06994907327933,33.81473658578716,0.0 -79.06998711801067,33.8146571251898,0.0 -79.07004343926053,33.81459507801575,0.0 -79.07007881619496,33.81456503406147,0.0 -79.07008446349626,33.814487612645,0.0 -79.07010015208179,33.81443717444867,0.0 -79.0701138800907,33.81441709320066,0.0 -79.07012815554674,33.814411210134644,0.0 -79.07018251622526,33.81440328788348,0.0 -79.07028660787388,33.81435559471691,0.0 -79.07036544244737,33.81434022040403,0.0 -79.07046569021232,33.81434861405383,0.0 -79.07048302638216,33.81435653626606,0.0 -79.07051181435352,33.81437983405165,0.0 -79.07051557967013,33.81438438385922,0.0 -79.07051212736914,33.814394502406955,0.0 -79.0704732994418,33.81442721286063,0.0 -79.07045580611471,33.814435605265004,0.0 -79.07042042917358,33.814435526703726,0.0 -79.07039281861147,33.81446313858822,0.0 -79.07040442757415,33.81447874859328,0.0 -79.0704561990327,33.8145046342834,0.0 -79.07049691028811,33.81454048267415,0.0 -79.07055283865571,33.81456895627905,0.0 -79.07055409463672,33.81458048665348,0.0 -79.07053903337795,33.81459727407063,0.0 -79.07046937700925,33.81462347283901,0.0 -79.07043392149494,33.814655634537196,0.0 -79.07036999102641,33.81468693317531,0.0 -79.07032465269931,33.81469618867026,0.0 -79.07025578082013,33.81469665888088,0.0 -79.07023656265106,33.814704895434915,0.0 -79.07022307038305,33.814721995863316,0.0 -79.07022628694709,33.81473242872936,0.0 -79.07028794121416,33.81476239405047,0.0 -79.07029500167356,33.81476890443903,0.0 -79.07029500167515,33.814775963585056,0.0 -79.07028331413751,33.814784984630016,0.0 -79.07024738713059,33.814774473201325,0.0 -79.07021012818998,33.81479016181346,0.0 -79.07019208611112,33.81480804673944,0.0 -79.07018800648142,33.81484350225215,0.0 -79.0701825163254,33.814850639981685,0.0 -79.07016871103968,33.8148436594236,0.0 -79.07015780667562,33.81479918288041,0.0 -79.07014407996995,33.8147903190103,0.0 -79.07011293851613,33.814782866978746,0.0</coordinates>
                    </LinearRing>
                </outerBoundaryIs>
            </Polygon>
        </Placemark>
        <Placemark id="472">
            <name>Flood_51</name>
            <styleUrl>#477</styleUrl>
            <Polygon id="471">
                <outerBoundaryIs>
                    <LinearRing id="475">
                        <coordinates>-79.07881650558825,33.80977177736915,0.0 -79.07882866462603,33.80983233409734,0.0 -79.07880850479735,33.80982550939405,0.0 -79.07880160149763,33.80981405760307,0.0 -79.07881368192947,33.809773737953556,0.0 -79.07881650558825,33.80977177736915,0.0</coordinates>
                    </LinearRing>
                </outerBoundaryIs>
            </Polygon>
        </Placemark>
        <Placemark id="481">
            <name>Flood_52</name>
            <styleUrl>#486</styleUrl>
            <Polygon id="480">
                <outerBoundaryIs>
                    <LinearRing id="484">
                        <coordinates>-78.96853573819573,33.67583970496477,0.0 -78.96857778416516,33.67583813615698,0.0 -78.9686173967336,33.67585759025758,0.0 -78.96867050162138,33.67588316191377,0.0 -78.96873694166108,33.67592277466474,0.0 -78.96876533811123,33.67596725138588,0.0 -78.96877020225081,33.67598380309237,0.0 -78.96876353463941,33.67602490593463,0.0 -78.96875043389154,33.67604992985645,0.0 -78.96864445978959,33.676091973920904,0.0 -78.9685916678985,33.676089150028254,0.0 -78.96855283852476,33.67606130221753,0.0 -78.96843611727155,33.67599039060957,0.0 -78.96839775939732,33.675942933022476,0.0 -78.96839493574623,33.67591704726417,0.0 -78.96844615867715,33.67587029598448,0.0 -78.96851267734357,33.67584762709398,0.0 -78.96853573819573,33.67583970496477,0.0</coordinates>
                    </LinearRing>
                </outerBoundaryIs>
            </Polygon>
        </Placemark>
        <Placemark id="490">
            <name>Flood_53</name>
            <styleUrl>#495</styleUrl>
            <Polygon id="489">
                <outerBoundaryIs>
                    <LinearRing id="493">
                        <coordinates>-79.05760683856403,33.571944085758865,0.0 -79.05764504042236,33.571943850047425,0.0 -79.0583851354528,33.5719410269728,0.0 -79.05837556566948,33.57195255735079,0.0 -79.05832920716357,33.571982992869444,0.0 -79.05831681372506,33.571991386571625,0.0 -79.05830481187888,33.57200001470619,0.0 -79.0582991632578,33.572004407354264,0.0 -79.05829375168756,33.572008957163625,0.0 -79.05828888756083,33.57201366413454,0.0 -79.05828457349676,33.57201852695728,0.0 -79.05828104392697,33.57202378268336,0.0 -79.05827837743176,33.57202943000322,0.0 -79.05827649412112,33.572035391645834,0.0 -79.05827257164822,33.57205304083351,0.0 -79.05827084680806,33.57205829656111,0.0 -79.0582685719052,33.57206300353398,0.0 -79.0582651981867,33.572066768849226,0.0 -79.05826104128366,33.57206920091382,0.0 -79.05825594272558,33.57207084717233,0.0 -79.05825021683414,33.57207194598575,0.0 -79.05824394088,33.57207265189601,0.0 -79.05823727333363,33.57207312206433,0.0 -79.05821609460783,33.57207390654341,0.0 -79.05820879972786,33.57207437802087,0.0 -79.05820095478512,33.572075083929974,0.0 -79.05819303257171,33.57207602427093,0.0 -79.05818511035827,33.57207720166312,0.0 -79.05816926462167,33.57207978956988,0.0 -79.0581534974654,33.57208277037959,0.0 -79.05813781019918,33.5720858297697,0.0 -79.05809074447164,33.57209539953339,0.0 -79.05807513447616,33.57209845892375,0.0 -79.05806729084296,33.572099870748,0.0 -79.05805944590026,33.57210112541123,0.0 -79.05805160226727,33.572102224222974,0.0 -79.05804375863414,33.572103087293094,0.0 -79.05803591369148,33.572103636041106,0.0 -79.0580279128977,33.572103793195794,0.0 -79.05801991210404,33.57210363602845,0.0 -79.05801191131033,33.57210316584852,0.0 -79.0580039105166,33.57210261577827,0.0 -79.05798790761958,33.57210104677406,0.0 -79.05796382665827,33.572098380255206,0.0 -79.05787542240672,33.57208810446903,0.0 -79.05781917980025,33.57208175118732,0.0 -79.05776270276229,33.572075632337416,0.0 -79.05769783071898,33.57206888614614,0.0 -79.05768175055125,33.57206708140015,0.0 -79.05767382833803,33.57206606246615,0.0 -79.05766614055626,33.57206496364203,0.0 -79.0576586099353,33.572063630386204,0.0 -79.057651393636,33.572061982808336,0.0 -79.05764472608985,33.57205994363788,0.0 -79.05763868587705,33.572057432984515,0.0 -79.05763350873919,33.57205406056539,0.0 -79.05762950899755,33.57204982507067,0.0 -79.05762637102096,33.57204472650039,0.0 -79.05762393895834,33.57203915644734,0.0 -79.05762197837807,33.57203319480157,0.0 -79.05762033080971,33.57202692014363,0.0 -79.05761899756297,33.572020487015116,0.0 -79.0576165655011,33.57200715189429,0.0 -79.05760723146587,33.57194628208547,0.0 -79.05760683856403,33.571944085758865,0.0</coordinates>
                    </LinearRing>
                </outerBoundaryIs>
            </Polygon>
        </Placemark>
        <Placemark id="499">
            <name>Flood_54</name>
            <styleUrl>#504</styleUrl>
            <Polygon id="498">
                <outerBoundaryIs>
                    <LinearRing id="502">
                        <coordinates>-79.06489397682655,33.57456906276081,0.0 -79.064878523992,33.57456749375735,0.0 -79.06487083621009,33.57456678783625,0.0 -79.0648632283182,33.57456600333462,0.0 -79.0648556191167,33.57456498440108,0.0 -79.06484808849557,33.574563728416294,0.0 -79.06484071503525,33.57456215941915,0.0 -79.06483318441416,33.574560041667695,0.0 -79.06482581095389,33.57455753232338,0.0 -79.06481851607407,33.574554708656926,0.0 -79.06481129977462,33.57455172782944,0.0 -79.06480408347517,33.57454866842144,0.0 -79.06478980672742,33.57454215670287,0.0 -79.06473317252848,33.57451556500362,0.0 -79.06470477619376,33.57450246560532,0.0 -79.064690499446,33.57449603377695,0.0 -79.06466861480652,33.57448669839167,0.0 -79.06454389200638,33.57443477096327,0.0 -79.06447055030611,33.574404099611286,0.0 -79.06445588065637,33.57439813795609,0.0 -79.06444105515554,33.57439225488136,0.0 -79.06443360442465,33.57438950979537,0.0 -79.06442615238393,33.57438692056075,0.0 -79.06441854318251,33.57438456837725,0.0 -79.06441085540064,33.57438252789654,0.0 -79.06440316892854,33.574380881628244,0.0 -79.06439524540545,33.574379547062634,0.0 -79.06438732319207,33.57437837096776,0.0 -79.06437132160438,33.57437656622223,0.0 -79.06435516285596,33.57437515437938,0.0 -79.06423373519175,33.57436534874355,0.0 -79.06395856236657,33.574342757934794,0.0 -79.06391000623125,33.574338835418544,0.0 -79.06385313629009,33.5743345213028,0.0 -79.06382889816746,33.57433248211902,0.0 -79.06382089737363,33.574331619036556,0.0 -79.06381297516015,33.574330677373545,0.0 -79.06380513021752,33.57432950127871,0.0 -79.06379744374532,33.574328089442304,0.0 -79.06378999170467,33.57432628470347,0.0 -79.06378277409551,33.57432400979112,0.0 -79.0637758721177,33.57432102896383,0.0 -79.06376920457139,33.57431749938263,0.0 -79.06376285003707,33.574313655479564,0.0 -79.06375657539272,33.574309498563984,0.0 -79.06375037801912,33.57430518448736,0.0 -79.06373822032295,33.5742961634316,0.0 -79.06366621056196,33.57424023498406,0.0 -79.06353999866654,33.57414288799992,0.0 -79.06350995476362,33.57411967004554,0.0 -79.0634679889058,33.57408688097161,0.0 -79.0634499468479,33.574073075665986,0.0 -79.06344382936442,33.5740686044283,0.0 -79.06343763199094,33.57406436762253,0.0 -79.063431356037,33.574060289287516,0.0 -79.06342492423187,33.5740566025453,0.0 -79.063418335266,33.574053307396106,0.0 -79.06341143197847,33.57405071947159,0.0 -79.06340429425936,33.57404883615237,0.0 -79.06339684221871,33.57404766005773,0.0 -79.06338923301722,33.57404687555613,0.0 -79.06338146796453,33.57404648395704,0.0 -79.06337354575113,33.5740462482093,0.0 -79.06336562222799,33.57404616962257,0.0 -79.06334962064032,33.574046326771274,0.0 -79.06324490047733,33.574048836028915,0.0 -79.06322074093498,33.57404922891291,0.0 -79.06319665997299,33.57404938605528,0.0 -79.06318073565609,33.57404922888193,0.0 -79.06316489122916,33.574048757386365,0.0 -79.06309366595974,33.57404585508973,0.0 -79.06307782022323,33.57404514916234,0.0 -79.06306213295714,33.574044287383515,0.0 -79.06305436659476,33.574043658733196,0.0 -79.06304660154218,33.57404295281189,0.0 -79.06303907092108,33.57404193387837,0.0 -79.06303161888042,33.574040677893606,0.0 -79.0630244798517,33.57403895304509,0.0 -79.06301765645424,33.57403667813312,0.0 -79.06301098890799,33.574033540144875,0.0 -79.0630046343736,33.57402977482227,0.0 -79.06299859416085,33.57402553932632,0.0 -79.06299271110892,33.57402098950821,0.0 -79.06298690663736,33.57401620394864,0.0 -79.06297561201586,33.57400624254635,0.0 -79.0629590603664,33.57399078966962,0.0 -79.06294847034916,33.573980435365094,0.0 -79.06294345037203,33.573975179632534,0.0 -79.06293874340669,33.57396992390012,0.0 -79.0629345079237,33.57396458958766,0.0 -79.0629308997742,33.5739592552756,0.0 -79.06292831055063,33.57395384369352,0.0 -79.06292689872316,33.57394827364156,0.0 -79.06292705588429,33.57394270490044,0.0 -79.062928389132,33.57393705627009,0.0 -79.06293066403474,33.573931251789084,0.0 -79.0629334876906,33.573925447308426,0.0 -79.06293686140924,33.57391964282818,0.0 -79.06294046955941,33.573913759767706,0.0 -79.06295584381498,33.5738903061066,0.0 -79.06295929611397,33.57388450162651,0.0 -79.06296251136216,33.573878852997545,0.0 -79.06296510058648,33.57387336283898,0.0 -79.06296698258721,33.57386802853118,0.0 -79.06296776708182,33.57386300854473,0.0 -79.06296706116824,33.573858380150114,0.0 -79.06296455052488,33.57385406607638,0.0 -79.06296055078303,33.573850222175004,0.0 -79.06295537364493,33.57384661401441,0.0 -79.06294949059298,33.57384324028507,0.0 -79.0629429802075,33.573840025026136,0.0 -79.06293615550038,33.57383680845726,0.0 -79.06292901778137,33.573833749049236,0.0 -79.0628844626988,33.57381555107035,0.0 -79.06286963719812,33.57380927509278,0.0 -79.06285512470934,33.57380268610294,0.0 -79.0628480655708,33.57379923510189,0.0 -79.06284116228336,33.57379546977884,0.0 -79.06283449473713,33.573791547294874,0.0 -79.06282837725371,33.57378746895995,0.0 -79.0628224942017,33.5737832321544,0.0 -79.06280507947744,33.57377021134475,0.0 -79.06279911784505,33.57376613300985,0.0 -79.06279276462041,33.57376213194562,0.0 -79.06278625423494,33.57375844520339,0.0 -79.06277966395947,33.57375507278329,0.0 -79.06277315357396,33.573752169227035,0.0 -79.06276680034921,33.57374981704452,0.0 -79.0627607601363,33.573748248048325,0.0 -79.06275503424494,33.57374762070919,0.0 -79.06274993568692,33.57374840520102,0.0 -79.06274554304275,33.57375067879468,0.0 -79.06274169915163,33.573754288257994,0.0 -79.06273832543307,33.57375891533974,0.0 -79.06273526603597,33.57376417106604,0.0 -79.06273236379974,33.573769896966056,0.0 -79.06272969730465,33.57377601576905,0.0 -79.06272452016552,33.573788802129094,0.0 -79.0627121267257,33.57382159116102,0.0 -79.06270945892085,33.573827944395916,0.0 -79.06270679242577,33.57383406319891,0.0 -79.06270389018952,33.573839867679524,0.0 -79.06270075221208,33.57384520198629,0.0 -79.06269730122276,33.573849829067974,0.0 -79.06269337875118,33.57385367296321,0.0 -79.06268882894618,33.57385618360808,0.0 -79.06268341737632,33.57385735969266,0.0 -79.06267737716334,33.573857202526874,0.0 -79.06267086677771,33.57385610501353,0.0 -79.06266396349014,33.57385437885558,0.0 -79.06265690304181,33.57385218252391,0.0 -79.06264960816208,33.573849751760065,0.0 -79.06263478266135,33.57384418169767,0.0 -79.06257469747383,33.57382049223641,0.0 -79.06252974948922,33.57380292159188,0.0 -79.06245507323256,33.57377421213224,0.0 -79.06237286635483,33.57374283485713,0.0 -79.06235058881362,33.57373412811553,0.0 -79.06233584189329,33.573728166460086,0.0 -79.06232854701348,33.57372502847141,0.0 -79.06232133071414,33.5737218119022,0.0 -79.0623142715757,33.57371843948172,0.0 -79.06230736828819,33.57371483131967,0.0 -79.06230062216157,33.57371098741613,0.0 -79.06229395461543,33.573707143512735,0.0 -79.06228077668375,33.573699064112816,0.0 -79.06226775460328,33.57369082755208,0.0 -79.0621704092147,33.573628467266204,0.0 -79.06196897100162,33.573499822900544,0.0 -79.06188464638409,33.573445697865516,0.0 -79.06186519380843,33.573433225808316,0.0 -79.0618520145671,33.5734252236793,0.0 -79.06184534702095,33.57342130250491,0.0 -79.06183860220399,33.57341761576244,0.0 -79.06183169891668,33.57341408487132,0.0 -79.06182463846845,33.57341086961183,0.0 -79.0618174221691,33.573407967364794,0.0 -79.06180997012851,33.57340537812997,0.0 -79.06180244081723,33.57340302463679,0.0 -79.06179475303543,33.57340082830468,0.0 -79.06177930020127,33.57339667138181,0.0 -79.0617558452636,33.573390709719504,0.0 -79.06168540579942,33.57337337479649,0.0 -79.06158374503535,33.573348116310754,0.0 -79.06155252504533,33.573340114167635,0.0 -79.06153707221108,33.57333587866425,0.0 -79.06152201227884,33.57333132883897,0.0 -79.06150734262924,33.5733264660015,0.0 -79.06148553657036,33.573318856768424,0.0 -79.06142733338353,33.57329822671066,0.0 -79.06141289947513,33.573292970970655,0.0 -79.06139877988835,33.57328748079882,0.0 -79.06139187791054,33.573284578552006,0.0 -79.06138513178392,33.57328151914421,0.0 -79.06137869866922,33.573278223995054,0.0 -79.0613726597662,33.573274615833625,0.0 -79.06136716830656,33.573270537499106,0.0 -79.06136222690981,33.57326590910112,0.0 -79.06135775568572,33.57326081052999,0.0 -79.06135375463441,33.57325539763703,0.0 -79.0613499893242,33.57324975031224,0.0 -79.06134645975524,33.57324394451694,0.0 -79.06133971362927,33.57323194395279,0.0 -79.06132033832601,33.573195310997384,0.0 -79.06131029837228,33.573177113045105,0.0 -79.06130676880333,33.5731710728178,0.0 -79.06130315934435,33.57316518975153,0.0 -79.0612991596027,33.57315914952386,0.0 -79.06129507997092,33.573153266457226,0.0 -79.06128660900532,33.57314150032372,0.0 -79.06127343107443,33.57312416413557,0.0 -79.0612644886264,33.57311271232389,0.0 -79.06125531043719,33.573101730685536,0.0 -79.06125052620122,33.57309647495295,0.0 -79.06124558349478,33.57309145496205,0.0 -79.0612404063568,33.57308690514445,0.0 -79.06123483762651,33.573082904080664,0.0 -79.0612287974138,33.573079610241415,0.0 -79.06122228702829,33.5730773353296,0.0 -79.0612153051604,33.57307584491312,0.0 -79.06120801028052,33.57307490325051,0.0 -79.0612004796595,33.57307435449051,0.0 -79.06119271460689,33.57307404016231,0.0 -79.06118486966425,33.573073882994976,0.0 -79.06116894665703,33.5730740401437,0.0 -79.06109654530113,33.573075923400765,0.0 -79.06104038127395,33.57307709944562,0.0 -79.06098429582728,33.57307866839325,0.0 -79.06095229134237,33.573078825529294,0.0 -79.06094570237627,33.573078825524135,0.0 -79.06093699435898,33.57307882551733,0.0 -79.06088585161926,33.57307678500246,0.0 -79.06085227814599,33.57307615764149,0.0 -79.06083784423728,33.57307545171498,0.0 -79.06083000060431,33.57307482437414,0.0 -79.06082215697144,33.57307396129169,0.0 -79.0608144691896,33.57307286377737,0.0 -79.06080685998823,33.573071294779886,0.0 -79.06079964368885,33.57306933418963,0.0 -79.06079258455033,33.57306698069677,0.0 -79.06078560268243,33.57306439146236,0.0 -79.060778699395,33.57306164637663,0.0 -79.06077179741732,33.57305866554919,0.0 -79.06075814800332,33.573052625313935,0.0 -79.06071061210523,33.573030426272744,0.0 -79.06069021787428,33.57302109219767,0.0 -79.06067021523562,33.57301230687708,0.0 -79.06063060286024,33.57299544084173,0.0 -79.06061750219938,33.5729897149291,0.0 -79.06060322676154,33.57298328310024,0.0 -79.06056055368008,33.57296375056264,0.0 -79.06054643409342,33.572957475895,0.0 -79.06053247166754,33.572951435659476,0.0 -79.06051145010306,33.57294265033808,0.0 -79.06049733051637,33.572937001695514,0.0 -79.06049019148782,33.572934335190084,0.0 -79.06048305376883,33.572931747265166,0.0 -79.06047583746948,33.572929472352676,0.0 -79.06046862117014,33.57292743187227,0.0 -79.06046124770994,33.57292586287496,0.0 -79.06045348134775,33.57292468677997,0.0 -79.0604456377148,33.5729239022781,0.0 -79.06043771419176,33.57292343209829,0.0 -79.06042971339807,33.572923196350324,0.0 -79.06041363323007,33.57292311775722,0.0 -79.06038939510753,33.57292351064092,0.0 -79.0603165222693,33.57292507957532,0.0 -79.06018701523143,33.572927745973736,0.0 -79.06016277710883,33.57292790311575,0.0 -79.06014669694086,33.57292758878101,0.0 -79.06013869614709,33.57292719718165,0.0 -79.06013069404369,33.572926569840675,0.0 -79.06012300757156,33.57292562817782,0.0 -79.06011539837019,33.57292437219273,0.0 -79.06010778916881,33.57292303893694,0.0 -79.06009257207575,33.57291990225156,0.0 -79.06006982436179,33.57291488093683,0.0 -79.0600395460268,33.57290766459967,0.0 -79.06002464194574,33.5729038992702,0.0 -79.06001726848561,33.57290178151869,0.0 -79.06001005218617,33.572899585186796,0.0 -79.06000299173803,33.57289715311331,0.0 -79.05999608845063,33.57289448660815,0.0 -79.0599894994848,33.57289213311564,0.0 -79.05998330342096,33.572888210631895,0.0 -79.05997679303574,33.57288389655481,0.0 -79.0599709086742,33.57287973963933,0.0 -79.05996549710488,33.572874326745186,0.0 -79.05995443691519,33.57286452119402,0.0 -79.05994361115707,33.57285448121115,0.0 -79.05991145082358,33.57282373261844,0.0 -79.05989513491566,33.57280851417334,0.0 -79.05988415330636,33.57279847419033,0.0 -79.05987850468613,33.57279361005009,0.0 -79.05986140559358,33.572779098829294,0.0 -79.0598439908697,33.57276490062065,0.0 -79.05983222476621,33.57275572240371,0.0 -79.05982618455363,33.57275125247559,0.0 -79.05982014434099,33.572747015669755,0.0 -79.05981386969682,33.57274301591506,0.0 -79.05980735931156,33.57273940775318,0.0 -79.05980061318492,33.572736191184205,0.0 -79.0597935527367,33.5727336805303,0.0 -79.05978625785701,33.572731562778834,0.0 -79.05977864865568,33.57272983662021,0.0 -79.0597709621836,33.57272834620314,0.0 -79.05976319582146,33.57272701294711,0.0 -79.05974735139483,33.57272473802782,0.0 -79.05973142707822,33.57272269885018,0.0 -79.05962741414076,33.57270991240398,0.0 -79.05959556681718,33.572705755468085,0.0 -79.05957979966131,33.57270340196833,0.0 -79.05957211318923,33.57270206871246,0.0 -79.05956442540752,33.5727005782953,0.0 -79.05955697336691,33.57269877355629,0.0 -79.05954967848723,33.57269665580482,0.0 -79.05954277519983,33.57269414646065,0.0 -79.05953642197522,33.57269116563368,0.0 -79.05953030318209,33.57268787048459,0.0 -79.05951837991756,33.57268096848389,0.0 -79.05951233970497,33.57267767333495,0.0 -79.05950614364114,33.572674771088614,0.0 -79.05950057360107,33.57267257475798,0.0 -79.05948331734704,33.57266684884199,0.0 -79.05947774730697,33.57266465251127,0.0 -79.05947155124309,33.572661593103916,0.0 -79.0594656668816,33.57265814079391,0.0 -79.05945978382974,33.572654454052,0.0 -79.05944809630644,33.57264668897524,0.0 -79.05944205609381,33.572642923652694,0.0 -79.0594354671281,33.57263915832964,0.0 -79.05942864373085,33.57263562874809,0.0 -79.05942166186317,33.572632255017815,0.0 -79.05940738511582,33.572625744608345,0.0 -79.05939295251734,33.57261946994037,0.0 -79.05937098798829,33.57261029171536,0.0 -79.05926117058209,33.57256487338306,0.0 -79.05915150902696,33.57251929919932,0.0 -79.05913684068723,33.57251325896311,0.0 -79.05912209376724,33.57250737588804,0.0 -79.05910726826667,33.57250180713502,0.0 -79.0590997376459,33.572499217900024,0.0 -79.05909212844455,33.57249670855528,0.0 -79.05908444197257,33.572494355061856,0.0 -79.0590689891386,33.57248996239718,0.0 -79.05904561278165,33.57248360783189,0.0 -79.05880330752349,33.57241983559865,0.0 -79.05876408674021,33.57240971570304,0.0 -79.05870101942728,33.572393635454254,0.0 -79.05868533085197,33.57238947853097,0.0 -79.05867764437996,33.572387359469445,0.0 -79.05867011375908,33.57238508586644,0.0 -79.05866274029908,33.572382732373256,0.0 -79.05865575843127,33.57238006455817,0.0 -79.05864924804598,33.57237708373095,0.0 -79.0586432864137,33.57237371131116,0.0 -79.05863826643657,33.572369631667165,0.0 -79.05863442254605,33.572364925999004,0.0 -79.05863144173021,33.57235959168729,0.0 -79.05862908824791,33.572353865782965,0.0 -79.05862712766772,33.572347746976135,0.0 -79.05862555867978,33.572341393737716,0.0 -79.05862414685257,33.5723349606093,0.0 -79.05862179337095,33.57232170406923,0.0 -79.05861967563057,33.57230821178776,0.0 -79.05860751794117,33.572226633383835,0.0 -79.05860539889109,33.57221321968285,0.0 -79.05860304671907,33.572200276155314,0.0 -79.05860171216266,33.57219415865868,0.0 -79.058600221755,33.57218843144532,0.0 -79.05859857549613,33.57218333287627,0.0 -79.0585965350257,33.57217901880263,0.0 -79.05859410427244,33.57217580223701,0.0 -79.05859112345632,33.57217407739171,0.0 -79.05858727956546,33.57217423454977,0.0 -79.05858280834086,33.572175959389185,0.0 -79.05857786694348,33.57217870577537,0.0 -79.05857268980499,33.572182156766985,0.0 -79.0585558238321,33.57219415862242,0.0 -79.05855001935998,33.572197845355156,0.0 -79.05854421488803,33.57220098202405,0.0 -79.0585383318356,33.57220317834567,0.0 -79.05853252736384,33.572204041417415,0.0 -79.0585270359041,33.57220333549786,0.0 -79.05852162433447,33.57220137490893,0.0 -79.05851636861597,33.572198551243886,0.0 -79.05851134863889,33.572195020353995,0.0 -79.05850664167365,33.57219109918097,0.0 -79.05850232761038,33.57218686237643,0.0 -79.05849864088063,33.57218254830149,0.0 -79.05849589449628,33.57217823422737,0.0 -79.05849432681777,33.57217399873461,0.0 -79.05849440408886,33.57216999767524,0.0 -79.05849644456008,33.572166310939544,0.0 -79.0585002098709,33.572162859946815,0.0 -79.05850515126822,33.57215956480651,0.0 -79.05851087715993,33.57215642813746,0.0 -79.05851723169474,33.57215336873989,0.0 -79.058537625927,33.57214419054821,0.0 -79.05854421489337,33.572140896718835,0.0 -79.05855049084778,33.572137365837875,0.0 -79.0585562953198,33.57213352325376,0.0 -79.05856123671734,33.57212905202463,0.0 -79.05856515918907,33.572124109311275,0.0 -79.0585683744373,33.572118540572454,0.0 -79.05857096366186,33.57211265751092,0.0 -79.05857308140395,33.5721065387074,0.0 -79.05857488613425,33.57210018547164,0.0 -79.05857653239407,33.57209375234554,0.0 -79.05857802280279,33.57208716336791,0.0 -79.05858069060828,33.57207382825123,0.0 -79.05858822123292,33.57203358846908,0.0 -79.05859473162153,33.57200001493572,0.0 -79.0585972409566,33.57198667981891,0.0 -79.05859826119263,33.57198009084092,0.0 -79.05859912426784,33.57197350186281,0.0 -79.05859975160192,33.57196714862612,0.0 -79.05859990876327,33.571960872659936,0.0 -79.05859951586176,33.57195483243495,0.0 -79.05859841835617,33.57194918511211,0.0 -79.0585961434542,33.571943929381455,0.0 -79.05859316263836,33.57193992831957,0.0 -79.0624986867783,33.571923459621864,0.0 -79.06553562908601,33.57191036134209,0.0 -79.06714862132063,33.57190871635797,0.0 -79.06876475153236,33.57190699148618,0.0 -79.06920253469168,33.57190652034982,0.0 -79.06922512524517,33.571906598948324,0.0 -79.06922292892315,33.571908403679586,0.0 -79.06921712445128,33.57191311064931,0.0 -79.06920520118604,33.57192228753721,0.0 -79.06918096306335,33.57194032960985,0.0 -79.06910157983894,33.57199853284299,0.0 -79.06908957799325,33.57200763245996,0.0 -79.06908377352138,33.57201218226861,0.0 -79.06907812621033,33.572016887928754,0.0 -79.06907271333088,33.57202167347939,0.0 -79.06906761477293,33.57202661488157,0.0 -79.06906306496796,33.57203171344537,0.0 -79.06905914249654,33.57203720491226,0.0 -79.0690560844094,33.5720430879729,0.0 -79.06905365234611,33.57204928404651,0.0 -79.06905169176515,33.572055638591294,0.0 -79.06905012277652,33.572062227568274,0.0 -79.06904886679976,33.572068895126094,0.0 -79.06904769071308,33.57207564126448,0.0 -79.06904573013196,33.572089212122066,0.0 -79.06903608176766,33.57216459442609,0.0 -79.06901325546946,33.572335361707665,0.0 -79.06901121499824,33.57234900983616,0.0 -79.06900870566407,33.57236250211281,0.0 -79.0690072152558,33.57236916967046,0.0 -79.0690054105259,33.572375758647254,0.0 -79.06900321420376,33.57238219046275,0.0 -79.0690006262893,33.572388309265364,0.0 -79.06899764547296,33.57239434948716,0.0 -79.06899435033495,33.572400311128135,0.0 -79.0689908993459,33.57240619418848,0.0 -79.068987291196,33.5724119986682,0.0 -79.06897983915502,33.57242360762736,0.0 -79.06894908933631,33.57246988892169,0.0 -79.06893779471396,33.572487380940906,0.0 -79.06893041994381,33.57249914706123,0.0 -79.06891959549411,33.572516953402996,0.0 -79.06890163201543,33.57254668302638,0.0 -79.06889104330699,33.57256456794885,0.0 -79.06888421859958,33.57257656981121,0.0 -79.06888100204199,33.57258253145234,0.0 -79.06887794264519,33.57258864894498,0.0 -79.06887519756992,33.572594689166884,0.0 -79.06887268823588,33.57260088655017,0.0 -79.0688707263453,33.57260716120467,0.0 -79.06886931451734,33.572613672911004,0.0 -79.06886845144255,33.57262026188855,0.0 -79.06886790268935,33.57262692944694,0.0 -79.06886766694795,33.572633674276375,0.0 -79.06886751109671,33.572640420415574,0.0 -79.06886774552795,33.57265406985559,0.0 -79.06886813842962,33.57266771798594,0.0 -79.06887056918178,33.572729216427895,0.0 -79.06887080492264,33.57274278728731,0.0 -79.06887080492251,33.572749533426645,0.0 -79.06887064776154,33.572756279565844,0.0 -79.0688701775887,33.57276294712421,0.0 -79.0688694716747,33.57276953610197,0.0 -79.06886821700766,33.57277596791822,0.0 -79.06886633369731,33.5727822438825,0.0 -79.0688636672025,33.572788126943394,0.0 -79.0688604506449,33.57279393142342,0.0 -79.06885676391462,33.57279950016142,0.0 -79.06885276286285,33.572805070208965,0.0 -79.0688485273794,33.57281056036594,0.0 -79.06883958493034,33.572821386138,0.0 -79.06882107269874,33.572843035062164,0.0 -79.0688119743985,33.57285393941454,0.0 -79.06880318780061,33.572864921038125,0.0 -79.06879903089762,33.57287056835625,0.0 -79.068794952575,33.572876294255124,0.0 -79.068791108684,33.5728821000443,0.0 -79.06878365664298,33.57289386616461,0.0 -79.06877651892356,33.57290578944625,0.0 -79.06875886845675,33.572935674921354,0.0 -79.06875165215698,33.572947519622346,0.0 -79.06874404295523,33.57295912989115,0.0 -79.06874004321307,33.572964777209506,0.0 -79.06873580772962,33.57297034594708,0.0 -79.06873117934431,33.572975601671864,0.0 -79.06872608078625,33.572980857396374,0.0 -79.06872066790667,33.57298579879836,0.0 -79.06871494201519,33.572990662929314,0.0 -79.0687030973303,33.572999996978524,0.0 -79.06867870204645,33.57301827479293,0.0 -79.06866670020074,33.573027451680915,0.0 -79.06866089572891,33.57303215865072,0.0 -79.06865532568852,33.573037021472096,0.0 -79.06865006996965,33.573041964183915,0.0 -79.06864528573327,33.57304714132809,0.0 -79.06864112883027,33.57305255290464,0.0 -79.06863767653144,33.57305835738451,0.0 -79.06863493145623,33.573064476187035,0.0 -79.06863257797326,33.57307083073156,0.0 -79.06863053881192,33.573077262547116,0.0 -79.06862881266244,33.573083851524096,0.0 -79.06862716509335,33.57309051908156,0.0 -79.06862277244875,33.57311067891572,0.0 -79.06861037900954,33.57317162728234,0.0 -79.06860041763373,33.5732189275209,0.0 -79.06859586782842,33.573239087354864,0.0 -79.06859249410984,33.573252501050405,0.0 -79.06859069068963,33.57325893286615,0.0 -79.068584807637,33.57327822962282,0.0 -79.06857029514688,33.573323020519204,0.0 -79.0685638633411,33.57334216011435,0.0 -79.06855923495553,33.57335471073266,0.0 -79.06855672562148,33.573360828225766,0.0 -79.06855397923657,33.5733668684478,0.0 -79.06855092114945,33.57337267292791,0.0 -79.06854739027025,33.57337816439517,0.0 -79.0685433119477,33.5733833415399,0.0 -79.06853844782117,33.57338812709097,0.0 -79.06853287909038,33.573392519738796,0.0 -79.06852691745775,33.5733966766448,0.0 -79.06852056423277,33.57340052053786,0.0 -79.06851405253738,33.57340436443088,0.0 -79.06850056159314,33.57341158073327,0.0 -79.06848675501769,33.57341871845492,0.0 -79.06843812161101,33.57344327090671,0.0 -79.06842447219643,33.57345048720898,0.0 -79.06841764879877,33.573454095360084,0.0 -79.06841098125217,33.57345786067248,0.0 -79.06840439228604,33.573461783145945,0.0 -79.06839803775136,33.573465784200195,0.0 -79.06839191895791,33.573470019686496,0.0 -79.0683860359056,33.57347456949518,0.0 -79.06838038859446,33.57347935373601,0.0 -79.06837489713449,33.57348429644769,0.0 -79.06836956414494,33.573489316430376,0.0 -79.06835913128756,33.57349959213751,0.0 -79.06834375703309,33.573515280730334,0.0 -79.06829779012047,33.57356273810208,0.0 -79.06828241455626,33.57357842538521,0.0 -79.06827190442822,33.573588779672896,0.0 -79.06826131441015,33.57359889952854,0.0 -79.06825582295016,33.57360391951111,0.0 -79.0682344084825,33.57362243176001,0.0 -79.06822915407331,33.573627216001164,0.0 -79.06822405420556,33.57363200155206,0.0 -79.06821903422798,33.5736371001155,0.0 -79.0682142499915,33.5736423558403,0.0 -79.06820954302572,33.573647611565086,0.0 -79.06820044341575,33.57365843602744,0.0 -79.06818255851735,33.573680322003646,0.0 -79.06817338163675,33.573690910724274,0.0 -79.06816867467097,33.57369608786855,0.0 -79.06816365469331,33.57370103058061,0.0 -79.06815847755485,33.57370573624124,0.0 -79.06815290882415,33.57371005030859,0.0 -79.0681472602033,33.57371365846071,0.0 -79.06814129857068,33.57371703218053,0.0 -79.06813510250649,33.57372009157806,0.0 -79.06812874797181,33.57372307239497,0.0 -79.0681223161665,33.57372589605073,0.0 -79.06809596030189,33.5737369562413,0.0 -79.06808944860641,33.57373985847749,0.0 -79.06807587908179,33.57374644744531,0.0 -79.06805595502254,33.57375680172563,0.0 -79.0679968101781,33.573789197817085,0.0 -79.06797696338948,33.573799709258566,0.0 -79.06796339386484,33.5738062982264,0.0 -79.06795641199665,33.57380943620393,0.0 -79.06794213655826,33.57381539783646,0.0 -79.06792770264929,33.57382104514677,0.0 -79.06791311288913,33.573826615186086,0.0 -79.0678183554098,33.57386214923284,0.0 -79.06776736852022,33.57388144595467,0.0 -79.06773834485122,33.57389274057512,0.0 -79.06770202630204,33.573907331643674,0.0 -79.06768743654196,33.573912978953885,0.0 -79.06768006308161,33.57391556817696,0.0 -79.06767268962108,33.573917998929225,0.0 -79.06766515899994,33.57392003808848,0.0 -79.06765762837871,33.57392168565467,0.0 -79.0676508036714,33.57392262730613,0.0 -79.0676439016934,33.573923254635446,0.0 -79.06763699840583,33.57392356895228,0.0 -79.06762295739895,33.57392380337336,0.0 -79.06759307065556,33.57392364749872,0.0 -79.06756161623322,33.57392372605482,0.0 -79.06753800544405,33.573923960468484,0.0 -79.06752223828786,33.57392419619786,0.0 -79.0675065497121,33.573924666359254,0.0 -79.06749878465948,33.573925059255934,0.0 -79.06749093971668,33.57392560800402,0.0 -79.06748317466406,33.57392623533265,0.0 -79.06747548688206,33.57392717698347,0.0 -79.06746764324895,33.573928510227226,0.0 -79.06745979961585,33.57393000063207,0.0 -79.06745203325355,33.573931726778575,0.0 -79.06744426820079,33.57393360877647,0.0 -79.06742881405636,33.573937609823716,0.0 -79.06732025131134,33.57396702505525,0.0 -79.06730511279822,33.57397141769573,0.0 -79.06729781791813,33.57397377117728,0.0 -79.06729075746959,33.573976280510394,0.0 -79.06728408992308,33.573979026895124,0.0 -79.06727797112953,33.57398208629284,0.0 -79.06727255955963,33.57398561586459,0.0 -79.0672682454958,33.57398977277186,0.0 -79.0672652646794,33.573994715485554,0.0 -79.06726322420822,33.574000205644424,0.0 -79.06726204812145,33.574006167287166,0.0 -79.06726134220739,33.57401252052343,0.0 -79.06726102788565,33.57401903223063,0.0 -79.06726102788544,33.57402569978945,0.0 -79.06726126362597,33.574045858317675,0.0 -79.06726110646494,33.57405237002507,0.0 -79.06726079345283,33.57405864468105,0.0 -79.06726008753878,33.574064606324164,0.0 -79.06725875298153,33.574070097793204,0.0 -79.0672566352398,33.57407488203685,0.0 -79.06725349726254,33.57407872593256,0.0 -79.06724887018689,33.57408139242865,0.0 -79.06724314298582,33.57408311857684,0.0 -79.06723655401962,33.574084060228415,0.0 -79.06722949488082,33.574084608977124,0.0 -79.06722188567929,33.57408476613232,0.0 -79.06721412062657,33.574084608965215,0.0 -79.0672061185231,33.57408437321743,0.0 -79.06718972534313,33.57408358870906,0.0 -79.06710696971034,33.57407856865801,0.0 -79.06708233868572,33.5740772353891,0.0 -79.0670658656157,33.57407637230008,0.0 -79.06704954970645,33.57407582353336,0.0 -79.06704139175179,33.574075744946455,0.0 -79.06703331237755,33.574075823520786,0.0 -79.0670252330033,33.57407613652702,0.0 -79.06701731078986,33.57407684374568,0.0 -79.06700946584704,33.57407801982845,0.0 -79.06700193653552,33.57407966739456,0.0 -79.06699456176544,33.57408178513445,0.0 -79.066987188305,33.57408421719654,0.0 -79.06697997200526,33.57408696227114,0.0 -79.06695134123812,33.57409833547261,0.0 -79.06694428078964,33.574101003276546,0.0 -79.06693730023116,33.574103435338856,0.0 -79.0669303969434,33.574105395918025,0.0 -79.06692365081639,33.574106886323655,0.0 -79.06691706185039,33.57410751365332,0.0 -79.06691070862541,33.57410719932621,0.0 -79.06690451125166,33.574105474478586,0.0 -79.06689862819964,33.574102650813245,0.0 -79.06689282372791,33.5740990426522,0.0 -79.06688725499745,33.57409488442755,0.0 -79.06688168495721,33.57409025602941,0.0 -79.06687619480722,33.57408539319936,0.0 -79.06684921030056,33.57405997761215,0.0 -79.06684379742121,33.57405519336267,0.0 -79.06683838585157,33.57405072212574,0.0 -79.06683297297221,33.5740467210623,0.0 -79.0668275600928,33.57404350580433,0.0 -79.066822148523,33.57404123089344,0.0 -79.0668166570632,33.57404021065182,0.0 -79.06681108833256,33.57404091656268,0.0 -79.06680551829209,33.57404287714289,0.0 -79.06679994956137,33.57404585796037,0.0 -79.06679430094057,33.57404954469313,0.0 -79.0667886536294,33.57405370290902,0.0 -79.06678308358892,33.57405817413753,0.0 -79.06677743627772,33.574062879797864,0.0 -79.06676049303441,33.57407778389398,0.0 -79.06672095792705,33.57411308355222,0.0 -79.06666471531733,33.57416305025542,0.0 -79.06665342069495,33.5741729343691,0.0 -79.06664204618242,33.574182504160554,0.0 -79.06663616313014,33.57418713124022,0.0 -79.06663028007767,33.574191523887905,0.0 -79.06662416128415,33.57419568210343,0.0 -79.0666178080591,33.574199368835586,0.0 -79.06661106193212,33.57420250681334,0.0 -79.06660400148355,33.57420493756599,0.0 -79.06659662802309,33.57420682087383,0.0 -79.0665890201312,33.574208311278895,0.0 -79.06658125376873,33.57420956594223,0.0 -79.06657333155528,33.57421050759297,0.0 -79.06656533076145,33.574211370663065,0.0 -79.0665411699093,33.57421348838991,0.0 -79.06646814121926,33.57421913565504,0.0 -79.06633855559966,33.57422956843139,0.0 -79.06632247543149,33.57423105882991,0.0 -79.06631447463766,33.57423200048051,0.0 -79.0663065524242,33.57423309798263,0.0 -79.06629870748137,33.57423435395554,0.0 -79.06629102100902,33.57423592163143,0.0 -79.06628349038778,33.57423788351975,0.0 -79.0662761169273,33.574240392852666,0.0 -79.06626897789833,33.574243295088536,0.0 -79.06626191875944,33.57424651164657,0.0 -79.06625493689118,33.57424996263656,0.0 -79.06624803491307,33.57425349351691,0.0 -79.06623438549822,33.5742609455611,0.0 -79.06619367430451,33.57428400629916,0.0 -79.06618002619928,33.574291536923866,0.0 -79.06617320149189,33.574295223655675,0.0 -79.06616629820407,33.57429867595544,0.0 -79.06615931764553,33.57430196978442,0.0 -79.06615225719692,33.57430495060087,0.0 -79.06614504089724,33.574307539824126,0.0 -79.06613766743678,33.57430957898345,0.0 -79.06613037255678,33.57431091222768,0.0 -79.06612284193557,33.57431169671763,0.0 -79.06611515415358,33.57431208830468,0.0 -79.06610746768129,33.57431216687934,0.0 -79.06609962273859,33.57431208829268,0.0 -79.06609177910552,33.574311853854645,0.0 -79.06606808973591,33.57431067643797,0.0 -79.0660123958813,33.574307146818974,0.0 -79.06599655145448,33.574306205149874,0.0 -79.06598086287862,33.57430557780308,0.0 -79.06597309651627,33.57430542194569,0.0 -79.06596548862436,33.5743054992107,0.0 -79.06595803658361,33.57430581352705,0.0 -79.06595081897429,33.574306598017245,0.0 -79.06594391699626,33.574307852681265,0.0 -79.06593748519089,33.57430997042193,0.0 -79.06593144497775,33.57431310840017,0.0 -79.06592587493726,33.57431703087456,0.0 -79.06592061921837,33.57432150210335,0.0 -79.06591567782098,33.57432644350597,0.0 -79.06591089227474,33.574331699230825,0.0 -79.0659016368134,33.57434268085433,0.0 -79.06589253720321,33.574354055380745,0.0 -79.06586116135968,33.57439421656169,0.0 -79.06585198316904,33.57440559108806,0.0 -79.06584264912733,33.57441680845312,0.0 -79.06583786358108,33.574422299919654,0.0 -79.06583284360332,33.57442763291521,0.0 -79.06582766646471,33.57443288863977,0.0 -79.06582233216545,33.5744378313518,0.0 -79.06581684201498,33.57444261559282,0.0 -79.06580546750241,33.57445187237187,0.0 -79.06578781834517,33.57446552048874,0.0 -79.06572828059745,33.5745105457835,0.0 -79.06571635733184,33.57451948824004,0.0 -79.06571031842832,33.574523802307155,0.0 -79.06570427821504,33.574527960522786,0.0 -79.06569815942156,33.57453196026765,0.0 -79.0656919620475,33.57453564699997,0.0 -79.06568568740288,33.574538942139235,0.0 -79.06567917701703,33.574541687214435,0.0 -79.06567243089005,33.57454364779368,0.0 -79.06566529186115,33.57454466802557,0.0 -79.06565791840075,33.57454490376157,0.0 -79.06565038908928,33.57454451085307,0.0 -79.06564270130733,33.57454372635138,0.0 -79.06563493625471,33.574542628837136,0.0 -79.06562709131207,33.57454137416183,0.0 -79.06561924767901,33.574539961015624,0.0 -79.06560340194254,33.57453690291071,0.0 -79.06554786524893,33.574525842656634,0.0 -79.06550032934912,33.574516507251666,0.0 -79.0652708890046,33.57447234481021,0.0 -79.06523127531821,33.574464578402754,0.0 -79.0651677378309,33.57445187188009,0.0 -79.0651519706749,33.57444896831691,0.0 -79.0651442056222,33.57444771364155,0.0 -79.06513643925992,33.574446694707895,0.0 -79.0651288313681,33.574445910206244,0.0 -79.06512130074694,33.57444567445884,0.0 -79.06511408444733,33.57444598746585,0.0 -79.06510710257915,33.574447164858846,0.0 -79.06510067077376,33.57444936118004,0.0 -79.06509447339988,33.57445234199719,0.0 -79.06508851176704,33.5744558715686,0.0 -79.06508278587545,33.574459951203984,0.0 -79.06507705998372,33.57446426527137,0.0 -79.0650714899432,33.574468815080465,0.0 -79.06506035117181,33.57447830629165,0.0 -79.0650493695612,33.57448811182525,0.0 -79.06500567755016,33.57452764566233,0.0 -79.0649946173591,33.57453737261528,0.0 -79.06498904862826,33.57454207958548,0.0 -79.06498340000728,33.57454670666541,0.0 -79.06497775269608,33.57455117789386,0.0 -79.06497186964367,33.57455533610973,0.0 -79.06496590801082,33.57455917869364,0.0 -79.06495971063681,33.5745625524135,0.0 -79.0649531216706,33.574565218908155,0.0 -79.06494614111203,33.574568042563605,0.0 -79.06493884623205,33.57456890563428,0.0 -79.06493139419128,33.57456945569233,0.0 -79.06492386357007,33.574569611537925,0.0 -79.0649162543685,33.574569690112654,0.0 -79.06490935108073,33.57456953294614,0.0 -79.06489397682655,33.57456906276081,0.0</coordinates>
                    </LinearRing>
                </outerBoundaryIs>
            </Polygon>
        </Placemark>
        <Placemark id="508">
            <name>Flood_55</name>
            <styleUrl>#513</styleUrl>
            <Polygon id="507">
                <outerBoundaryIs>
                    <LinearRing id="511">
                        <coordinates>-79.0680020643015,33.584091411806114,0.0 -79.06800614393407,33.58408858814818,0.0 -79.06802512633908,33.584092745071864,0.0 -79.06803406878858,33.58409509856522,0.0 -79.06804363857152,33.5840978449617,0.0 -79.06805328693481,33.5841009030611,0.0 -79.06806254370579,33.58410435537253,0.0 -79.06807085751201,33.58410812069579,0.0 -79.06807776080002,33.58411219903063,0.0 -79.06808309509931,33.5841165916865,0.0 -79.06808780206514,33.58412145582522,0.0 -79.06809219470931,33.584126711556685,0.0 -79.06809635161243,33.58413220171997,0.0 -79.06810035266422,33.58413784904425,0.0 -79.06810811771705,33.584149380743845,0.0 -79.0681493776639,33.58421440878865,0.0 -79.06818726520204,33.58427331802639,0.0 -79.06819448150178,33.584285162738155,0.0 -79.06819793380058,33.58429104580364,0.0 -79.06820107046805,33.58429708602999,0.0 -79.06820397401358,33.58430312625609,0.0 -79.06820640476714,33.584309245062556,0.0 -79.06820820949687,33.584315441139374,0.0 -79.06820938558332,33.58432187426707,0.0 -79.0682098570656,33.58432846324566,0.0 -79.06820993433618,33.58433513080458,0.0 -79.06820969990444,33.58434187694378,0.0 -79.06820860108819,33.584355367912124,0.0 -79.0682070320991,33.58436901735077,0.0 -79.06819926704433,33.58443035862483,0.0 -79.06819432564573,33.584471305631176,0.0 -79.06818961867869,33.58451225132807,0.0 -79.06818373562463,33.584567160786165,0.0 -79.06818208805518,33.58458081022485,0.0 -79.06818122498038,33.584587477783124,0.0 -79.06818012747392,33.584594145341235,0.0 -79.0681787942263,33.584600655738,0.0 -79.06817714665705,33.58460693039304,0.0 -79.06817510749553,33.58461297061584,0.0 -79.06817236111041,33.58461861924508,0.0 -79.06816867437985,33.5846236392294,0.0 -79.06816404730382,33.58462795329781,0.0 -79.06815855584341,33.584631797192245,0.0 -79.06815235846916,33.584635169602734,0.0 -79.06814576950246,33.58463830758115,0.0 -79.0681387889436,33.584641209817725,0.0 -79.06813164991419,33.58464395489299,0.0 -79.06811690299232,33.58464928919191,0.0 -79.06808701755624,33.58465980062831,0.0 -79.06807219205389,33.58466529077856,0.0 -79.06806497444413,33.584668194324585,0.0 -79.06805775814398,33.58467125241236,0.0 -79.06805077758501,33.584674547551536,0.0 -79.0680439528772,33.58467815570338,0.0 -79.06803728533015,33.584681999596825,0.0 -79.06803077494388,33.584685999341865,0.0 -79.06802426324789,33.58469007897719,0.0 -79.06801155679706,33.58469855126038,0.0 -79.06799892761688,33.58470717939501,0.0 -79.06786086970928,33.584802800030964,0.0 -79.06782949386458,33.58482468469005,0.0 -79.06778564469074,33.584855590386596,0.0 -79.0677730940909,33.5848642971019,0.0 -79.06776674086551,33.584868533898366,0.0 -79.0677604649107,33.58487261222408,0.0 -79.06775403310488,33.584876456117804,0.0 -79.0677475227186,33.58488006426979,0.0 -79.06774101102265,33.58488320224829,0.0 -79.06773426620494,33.58488579016276,0.0 -79.06772728433636,33.5848875948911,0.0 -79.06772030246773,33.58488837938209,0.0 -79.06771300758729,33.584888379377105,0.0 -79.06770563412643,33.584887752037396,0.0 -79.06769818208521,33.584886810375444,0.0 -79.06769065146354,33.58488547712055,0.0 -79.06768304357115,33.584883986704334,0.0 -79.06767535578878,33.58488241770764,0.0 -79.06766006011401,33.58487888812125,0.0 -79.06759079542073,33.58486265071493,0.0 -79.06757549974607,33.58485896396744,0.0 -79.0675602826517,33.5848551200589,0.0 -79.06755275203005,33.58485300230816,0.0 -79.06754529998878,33.58485072739645,0.0 -79.06753800510842,33.58484829532368,0.0 -79.06753063164763,33.584845550238455,0.0 -79.0675233367673,33.584842569411606,0.0 -79.06750906001844,33.584836214855414,0.0 -79.06749486184997,33.584829547286894,0.0 -79.06743854065877,33.58480217109767,0.0 -79.0674243424904,33.58479550352906,0.0 -79.06740983131,33.584789150282404,0.0 -79.06739508438844,33.58478311004807,0.0 -79.06738018030613,33.58477722697482,0.0 -79.06731240733122,33.584751262608044,0.0 -79.0672975818293,33.584745300954246,0.0 -79.06729036552932,33.584742164275966,0.0 -79.06728330508047,33.584738947707656,0.0 -79.0672766375337,33.58473557397853,0.0 -79.06727036288882,33.5847318099664,0.0 -79.06726479284826,33.58472773032285,0.0 -79.06726016446291,33.584723101925775,0.0 -79.0672568706346,33.58471823909773,0.0 -79.06725443857135,33.5847128262065,0.0 -79.06725263515143,33.58470710030321,0.0 -79.06725130059446,33.58470113865855,0.0 -79.06725051610032,33.58469509843376,0.0 -79.06725004592776,33.5846889796287,0.0 -79.06725004592796,33.58468286213366,0.0 -79.06725043883016,33.58467690049019,0.0 -79.06725145775627,33.584671096008236,0.0 -79.06725318390588,33.58466560453934,0.0 -79.06725585040095,33.58466050597379,0.0 -79.06725985145317,33.58465572042154,0.0 -79.0672648714311,33.58465132777276,0.0 -79.06727059732313,33.58464732802717,0.0 -79.06727687327785,33.584643562713836,0.0 -79.06728354082485,33.58464003314255,0.0 -79.06729036553273,33.58463650226157,0.0 -79.06729742467209,33.584633129851476,0.0 -79.06731178000179,33.584626540883,0.0 -79.06735515769283,33.58460700840969,0.0 -79.06739108334254,33.58459069249474,0.0 -79.06753376963482,33.58452519440238,0.0 -79.06756208608228,33.58451185930413,0.0 -79.0675761270903,33.58450503459378,0.0 -79.0675829517982,33.58450142644203,0.0 -79.067589776506,33.584497661129085,0.0 -79.06759644405308,33.584493738655034,0.0 -79.06760303301971,33.58448973891006,0.0 -79.06760954340598,33.58448550342342,0.0 -79.06762240832735,33.58447703114025,0.0 -79.0676415478938,33.58446401035789,0.0 -79.06766688483462,33.5844465170373,0.0 -79.06767943543437,33.58443765316094,0.0 -79.06769159313221,33.58442863212321,0.0 -79.06769739760459,33.58442400504312,0.0 -79.0677029676454,33.58441914091147,0.0 -79.06770814478428,33.584414120928166,0.0 -79.06771285044067,33.58440886520294,0.0 -79.0677168514929,33.584403296464664,0.0 -79.06772038106267,33.58439749198456,0.0 -79.06772351904011,33.58439145176249,0.0 -79.06772634269599,33.584385332959705,0.0 -79.06773167699589,33.58437270376078,0.0 -79.06774407043557,33.58434069922489,0.0 -79.06774948331581,33.58432814860669,0.0 -79.06775246413251,33.58432195253305,0.0 -79.0677556806903,33.58431591231105,0.0 -79.06775936742089,33.58431010783105,0.0 -79.06776352432422,33.58430438062218,0.0 -79.06776815270999,33.58429881188443,0.0 -79.06777301552721,33.584293477578726,0.0 -79.0677781140856,33.584288143273184,0.0 -79.06778329122444,33.58428296612889,0.0 -79.06779944997442,33.58426751327674,0.0 -79.06784886918919,33.584221624894475,0.0 -79.06790354281341,33.58417055936801,0.0 -79.06791452442461,33.58416044082137,0.0 -79.067925741777,33.5841504008554,0.0 -79.06793719356081,33.58414067390206,0.0 -79.06794276360162,33.584136202673214,0.0 -79.06794864665433,33.584131731444494,0.0 -79.06797829765907,33.584109845474806,0.0 -79.06799218150634,33.584099335337115,0.0 -79.0680020643015,33.584091411806114,0.0</coordinates>
                    </LinearRing>
                </outerBoundaryIs>
            </Polygon>
        </Placemark>
        <Placemark id="517">
            <name>Flood_56</name>
            <styleUrl>#522</styleUrl>
            <Polygon id="516">
                <outerBoundaryIs>
                    <LinearRing id="520">
                        <coordinates>-79.10861760793523,33.64625133574847,0.0 -79.10857721104105,33.6462340008803,0.0 -79.10856442469039,33.64621344814491,0.0 -79.10852614553627,33.646185053069786,0.0 -79.10851822200031,33.646146066656286,0.0 -79.10849602301421,33.64608472539394,0.0 -79.10850465244457,33.646039621490324,0.0 -79.1085145352154,33.64591991979564,0.0 -79.1085302237847,33.64586093202616,0.0 -79.10854481485327,33.645827829987354,0.0 -79.10856003194934,33.64580892482803,0.0 -79.10858403433826,33.64579300180087,0.0 -79.10860835236049,33.645785314011455,0.0 -79.10873825105084,33.645781078544275,0.0 -79.10904182035496,33.64579025549104,0.0 -79.10914049903913,33.64578241186321,0.0 -79.10928145924012,33.64580053255383,0.0 -79.10936711714776,33.645796610091374,0.0 -79.10942688935884,33.64582218151027,0.0 -79.10945685470615,33.64586242259618,0.0 -79.10945685470838,33.645871756651474,0.0 -79.10949034831225,33.64589105341188,0.0 -79.10949866343648,33.645911761997795,0.0 -79.10952329447005,33.6459012505487,0.0 -79.10952698120772,33.64592517569614,0.0 -79.10953811998372,33.64592478410521,0.0 -79.1095574167218,33.64593937389043,0.0 -79.10956863276911,33.6459412558956,0.0 -79.10958102752086,33.64593443248994,0.0 -79.10961836501995,33.64596447513609,0.0 -79.10965272300655,33.64597600552249,0.0 -79.10973351810007,33.645991458394164,0.0 -79.10977791604707,33.64600542215889,0.0 -79.1098667892067,33.646012245581865,0.0 -79.10990569699985,33.64602189396585,0.0 -79.10990977532549,33.64602683668079,0.0 -79.10989510698168,33.646040799125785,0.0 -79.10989377373649,33.6460519379132,0.0 -79.10992217008369,33.64604691662325,0.0 -79.1099292292271,33.64605248667313,0.0 -79.10990946232313,33.64606668485877,0.0 -79.10991283473832,33.646087314863195,0.0 -79.10986663337611,33.64609688465209,0.0 -79.10984545333366,33.64610967100758,0.0 -79.10982011638922,33.64613430075532,0.0 -79.10976701173809,33.646152028510016,0.0 -79.10955114082165,33.646175483446754,0.0 -79.1095001539089,33.64617603219199,0.0 -79.10945026450638,33.646190779126485,0.0 -79.10941888865067,33.64619430869586,0.0 -79.10939370886342,33.646203878488485,0.0 -79.10935535113641,33.64620733078584,0.0 -79.10928812689116,33.64622411688172,0.0 -79.10923651133481,33.64622435261451,0.0 -79.1091701501623,33.64623156891373,0.0 -79.10903232794384,33.64623149030985,0.0 -79.10896651552488,33.64623949110468,0.0 -79.1088328515207,33.64623878516716,0.0 -79.1087544884985,33.64625243458908,0.0 -79.10868757856984,33.64624811919794,0.0 -79.10861360819193,33.64625408082703,0.0 -79.10861760793523,33.64625133574847,0.0</coordinates>
                    </LinearRing>
                </outerBoundaryIs>
            </Polygon>
        </Placemark>
        <Placemark id="526">
            <name>Flood_57</name>
            <styleUrl>#531</styleUrl>
            <Polygon id="525">
                <outerBoundaryIs>
                    <LinearRing id="529">
                        <coordinates>-79.11124398991745,33.65149892443358,0.0 -79.11126485426351,33.65122626184735,0.0 -79.11129262325794,33.65114217153561,0.0 -79.11130705586378,33.65114021095367,0.0 -79.11133074524986,33.65115848747406,0.0 -79.11134368876148,33.65117629381968,0.0 -79.11137961443318,33.651204062867414,0.0 -79.11139914691736,33.651234105509204,0.0 -79.11141122734986,33.65123622325547,0.0 -79.11145154565817,33.65122586896856,0.0 -79.11149029629388,33.65124312656356,0.0 -79.11150606215496,33.65126963963019,0.0 -79.1115176724269,33.65132007784261,0.0 -79.11151045481935,33.651341099438284,0.0 -79.11149727688338,33.651352316804676,0.0 -79.11146464505184,33.651365338900995,0.0 -79.11145201587304,33.65139138048093,0.0 -79.11149084511904,33.65152630060492,0.0 -79.11148990347688,33.65157885656067,0.0 -79.11147954920698,33.65162607820816,0.0 -79.11147531374215,33.651707109121546,0.0 -79.11146605698,33.65175833051723,0.0 -79.11142832661216,33.65186744348203,0.0 -79.11139906852738,33.651986753579024,0.0 -79.11137710530755,33.652032406234326,0.0 -79.11134761146094,33.652070606836915,0.0 -79.1113167044826,33.652135007491566,0.0 -79.11131199883026,33.6521583053031,0.0 -79.11131811632718,33.65219862365471,0.0 -79.11129913391719,33.6522128218413,0.0 -79.1112700316553,33.652220588211655,0.0 -79.1112566965526,33.6522085863466,0.0 -79.11124304842829,33.652159089790246,0.0 -79.1112482255388,33.65203828927987,0.0 -79.11122571218905,33.65181880997865,0.0 -79.11122563358369,33.65172005130105,0.0 -79.11124155788562,33.65162851024549,0.0 -79.11124398991745,33.65149892443358,0.0</coordinates>
                    </LinearRing>
                </outerBoundaryIs>
            </Polygon>
        </Placemark>
        <Placemark id="535">
            <name>Flood_58</name>
            <styleUrl>#540</styleUrl>
            <Polygon id="534">
                <outerBoundaryIs>
                    <LinearRing id="538">
                        <coordinates>-79.10817865233413,33.657214260315754,0.0 -79.10817880818419,33.65720939618193,0.0 -79.10820516536849,33.65719245291552,0.0 -79.10820759612193,33.6571862568422,0.0 -79.10819653592083,33.65716688150593,0.0 -79.10818398531316,33.65715707596653,0.0 -79.10816225782162,33.65715393798305,0.0 -79.1081209192757,33.657165076767654,0.0 -79.10815590327093,33.657099029848546,0.0 -79.10819888938222,33.65706922164369,0.0 -79.1081965358965,33.6570622397648,0.0 -79.10811958469121,33.65704945470912,0.0 -79.10809409188846,33.65705219978644,0.0 -79.10807848188654,33.65706020059124,0.0 -79.10807424640248,33.65706686814753,0.0 -79.10807699148008,33.65707102505686,0.0 -79.10809997494846,33.6570722024567,0.0 -79.10810766142599,33.657077065281435,0.0 -79.1081217024474,33.65710726508368,0.0 -79.10811676105313,33.65713119023049,0.0 -79.1080887576104,33.657155585548814,0.0 -79.10809762147713,33.65712726775161,0.0 -79.1080902480091,33.657111266139104,0.0 -79.10807691290847,33.657108991232136,0.0 -79.10804773206414,33.65711299228772,0.0 -79.10803047579813,33.65710404982393,0.0 -79.10802608314567,33.65707792835102,0.0 -79.10803118169827,33.65704310015801,0.0 -79.10798474458106,33.65700795894857,0.0 -79.10799039189331,33.657000428316415,0.0 -79.1080294555336,33.65698073866205,0.0 -79.10803196617564,33.65696811077371,0.0 -79.10802419980043,33.65693038033931,0.0 -79.1079712522966,33.656906219446384,0.0 -79.10795830878631,33.65689468906467,0.0 -79.10795854451702,33.656848879244386,0.0 -79.10796748696755,33.656835229809836,0.0 -79.1079654478043,33.656831151480944,0.0 -79.10789006558693,33.65681193330057,0.0 -79.1078821420584,33.65680699058552,0.0 -79.1078730437493,33.656788556905944,0.0 -79.10784354988947,33.65677741811564,0.0 -79.10785500167654,33.65676894713721,0.0 -79.10790567557996,33.65676541756656,0.0 -79.10796380022302,33.65678126202226,0.0 -79.10797038919219,33.656779850192834,0.0 -79.10795862307758,33.65676251402083,0.0 -79.10794364040511,33.656751925295396,0.0 -79.10787767081364,33.65672894179937,0.0 -79.10784841268985,33.65669505525999,0.0 -79.1078552374004,33.65669317194755,0.0 -79.10788684900463,33.65671176279009,0.0 -79.10789414388685,33.65670446789968,0.0 -79.10789532127846,33.656681484409006,0.0 -79.10788951548906,33.656660932984806,0.0 -79.10787790653663,33.65664955845442,0.0 -79.10785147207471,33.65663614475857,0.0 -79.10790575282049,33.65663426275967,0.0 -79.10792293181132,33.65662437864215,0.0 -79.10791752023653,33.65661567192074,0.0 -79.1078812016622,33.65658861009844,0.0 -79.1078601001959,33.65658962902402,0.0 -79.10784825549891,33.656564057614034,0.0 -79.10786880690321,33.65656766577104,0.0 -79.10787853385085,33.65656444920948,0.0 -79.10788606447204,33.656547427361126,0.0 -79.10787688627413,33.656534563730204,0.0 -79.10789430100594,33.65652303204125,0.0 -79.10797603644507,33.65651487408096,0.0 -79.10797274261355,33.656508206524045,0.0 -79.10794654258223,33.65649008716503,0.0 -79.10794152259396,33.65645525897119,0.0 -79.10794968055035,33.65644419876451,0.0 -79.10797682092037,33.65643078507312,0.0 -79.10798568478754,33.65640442916949,0.0 -79.10797486032716,33.656381837270764,0.0 -79.10794999485486,33.656369443811926,0.0 -79.10794081665738,33.65635877519675,0.0 -79.1079479543794,33.65635446112711,0.0 -79.10798137070968,33.65635304930006,0.0 -79.10799078333496,33.65634732340076,0.0 -79.10798858700925,33.6563363417737,0.0 -79.1079711735794,33.656314221357526,0.0 -79.10797109499629,33.656302532506096,0.0 -79.10797995886664,33.656290296211154,0.0 -79.10798772523482,33.65629743394185,0.0 -79.10799831394893,33.65629876719214,0.0 -79.10800411842305,33.656295630520454,0.0 -79.1080048243356,33.65628833562942,0.0 -79.10799384271371,33.65626260574896,0.0 -79.1079754876282,33.656239857998244,0.0 -79.10798992154277,33.65623177861298,0.0 -79.10801078595789,33.65622973945044,0.0 -79.10801737623572,33.65622362064825,0.0 -79.10800874679235,33.65621577700263,0.0 -79.10798552889082,33.656207697614065,0.0 -79.10798490024521,33.6561982836685,0.0 -79.10798976437279,33.656192009014845,0.0 -79.10800890394589,33.65618400821047,0.0 -79.10804028111377,33.65618267365415,0.0 -79.10804545825313,33.6561751443317,0.0 -79.10803847637854,33.656162828145234,0.0 -79.1080062374377,33.656132314019196,0.0 -79.1080058445322,33.656117488495546,0.0 -79.10801384532472,33.656093643239316,0.0 -79.10800953125587,33.6560812484725,0.0 -79.10799313675425,33.656066894430595,0.0 -79.10795391594435,33.65604736193079,0.0 -79.10794018924774,33.65602986990712,0.0 -79.10793932617125,33.65602390826535,0.0 -79.10795234694659,33.65601135764879,0.0 -79.10794811145664,33.65599206089352,0.0 -79.1078770433011,33.655953154365136,0.0 -79.10789053556024,33.65594554515324,0.0 -79.1079401106508,33.65595856594877,0.0 -79.10794921026525,33.655958252937204,0.0 -79.10795250409424,33.65595409471858,0.0 -79.10789853634438,33.65588483122951,0.0 -79.10790018391332,33.65588098733283,0.0 -79.107921834132,33.655875810188526,0.0 -79.10792261862512,33.655869299793,0.0 -79.10787884800574,33.65584019749578,0.0 -79.1078920259424,33.65582921587015,0.0 -79.10792002939118,33.655832432435005,0.0 -79.10792575528397,33.6558249018029,0.0 -79.1079252065279,33.655813448692946,0.0 -79.10789571266668,33.655795093591955,0.0 -79.10787100304289,33.655770698269215,0.0 -79.1078277039057,33.65573940095624,0.0 -79.10783154779176,33.65570919984574,0.0 -79.1078184471143,33.655669430246384,0.0 -79.10782142793076,33.65566354718551,0.0 -79.10784535305162,33.65565240839974,0.0 -79.10783578325774,33.65562440492309,0.0 -79.10783241083784,33.65558298775315,0.0 -79.1077950720216,33.65552909854297,0.0 -79.10780134797733,33.65552148933036,0.0 -79.10783123342848,33.65552870564362,0.0 -79.10785625605777,33.65552486305879,0.0 -79.10783186075885,33.65551372426872,0.0 -79.10781954588954,33.655490426454904,0.0 -79.10783084181779,33.65544948076942,0.0 -79.10780824994232,33.65544924502582,0.0 -79.10779954322672,33.655434655242814,0.0 -79.10779860156617,33.65541316216255,0.0 -79.10781774113183,33.65537299966358,0.0 -79.1078098189047,33.655331503912635,0.0 -79.10782770380868,33.6553176200472,0.0 -79.10782260524604,33.65530875616473,0.0 -79.10780205383955,33.655295263888576,0.0 -79.10785053010915,33.655289302251376,0.0 -79.10788873066997,33.65525259205821,0.0 -79.10789869335561,33.6552354916296,0.0 -79.10789469229842,33.65522121485949,0.0 -79.10787884785901,33.65520317408163,0.0 -79.1078482551816,33.65518521057333,0.0 -79.10790340030907,33.655171875465236,0.0 -79.10787931802263,33.65516261867841,0.0 -79.10784150903693,33.65512324197933,0.0 -79.1078391555507,33.65511382803351,0.0 -79.10784582309356,33.65508307947901,0.0 -79.10784049009801,33.6550687241282,0.0 -79.10781734946517,33.65505068334972,0.0 -79.10781366272833,33.65502981760354,0.0 -79.10777373600524,33.655013971839,0.0 -79.10777514783217,33.65500738286314,0.0 -79.10779044351196,33.65499812738965,0.0 -79.10778934600376,33.65499193000632,0.0 -79.10776683270517,33.65497569265067,0.0 -79.10771364946541,33.65497216307082,0.0 -79.1077128649634,33.654940001375934,0.0 -79.10769403970417,33.65491293955476,0.0 -79.10767340971776,33.654901643603864,0.0 -79.10766289827187,33.654888622811725,0.0 -79.107679527199,33.65487669952998,0.0 -79.1076430527765,33.65486085376578,0.0 -79.10762579519792,33.65483779169281,0.0 -79.10760547822383,33.65482720296659,0.0 -79.10759771316471,33.65481700583442,0.0 -79.10760508662632,33.65480555272519,0.0 -79.1076163825625,33.65479919949172,0.0 -79.10762587377195,33.65481002395851,0.0 -79.10763826721758,33.65481543684746,0.0 -79.10765387722134,33.654816691517794,0.0 -79.1076664278256,33.654812220287816,0.0 -79.10769890248238,33.654733700021936,0.0 -79.1077368686123,33.65470067656457,0.0 -79.10775114405209,33.65467455509345,0.0 -79.10777969755992,33.65466129856353,0.0 -79.10776173406404,33.654624744216235,0.0 -79.10781923136798,33.65462152896925,0.0 -79.10783139037876,33.65461321384234,0.0 -79.10780605341638,33.6545667766851,0.0 -79.10782566446774,33.65454081237549,0.0 -79.10779820976681,33.65451312190934,0.0 -79.10779326705381,33.65449696313574,0.0 -79.10779985732385,33.6544575078603,0.0 -79.10781617323627,33.654434288629716,0.0 -79.10781829097483,33.65441601211211,0.0 -79.10784676459342,33.65440628515692,0.0 -79.10786315908793,33.654390517978484,0.0 -79.10785256906318,33.654384556335806,0.0 -79.10778424730005,33.654369182051305,0.0 -79.1077760107584,33.654358670597,0.0 -79.1077828354676,33.654351845880086,0.0 -79.10780919134488,33.65434847346904,0.0 -79.10780895559924,33.654329491036094,0.0 -79.10784260767669,33.654355532621906,0.0 -79.10784966681899,33.654354983868735,0.0 -79.10785790335603,33.654345022479696,0.0 -79.10786080558805,33.65432172466721,0.0 -79.10782440843195,33.65428650487721,0.0 -79.1078265274757,33.65424885302405,0.0 -79.10780095477183,33.65420170864206,0.0 -79.10780848539514,33.65419394357841,0.0 -79.10783695901311,33.65418217745903,0.0 -79.10785162866735,33.65416750909786,0.0 -79.10784950961269,33.654157624978716,0.0 -79.10782644887101,33.654143662528696,0.0 -79.10782723336426,33.654137307984506,0.0 -79.10783860657205,33.65413487722841,0.0 -79.10787617981087,33.654150721683294,0.0 -79.10788449492958,33.65414640761391,0.0 -79.1078871627317,33.654130327421655,0.0 -79.10788049517792,33.65411385432588,0.0 -79.10785178450178,33.65409479330962,0.0 -79.10782574293923,33.65406726000447,0.0 -79.10786064836736,33.6540620042813,0.0 -79.10786935638671,33.65405070833341,0.0 -79.10785092272256,33.65403470671944,0.0 -79.10786111983714,33.65400607591027,0.0 -79.10785978658231,33.65397666060431,0.0 -79.10784927513771,33.6539693644025,0.0 -79.10782291795121,33.653974228533585,0.0 -79.10781468272094,33.653971169131395,0.0 -79.10782793923707,33.65395681378257,0.0 -79.10781813370431,33.65393924317857,0.0 -79.1078379006105,33.653929203210296,0.0 -79.1078437836634,33.65391892749905,0.0 -79.10782864513399,33.65388158865655,0.0 -79.10782558572502,33.65383499434037,0.0 -79.10780605324328,33.65381365841917,0.0 -79.10780636756274,33.6538040100417,0.0 -79.10781209345645,33.65380118638249,0.0 -79.10782174182627,33.653810363277884,0.0 -79.10786716000932,33.653815227416516,0.0 -79.10787719996688,33.653803461295205,0.0 -79.10787696421545,33.65375969063925,0.0 -79.10788629957148,33.653760866728575,0.0 -79.10792865705123,33.653786518032234,0.0 -79.10794560161042,33.653777731422885,0.0 -79.10796105444909,33.65376078815603,0.0 -79.10796936826107,33.653769181865485,0.0 -79.10798254751835,33.65380652070775,0.0 -79.10798976382159,33.653806363547474,0.0 -79.10800772730627,33.65379412594406,0.0 -79.10802325873311,33.65381091336276,0.0 -79.10805086928153,33.653823071080794,0.0 -79.10811832927534,33.653822836656104,0.0 -79.1081369986735,33.6538074610708,0.0 -79.10814162705557,33.65378361581447,0.0 -79.10813582126717,33.65376667123569,0.0 -79.10811456394661,33.65375310168836,0.0 -79.10811574133982,33.65373725592789,0.0 -79.10812217314735,33.65373239310445,0.0 -79.10816374743901,33.6537444722435,0.0 -79.10817755271093,33.6537405510773,0.0 -79.10818257268507,33.65371513552032,0.0 -79.1082091642966,33.65368164057909,0.0 -79.10819998740298,33.653645244703554,0.0 -79.10820485022022,33.653636615254,0.0 -79.10822155772856,33.65362861444978,0.0 -79.10821732223339,33.65358704011887,0.0 -79.10824893383425,33.653593629098324,0.0 -79.10826995672241,33.65360406197345,0.0 -79.10828933205136,33.65365967733412,0.0 -79.10830407898231,33.653670894704064,0.0 -79.10830886321858,33.653660147509626,0.0 -79.10830454912922,33.65355919381352,0.0 -79.10831937464044,33.653569939700354,0.0 -79.10836032159636,33.65357394076261,0.0 -79.10839813057287,33.65357480384265,0.0 -79.10841624991028,33.653569469537366,0.0 -79.10841217158452,33.65356429239073,0.0 -79.10837820649803,33.65355127159593,0.0 -79.10834863405584,33.653529151178205,0.0 -79.10837765642097,33.65349087068407,0.0 -79.10840801333708,33.653424352282535,0.0 -79.10840518967464,33.653400898618315,0.0 -79.10841805459638,33.6533787782051,0.0 -79.10841601542961,33.653359481450074,0.0 -79.10845045067916,33.65333085064374,0.0 -79.10844707826273,33.65330472917091,0.0 -79.10845829430882,33.65329947344548,0.0 -79.10847115923181,33.653282687339505,0.0 -79.10847594477507,33.6532600954424,0.0 -79.10854089412439,33.653262684677465,0.0 -79.10854897350204,33.65325962527704,0.0 -79.10853446100218,33.6532458199889,0.0 -79.10852834351013,33.65322385542496,0.0 -79.10849453427538,33.65321256078203,0.0 -79.10847610061141,33.65319671501944,0.0 -79.10848559312612,33.653189027226865,0.0 -79.10852410670535,33.6531826739967,0.0 -79.10854842471755,33.65312682289932,0.0 -79.10854191301382,33.653105644140524,0.0 -79.10851320364537,33.653077170488295,0.0 -79.1084974377899,33.653073561021536,0.0 -79.10849312241317,33.65306838387486,0.0 -79.10852669589438,33.65302759535338,0.0 -79.10854254163718,33.653019593239556,0.0 -79.10856222996439,33.6530166910015,0.0 -79.10857431039467,33.65300853303582,0.0 -79.10855956346174,33.652988687525585,0.0 -79.10853461809927,33.65297394057971,0.0 -79.10853257893558,33.652967821776755,0.0 -79.10854881626769,33.652946485859495,0.0 -79.10858027201616,33.652948447756486,0.0 -79.10859611644888,33.65293864221988,0.0 -79.10859321421007,33.65293283773892,0.0 -79.10854520810825,33.65291306949567,0.0 -79.1085243423804,33.65289989154123,0.0 -79.10852481386202,33.65289581321258,0.0 -79.10856944623777,33.65288945867349,0.0 -79.10858811564123,33.65289738221073,0.0 -79.10860058766863,33.65290875543181,0.0 -79.10861972724379,33.65291173625472,0.0 -79.10863470991227,33.652907186444686,0.0 -79.10865792911501,33.65288161503858,0.0 -79.10869314886698,33.65288632201535,0.0 -79.10872130947976,33.65290451995574,0.0 -79.10871487767683,33.65292836652151,0.0 -79.1087185644109,33.65293723040386,0.0 -79.10873189951138,33.652939975484585,0.0 -79.10874358703771,33.652924365466994,0.0 -79.10876217785858,33.65292326796114,0.0 -79.10875849113263,33.65294915369161,0.0 -79.10877668905502,33.65296327330224,0.0 -79.10878759209022,33.65296280182035,0.0 -79.10878327802087,33.6529481334574,0.0 -79.10879410378317,33.65293864224223,0.0 -79.10883457925888,33.65295331060927,0.0 -79.10883701001468,33.652957467518796,0.0 -79.10881104704298,33.652974176352345,0.0 -79.10881316478924,33.65298900187609,0.0 -79.10885748416003,33.65301253412546,0.0 -79.10890392127075,33.653024614574946,0.0 -79.10893184613772,33.65302383008259,0.0 -79.10892149185042,33.6530011596034,0.0 -79.10893608292085,33.65297339187094,0.0 -79.10899310874454,33.65298256877164,0.0 -79.10900267983914,33.652972843124545,0.0 -79.10900699389991,33.65295127146442,0.0 -79.10900997471839,33.65295401654406,0.0 -79.10903193795438,33.652972764547286,0.0 -79.10904629329072,33.652975352467166,0.0 -79.10908590568216,33.652951350053876,0.0 -79.10911688994004,33.65291989427794,0.0 -79.10916968158523,33.65291777653905,0.0 -79.1091682697508,33.65289259672311,0.0 -79.10917948710627,33.652885929167915,0.0 -79.1092036466604,33.65288412574778,0.0 -79.10924780886758,33.65289573471399,0.0 -79.10926836027086,33.65289698938512,0.0 -79.10927981336859,33.65289432288777,0.0 -79.10930209091786,33.65287761405379,0.0 -79.1093337810975,33.6528778497989,0.0 -79.1093717472383,33.652893616983164,0.0 -79.10939245581346,33.652940602893594,0.0 -79.10939935779561,33.65294303496131,0.0 -79.10941081089146,33.652932523509264,0.0 -79.10942814574129,33.65295738900487,0.0 -79.10946289531297,33.6529314260073,0.0 -79.10947348533571,33.65292922968316,0.0 -79.10953890617286,33.6529537808621,0.0 -79.10960299245002,33.65296860639282,0.0 -79.10960558037024,33.65298774598669,0.0 -79.10961938695739,33.65300743564542,0.0 -79.10962942692676,33.65304532324078,0.0 -79.10964338936421,33.65306093326123,0.0 -79.10967225589137,33.65307960137492,0.0 -79.10967264879571,33.65308862241787,0.0 -79.10965821488173,33.6530975648786,0.0 -79.10964472394012,33.6531364713987,0.0 -79.10964676311458,33.65318690961075,0.0 -79.10966456944622,33.65320801109982,0.0 -79.1096443310601,33.65322840535997,0.0 -79.10964346798757,33.65323868107157,0.0 -79.10967680573904,33.65324699620324,0.0 -79.10968786594975,33.65330684705202,0.0 -79.10972959740693,33.65333806709435,0.0 -79.10975344395567,33.653363168332056,0.0 -79.10974277535433,33.653372895288705,0.0 -79.10974355985194,33.65338521016478,0.0 -79.10975469862991,33.653390387312136,0.0 -79.10978466266751,33.65342388225893,0.0 -79.10981784456884,33.65343580554568,0.0 -79.10980356782343,33.653476908391,0.0 -79.10980411658015,33.65349118516056,0.0 -79.10982278598854,33.653518482723065,0.0 -79.10983392477289,33.65355017293531,0.0 -79.10984553372501,33.65356021421645,0.0 -79.10986992902296,33.65356813644441,0.0 -79.10988036189033,33.653588845029944,0.0 -79.10986224255691,33.65360994520535,0.0 -79.10986035924863,33.65362147689545,0.0 -79.10986608514897,33.65364649955057,0.0 -79.10988161657546,33.653660697741245,0.0 -79.10986498765473,33.65369764367719,0.0 -79.10986608516306,33.65370446839478,0.0 -79.10987942026578,33.653716077357345,0.0 -79.10986710540526,33.65372964690081,0.0 -79.10984286727164,33.653736393035246,0.0 -79.10985416190704,33.653767142900755,0.0 -79.10984302444771,33.65379891169127,0.0 -79.1098452980482,33.65382589492982,0.0 -79.10982961078119,33.65385562455548,0.0 -79.10982812038405,33.65390418076384,0.0 -79.10980701892498,33.653933360325354,0.0 -79.10982208018143,33.653959716230894,0.0 -79.10982349201804,33.653992976742764,0.0 -79.1098118830711,33.65400403694864,0.0 -79.10980592144033,33.65402403961753,0.0 -79.10975697368237,33.65400442853587,0.0 -79.10974873714414,33.65400889976613,0.0 -79.10975140364367,33.654023019374975,0.0 -79.10973422595961,33.65401901831538,0.0 -79.10972912609014,33.654022705050586,0.0 -79.10973422596358,33.65403541282974,0.0 -79.10976536608717,33.654063652049814,0.0 -79.10976756372924,33.65410146106375,0.0 -79.10974246122254,33.65415660493605,0.0 -79.10973806859505,33.6542343407079,0.0 -79.1097455206449,33.654256069530014,0.0 -79.10972183126398,33.65426014785625,0.0 -79.10971312455466,33.654272228299554,0.0 -79.10972740131295,33.65428399442312,0.0 -79.10973422602733,33.654298428354274,0.0 -79.10973155823253,33.65434400243211,0.0 -79.10974057927176,33.65436580852531,0.0 -79.10973116665137,33.65439059674709,0.0 -79.1097362652167,33.65441028509514,0.0 -79.1097962731755,33.654448408436956,0.0 -79.10980921537683,33.65446339112259,0.0 -79.10978984006405,33.654476803504565,0.0 -79.10978991865105,33.654503945213655,0.0 -79.10978199643822,33.654523397818785,0.0 -79.10979211499048,33.65457093379123,0.0 -79.10978168213586,33.654603016903984,0.0 -79.10978897833428,33.65462396123065,0.0 -79.10975909158125,33.65464827796738,0.0 -79.10977642774563,33.65469204731462,0.0 -79.10976497465148,33.65471001081873,0.0 -79.10974120669255,33.65472420900543,0.0 -79.10974842300259,33.6547518994692,0.0 -79.10974104954475,33.65477856969444,0.0 -79.10974622669227,33.654805238611395,0.0 -79.10974348161767,33.65481316214616,0.0 -79.10971516385392,33.65483771462455,0.0 -79.10970802613627,33.654859284974634,0.0 -79.10968888656237,33.65486297170851,0.0 -79.1096760216372,33.65487073808128,0.0 -79.1096644126993,33.654919450140056,0.0 -79.1096203290756,33.65492227379559,0.0 -79.10960503208592,33.65492996158757,0.0 -79.10960056086093,33.654937492219645,0.0 -79.10962299557877,33.654951533249815,0.0 -79.10958283312276,33.65497098585192,0.0 -79.10956691011465,33.65500220588818,0.0 -79.10952949273597,33.65502479778205,0.0 -79.1095167862843,33.655045034882285,0.0 -79.10948478178392,33.65505091794031,0.0 -79.10940147603927,33.655028954678976,0.0 -79.10939480848985,33.65503099384264,0.0 -79.10939276932942,33.65503876021648,0.0 -79.10941175305857,33.65506197814047,0.0 -79.10940884951376,33.655071626517575,0.0 -79.10940132019923,33.655075313252595,0.0 -79.10932562366374,33.655068175515446,0.0 -79.10931542654367,33.65507303833854,0.0 -79.10930640551267,33.65508582469683,0.0 -79.10927455817225,33.65508786385811,0.0 -79.10925235919676,33.65507829405919,0.0 -79.10923651345148,33.65507656921547,0.0 -79.10917807449604,33.655097199213984,0.0 -79.10914960087617,33.65510167044252,0.0 -79.10907406150069,33.655090923240486,0.0 -79.10906347147964,33.655101198951236,0.0 -79.10907939580879,33.65511712329379,0.0 -79.10907508174543,33.65512802633958,0.0 -79.1090477056335,33.65513743897271,0.0 -79.1089996209555,33.65513892937867,0.0 -79.10904276293601,33.65518756417204,0.0 -79.108996796,33.655185759435234,0.0 -79.10898126457958,33.65519744697548,0.0 -79.10898000991583,33.655213528477354,0.0 -79.10899185460876,33.65522168513575,0.0 -79.10901593689438,33.655227490928326,0.0 -79.10901115134827,33.655237609478604,0.0 -79.10899593424855,33.65524482578765,0.0 -79.1089495744091,33.65523815822673,0.0 -79.10893106217006,33.65524608045039,0.0 -79.10895333972685,33.65525980846819,0.0 -79.1089731079512,33.6552853798787,0.0 -79.10896722358746,33.65529032259243,0.0 -79.1089285528465,33.65529534257396,0.0 -79.10892204245854,33.65530067688056,0.0 -79.10892274837417,33.65530655994171,0.0 -79.10895302672998,33.65532381622525,0.0 -79.10897295080585,33.65535040787277,0.0 -79.10899703178407,33.65536586204264,0.0 -79.10899122731175,33.65537668650776,0.0 -79.10896753793112,33.655382883888734,0.0 -79.1089673807733,33.65539543450639,0.0 -79.10897553873455,33.655405474477405,0.0 -79.10900966098225,33.65541826083973,0.0 -79.10903593959578,33.655443440657955,0.0 -79.10900754324746,33.655451911634614,0.0 -79.10901632854372,33.65546650272709,0.0 -79.10900683734066,33.65548313167249,0.0 -79.1090560981139,33.655514743307776,0.0 -79.10906566790447,33.655527999841226,0.0 -79.10906111940838,33.65553443296549,0.0 -79.10902880058502,33.65553568763145,0.0 -79.1090178189707,33.65554227660647,0.0 -79.10904088102346,33.65556110318987,0.0 -79.10906496199834,33.65556196495841,0.0 -79.10905351021427,33.65558236052955,0.0 -79.10904174410393,33.655583615197294,0.0 -79.10903625264228,33.65558863518192,0.0 -79.10903311466988,33.65561514955643,0.0 -79.10904174411269,33.65562040397423,0.0 -79.1090604907854,33.65562040397593,0.0 -79.10909539752068,33.655603460710836,0.0 -79.10910128057674,33.6556062071003,0.0 -79.10908151367312,33.65562770017848,0.0 -79.10907845427764,33.655639466300364,0.0 -79.10908520041423,33.65566535203178,0.0 -79.10907916020366,33.655688962856054,0.0 -79.10907782697004,33.655749598199286,0.0 -79.10909422147463,33.655776111265915,0.0 -79.10906817861483,33.65580309450209,0.0 -79.10910716369145,33.65585549461114,0.0 -79.10907633659262,33.65588208625405,0.0 -79.10904982356325,33.65592334625989,0.0 -79.10904770582303,33.65593417072544,0.0 -79.10906849297419,33.65596099811451,0.0 -79.1090944559519,33.65596758709271,0.0 -79.10911265518371,33.65597919605551,0.0 -79.10911712641375,33.655992609749525,0.0 -79.10909955583219,33.656009474435756,0.0 -79.10909932009223,33.656014965903985,0.0 -79.10911273377506,33.65602485002397,0.0 -79.1091314031784,33.656030497345164,0.0 -79.10915909231282,33.65606414945232,0.0 -79.10917925212736,33.6560795237315,0.0 -79.10916748602072,33.65609599682539,0.0 -79.10919078250863,33.65612933330044,0.0 -79.10917329051014,33.656157102342604,0.0 -79.10921815862903,33.65615467027951,0.0 -79.10921180540805,33.65618526298241,0.0 -79.10921917887737,33.65620628457995,0.0 -79.1092327497211,33.65621609011944,0.0 -79.10928656029868,33.656234602383314,0.0 -79.10927440128714,33.65624001526995,0.0 -79.10921070659988,33.656219698272835,0.0 -79.10920152971536,33.65622299341495,0.0 -79.1092175313166,33.65624385916189,0.0 -79.10927196923184,33.65627837303749,0.0 -79.10927063598652,33.656289826147166,0.0 -79.10925016316595,33.656300257708594,0.0 -79.10924749667274,33.65631280832592,0.0 -79.10928397109765,33.65633618472197,0.0 -79.1093078176484,33.656368032096296,0.0 -79.10930326784147,33.65636944392576,0.0 -79.10927244073244,33.656353755323764,0.0 -79.10926192929001,33.65635618738972,0.0 -79.10925706647808,33.65638740742719,0.0 -79.10928028438511,33.65641807740341,0.0 -79.10927377399739,33.656424274786026,0.0 -79.10924247541166,33.65643306008474,0.0 -79.10923039629274,33.65644914027608,0.0 -79.10923447461882,33.65645525907901,0.0 -79.10925322260054,33.6564518853572,0.0 -79.10926145914299,33.656464435975515,0.0 -79.10927777506286,33.65647251667292,0.0 -79.10925879134747,33.65650765787685,0.0 -79.10925306546108,33.65654138725195,0.0 -79.10924679081435,33.656546251385215,0.0 -79.10921533506652,33.65655017385987,0.0 -79.10921062809952,33.656555036683564,0.0 -79.10924577058975,33.656593630195744,0.0 -79.10922945467351,33.656600846504844,0.0 -79.10920184281757,33.656600376329166,0.0 -79.10917454528511,33.65660696530301,0.0 -79.10917525120288,33.65662147650455,0.0 -79.10921156977503,33.656638262614806,0.0 -79.1092072557106,33.65664485290016,0.0 -79.10914669900487,33.656636537767184,0.0 -79.10911587190039,33.656639988758805,0.0 -79.10906574676314,33.656697173103915,0.0 -79.10904645002948,33.656706507157665,0.0 -79.10901679902,33.656742590017274,0.0 -79.10901225052685,33.65676157375917,0.0 -79.10906480643843,33.65678612624477,0.0 -79.10907429764794,33.65679616621578,0.0 -79.10904229314419,33.656789890249556,0.0 -79.10898989439988,33.656792165151145,0.0 -79.10898997298175,33.65679797094148,0.0 -79.10901883951142,33.65682416968691,0.0 -79.10901272071624,33.65683075866242,0.0 -79.108983305442,33.656841505854956,0.0 -79.10897993172419,33.65685107565153,0.0 -79.10899758089573,33.65687413772389,0.0 -79.10903389946843,33.65689319873991,0.0 -79.10904527399038,33.656908651598826,0.0 -79.10899530731402,33.656925359121594,0.0 -79.10896251831575,33.65691963321893,0.0 -79.10896495038477,33.656938772812815,0.0 -79.10895686969768,33.656943715526445,0.0 -79.10889709748707,33.656937518138534,0.0 -79.1088240687546,33.656922849770275,0.0 -79.10880704692273,33.65692449734038,0.0 -79.10879481064099,33.656932653996705,0.0 -79.10879151550446,33.65694567609716,0.0 -79.10881269424016,33.656938615639696,0.0 -79.10881912735945,33.65694238095644,0.0 -79.10879033942192,33.656965364444666,0.0 -79.10877198303209,33.65696622751927,0.0 -79.10877355202467,33.65697987695448,0.0 -79.10878814310382,33.65698732900771,0.0 -79.10880453629277,33.656988034923934,0.0 -79.10883599203937,33.65697854240041,0.0 -79.1088399145091,33.65696246220833,0.0 -79.10884775814597,33.656961128959566,0.0 -79.10886689772498,33.65697775921708,0.0 -79.10887332954198,33.657012430249715,0.0 -79.10884658206899,33.657004193700125,0.0 -79.10881410608405,33.65700387937548,0.0 -79.10871315249685,33.65704466920242,0.0 -79.10865212430795,33.65703478507867,0.0 -79.10860443253063,33.65703235431778,0.0 -79.10851696988533,33.657033060225835,0.0 -79.10850010521541,33.65703964920064,0.0 -79.1085063025945,33.65704804290958,0.0 -79.10852191128984,33.657053375908326,0.0 -79.10857203644201,33.65705847447796,0.0 -79.10876837491057,33.65709432292355,0.0 -79.10879018229346,33.6571026380532,0.0 -79.10879159412379,33.65711048169824,0.0 -79.10872648761297,33.6571122078451,0.0 -79.10866396901433,33.657099578642054,0.0 -79.10856199517868,33.65708734102884,0.0 -79.10841899711943,33.65708906716953,0.0 -79.1084138972508,33.65709644064076,0.0 -79.10842527177044,33.65710232370267,0.0 -79.10853360014644,33.657124365545236,0.0 -79.1085491315779,33.6571587235663,0.0 -79.10860482416177,33.65719692417754,0.0 -79.10855517180462,33.657203278717944,0.0 -79.10852442196976,33.657202415639595,0.0 -79.10849382929827,33.657212064014594,0.0 -79.10846394384794,33.65720986768704,0.0 -79.10845633464375,33.65721598517938,0.0 -79.1084594726262,33.65723183094018,0.0 -79.10844645053946,33.65723747825878,0.0 -79.10833906513625,33.657248461186974,0.0 -79.10828941146812,33.657249480110565,0.0 -79.10828376284402,33.657247832538665,0.0 -79.10828392000224,33.65723630215794,0.0 -79.10827756677295,33.65723261542168,0.0 -79.10820485105383,33.65722304561919,0.0 -79.10817865233413,33.657214260315754,0.0</coordinates>
                    </LinearRing>
                </outerBoundaryIs>
            </Polygon>
        </Placemark>
        <Placemark id="544">
            <name>Flood_59</name>
            <styleUrl>#549</styleUrl>
            <Polygon id="543">
                <outerBoundaryIs>
                    <LinearRing id="547">
                        <coordinates>-78.95281322234437,33.68716198495539,0.0 -78.95281016293157,33.68716190636104,0.0 -78.95280624043933,33.68716206219481,0.0 -78.95279518018957,33.68716284664093,0.0 -78.9527920435054,33.68716300378794,0.0 -78.95278969001012,33.687163003777364,0.0 -78.95278663059737,33.68716284660252,0.0 -78.95278341402327,33.68716237641444,0.0 -78.9527795701127,33.687161513320845,0.0 -78.95277486443288,33.68716033721086,0.0 -78.9527530569533,33.68715453262978,0.0 -78.95270309004665,33.687141510299,0.0 -78.95269712838387,33.68713986270006,0.0 -78.95269328447345,33.687138843755065,0.0 -78.95268897038885,33.68713664740931,0.0 -78.95268779430012,33.68713201900987,0.0 -78.95268693122547,33.68712676327712,0.0 -78.9526766555357,33.6870570282345,0.0 -78.95267579246119,33.68705161665025,0.0 -78.95267516512803,33.68704753700749,0.0 -78.95267445921391,33.68704345867389,0.0 -78.95267375329925,33.68704008494591,0.0 -78.95267304607428,33.68703741844285,0.0 -78.952672027146,33.68703412329397,0.0 -78.95267077247578,33.68703020211911,0.0 -78.95266198585428,33.6870040805962,0.0 -78.95265414220026,33.686980548306614,0.0 -78.95265280894935,33.686976625821686,0.0 -78.9526511613753,33.68697246890336,0.0 -78.95264982812333,33.686969566655875,0.0 -78.95264818054841,33.68696650724588,0.0 -78.95264676871531,33.68696399659114,0.0 -78.9526228435133,33.686923520953705,0.0 -78.95261915676896,33.68691740213195,0.0 -78.95261327369417,33.686907596563,0.0 -78.95261154884811,33.68690453846229,0.0 -78.9526102142864,33.686901792066195,0.0 -78.9526092739397,33.68689755657053,0.0 -78.95260990127892,33.68689481149296,0.0 -78.95261115595478,33.68689214368901,0.0 -78.95261343087266,33.686888301110514,0.0 -78.9526204127873,33.68687731820081,0.0 -78.95262574581241,33.6868687686612,0.0 -78.952629589729,33.68686264987326,0.0 -78.9526356299826,33.68685276708698,0.0 -78.95263751199559,33.68684978627334,0.0 -78.95263915957511,33.68684766722536,0.0 -78.95264096431599,33.6868458638099,0.0 -78.95264316065054,33.686844843582335,0.0 -78.9526466902385,33.686844922178786,0.0 -78.95264998539318,33.68684570668931,0.0 -78.95265218172628,33.68684625545329,0.0 -78.95265524113842,33.68684719712396,0.0 -78.95266881073081,33.68685158983744,0.0 -78.95267932222097,33.68685488502894,0.0 -78.95268834329562,33.686857630149845,0.0 -78.95269289312328,33.686858963420214,0.0 -78.95269665845295,33.68685998367456,0.0 -78.95270050105387,33.68686076818765,0.0 -78.95270512946283,33.68686170855565,0.0 -78.95271603254857,33.68686367049888,0.0 -78.95271909196087,33.686864297847336,0.0 -78.95272128829403,33.68686484661132,0.0 -78.95272426912537,33.68686570970103,0.0 -78.95272654403918,33.68686641562648,0.0 -78.95272858321036,33.68686735729256,0.0 -78.95273211410668,33.68686900488049,0.0 -78.95273485919513,33.68687033814284,0.0 -78.95274976334868,33.686878181857935,0.0 -78.95276474477345,33.686885948302674,0.0 -78.95276749117147,33.68688743872596,0.0 -78.95276945176174,33.68688853624309,0.0 -78.9527719624172,33.686890105246015,0.0 -78.95277376584563,33.68689143850397,0.0 -78.95277541342202,33.68689292892241,0.0 -78.95277753117304,33.68689504667769,0.0 -78.95277902158766,33.686896694256454,0.0 -78.9527809834866,33.686898890591614,0.0 -78.95278474750339,33.68690351900269,0.0 -78.9527871009962,33.68690634267425,0.0 -78.95278898431458,33.686908303267366,0.0 -78.95279078774276,33.68690995084762,0.0 -78.95279345556068,33.68691065677483,0.0 -78.95279667082752,33.68690830330189,0.0 -78.95279941722971,33.686905009479624,0.0 -78.95280129924186,33.68690297032291,0.0 -78.95280428007551,33.68690116560304,0.0 -78.95280733948887,33.68690061686265,0.0 -78.95281024174005,33.68690077403679,0.0 -78.95281259523513,33.68690100847927,0.0 -78.95281573322838,33.68690147997668,0.0 -78.95281894849268,33.68690202874533,0.0 -78.9528364418881,33.68690508822641,0.0 -78.95288084003946,33.686912619061566,0.0 -78.9528839767229,33.68691316782986,0.0 -78.9528871147162,33.686913638017565,0.0 -78.95288954679201,33.686913952350615,0.0 -78.95289276205649,33.68691426537756,0.0 -78.95289597863096,33.68691442255311,0.0 -78.95290013555584,33.68691442257178,0.0 -78.95290335213042,33.686914344005714,0.0 -78.95290664728583,33.68691418816903,0.0 -78.95290907805231,33.686914109599435,0.0 -78.95291221604623,33.68691379529132,0.0 -78.95291558978305,33.68691301081065,0.0 -78.95291927653417,33.686911363255135,0.0 -78.95292202162543,33.68690955984391,0.0 -78.95292712021366,33.68690571596837,0.0 -78.95293190578818,33.68690202925263,0.0 -78.9529347294607,33.68689967577792,0.0 -78.95293684721514,33.686897872363794,0.0 -78.95293841621346,33.686896146218174,0.0 -78.9529389649717,33.68689363557223,0.0 -78.95293692580165,33.68689128338531,0.0 -78.95293449372683,33.686889870234225,0.0 -78.95293253313656,33.68688877271718,0.0 -78.9529297081577,33.68688736087395,0.0 -78.9529182563192,33.686881634920034,0.0 -78.95291260898072,33.68687880992396,0.0 -78.95290421524435,33.686874495814315,0.0 -78.95290068565771,33.68687277095541,0.0 -78.9528978619884,33.686871436383086,0.0 -78.95289495842843,33.686870417442314,0.0 -78.95289197759688,33.686869790094214,0.0 -78.95288891949372,33.68686979008048,0.0 -78.95288578149986,33.686869945917785,0.0 -78.95288342800431,33.686870260229426,0.0 -78.9528802114294,33.68687073038859,0.0 -78.95286256217695,33.68687355397033,0.0 -78.95283534309031,33.686877712068735,0.0 -78.95281745809544,33.68688053564932,0.0 -78.9528135369125,33.686881084385924,0.0 -78.95281071193214,33.686881398695355,0.0 -78.95280757524927,33.686879986850826,0.0 -78.9528086727647,33.68687606437681,0.0 -78.95281055608758,33.686872847821554,0.0 -78.95281894852988,33.686859356889,0.0 -78.95283455863,33.68683394139093,0.0 -78.95284279522023,33.686820606309155,0.0 -78.95284420705755,33.68681825282812,0.0 -78.95284609038052,33.68681495900197,0.0 -78.95284765807061,33.68681150670368,0.0 -78.95284820813848,33.68680899736728,0.0 -78.95284812955995,33.68680640813794,0.0 -78.95284765807732,33.686803820216525,0.0 -78.95284695216262,33.686800525069046,0.0 -78.95284624624732,33.68679785856599,0.0 -78.9528384811778,33.686770010894975,0.0 -78.95283777526248,33.68676742297252,0.0 -78.95283730378019,33.68676444214831,0.0 -78.95283840260468,33.68676122558952,0.0 -78.95284161917981,33.68676051968874,0.0 -78.9528445214309,33.68676067686288,0.0 -78.95284687361625,33.68676091261504,0.0 -78.95285009019044,33.686761382803105,0.0 -78.95286475860652,33.68676342203422,0.0 -78.95287126902593,33.68676428513978,0.0 -78.95288256501611,33.686765775601536,0.0 -78.95288735058688,33.68676640295765,0.0 -78.95288970408173,33.68676687445154,0.0 -78.9528928407652,33.686767501800254,0.0 -78.95289582159647,33.68676844347057,0.0 -78.9528986452659,33.686769619572075,0.0 -78.952901391664,33.686771031414956,0.0 -78.95290484266962,33.68677291474422,0.0 -78.95292100149543,33.686782248876,0.0 -78.95293449381377,33.68679001400433,0.0 -78.95294798613212,33.686797780442284,0.0 -78.95296289028512,33.6868062514922,0.0 -78.952966184129,33.68680829198178,0.0 -78.95296869478439,33.68680993825549,0.0 -78.95297128271059,33.686812057322605,0.0 -78.95297418495903,33.68681527258964,0.0 -78.95297677419352,33.6868190379191,0.0 -78.95297897052386,33.68682272466629,0.0 -78.9529885403431,33.68683857047653,0.0 -78.95299065809276,33.686842257223375,0.0 -78.95299238424856,33.68684539521434,0.0 -78.95299387466179,33.68684853189453,0.0 -78.9529962281527,33.686853553202084,0.0 -78.95301042505834,33.686885086329575,0.0 -78.9530177985434,33.68690155946476,0.0 -78.95301952469856,33.686905324790274,0.0 -78.95302101511189,33.68690846147055,0.0 -78.95302305428109,33.68691167804342,0.0 -78.953025172032,33.686913952959735,0.0 -78.95302689818922,33.68691536479793,0.0 -78.95302862434646,33.68691677663623,0.0 -78.95303176233834,33.6869188943961,0.0 -78.95304956742987,33.68693081776439,0.0 -78.95308251372501,33.68695301691688,0.0 -78.95309780947089,33.68696321412125,0.0 -78.95310032012637,33.68696486170459,0.0 -78.9531020462836,33.6869662735429,0.0 -78.95310455562903,33.686968312719344,0.0 -78.95310683054099,33.68697113770026,0.0 -78.95310769361816,33.686973568462335,0.0 -78.95310824237107,33.68697709804103,0.0 -78.95310863527207,33.68698070750933,0.0 -78.953109341178,33.68699411990209,0.0 -78.95311028151546,33.687008868165364,0.0 -78.95311043867356,33.68701294649642,0.0 -78.95311036008987,33.687016318911276,0.0 -78.95311020292591,33.68701898672008,0.0 -78.95310973274792,33.687022203281785,0.0 -78.95310902682687,33.68702620302837,0.0 -78.9531068304827,33.68703820488743,0.0 -78.95310636030534,33.68704079280461,0.0 -78.95310581023647,33.68704447953947,0.0 -78.95310565438123,33.687048166276114,0.0 -78.95310573295916,33.68705154000129,0.0 -78.95310596738724,33.687056952892355,0.0 -78.95310698761406,33.68707311167673,0.0 -78.95310902675678,33.68710684107603,0.0 -78.95310949692609,33.687113587218086,0.0 -78.95310981124588,33.68711758827906,0.0 -78.9531102028368,33.687121509450144,0.0 -78.95311263489212,33.68714535603775,0.0 -78.95311318364352,33.687150690349625,0.0 -78.95311334080213,33.68715406276554,0.0 -78.95311341938076,33.68715665199481,0.0 -78.95311326221626,33.68715994582872,0.0 -78.95311310636201,33.68716261363762,0.0 -78.95311287061722,33.68716528013645,0.0 -78.9531109872809,33.68718394955627,0.0 -78.95311028135627,33.68719202894309,0.0 -78.9531027519258,33.6872830998342,0.0 -78.95310235901704,33.68728851272234,0.0 -78.95310204599886,33.687293845720724,0.0 -78.95310165308678,33.68730310250749,0.0 -78.95310118290116,33.68731510437423,0.0 -78.9531010257361,33.687319025542756,0.0 -78.95310063282886,33.68732271227832,0.0 -78.95310008406975,33.6873262431618,0.0 -78.95309875081243,33.68732969415152,0.0 -78.9530971032318,33.68733306655923,0.0 -78.95309569139441,33.687335498620875,0.0 -78.95308996546422,33.6873452255571,0.0 -78.95308510130467,33.68735377509874,0.0 -78.95308306212972,33.687357070233894,0.0 -78.95308094437416,33.68736012962699,0.0 -78.95307921821424,33.68736193304278,0.0 -78.95307702187947,33.68736311043137,0.0 -78.95307443395122,33.68736342343233,0.0 -78.95307153170012,33.68736326625817,0.0 -78.95306925678588,33.68736295323544,0.0 -78.95306619737347,33.68736240446747,0.0 -78.95305043013637,33.68735942357458,0.0 -78.95301866122935,33.687353617638934,0.0 -78.9530074438204,33.68735157842333,0.0 -78.9529946587245,33.68734930345898,0.0 -78.95299144215055,33.68734867610989,0.0 -78.95298822557658,33.68734804876071,0.0 -78.95298587339141,33.68734757857653,0.0 -78.95298296983127,33.68734663690663,0.0 -78.95298030332353,33.68734538222521,0.0 -78.95297794982973,33.687343656061955,0.0 -78.9529757534978,33.687341695467424,0.0 -78.95297426308308,33.68734004788856,0.0 -78.9529712036731,33.68733683131109,0.0 -78.95296124225526,33.687325771054326,0.0 -78.95295026059738,33.68731384771672,0.0 -78.95294829869833,33.68731165138154,0.0 -78.95294594651524,33.687308827710055,0.0 -78.95294422035866,33.68730655279542,0.0 -78.95294272994515,33.687303729127734,0.0 -78.9529410037903,33.68729957220903,0.0 -78.9529396705393,33.68729564972409,0.0 -78.95293566947663,33.68728380499839,0.0 -78.95293151256207,33.68727196027189,0.0 -78.95293017931105,33.68726803778696,0.0 -78.95292915907335,33.68726442962564,0.0 -78.95292845315888,33.68726082146565,0.0 -78.95292845316119,33.68725815496576,0.0 -78.95292908050111,33.687254624082655,0.0 -78.95292994358347,33.68725101592971,0.0 -78.9529306495034,33.687248349433084,0.0 -78.95293465058886,33.68723399409477,0.0 -78.9529353565087,33.68723140617856,0.0 -78.95293606242937,33.687227875295896,0.0 -78.95293637544607,33.68722426714048,0.0 -78.95293598385393,33.68722175779994,0.0 -78.9529351207769,33.68721924714767,0.0 -78.95293378752521,33.687216109158456,0.0 -78.95293261143453,33.68721359981439,0.0 -78.95292774729107,33.68720363708887,0.0 -78.95292649261971,33.687201127744366,0.0 -78.9529248450446,33.68719814691486,0.0 -78.95292335463054,33.68719587200138,0.0 -78.95292076670474,33.687193282760745,0.0 -78.95291794172597,33.687191635175886,0.0 -78.95291511805641,33.68719061623547,0.0 -78.95291135272711,33.687189361549116,0.0 -78.95290829331489,33.68718849845904,0.0 -78.95289433081797,33.68718457591734,0.0 -78.9528804469019,33.687180574795505,0.0 -78.9528480506612,33.6871712405906,0.0 -78.95282490992811,33.68716449434668,0.0 -78.95282106601766,33.68716347540159,0.0 -78.95281792933433,33.68716269089176,0.0 -78.95281565442025,33.68716221939822,0.0 -78.95281322234437,33.68716198495539,0.0</coordinates>
                    </LinearRing>
                </outerBoundaryIs>
            </Polygon>
        </Placemark>
    </Document>
</kml>
