<?xml version="1.0" encoding="UTF-8"?>
<kml xmlns="http://www.opengis.net/kml/2.2" xmlns:gx="http://www.google.com/kml/ext/2.2">
    <Document id="737">
        <Style id="744">
            <LineStyle id="746">
                <colorMode>normal</colorMode>
                <width>1</width>
            </LineStyle>
            <PolyStyle id="745">
                <color>80ebce87</color>
                <colorMode>normal</colorMode>
                <fill>1</fill>
                <outline>1</outline>
            </PolyStyle>
        </Style>
        <Style id="753">
            <LineStyle id="755">
                <colorMode>normal</colorMode>
                <width>1</width>
            </LineStyle>
            <PolyStyle id="754">
                <color>80ebce87</color>
                <colorMode>normal</colorMode>
                <fill>1</fill>
                <outline>1</outline>
            </PolyStyle>
        </Style>
        <Style id="762">
            <LineStyle id="764">
                <colorMode>normal</colorMode>
                <width>1</width>
            </LineStyle>
            <PolyStyle id="763">
                <color>80ebce87</color>
                <colorMode>normal</colorMode>
                <fill>1</fill>
                <outline>1</outline>
            </PolyStyle>
        </Style>
        <Style id="771">
            <LineStyle id="773">
                <colorMode>normal</colorMode>
                <width>1</width>
            </LineStyle>
            <PolyStyle id="772">
                <color>80ebce87</color>
                <colorMode>normal</colorMode>
                <fill>1</fill>
                <outline>1</outline>
            </PolyStyle>
        </Style>
        <Style id="780">
            <LineStyle id="782">
                <colorMode>normal</colorMode>
                <width>1</width>
            </LineStyle>
            <PolyStyle id="781">
                <color>80ebce87</color>
                <colorMode>normal</colorMode>
                <fill>1</fill>
                <outline>1</outline>
            </PolyStyle>
        </Style>
        <Style id="789">
            <LineStyle id="791">
                <colorMode>normal</colorMode>
                <width>1</width>
            </LineStyle>
            <PolyStyle id="790">
                <color>80ebce87</color>
                <colorMode>normal</colorMode>
                <fill>1</fill>
                <outline>1</outline>
            </PolyStyle>
        </Style>
        <Style id="798">
            <LineStyle id="800">
                <colorMode>normal</colorMode>
                <width>1</width>
            </LineStyle>
            <PolyStyle id="799">
                <color>80ebce87</color>
                <colorMode>normal</colorMode>
                <fill>1</fill>
                <outline>1</outline>
            </PolyStyle>
        </Style>
        <Style id="807">
            <LineStyle id="809">
                <colorMode>normal</colorMode>
                <width>1</width>
            </LineStyle>
            <PolyStyle id="808">
                <color>80ebce87</color>
                <colorMode>normal</colorMode>
                <fill>1</fill>
                <outline>1</outline>
            </PolyStyle>
        </Style>
        <Style id="816">
            <LineStyle id="818">
                <colorMode>normal</colorMode>
                <width>1</width>
            </LineStyle>
            <PolyStyle id="817">
                <color>80ebce87</color>
                <colorMode>normal</colorMode>
                <fill>1</fill>
                <outline>1</outline>
            </PolyStyle>
        </Style>
        <Style id="825">
            <LineStyle id="827">
                <colorMode>normal</colorMode>
                <width>1</width>
            </LineStyle>
            <PolyStyle id="826">
                <color>80ebce87</color>
                <colorMode>normal</colorMode>
                <fill>1</fill>
                <outline>1</outline>
            </PolyStyle>
        </Style>
        <Placemark id="739">
            <name>Flood_80</name>
            <styleUrl>#744</styleUrl>
            <Polygon id="738">
                <outerBoundaryIs>
                    <LinearRing id="742">
                        <coordinates>-78.9831416083467,33.70366005589259,0.0 -78.98315078528742,33.703643034073984,0.0 -78.98316529654923,33.70363738550829,0.0 -78.98321957885979,33.703655898034405,0.0 -78.98323707095123,33.70365511361993,0.0 -78.98324930860916,33.703647427187434,0.0 -78.98324985737369,33.703633543312755,0.0 -78.98322781547613,33.70359612576112,0.0 -78.98322318707973,33.70357314223204,0.0 -78.98327033163501,33.70358734065154,0.0 -78.98328570597303,33.70358694913001,0.0 -78.98329064739961,33.703582633770026,0.0 -78.98328445001475,33.70354560919513,0.0 -78.98328774519177,33.703510938152704,0.0 -78.98327856696183,33.70349446631247,0.0 -78.98329833530136,33.703454931209436,0.0 -78.98332414256726,33.703431163326165,0.0 -78.98333834082989,33.70340198380677,0.0 -78.98335002842246,33.70339374730767,0.0 -78.98336618726036,33.70339084514058,0.0 -78.98337756183241,33.70339398186809,0.0 -78.98337309056672,33.70342182949219,0.0 -78.98337905222637,33.70343053624723,0.0 -78.98339536691482,33.70343006614954,0.0 -78.98340768315789,33.703415319253075,0.0 -78.98341215442078,33.70339217860523,0.0 -78.98340901643589,33.70337696015325,0.0 -78.98339191594933,33.70336087986922,0.0 -78.98336359804324,33.70335656566383,0.0 -78.98336705036215,33.70335421219179,0.0 -78.98337426672835,33.70330926544822,0.0 -78.9833863472327,33.70328839974342,0.0 -78.98340878075481,33.70327632070444,0.0 -78.98341795899466,33.703276555179194,0.0 -78.98342227305943,33.70331318815214,0.0 -78.98342972513638,33.703320168761,0.0 -78.9834376473935,33.70331907128926,0.0 -78.98345145405679,33.70329781268964,0.0 -78.98346047385652,33.70324674714708,0.0 -78.98350346019846,33.703224941238844,0.0 -78.9834775743832,33.703197094782965,0.0 -78.98347545663648,33.70318650473138,0.0 -78.98348000646817,33.70318297517525,0.0 -78.98350573513487,33.70318932853435,0.0 -78.98354417161939,33.703213253878154,0.0 -78.98358064752664,33.7032138028025,0.0 -78.98360347393582,33.7032298045326,0.0 -78.98361649608637,33.70323176648818,0.0 -78.98369234886329,33.703199292110675,0.0 -78.98377502639299,33.703152698145736,0.0 -78.98382499465428,33.70310877052918,0.0 -78.98387700075178,33.703108143436616,0.0 -78.98394697174395,33.70309229799024,0.0 -78.98396101282331,33.70309849544337,0.0 -78.98396477814323,33.703116771992306,0.0 -78.98398376065397,33.703110653273555,0.0 -78.98401631408069,33.70309112222396,0.0 -78.98403066948703,33.703091279451996,0.0 -78.98404384748544,33.70309998624078,0.0 -78.98403168839621,33.703127832519556,0.0 -78.98403255146964,33.703137638069286,0.0 -78.98399811604646,33.70313371542864,0.0 -78.98401639261054,33.70317552561681,0.0 -78.98401709852084,33.70318776192494,0.0 -78.98400595968691,33.70319192009493,0.0 -78.98393740184592,33.70319748851867,0.0 -78.98392022276326,33.703206509488325,0.0 -78.98392461542632,33.703214510320734,0.0 -78.98396171865674,33.70323772974299,0.0 -78.9839701896568,33.70325843838253,0.0 -78.98394046117994,33.70332864343674,0.0 -78.98391065282608,33.70337633515664,0.0 -78.98389982828012,33.703438696648135,0.0 -78.98387606017309,33.70348482071371,0.0 -78.9838467220101,33.70350678384679,0.0 -78.9838188755795,33.703518001093634,0.0 -78.9837253722511,33.70353251186995,0.0 -78.98370913483016,33.70353894361401,0.0 -78.98367054117121,33.70353596392071,0.0 -78.98363775331755,33.70354553357179,0.0 -78.98363673307325,33.70355094514904,0.0 -78.98365697154341,33.70358451879276,0.0 -78.98366010952385,33.703607109412054,0.0 -78.98364653860517,33.70362483712581,0.0 -78.98360198326856,33.70364256469504,0.0 -78.98359288360416,33.70365119410904,0.0 -78.98359382525322,33.7036695492253,0.0 -78.983608102058,33.70370382875666,0.0 -78.98360167021103,33.703714810361525,0.0 -78.98357617596461,33.70372885128113,0.0 -78.98356668470369,33.70374085310949,0.0 -78.98356888102954,33.7037541869331,0.0 -78.98358660885113,33.703773640945954,0.0 -78.9835917860085,33.70378862366588,0.0 -78.98358441249141,33.70381584263185,0.0 -78.98355954688653,33.70383812010796,0.0 -78.98356770356098,33.7038625154845,0.0 -78.98356605728523,33.703874908942666,0.0 -78.98352542442875,33.70391303211737,0.0 -78.9835062847218,33.7039756280018,0.0 -78.9834826724772,33.704004102871394,0.0 -78.9834737312774,33.70402379119186,0.0 -78.9834123111833,33.70404677441268,0.0 -78.98334437939208,33.70401461237732,0.0 -78.983319122209,33.704010063753955,0.0 -78.98330837497608,33.70400339614235,0.0 -78.9833056298935,33.70399107993464,0.0 -78.98331543549455,33.70395146751428,0.0 -78.98330829644276,33.7039255031504,0.0 -78.98327009571243,33.70388220245791,0.0 -78.98321950015979,33.70385090488992,0.0 -78.98322977593146,33.703818900380725,0.0 -78.98321659794179,33.70379583823121,0.0 -78.98321401005302,33.70373096733806,0.0 -78.98320914590978,33.70371520012368,0.0 -78.98319588933614,33.70369723654319,0.0 -78.9831489032592,33.703671586315906,0.0 -78.9831416083467,33.70366005589259,0.0</coordinates>
                    </LinearRing>
                </outerBoundaryIs>
            </Polygon>
        </Placemark>
        <Placemark id="748">
            <name>Flood_81</name>
            <styleUrl>#753</styleUrl>
            <Polygon id="747">
                <outerBoundaryIs>
                    <LinearRing id="751">
                        <coordinates>-79.10485852593747,33.61621799417933,0.0 -79.10485028939776,33.616206070892225,0.0 -79.10482008963245,33.61619775575128,0.0 -79.10481718739389,33.616188734706874,0.0 -79.1048637030493,33.61608550612193,0.0 -79.10488833406248,33.615998985055214,0.0 -79.10491539583556,33.61593991871212,0.0 -79.10499807287833,33.61578813393231,0.0 -79.10510946058575,33.61563721224092,0.0 -79.10537757298381,33.61539694588002,0.0 -79.10548260616939,33.6153163864901,0.0 -79.10565855031284,33.61519378131617,0.0 -79.10574256193638,33.61515550216393,0.0 -79.10582037618342,33.615111731540594,0.0 -79.10612433696272,33.61486126806635,0.0 -79.10623564478706,33.61475074331029,0.0 -79.10630812473183,33.61470069803101,0.0 -79.10641362939015,33.61458029046342,0.0 -79.10648265702125,33.61446788368618,0.0 -79.10652564311613,33.61441517058581,0.0 -79.10660455485332,33.614301351983215,0.0 -79.10668087867984,33.61420722172749,0.0 -79.10678646192162,33.61410297293391,0.0 -79.10684019388952,33.61405786905168,0.0 -79.10686929614144,33.61403621882305,0.0 -79.10697440660071,33.61397676092277,0.0 -79.10701841293319,33.613934244954784,0.0 -79.10704053330964,33.61388819940233,0.0 -79.10704539611635,33.6138379183525,0.0 -79.10702209961934,33.61373414098567,0.0 -79.1069744065269,33.61364801148195,0.0 -79.10697181859055,33.613552626523145,0.0 -79.10697644696896,33.61351701383597,0.0 -79.10700248851293,33.61349253994622,0.0 -79.10707716609231,33.61345692729026,0.0 -79.10713246704658,33.613401390536154,0.0 -79.10717176641545,33.613374092992615,0.0 -79.10722981243873,33.613288592180034,0.0 -79.10725028656168,33.61327086442506,0.0 -79.10728683954862,33.61325948991194,0.0 -79.10734904380257,33.61324984156212,0.0 -79.10752396904464,33.613252509448586,0.0 -79.10772611191075,33.613201678423486,0.0 -79.1078265180348,33.61319924771094,0.0 -79.10803987826283,33.61318301045267,0.0 -79.10819887918332,33.61318355927761,0.0 -79.10833223014484,33.61317524420904,0.0 -79.10841969276542,33.61317500850657,0.0 -79.10847844472049,33.61316810654429,0.0 -79.10853256960213,33.61317587163292,0.0 -79.10864395602816,33.61316802803771,0.0 -79.10883488286476,33.61318301080748,0.0 -79.10892046348468,33.613183716760595,0.0 -79.10900580705227,33.61317814674997,0.0 -79.10907146360992,33.61318661906834,0.0 -79.10921399145718,33.61319140337545,0.0 -79.10926152737206,33.6132030136675,0.0 -79.10930678707244,33.6132070134358,0.0 -79.10937095322575,33.61323289919508,0.0 -79.10940852645678,33.6132569815198,0.0 -79.10943048968848,33.61328121968878,0.0 -79.1095381121567,33.61345606661659,0.0 -79.10959851168788,33.61347724540137,0.0 -79.10963310410142,33.61349928725055,0.0 -79.10969844633802,33.613509405830214,0.0 -79.1097280187701,33.613520544630994,0.0 -79.10976904429594,33.61352470286803,0.0 -79.10980857809838,33.613507602456295,0.0 -79.10983093421952,33.61347952041033,0.0 -79.1098366601084,33.613462734305685,0.0 -79.10983540543191,33.61342492529143,0.0 -79.10986482068725,33.613370800357046,0.0 -79.10986050661333,33.61333314850248,0.0 -79.10986505641183,33.61330200704727,0.0 -79.10990160937429,33.6131911692505,0.0 -79.10994287062239,33.61311751182531,0.0 -79.1099769129582,33.61307891833149,0.0 -79.11012061818201,33.6130022028607,0.0 -79.11017717512054,33.61298173004317,0.0 -79.11026071526341,33.61296000125925,0.0 -79.11038010248579,33.61295474558618,0.0 -79.1105162771063,33.61295921687831,0.0 -79.11055134099523,33.61295270649865,0.0 -79.11058318832914,33.612959138327824,0.0 -79.1106408427753,33.61294352833491,0.0 -79.11065747170133,33.612946353311735,0.0 -79.11066931639127,33.61295474571581,0.0 -79.11067182704079,33.61297631737717,0.0 -79.11066162993393,33.61302267594574,0.0 -79.11068861316491,33.613129043848765,0.0 -79.11068994774065,33.61320277856325,0.0 -79.11070916591451,33.613298320687456,0.0 -79.11072736384286,33.61335479781935,0.0 -79.11077897810392,33.613456928933886,0.0 -79.1107774877049,33.61349513084916,0.0 -79.11080094266585,33.613562512339,0.0 -79.11079945226061,33.613575768870724,0.0 -79.11076674186481,33.61362204884878,0.0 -79.1107180298765,33.61366542788927,0.0 -79.11063566582193,33.61369421582344,0.0 -79.11055377325134,33.613728965399446,0.0 -79.11044677815909,33.61373116167759,0.0 -79.11039814474172,33.61373688755609,0.0 -79.11033923562336,33.61373351380672,0.0 -79.11026204869763,33.613719002571294,0.0 -79.11021686626829,33.61371688480658,0.0 -79.11019074483012,33.613722453533995,0.0 -79.1101693303616,33.61373971111479,0.0 -79.11014132692046,33.61373665170107,0.0 -79.11011371638642,33.61375469377461,0.0 -79.11011740311982,33.61376394925091,0.0 -79.1101663495584,33.61379595380564,0.0 -79.11019749099339,33.61386333529906,0.0 -79.110243929415,33.61392804899091,0.0 -79.11024730182916,33.61394679699295,0.0 -79.11024314492848,33.61396013210414,0.0 -79.11019521612624,33.614009707218706,0.0 -79.11018902006498,33.6140278278821,0.0 -79.11023969266037,33.614088463247114,0.0 -79.11025373368528,33.6141471367026,0.0 -79.11031993901771,33.614240952695646,0.0 -79.11032574349755,33.614267309911746,0.0 -79.11031460472842,33.61428660666138,0.0 -79.11027930641522,33.61432425849847,0.0 -79.11024926251541,33.614374146633324,0.0 -79.11021733660876,33.614399955079016,0.0 -79.11018211687171,33.614420113584515,0.0 -79.11009920407396,33.61449188767884,0.0 -79.11007763244962,33.61453008958561,0.0 -79.1100637486108,33.61457472200104,0.0 -79.11004005923665,33.614581625288686,0.0 -79.11002727289603,33.61459237116831,0.0 -79.1099719719499,33.614678736366365,0.0 -79.10991165102054,33.61474737248893,0.0 -79.10988200002217,33.61479553578201,0.0 -79.1098688220945,33.61482816764386,0.0 -79.10987305759193,33.614881899690594,0.0 -79.10987015536176,33.6149084913348,0.0 -79.10983893537352,33.614953046472024,0.0 -79.10978057504387,33.6150979279576,0.0 -79.10977994772324,33.61515166000227,0.0 -79.10981281400669,33.615253163774355,0.0 -79.10982261953683,33.615269558292816,0.0 -79.10984787790731,33.61529222747197,0.0 -79.10988435363733,33.61533686121876,0.0 -79.10994796973462,33.61538667212326,0.0 -79.10999268068775,33.61541271372423,0.0 -79.1100872024541,33.6154277750296,0.0 -79.11011191206917,33.61544158032652,0.0 -79.1101617228874,33.615451464466624,0.0 -79.11018007796527,33.61546158302519,0.0 -79.11020392450835,33.615487155753385,0.0 -79.11021161098668,33.61550339310993,0.0 -79.1102050220233,33.61552151246361,0.0 -79.11011654049352,33.61559634595758,0.0 -79.11002021401092,33.61563862616137,0.0 -79.10992145545818,33.615655333646025,0.0 -79.10987729326806,33.61567023773108,0.0 -79.10982261963471,33.615672512613706,0.0 -79.10974488395605,33.61566286420329,0.0 -79.10962149567233,33.61564113663904,0.0 -79.10957066592647,33.61562497653491,0.0 -79.10949700856365,33.61558293200013,0.0 -79.10937660107938,33.61548746841251,0.0 -79.1093405968262,33.61541898940903,0.0 -79.10929604171653,33.61536047179169,0.0 -79.10926042905552,33.61529089397072,0.0 -79.10919618561411,33.615196293482875,0.0 -79.10913931564421,33.61513942343136,0.0 -79.10896713675365,33.61500262123203,0.0 -79.10887857530072,33.61493908361013,0.0 -79.10880986064116,33.614874211437645,0.0 -79.10878899491394,33.61484205104381,0.0 -79.1087756598033,33.61478196444852,0.0 -79.10877809185811,33.614743842423174,0.0 -79.10882068635442,33.6146682244136,0.0 -79.1088363736146,33.614626022755715,0.0 -79.10889293054248,33.614557308050394,0.0 -79.10893544515008,33.614487966004575,0.0 -79.10898086331055,33.61444662612597,0.0 -79.10904973508873,33.61433445509276,0.0 -79.1090708352208,33.61425436584287,0.0 -79.10915351356991,33.614109641528636,0.0 -79.10915869069353,33.61404233863103,0.0 -79.10914935533147,33.61400547126946,0.0 -79.10911374267972,33.613973230978985,0.0 -79.10903843905754,33.6139286771045,0.0 -79.10886602444666,33.613874394919684,0.0 -79.1086374457945,33.61382144726902,0.0 -79.10848558389982,33.61380293494274,0.0 -79.10837474491555,33.613805365651004,0.0 -79.10810749555924,33.613870316256914,0.0 -79.10798520479356,33.61389180797357,0.0 -79.1078118485499,33.61393361796944,0.0 -79.10774219356291,33.61394428655323,0.0 -79.1075997429961,33.61398507501611,0.0 -79.10745344984402,33.614012765415396,0.0 -79.10740850316074,33.614032219311575,0.0 -79.10736998828713,33.61406336075255,0.0 -79.10734818092108,33.61410179709192,0.0 -79.10731319561934,33.61414046785733,0.0 -79.10723930388194,33.61434457285311,0.0 -79.10718463026447,33.61441532803415,0.0 -79.10713968359785,33.61450930114213,0.0 -79.10710909094347,33.61455777744823,0.0 -79.10707481287383,33.614633865635874,0.0 -79.10704547488456,33.61467261629417,0.0 -79.10695016864904,33.61476705955397,0.0 -79.10680026736358,33.6148764854752,0.0 -79.10674347599972,33.61493029738716,0.0 -79.10668378108586,33.61496787063448,0.0 -79.10663608933548,33.61502811305603,0.0 -79.10656572713326,33.615079805907676,0.0 -79.10649630658939,33.61514522677579,0.0 -79.1064318274407,33.61519621371525,0.0 -79.10631628281405,33.61527018412376,0.0 -79.10622764412012,33.615337879889836,0.0 -79.10615202620235,33.61541169315464,0.0 -79.10609311709487,33.615460953944705,0.0 -79.1059334888765,33.61563540785919,0.0 -79.10585073324754,33.61575628692099,0.0 -79.10582076792767,33.61581166652649,0.0 -79.10577534976778,33.61586139880574,0.0 -79.10572201070926,33.61594509619977,0.0 -79.10561438830537,33.61605656130574,0.0 -79.105511002685,33.61611994168665,0.0 -79.10535545276522,33.61618355778721,0.0 -79.10527638384266,33.61619179430164,0.0 -79.10522406369184,33.61619124552561,0.0 -79.10509502679558,33.616214464704036,0.0 -79.1049629318064,33.61621360157244,0.0 -79.10485452488527,33.61622073925705,0.0 -79.10485852593747,33.61621799417933,0.0</coordinates>
                    </LinearRing>
                </outerBoundaryIs>
            </Polygon>
        </Placemark>
        <Placemark id="757">
            <name>Flood_82</name>
            <styleUrl>#762</styleUrl>
            <Polygon id="756">
                <outerBoundaryIs>
                    <LinearRing id="760">
                        <coordinates>-79.10211526820177,33.61779584660297,0.0 -79.10208742191989,33.61778768862416,0.0 -79.10205965422003,33.61778847310837,0.0 -79.10200882317042,33.617802356955416,0.0 -79.10197893772855,33.617804553268705,0.0 -79.10183562407195,33.617793728744,0.0 -79.10176816540138,33.61778298152097,0.0 -79.10167379948736,33.61777741274313,0.0 -79.10156437363172,33.61774650567101,0.0 -79.10149667921486,33.61770877520762,0.0 -79.10143369045852,33.6176881451765,0.0 -79.10141368781032,33.617671673381956,0.0 -79.10133446170369,33.61756154144355,0.0 -79.10125515703045,33.61752373239465,0.0 -79.10115514379376,33.61746356717972,0.0 -79.10111725624327,33.617449447554684,0.0 -79.10110109748749,33.61743454344301,0.0 -79.10107764383953,33.6173652013646,0.0 -79.10104587507605,33.617307703986086,0.0 -79.10102532366618,33.61724573407109,0.0 -79.10096053015907,33.61711277580694,0.0 -79.10094805811258,33.616979347390966,0.0 -79.10095135325196,33.61698271980623,0.0 -79.10096390384591,33.6169382432379,0.0 -79.10098147442248,33.6169136121817,0.0 -79.10102265579216,33.61687501999648,0.0 -79.10105583768093,33.61686584180573,0.0 -79.10129782869379,33.616872509463185,0.0 -79.10151087592544,33.61690827940349,0.0 -79.10158053222658,33.61691220060038,0.0 -79.1016589738197,33.616923183569924,0.0 -79.1017040776684,33.61692012418723,0.0 -79.10175075050198,33.616895100240605,0.0 -79.10178244067343,33.61689070760281,0.0 -79.10182087697547,33.61689604192621,0.0 -79.10185139106561,33.61692122175619,0.0 -79.10186919738922,33.61692781074008,0.0 -79.10195164003062,33.6169146328214,0.0 -79.10203157072064,33.61691533876954,0.0 -79.10210075684655,33.616906867818486,0.0 -79.10212687828805,33.616913769818105,0.0 -79.10216319685267,33.6169441267969,0.0 -79.10216374560736,33.616951187256575,0.0 -79.10209087275176,33.61696828765673,0.0 -79.10197062245896,33.61701401884891,0.0 -79.10194144162115,33.61701339150234,0.0 -79.10185131249884,33.616992368557106,0.0 -79.10181468092851,33.616994800609014,0.0 -79.1017801657925,33.61700640955656,0.0 -79.10175828114896,33.617019508919846,0.0 -79.10175192792511,33.61703425586112,0.0 -79.10175443726322,33.61705261227117,0.0 -79.10181930803746,33.61716258704265,0.0 -79.10186621662962,33.61722847813599,0.0 -79.10194975679626,33.61731209700916,0.0 -79.10201470613484,33.61733743270453,0.0 -79.10204318106237,33.61735774970915,0.0 -79.10215213545318,33.617480903760786,0.0 -79.10225709141571,33.61763041240649,0.0 -79.10230831276009,33.61767873289747,0.0 -79.10237765605716,33.617721561927254,0.0 -79.10238385212502,33.61773136746869,0.0 -79.10235875092266,33.61774250624679,0.0 -79.1023357674646,33.61776415647973,0.0 -79.10217872843731,33.61779851312765,0.0 -79.102131113947,33.617817496851686,0.0 -79.10211526820177,33.61779584660297,0.0</coordinates>
                    </LinearRing>
                </outerBoundaryIs>
            </Polygon>
        </Placemark>
        <Placemark id="766">
            <name>Flood_83</name>
            <styleUrl>#771</styleUrl>
            <Polygon id="765">
                <outerBoundaryIs>
                    <LinearRing id="769">
                        <coordinates>-79.05687019623468,33.85697409604827,0.0 -79.05686227400932,33.856973077124984,0.0 -79.05685427320348,33.85697166529938,0.0 -79.05684674257094,33.85697025347349,0.0 -79.05683882034558,33.856968840338155,0.0 -79.05683128971299,33.856967194080575,0.0 -79.05682383766096,33.85696538935238,0.0 -79.05681662135035,33.85696319303126,0.0 -79.05680995379359,33.85696083954903,0.0 -79.05680446232483,33.856956996966346,0.0 -79.05679967808081,33.856953308924886,0.0 -79.05679536270026,33.8569489948589,0.0 -79.056791441532,33.85694428919991,0.0 -79.05678775479547,33.8569393464898,0.0 -79.05677692901759,33.85692389364468,0.0 -79.05677316370057,33.8569188736637,0.0 -79.0567690067907,33.85691408942447,0.0 -79.05676445697834,33.856909618197534,0.0 -79.05675943699265,33.85690561714398,0.0 -79.05675386694348,33.856901930412576,0.0 -79.05674798388206,33.85689855800332,0.0 -79.05674186638872,33.85689534144524,0.0 -79.05673559042475,33.85689236062871,0.0 -79.05672256963308,33.85688647757639,0.0 -79.05669566366414,33.856874711472116,0.0 -79.05668154405494,33.8568683569375,0.0 -79.05665338341693,33.856855257585,0.0 -79.0565833354342,33.85682199843085,0.0 -79.05656929440556,33.85681564520581,0.0 -79.05656215667527,33.85681258580924,0.0 -79.05655501763538,33.85680960499309,0.0 -79.05654772274411,33.85680685860879,0.0 -79.05654034927244,33.85680442785606,0.0 -79.05653281863975,33.85680215295465,0.0 -79.05652505357536,33.85680026964616,0.0 -79.05651728720126,33.85679854480817,0.0 -79.05650152133096,33.85679540683487,0.0 -79.05648559698994,33.85679250460313,0.0 -79.05646159457231,33.85678850355803,0.0 -79.05641343126642,33.85678058135787,0.0 -79.05634863770459,33.85677014851902,0.0 -79.05633263609286,33.856767403448266,0.0 -79.05632486971882,33.856765991622574,0.0 -79.05631734039596,33.85676434405529,0.0 -79.05631012277573,33.85676261790734,0.0 -79.05630345521905,33.856760657327555,0.0 -79.05629749357726,33.85675830384502,0.0 -79.05629255217238,33.85675548018888,0.0 -79.05628902259707,33.856751950617536,0.0 -79.05628721786395,33.85674763655035,0.0 -79.05628682627014,33.85674269383881,0.0 -79.05628745360357,33.85673720368282,0.0 -79.05628878685187,33.85673139789499,0.0 -79.05629067016365,33.85672528040433,0.0 -79.05629286648788,33.85671900444295,0.0 -79.05629529724378,33.85671265121066,0.0 -79.05630055296791,33.856699786275314,0.0 -79.05630886809212,33.856680255095085,0.0 -79.05631459398965,33.85666739015954,0.0 -79.0563176533897,33.856661036926866,0.0 -79.05632079137034,33.85665491812612,0.0 -79.05632424236327,33.85664887790549,0.0 -79.05632792909788,33.85664315200676,0.0 -79.05633208731564,33.856637817700566,0.0 -79.05633695013864,33.85663295487684,0.0 -79.0563423630254,33.85662879665773,0.0 -79.0563484805175,33.856625109921175,0.0 -79.0563549922218,33.85662173750636,0.0 -79.0563618156289,33.85661867810353,0.0 -79.05636887608726,33.856615775861734,0.0 -79.05638346586771,33.85661028438988,0.0 -79.05640574344095,33.85660244073917,0.0 -79.05642017737009,33.856597106428346,0.0 -79.05642715793829,33.856594361347454,0.0 -79.05643374691353,33.85659145910569,0.0 -79.05643986571536,33.856588399703256,0.0 -79.05644527860224,33.856585104559755,0.0 -79.05644974983267,33.856581417823925,0.0 -79.05645296508442,33.85657726091548,0.0 -79.05645461265493,33.85657239678347,0.0 -79.05645492697604,33.85656706378858,0.0 -79.05645429833088,33.85656141516257,0.0 -79.0564528865,33.8565554535247,0.0 -79.05645108307617,33.856549257455136,0.0 -79.05644888674979,33.85654306007622,0.0 -79.05644386676254,33.85653027372584,0.0 -79.05642449141979,33.85648501400139,0.0 -79.05641923569101,33.85647207049016,0.0 -79.05641672504261,33.85646563867961,0.0 -79.05641437155515,33.85645912828846,0.0 -79.05641233238977,33.856452695167995,0.0 -79.0564105289658,33.856446263357036,0.0 -79.05640935156663,33.8564398315459,0.0 -79.0564088028117,33.856433477005204,0.0 -79.05640919440339,33.85642712377389,0.0 -79.05641076339295,33.85641998473718,0.0 -79.05641319545836,33.85641214109523,0.0 -79.05641625485808,33.85640398313118,0.0 -79.05641978443118,33.856395746586394,0.0 -79.05642339258479,33.8563878243634,0.0 -79.05642692215807,33.85638052947466,0.0 -79.05643437420714,33.85636562537508,0.0 -79.05646284916604,33.85637284166924,0.0 -79.05649281322589,33.85638139252106,0.0 -79.05651116963404,33.85638696124917,0.0 -79.05653423039584,33.8563943347066,0.0 -79.05673394277461,33.856458735244914,0.0 -79.05684195693107,33.85649317177969,0.0 -79.056857096777,33.85649819175555,0.0 -79.0568645488292,33.85650085824963,0.0 -79.05687184372043,33.8565035260535,0.0 -79.05687882559927,33.856506349708745,0.0 -79.05688541457559,33.85650940910556,0.0 -79.05689153206895,33.85651270293436,0.0 -79.05689694495709,33.85651631108539,0.0 -79.05690141618892,33.856520469300065,0.0 -79.05690447559087,33.85652462620574,0.0 -79.05690682907795,33.856529018853124,0.0 -79.0569110645691,33.856538197050526,0.0 -79.05691349663667,33.85654251111735,0.0 -79.05691655603859,33.85654651086207,0.0 -79.05692094868989,33.85655035475494,0.0 -79.05692620310724,33.85655364989375,0.0 -79.0569321647492,33.856556552129966,0.0 -79.05693859787402,33.85655914004408,0.0 -79.05694534401137,33.8565615721067,0.0 -79.05695240316095,33.85656392558875,0.0 -79.0569815054546,33.856572868033695,0.0 -79.05698872176525,33.85657530009611,0.0 -79.05699578091489,33.85657796659038,0.0 -79.05700268421326,33.856580790245665,0.0 -79.05700919460915,33.85658408538401,0.0 -79.05701554915383,33.8565879279663,0.0 -79.05702158937652,33.856592164760805,0.0 -79.05702739385767,33.856596714567544,0.0 -79.0570330411779,33.85660149880619,0.0 -79.05703853264676,33.85660636293507,0.0 -79.05704935711394,33.85661648147591,0.0 -79.05706520287669,33.85663193431883,0.0 -79.05711242453329,33.85667884291137,0.0 -79.0571230132589,33.85668904003267,0.0 -79.0571284261473,33.85669406001291,0.0 -79.05713391761624,33.856698844251554,0.0 -79.05713956493646,33.8567035512194,0.0 -79.05714536941755,33.85670786528474,0.0 -79.0571514096403,33.85671186633786,0.0 -79.05715784145565,33.856715238747036,0.0 -79.05716482333447,33.85671798513148,0.0 -79.05717219680612,33.85672026003288,0.0 -79.0571798060192,33.85672206345138,0.0 -79.05718757108357,33.856723632438126,0.0 -79.057195493309,33.856724965683235,0.0 -79.05720349542449,33.85672614307714,0.0 -79.05722789074451,33.85672927973693,0.0 -79.05730954768376,33.85673892807336,0.0 -79.05734210097064,33.85674292911469,0.0 -79.05735825974324,33.85674520401229,0.0 -79.05736626185885,33.85674645867702,0.0 -79.05737426266477,33.85674787050253,0.0 -79.05738210630962,33.85674951806968,0.0 -79.05738979410327,33.85675140006867,0.0 -79.0573972461554,33.85675375355056,0.0 -79.0574042267246,33.856756421354476,0.0 -79.05741097286196,33.85675948075133,0.0 -79.05741764041892,33.8567627745798,0.0 -79.05742415081487,33.856766304149836,0.0 -79.05743066252056,33.856769990880906,0.0 -79.0574627443271,33.85678897459929,0.0 -79.05747576642867,33.85679626948084,0.0 -79.05748243398557,33.85679972047028,0.0 -79.05748917881333,33.85680285844756,0.0 -79.05749616069215,33.856805682102824,0.0 -79.05750345558339,33.856808114165204,0.0 -79.05751090763549,33.85681023190571,0.0 -79.05751859542913,33.85681211390461,0.0 -79.05752636049351,33.85681384005223,0.0 -79.05754204909294,33.85681682086461,0.0 -79.05756589565928,33.856820899180605,0.0 -79.05762221693212,33.856829841613674,0.0 -79.05763806138292,33.856832587994205,0.0 -79.0576457491764,33.85683399981994,0.0 -79.05765320122849,33.85683556880675,0.0 -79.0576601817975,33.85683729364509,0.0 -79.05766669219308,33.856839255534666,0.0 -79.05767234082259,33.85684153043692,0.0 -79.05767689063465,33.856844196932286,0.0 -79.05767987145596,33.8568474920721,0.0 -79.0576809689644,33.856851256076304,0.0 -79.05768057737237,33.85685557145408,0.0 -79.05767908696286,33.856860277115466,0.0 -79.05767673347746,33.85686514124772,0.0 -79.05767375265768,33.85687016123159,0.0 -79.05767014450346,33.856875181215734,0.0 -79.0576660648663,33.85688012261966,0.0 -79.05766151505551,33.85688475101148,0.0 -79.05765633791042,33.85688906508175,0.0 -79.05765084775278,33.85689290897899,0.0 -79.05764488611207,33.85689635997409,0.0 -79.05763868872961,33.85689957653742,0.0 -79.05761962771886,33.85690867616469,0.0 -79.05761350891706,33.85691181414755,0.0 -79.0576077830178,33.85691510798159,0.0 -79.05760244871146,33.85691879471781,0.0 -79.05759782162978,33.85692279577554,0.0 -79.05759366341208,33.85692773717948,0.0 -79.05759029099944,33.85693322864641,0.0 -79.05758746734082,33.8569390331252,0.0 -79.05758503527518,33.85694515192583,0.0 -79.05758291753165,33.85695142657749,0.0 -79.05758103421992,33.85695785839008,0.0 -79.0575792307984,33.8569643700927,0.0 -79.05757444524892,33.85698429417369,0.0 -79.05756393380466,33.857031201482044,0.0 -79.05756063997397,33.85704422357753,0.0 -79.05755938530599,33.8570489292388,0.0 -79.05755357951648,33.85705175289971,0.0 -79.05754644178734,33.857054499290285,0.0 -79.05753898973602,33.857056617037344,0.0 -79.0575313805235,33.85705842046256,0.0 -79.05752353687915,33.8570599894561,0.0 -79.05751561465428,33.85706132270836,0.0 -79.05750761253921,33.85706250010923,0.0 -79.0574914537673,33.85706461786013,0.0 -79.05745380191642,33.857069089105565,0.0 -79.05739755922416,33.857060146672524,0.0 -79.05738147903182,33.85705740160179,0.0 -79.05737347822588,33.85705598977619,0.0 -79.05736555600048,33.85705434220907,0.0 -79.05735763246534,33.85705261606143,0.0 -79.05735010183271,33.85705073406245,0.0 -79.05734249392921,33.857048694902545,0.0 -79.05732758982498,33.857044379531416,0.0 -79.0572977816163,33.85703496691357,0.0 -79.05723110604912,33.85701323813251,0.0 -79.05721628052532,33.85700861105884,0.0 -79.05720882847312,33.85700641473791,0.0 -79.05720145500158,33.857004296997474,0.0 -79.05719408152989,33.85700241368872,0.0 -79.05718670805844,33.857000844701794,0.0 -79.05717933458698,33.85699959003688,0.0 -79.05717203969607,33.85699888412553,0.0 -79.05716482338586,33.85699888412871,0.0 -79.05715744991488,33.856999825787916,0.0 -79.05715023360489,33.857001393471556,0.0 -79.05714301598542,33.85700351252813,0.0 -79.05713579967565,33.857005943287206,0.0 -79.05711430659784,33.85701402267904,0.0 -79.05710716886857,33.85701653332831,0.0 -79.0571001084101,33.8570188868166,0.0 -79.05709297068071,33.857020768822025,0.0 -79.0570858329513,33.85702202480305,0.0 -79.0570787724925,33.857022494979326,0.0 -79.05707202635558,33.8570219462287,0.0 -79.05706528021852,33.85702061298298,0.0 -79.05705853539096,33.85701872967394,0.0 -79.0570518678343,33.85701645477214,0.0 -79.057045121697,33.85701378827774,0.0 -79.05703837555969,33.85701104189319,0.0 -79.05701797998653,33.85700233518576,0.0 -79.05701107799787,33.856999511530475,0.0 -79.05700409611906,33.85699692361669,0.0 -79.0569969583889,33.85699457013467,0.0 -79.05698942775622,33.856992373813775,0.0 -79.05698173996268,33.856990569085596,0.0 -79.05697397489821,33.8569889215185,0.0 -79.05696605267282,33.856987431112344,0.0 -79.05695820771832,33.85698609786711,0.0 -79.056942284687,33.85698358853762,0.0 -79.05691828095982,33.85698013624611,0.0 -79.05687019623468,33.85697409604827,0.0</coordinates>
                    </LinearRing>
                </outerBoundaryIs>
            </Polygon>
        </Placemark>
        <Placemark id="775">
            <name>Flood_84</name>
            <styleUrl>#780</styleUrl>
            <Polygon id="774">
                <outerBoundaryIs>
                    <LinearRing id="778">
                        <coordinates>-78.97176762285109,33.6772679064206,0.0 -78.97185422285544,33.67722633244482,0.0 -78.97197572969446,33.67728085086281,0.0 -78.97203958178326,33.67735591915446,0.0 -78.97210523726962,33.67747624854839,0.0 -78.97213426101848,33.67757696800213,0.0 -78.9721445366468,33.67774899137597,0.0 -78.97212390654802,33.677774877032306,0.0 -78.97203777673198,33.677797310094434,0.0 -78.9718284937578,33.67783684436474,0.0 -78.97167082528291,33.67786531733812,0.0 -78.97154775070712,33.67787998647814,0.0 -78.97149056614346,33.67788382881611,0.0 -78.97145087498643,33.67787363150404,0.0 -78.97140898620842,33.67783237128611,0.0 -78.97141055525101,33.677767970593464,0.0 -78.97141455635929,33.67771792527055,0.0 -78.97142436197127,33.67766552517569,0.0 -78.97148099653893,33.6775638657516,0.0 -78.97154029892125,33.677466990585785,0.0 -78.97165427521881,33.6773543484701,0.0 -78.97176762285109,33.6772679064206,0.0</coordinates>
                    </LinearRing>
                </outerBoundaryIs>
            </Polygon>
        </Placemark>
        <Placemark id="784">
            <name>Flood_85</name>
            <styleUrl>#789</styleUrl>
            <Polygon id="783">
                <outerBoundaryIs>
                    <LinearRing id="787">
                        <coordinates>-78.96926077550205,33.67798571573187,0.0 -78.96915087899895,33.67790178204263,0.0 -78.969017057297,33.67776788148964,0.0 -78.96891249383661,33.67764974825497,0.0 -78.96880338185906,33.67752957452536,0.0 -78.96877514258134,33.67746988067902,0.0 -78.96875913967095,33.677374181274104,0.0 -78.96877820216085,33.67724279204262,0.0 -78.968826678748,33.67712136433579,0.0 -78.96887703864074,33.677019154822744,0.0 -78.96891657404618,33.67689184401188,0.0 -78.9689255166059,33.67680422541718,0.0 -78.96892669280646,33.6766572260787,0.0 -78.96894340049005,33.67652764026038,0.0 -78.96895642268913,33.67645915997883,0.0 -78.96898293589518,33.67640040802975,0.0 -78.96902537349811,33.67634573448152,0.0 -78.96911416986897,33.67625936959645,0.0 -78.9691868060936,33.676178497421645,0.0 -78.96922885209081,33.676139119577414,0.0 -78.96929136969521,33.676101938149536,0.0 -78.96933843440019,33.67604349930279,0.0 -78.96933490484598,33.67599761085947,0.0 -78.9693294147077,33.67594215260508,0.0 -78.96933051225581,33.675892577444145,0.0 -78.96931992220814,33.67585806350614,0.0 -78.9692976458772,33.675834765582174,0.0 -78.96922736191222,33.675814528161055,0.0 -78.9691027170735,33.67577240450636,0.0 -78.96895987423086,33.67572996644986,0.0 -78.96883107247784,33.675674350495186,0.0 -78.96874525703294,33.675632854345416,0.0 -78.96864140075274,33.67558147530186,0.0 -78.9685398180744,33.675534017438316,0.0 -78.96843588190242,33.6754845989796,0.0 -78.96834818445893,33.67542780711617,0.0 -78.96831218006227,33.67540427339086,0.0 -78.96829296182578,33.67539274291941,0.0 -78.96827178169261,33.67537595670968,0.0 -78.96824989695202,33.675358384691286,0.0 -78.96824613163527,33.67534034388805,0.0 -78.9684183113189,33.6753709360525,0.0 -78.96875098437121,33.67548679668419,0.0 -78.9692326950607,33.675634896952964,0.0 -78.96957603545837,33.67575091348464,0.0 -78.96991223809847,33.6758697536473,0.0 -78.97025887233427,33.67599777206602,0.0 -78.9705734246485,33.67612524159093,0.0 -78.97084938333148,33.67622525620905,0.0 -78.97099002981088,33.676311072037095,0.0 -78.97119429266743,33.67642779387909,0.0 -78.97129618834914,33.67649211644444,0.0 -78.97134505771832,33.6765376121846,0.0 -78.97137204100727,33.67660671997808,0.0 -78.97139180926898,33.67667567057873,0.0 -78.97138498442635,33.676815688013285,0.0 -78.97131807268353,33.67708011523918,0.0 -78.97127022336971,33.67729410430528,0.0 -78.97122637383136,33.67749028572367,0.0 -78.9711866039612,33.67766560271113,0.0 -78.97115938481244,33.677760596013115,0.0 -78.9711444806343,33.67778718760972,0.0 -78.97110792612648,33.677825388079306,0.0 -78.97099999012666,33.67786241214599,0.0 -78.97089581946122,33.677893474583755,0.0 -78.97082388788638,33.6779161447594,0.0 -78.97073462139905,33.67792069418129,0.0 -78.97065288427532,33.67790743597139,0.0 -78.97053177030892,33.67789645380534,0.0 -78.97046791817603,33.67788351130613,0.0 -78.97040430179634,33.67785558611433,0.0 -78.97034429489499,33.67782773820927,0.0 -78.97029432666967,33.67782993431622,0.0 -78.9702298471829,33.6778407598147,0.0 -78.97019007742108,33.67786397757616,0.0 -78.97015681806151,33.67791119910826,0.0 -78.97012002911418,33.6779583433539,0.0 -78.97007947485228,33.67798391459972,0.0 -78.9699990709586,33.67800407408881,0.0 -78.96991074613905,33.67799779773284,0.0 -78.96978523819125,33.67799340452741,0.0 -78.96966569322365,33.67797952012625,0.0 -78.96957995632323,33.6779852456525,0.0 -78.969445350011,33.67800399307244,0.0 -78.96938345845356,33.678012542365124,0.0 -78.96931513637828,33.678005718652585,0.0 -78.96926077550205,33.67798571573187,0.0</coordinates>
                    </LinearRing>
                </outerBoundaryIs>
            </Polygon>
        </Placemark>
        <Placemark id="793">
            <name>Flood_86</name>
            <styleUrl>#798</styleUrl>
            <Polygon id="792">
                <outerBoundaryIs>
                    <LinearRing id="796">
                        <coordinates>-79.28032696670526,33.93383973488105,0.0 -79.28024444676038,33.933778785267044,0.0 -79.28014608110327,33.93375517449234,0.0 -79.2801365100068,33.93375054741517,0.0 -79.28004794986244,33.93370999206175,0.0 -79.2799939035683,33.93370748274919,0.0 -79.2799491926261,33.93370497212267,0.0 -79.27987365327134,33.93368779315104,0.0 -79.27985059123105,33.93368591115868,0.0 -79.27983137308212,33.933684029164496,0.0 -79.27975151968259,33.9336943834908,0.0 -79.27973692991776,33.93368998953804,0.0 -79.2796621750522,33.93366559425716,0.0 -79.27965629199733,33.93366284918114,0.0 -79.27965315401985,33.9336629277631,0.0 -79.27959134134389,33.9336342184071,0.0 -79.27955510136113,33.933620177398616,0.0 -79.27952694206246,33.93360495898877,0.0 -79.2794567357005,33.933591781071456,0.0 -79.2794427732723,33.93359170249733,0.0 -79.27939963131207,33.93357946622406,0.0 -79.27935837004033,33.93356385622729,0.0 -79.27932542519653,33.93355075687359,0.0 -79.27926024011165,33.933522360531306,0.0 -79.27919450629334,33.93352173322682,0.0 -79.27916124714181,33.933528243636005,0.0 -79.2790631944875,33.93349200366549,0.0 -79.27896490739809,33.93345066513038,0.0 -79.27891109684306,33.93344525226828,0.0 -79.27886599300463,33.93345082233622,0.0 -79.27880708388673,33.93343944783615,0.0 -79.27876723576543,33.93344187992053,0.0 -79.2787264459611,33.933405168440935,0.0 -79.2787010304201,33.93337857681258,0.0 -79.27866981041541,33.93336445853085,0.0 -79.27859042845986,33.93332084377208,0.0 -79.27857207206736,33.933306725484606,0.0 -79.27854234378253,33.93329519381019,0.0 -79.27847402071646,33.93326162163375,0.0 -79.27843260358652,33.93323620610064,0.0 -79.27838796986418,33.93316223568026,0.0 -79.27838381295435,33.93315305748021,0.0 -79.2783831070369,33.93314827323796,0.0 -79.2783774584114,33.93314246876123,0.0 -79.27835494642898,33.933133683471944,0.0 -79.27827948563733,33.93309250077753,0.0 -79.27826748377342,33.93306896854366,0.0 -79.27825257964815,33.93301013795206,0.0 -79.27823351864429,33.932986055657885,0.0 -79.27820841739931,33.93292353833599,0.0 -79.27819963209545,33.93290306419158,0.0 -79.27818519815568,33.932862039940304,0.0 -79.2781205631234,33.93281952399177,0.0 -79.27808793127237,33.93277975441718,0.0 -79.27807757696361,33.93273645525862,0.0 -79.27808432308869,33.932732767211014,0.0 -79.27808918589353,33.93271519660981,0.0 -79.27812526872121,33.932737082571535,0.0 -79.2781868456653,33.932778342543216,0.0 -79.27819806299564,33.93274696534594,0.0 -79.27820904460094,33.93273825862202,0.0 -79.27821186821178,33.93267495679223,0.0 -79.27821077069189,33.93265581720324,0.0 -79.27828983954717,33.93257517917215,0.0 -79.27829595834086,33.93257455052539,0.0 -79.27829038828216,33.9325495278785,0.0 -79.27827689604425,33.93257431610216,0.0 -79.27819068942091,33.93258757267051,0.0 -79.27817860899012,33.932583022865096,0.0 -79.27818755143305,33.93257306016384,0.0 -79.27828905499445,33.932493050766666,0.0 -79.27828780032426,33.93248881396888,0.0 -79.27821916288097,33.932377427455705,0.0 -79.27826560126945,33.932361581677796,0.0 -79.27835298526261,33.93231083042527,0.0 -79.27839393089724,33.932318046715906,0.0 -79.27849002164218,33.932327695048244,0.0 -79.27849276802442,33.93232361671931,0.0 -79.27857018936042,33.9323128694922,0.0 -79.27859199541795,33.93230620192743,0.0 -79.27862015599133,33.93227207964408,0.0 -79.27862509868264,33.93224925331741,0.0 -79.27863435410993,33.93220046268326,0.0 -79.27869287163524,33.93221128712048,0.0 -79.27875523303582,33.932199286541234,0.0 -79.27879186460734,33.932208071824434,0.0 -79.27881916211886,33.93219199162341,0.0 -79.27883147827174,33.93216963546679,0.0 -79.27889274082274,33.93211025477795,0.0 -79.27896208277599,33.9320889974133,0.0 -79.2789837329824,33.932082251268106,0.0 -79.27899228252845,33.932079349024676,0.0 -79.27903856374347,33.93204561832616,0.0 -79.27909237427735,33.932020909974895,0.0 -79.27910743552171,33.93202114440004,0.0 -79.27911363157786,33.93200867236294,0.0 -79.27914940134528,33.931962549524954,0.0 -79.27917999398137,33.931927093991625,0.0 -79.27918164023396,33.931917288454706,0.0 -79.27919340633858,33.93191556229793,0.0 -79.27924517770921,33.931888186139865,0.0 -79.2792933409324,33.931864968201275,0.0 -79.27934974072046,33.93188222445315,0.0 -79.27939131501539,33.93191352304616,0.0 -79.27942622171462,33.931876498520445,0.0 -79.27948340465551,33.93184888661857,0.0 -79.27948756286625,33.93184551420371,0.0 -79.2794916411874,33.93184284770385,0.0 -79.27955133608289,33.931816647630406,0.0 -79.27959134005073,33.93180739083027,0.0 -79.27962491352064,33.93179617475932,0.0 -79.27963346435877,33.93176848429849,0.0 -79.27969245199762,33.93169553406926,0.0 -79.27969904096241,33.93169239608519,0.0 -79.2797053941843,33.93168698319592,0.0 -79.27979262101744,33.93163685927856,0.0 -79.27985459081285,33.931606580876476,0.0 -79.27987655402688,33.931593715930006,0.0 -79.27989255560922,33.93158328305248,0.0 -79.27994581739794,33.931569556326046,0.0 -79.27992573614408,33.931525158354965,0.0 -79.279993744826,33.93146985730116,0.0 -79.28007242217565,33.93151096010439,0.0 -79.28009203321956,33.93150272355005,0.0 -79.28012725291654,33.93144546192748,0.0 -79.28014858878014,33.931408829000766,0.0 -79.28019314386123,33.93139674984932,0.0 -79.28021353808441,33.931380982663995,0.0 -79.28022248052272,33.93136435240786,0.0 -79.28021306785217,33.93129673651513,0.0 -79.28023063842029,33.93128198956775,0.0 -79.28025479925198,33.931248808942904,0.0 -79.28029472596515,33.93126222130621,0.0 -79.28033026003907,33.9312833227729,0.0 -79.28039269873747,33.93130936563126,0.0 -79.28048706467733,33.931367961755384,0.0 -79.28048800502434,33.93137007949935,0.0 -79.28049043708866,33.93137125558634,0.0 -79.28050126154378,33.93137737438278,0.0 -79.28058903848174,33.93138655123629,0.0 -79.28062159177044,33.93145236369637,0.0 -79.2806382207242,33.93149542841973,0.0 -79.28065367358884,33.93153519800155,0.0 -79.28066771460757,33.931549553342116,0.0 -79.28068418769858,33.93157614497438,0.0 -79.28070834725932,33.931597952360825,0.0 -79.28078271051392,33.93159536310066,0.0 -79.28080326191414,33.93160257940038,0.0 -79.28084318863034,33.93162030714239,0.0 -79.28088068328779,33.931644938182046,0.0 -79.28094006389905,33.93167160837582,0.0 -79.28097865737016,33.93169286569228,0.0 -79.2810045430737,33.931705024702836,0.0 -79.28100697515437,33.931729262855406,0.0 -79.28102415287196,33.93178778043274,0.0 -79.28104109744669,33.93181641122854,0.0 -79.2810750625185,33.93181852895785,0.0 -79.28112369593893,33.93182990346289,0.0 -79.28114966018596,33.93178950652866,0.0 -79.28115264098948,33.931770915691956,0.0 -79.28115365987054,33.93170706380066,0.0 -79.28117703620363,33.931667764375106,0.0 -79.28125108512374,33.93164705576253,0.0 -79.28127642075485,33.931645565341356,0.0 -79.2812887369102,33.931626504327156,0.0 -79.2813176033876,33.93157771368517,0.0 -79.28137627676938,33.93159599017268,0.0 -79.28143432413724,33.93162854342662,0.0 -79.28144781640826,33.931650663829956,0.0 -79.28147385927339,33.93166392034792,0.0 -79.28154751532588,33.93169200236481,0.0 -79.28159473691211,33.93169443441019,0.0 -79.28167145233108,33.93167898152197,0.0 -79.28172604871199,33.931715064351394,0.0 -79.28176950499152,33.93172377236059,0.0 -79.28185257500114,33.931787152731395,0.0 -79.2818672433398,33.931782132741056,0.0 -79.2818794795795,33.93172643881003,0.0 -79.28188591268886,33.93171726060537,0.0 -79.28193250690344,33.93166541055512,0.0 -79.28192779991612,33.93163536792444,0.0 -79.28187100851983,33.9315952840393,0.0 -79.28186033988986,33.9315519848818,0.0 -79.28180401865352,33.93149370306348,0.0 -79.28189783451533,33.9315311191245,0.0 -79.28189273597168,33.931552376460246,0.0 -79.28196937418079,33.93162368036714,0.0 -79.28206499344435,33.93163474052949,0.0 -79.2820680528401,33.93163285721562,0.0 -79.28213198322109,33.93160854045331,0.0 -79.28216712439097,33.931626974112135,0.0 -79.28225701907341,33.93163991758951,0.0 -79.28226604010426,33.93164054491973,0.0 -79.28226588294142,33.93163764268023,0.0 -79.28223270230917,33.93155716186219,0.0 -79.28219944311212,33.9314990358852,0.0 -79.28226862792054,33.93150005609143,0.0 -79.28229059113924,33.93149370284876,0.0 -79.2823673864686,33.93150727235657,0.0 -79.28239413392303,33.93149911437974,0.0 -79.28246614370944,33.93151794092474,0.0 -79.28251885678486,33.93156108290251,0.0 -79.28256333332456,33.931604774947346,0.0 -79.28262051631314,33.9316449374127,0.0 -79.28262271265777,33.931676706195866,0.0 -79.28261588929465,33.93172738014032,0.0 -79.2826588754274,33.93177303276902,0.0 -79.28269950807149,33.931810998916816,0.0 -79.28275645662069,33.93183994270688,0.0 -79.28284705593289,33.93188936193948,0.0 -79.28285435081618,33.93189281292964,0.0 -79.28285709720326,33.931895636587534,0.0 -79.28286321469314,33.93190324579598,0.0 -79.2829159277912,33.93197894236261,0.0 -79.28294722642269,33.93205958034198,0.0 -79.28294832393092,33.9320624040006,0.0 -79.28294989292152,33.932064991917535,0.0 -79.28298911376692,33.93214484539814,0.0 -79.28298079866966,33.93217230011677,0.0 -79.28296220920346,33.93222697381353,0.0 -79.2829605616425,33.93223873993357,0.0 -79.28299131020447,33.932309808118696,0.0 -79.28295365845496,33.93238330840071,0.0 -79.28295569762236,33.93239177937699,0.0 -79.28304088537689,33.932459789446824,0.0 -79.2830478672509,33.932467084332956,0.0 -79.28305547514965,33.9324756338873,0.0 -79.2830532788348,33.93248630249999,0.0 -79.28305429912051,33.932558076613184,0.0 -79.28305280876087,33.932627810253905,0.0 -79.28305500509205,33.932640518028435,0.0 -79.28305877040847,33.93264812723799,0.0 -79.28306943902189,33.93266797273696,0.0 -79.28309414735922,33.93272358807053,0.0 -79.28312113192102,33.932796381099,0.0 -79.28312356268188,33.93280642237541,0.0 -79.28313258372607,33.932826189294644,0.0 -79.2831536066477,33.932889335260434,0.0 -79.28314929259403,33.9329044737946,0.0 -79.28313203507436,33.932971463673454,0.0 -79.28312929001221,33.93299060326369,0.0 -79.28311069923204,33.933039002308,0.0 -79.28311093367375,33.933053670666744,0.0 -79.28308057809373,33.93309689126187,0.0 -79.28307877339088,33.93313564192368,0.0 -79.28308865753247,33.93318772638031,0.0 -79.28307438080387,33.93321808334131,0.0 -79.28305351510322,33.9332412239965,0.0 -79.28304590594189,33.9333001331769,0.0 -79.28305539847334,33.9333268033924,0.0 -79.28302347256937,33.933333470961706,0.0 -79.28297774140052,33.933343669420815,0.0 -79.28292392955555,33.93336649576904,0.0 -79.28291757633632,33.93337575124451,0.0 -79.28290165202073,33.93338061538432,0.0 -79.28292283208839,33.93342258128762,0.0 -79.28294761899602,33.933463684113434,0.0 -79.28292965682971,33.93347003866423,0.0 -79.28291726207854,33.93346713643021,0.0 -79.28282423069396,33.93340430481893,0.0 -79.28281089558975,33.93339065539323,0.0 -79.28272649234471,33.93334382538589,0.0 -79.28267268179066,33.93333990424355,0.0 -79.28262828384041,33.9333087628138,0.0 -79.2825663153373,33.9333141757282,0.0 -79.28247900990208,33.933333236776214,0.0 -79.2824300621627,33.93332539184572,0.0 -79.28241602115486,33.93332649066928,0.0 -79.28240198013813,33.933314803136746,0.0 -79.28236864234778,33.93323808632497,0.0 -79.28236040577534,33.93318608044782,0.0 -79.28233404990185,33.93317776533369,0.0 -79.28228949482025,33.93318874697795,0.0 -79.28216006635652,33.93320412131009,0.0 -79.28210931520637,33.93320984854141,0.0 -79.28197243474926,33.93329385900995,0.0 -79.28185045700744,33.933294722140865,0.0 -79.28184229905001,33.93329213291728,0.0 -79.28183712191165,33.93329299599538,0.0 -79.28174887612258,33.933300290924585,0.0 -79.28173805036299,33.933301389746696,0.0 -79.28164470600208,33.93328970224997,0.0 -79.2816392145442,33.933293623419175,0.0 -79.2816026602403,33.9332801324744,0.0 -79.28154084888477,33.933266718811964,0.0 -79.28152382705822,33.93326483550713,0.0 -79.28144577837546,33.93325667757733,0.0 -79.28144209164456,33.933256285986246,0.0 -79.28141526429377,33.93325518718106,0.0 -79.28139722224674,33.933274955422334,0.0 -79.28139518308693,33.93327730759947,0.0 -79.28135792290604,33.93331652845092,0.0 -79.28128638461942,33.933322019950154,0.0 -79.28128348238025,33.933317863043364,0.0 -79.28124865420543,33.933275268501795,0.0 -79.28124394723754,33.933272915018094,0.0 -79.28124104500118,33.9332727578585,0.0 -79.28124010465731,33.93327511134475,0.0 -79.2812050408067,33.93332562814139,0.0 -79.28114362106471,33.93334225842128,0.0 -79.28111930435387,33.933335590877256,0.0 -79.28112503027087,33.93337096781353,0.0 -79.28112408862071,33.93337802696173,0.0 -79.28111899010452,33.93343834928102,0.0 -79.28114111050837,33.93346674433282,0.0 -79.28115460281084,33.93353365561815,0.0 -79.28110204697569,33.933603076270664,0.0 -79.28110793004883,33.93363194281284,0.0 -79.28109749722815,33.93368544041853,0.0 -79.28104870670909,33.933762077378105,0.0 -79.28104706045328,33.93376725452382,0.0 -79.28104164757632,33.933771804336935,0.0 -79.2810359989575,33.93377556965487,0.0 -79.281026979236,33.93377447084175,0.0 -79.28093716314113,33.93377094130873,0.0 -79.28084781853221,33.93377251033992,0.0 -79.28083809159278,33.93377956949213,0.0 -79.28075980717536,33.93378051118408,0.0 -79.28073894146404,33.93378812040485,0.0 -79.28069430780845,33.9338079659292,0.0 -79.28063986991492,33.93379549391975,0.0 -79.2805868438607,33.933799180678804,0.0 -79.28054048405477,33.9338180059672,0.0 -79.28050957838066,33.93381643830045,0.0 -79.28044117808311,33.933838165838495,0.0 -79.2804377257842,33.933838401581525,0.0 -79.280426822755,33.933841068084625,0.0 -79.2803420279554,33.93384812858078,0.0 -79.28033716382546,33.933844048945616,0.0 -79.28032696670526,33.93383973488105,0.0</coordinates>
                    </LinearRing>
                </outerBoundaryIs>
            </Polygon>
        </Placemark>
        <Placemark id="802">
            <name>Flood_87</name>
            <styleUrl>#807</styleUrl>
            <Polygon id="801">
                <outerBoundaryIs>
                    <LinearRing id="805">
                        <coordinates>-79.12583135730739,33.820731219720734,0.0 -79.12579339112641,33.82070196160653,0.0 -79.12573644253236,33.82071474799141,0.0 -79.1256940051383,33.820729180629776,0.0 -79.12566921823327,33.820740555168285,0.0 -79.12559540494082,33.82072039538353,0.0 -79.12552072857078,33.82069600011116,0.0 -79.12549727359807,33.820689175408404,0.0 -79.12547185934874,33.82067552730105,0.0 -79.125498606822,33.82062571642653,0.0 -79.12551445257252,33.820606576831096,0.0 -79.12550731483844,33.82059363331915,0.0 -79.12549962704016,33.820578651953596,0.0 -79.12549201783166,33.8205872015145,0.0 -79.12546166087651,33.82059292742862,0.0 -79.1254000852039,33.82061410752146,0.0 -79.12535576581024,33.82063724818838,0.0 -79.125300620636,33.82064320854743,0.0 -79.12522837632092,33.82058939797859,0.0 -79.12520445115128,33.82052334978314,0.0 -79.12518829240193,33.820576298632794,0.0 -79.12516805399854,33.82058845635439,0.0 -79.12510381051604,33.82060477231661,0.0 -79.12508043543697,33.8206066556412,0.0 -79.12507870927746,33.82058712315267,0.0 -79.12507110006347,33.82058178885144,0.0 -79.1250065435442,33.82053637198406,0.0 -79.12499877717089,33.82053558749304,0.0 -79.12494041673985,33.820529783045345,0.0 -79.12490762772033,33.82054092184655,0.0 -79.12481867588649,33.82050075940729,0.0 -79.12481012501027,33.82048059958825,0.0 -79.12479247583165,33.82048569816142,0.0 -79.12471207355681,33.82044679169574,0.0 -79.1246505751344,33.82041572886224,0.0 -79.12463488653044,33.820398315434865,0.0 -79.12461449226807,33.8203910978281,0.0 -79.12456483855196,33.820373684418726,0.0 -79.12458091872554,33.820332188674996,0.0 -79.12451792988742,33.820286770497255,0.0 -79.12447345332626,33.820293595235974,0.0 -79.12441909395274,33.82028865386194,0.0 -79.12437265680418,33.82028535874479,0.0 -79.12437555902873,33.82024660939603,0.0 -79.12432543381091,33.82018150287082,0.0 -79.12430684427635,33.820163069208355,0.0 -79.12429790180687,33.82014165341139,0.0 -79.1243235517901,33.82013647625343,0.0 -79.12435822282094,33.82014636035051,0.0 -79.12441791650475,33.82016150015913,0.0 -79.12438889408732,33.820113494046055,0.0 -79.12436857708616,33.82008156811513,0.0 -79.12437430296887,33.82003975805491,0.0 -79.12442434958278,33.82004540665568,0.0 -79.12445094122498,33.82004705290274,0.0 -79.12448153261481,33.8200485432964,0.0 -79.12452318551769,33.82004454352758,0.0 -79.1245871945793,33.82005607387017,0.0 -79.124622100032,33.82004085674064,0.0 -79.12469426707281,33.8200865093453,0.0 -79.12470807236431,33.820104315675984,0.0 -79.12471921115595,33.820118435273805,0.0 -79.12478753430305,33.820170363841974,0.0 -79.12480973329714,33.820176559901505,0.0 -79.12482149941694,33.82017483505356,0.0 -79.12482534330877,33.820164009279935,0.0 -79.12481694960245,33.820166284189405,0.0 -79.12472768343122,33.82008697950082,0.0 -79.12476149136326,33.82003897335438,0.0 -79.12480086934895,33.82000563556239,0.0 -79.12480534057448,33.81999292909536,0.0 -79.12482087200829,33.81998720187944,0.0 -79.1248801740818,33.81995786513323,0.0 -79.12492064958228,33.819942490839644,0.0 -79.12495775268901,33.81997637734484,0.0 -79.1249987769522,33.819983515050566,0.0 -79.12501846660795,33.81998696734278,0.0 -79.12505188166529,33.82000947932457,0.0 -79.12511204683783,33.820038660156136,0.0 -79.12516130763352,33.820011126837386,0.0 -79.12521598262825,33.819989869477226,0.0 -79.12531144615868,33.82001096959675,0.0 -79.12539867313126,33.820002498574034,0.0 -79.12541334149228,33.820004537729844,0.0 -79.1255098239455,33.82001465622596,0.0 -79.12560936713008,33.820076781905414,0.0 -79.12569816310331,33.82009364654026,0.0 -79.1257077328994,33.820095372686595,0.0 -79.12573385306084,33.82010227596836,0.0 -79.1257678967661,33.82013435774339,0.0 -79.12580594151117,33.82012243444413,0.0 -79.12585292742199,33.82014690831162,0.0 -79.12590344422131,33.82018267812213,0.0 -79.12591607341943,33.82018746366701,0.0 -79.12600118266973,33.82023468525532,0.0 -79.12603177538331,33.82027170974477,0.0 -79.12609797947665,33.82032379416564,0.0 -79.12615908630688,33.82035611297753,0.0 -79.12618622670853,33.82037156581574,0.0 -79.12619563934504,33.820376898806416,0.0 -79.1262405861074,33.82043980901018,0.0 -79.12629180883104,33.820499111056535,0.0 -79.1263092235836,33.82050860226041,0.0 -79.12633142258127,33.820523663508546,0.0 -79.12638860563963,33.820591986591616,0.0 -79.12640217649826,33.82060720369561,0.0 -79.12648579534286,33.82066517247603,0.0 -79.126519996205,33.82068658695006,0.0 -79.12652783985082,33.82069152834886,0.0 -79.12652336863324,33.82072392446635,0.0 -79.1265152892518,33.82073333841289,0.0 -79.12648352047941,33.82077004861343,0.0 -79.12639637205159,33.82068956783526,0.0 -79.12638688082882,33.82067003535077,0.0 -79.12636122951727,33.820628775370366,0.0 -79.12628937680914,33.82061057747751,0.0 -79.12623148787475,33.82063928688867,0.0 -79.12618991355114,33.82064022725715,0.0 -79.1261430835195,33.82068572407376,0.0 -79.1261878744251,33.82073514200811,0.0 -79.12625996157178,33.820769970151105,0.0 -79.12622921303566,33.82080526852181,0.0 -79.12618654120128,33.820798523719255,0.0 -79.12612292504602,33.82079726777481,0.0 -79.12608801827241,33.820784247006685,0.0 -79.12605389599233,33.82076683227936,0.0 -79.12599027982542,33.82073631951023,0.0 -79.12594650917333,33.82072855316201,0.0 -79.1259301932564,33.820764950342166,0.0 -79.12588963919043,33.82081821221706,0.0 -79.12581198201363,33.8208278606321,0.0 -79.12581535442422,33.820821428817474,0.0 -79.12584618284161,33.82076369571812,0.0 -79.12583135730739,33.820731219720734,0.0</coordinates>
                    </LinearRing>
                </outerBoundaryIs>
            </Polygon>
        </Placemark>
        <Placemark id="811">
            <name>Flood_88</name>
            <styleUrl>#816</styleUrl>
            <Polygon id="810">
                <outerBoundaryIs>
                    <LinearRing id="814">
                        <coordinates>-79.10662032492463,33.627403222672356,0.0 -79.10661444187015,33.62740212385284,0.0 -79.10661146105404,33.62740785106173,0.0 -79.10662558065259,33.62743671761849,0.0 -79.1065391382545,33.627413341196736,0.0 -79.10650062337069,33.627414753014016,0.0 -79.10643896786544,33.62742942266633,0.0 -79.10641214181811,33.62742479426527,0.0 -79.10639857097671,33.62741334115077,0.0 -79.1063856274655,33.62738580915337,0.0 -79.10638672627178,33.62734086109918,0.0 -79.1063734697518,33.62732807604508,0.0 -79.10637903848324,33.62732274173959,0.0 -79.10639017725768,33.62732093701079,0.0 -79.10641676887344,33.62732627132673,0.0 -79.10650391717446,33.627299130955095,0.0 -79.10661004919882,33.6272861874695,0.0 -79.1066565648689,33.62723873009255,0.0 -79.10665005448679,33.62726500872422,0.0 -79.10665899694084,33.62727434278266,0.0 -79.10673006507308,33.62726932282068,0.0 -79.10674630240652,33.62726461585325,0.0 -79.10673131973546,33.62724657507179,0.0 -79.10673006506512,33.62723363155091,0.0 -79.1067514795297,33.627188999135235,0.0 -79.10675453891554,33.62713526578031,0.0 -79.10678214945011,33.62710757663537,0.0 -79.10674826294901,33.62708992744059,0.0 -79.1067459094644,33.62708553347927,0.0 -79.10675202825786,33.627076120845395,0.0 -79.10674512496567,33.62706647246553,0.0 -79.10670449233919,33.627065766537186,0.0 -79.10669358930326,33.62705486348716,0.0 -79.10676905007752,33.627034469249196,0.0 -79.1067996427385,33.62700395513571,0.0 -79.10682050845689,33.62699116878318,0.0 -79.10682709742231,33.62697775509149,0.0 -79.10681854656164,33.62697281368392,0.0 -79.10677956150383,33.62696818527875,0.0 -79.10674096803183,33.62693398440666,0.0 -79.10670598271797,33.6269315536378,0.0 -79.10663295400697,33.62694841830175,0.0 -79.10657459363762,33.626948261121484,0.0 -79.10656423935902,33.62695579175075,0.0 -79.1065581991492,33.62697948115455,0.0 -79.10651246796566,33.62699038418588,0.0 -79.10647905164565,33.627009602349396,0.0 -79.10646704979534,33.627007170278524,0.0 -79.10643512387472,33.62698410950624,0.0 -79.10640445394179,33.62700952374428,0.0 -79.10640037431415,33.62703619396973,0.0 -79.1064105727497,33.62706592360128,0.0 -79.1064104155921,33.62708020037105,0.0 -79.10638766787912,33.627122950783075,0.0 -79.10635103500546,33.62716483811458,0.0 -79.10634750543741,33.62717636980396,0.0 -79.1063653117664,33.62720107814306,0.0 -79.10639464845976,33.62721284427523,0.0 -79.10644649844298,33.62722021776384,0.0 -79.10648932739076,33.627214491877744,0.0 -79.10651482149966,33.6272177870291,0.0 -79.10652603885737,33.62722939599416,0.0 -79.10651819391497,33.627242888265975,0.0 -79.10649230821608,33.627250418890185,0.0 -79.10627157450911,33.6272828935252,0.0 -79.10624435425015,33.62727857944606,0.0 -79.10620364303813,33.62725504587808,0.0 -79.10615242170313,33.62726955837263,0.0 -79.10609602191288,33.6272592826422,0.0 -79.10607594068667,33.627261634812335,0.0 -79.1060462896772,33.62727544139913,0.0 -79.10602110989595,33.627299287957904,0.0 -79.10599138030653,33.627314819386946,0.0 -79.10598102603004,33.62733215424527,0.0 -79.10598400685264,33.62735607939377,0.0 -79.10596196504706,33.62736886443635,0.0 -79.10593976608595,33.62740573309718,0.0 -79.10591254713503,33.62739412281721,0.0 -79.10584814656148,33.62744503118291,0.0 -79.10580657227987,33.627445815664835,0.0 -79.10575629129276,33.627471152625944,0.0 -79.10574342768125,33.62748754713665,0.0 -79.10571126602595,33.62749515633939,0.0 -79.10569706785294,33.62749280284831,0.0 -79.10566827990931,33.6274643278794,0.0 -79.105653611558,33.62743718747431,0.0 -79.10564898316271,33.62739788804723,0.0 -79.1056107825748,33.62727959816542,0.0 -79.10560521252494,33.6272441426351,0.0 -79.10560842908184,33.62723629899102,0.0 -79.10563682542467,33.6272260232882,0.0 -79.10565047353094,33.62721096202726,0.0 -79.10571895374221,33.62717911467659,0.0 -79.10574468227661,33.62715456220293,0.0 -79.10575354614484,33.62713918792807,0.0 -79.10576044942674,33.627101536076395,0.0 -79.10577849017156,33.62705392152866,0.0 -79.1057787259097,33.627039567487984,0.0 -79.10575291878467,33.62701705416178,0.0 -79.10570302937982,33.626994149234775,0.0 -79.10568585038546,33.62697336206338,0.0 -79.10564984614587,33.62697265613653,0.0 -79.10563196123854,33.62695720327216,0.0 -79.10558348498007,33.62697351919058,0.0 -79.10558113150594,33.62701752427848,0.0 -79.10555752071411,33.62704325415082,0.0 -79.10554253804887,33.62705164654492,0.0 -79.10552151646719,33.627008425944794,0.0 -79.10552434012257,33.62700332737989,0.0 -79.10553940006007,33.62700230714783,0.0 -79.10554693068093,33.62698897203686,0.0 -79.10551727966269,33.62696159588512,0.0 -79.1055093574412,33.62693712198089,0.0 -79.10552551619811,33.62695022135817,0.0 -79.10553430148934,33.626950850005265,0.0 -79.10559627131143,33.62691358976463,0.0 -79.1056115669906,33.62691429568473,0.0 -79.10564160959866,33.6269293569601,0.0 -79.10570271635059,33.62691484446881,0.0 -79.10569800938949,33.62694331942667,0.0 -79.1057280519965,33.6269534379877,0.0 -79.10575456634653,33.6269815986338,0.0 -79.10576688120844,33.62698222597233,0.0 -79.10577684257737,33.62694010289032,0.0 -79.10583512566504,33.62688950753513,0.0 -79.10583865523242,33.62687507491499,0.0 -79.10583104602394,33.62685499366173,0.0 -79.10583841948598,33.6268510711868,0.0 -79.10585489256256,33.62685522941125,0.0 -79.10586485393848,33.62684510955385,0.0 -79.10581684784161,33.62680949815807,0.0 -79.1058079053871,33.62679804504498,0.0 -79.10585795192974,33.62671419048401,0.0 -79.10585959949414,33.62669105114206,0.0 -79.10585269619851,33.6266652439889,0.0 -79.10584132168115,33.62665912518226,0.0 -79.10582116187666,33.62667120562012,0.0 -79.10576162541881,33.626663596387054,0.0 -79.1057570756116,33.62665975248864,0.0 -79.10580578760971,33.62663637742093,0.0 -79.10585089145462,33.62660264674981,0.0 -79.10587646414054,33.62659135211891,0.0 -79.10593247102548,33.626588056994606,0.0 -79.10594596328507,33.626593861479876,0.0 -79.10595819956981,33.62660970724486,0.0 -79.10596769077479,33.6266089227526,0.0 -79.10597365240753,33.626599980291886,0.0 -79.10597184897898,33.62656389742843,0.0 -79.1059879291484,33.62654483511049,0.0 -79.10603240566861,33.62655283724113,0.0 -79.10606080201357,33.6265529158311,0.0 -79.10608833397268,33.62654805170637,0.0 -79.10614183151961,33.626530009638095,0.0 -79.10615257738937,33.62651698885021,0.0 -79.10619470171464,33.62642913453882,0.0 -79.10622890122363,33.626429447562664,0.0 -79.10626553410144,33.62640709272803,0.0 -79.10626898509291,33.6264129757904,0.0 -79.10625494408451,33.62642764414856,0.0 -79.10625102161443,33.626439410269704,0.0 -79.10626208181124,33.626450784803005,0.0 -79.10628114411263,33.62645486313808,0.0 -79.10630185267,33.626441449451086,0.0 -79.10629949918304,33.6264263109141,0.0 -79.10630342165436,33.62641964335869,0.0 -79.10633111077203,33.62640419050969,0.0 -79.10634938726848,33.626404739269724,0.0 -79.10635432997775,33.626408739019595,0.0 -79.10635299673147,33.62641532930501,0.0 -79.10631306872398,33.62647972864306,0.0 -79.1063064797616,33.62650702751177,0.0 -79.10630828449489,33.62652028404527,0.0 -79.10632059935763,33.62652522545415,0.0 -79.10635268243205,33.626516440163236,0.0 -79.10637393974659,33.626520754240644,0.0 -79.10638029428561,33.6265309513742,0.0 -79.10636876261673,33.62656726997478,0.0 -79.1063760574995,33.626568524646046,0.0 -79.10639645304623,33.626560759588344,0.0 -79.10640821915509,33.62656327023974,0.0 -79.10640963098487,33.6265700150678,0.0 -79.10639127591104,33.62658311574313,0.0 -79.10639096159119,33.62659158672257,0.0 -79.10641708303538,33.62660288268031,0.0 -79.10642869198682,33.626620453287266,0.0 -79.10644116401147,33.626629710076095,0.0 -79.10645779424912,33.626635200240294,0.0 -79.10647395300296,33.62663425989885,0.0 -79.10648909282882,33.62662531744131,0.0 -79.10650023028857,33.62660162803913,0.0 -79.10649003316593,33.6265863310289,0.0 -79.10645371460166,33.62657181981497,0.0 -79.10644281156489,33.626556758546,0.0 -79.10644265440226,33.62654922791325,0.0 -79.10645285282932,33.62654012960266,0.0 -79.10646995192884,33.62653950227399,0.0 -79.10644587096253,33.6265568371275,0.0 -79.10648085627717,33.62656279878088,0.0 -79.10650352541735,33.62655518957528,0.0 -79.10653890230975,33.62649565306006,0.0 -79.10660589212354,33.62651636166746,0.0 -79.10662463879171,33.626511811861924,0.0 -79.1066632322514,33.626491652043754,0.0 -79.10667515552319,33.62650294799673,0.0 -79.10667052713997,33.626518949607316,0.0 -79.10667366511971,33.626526245809245,0.0 -79.1067048065451,33.62654585558704,0.0 -79.10677328545516,33.62655440517001,0.0 -79.10683690154139,33.62653895233297,0.0 -79.10685243296277,33.626543659311,0.0 -79.1068601207489,33.6265510327852,0.0 -79.10686717989456,33.626570721135565,0.0 -79.10685706136327,33.626605000572056,0.0 -79.10685816018255,33.626618805859145,0.0 -79.10689777259361,33.62671105415778,0.0 -79.10691644199868,33.626740626631005,0.0 -79.10691095054267,33.62676619803837,0.0 -79.10691902992127,33.62677341435164,0.0 -79.10693777790122,33.626777964169676,0.0 -79.10694483704425,33.626786593622185,0.0 -79.10692907119856,33.626813891178095,0.0 -79.1069283652865,33.62682338239431,0.0 -79.10693573875518,33.62684911096699,0.0 -79.10695268200972,33.62687585977976,0.0 -79.10694499422681,33.62688299750724,0.0 -79.10693056162299,33.62688448791289,0.0 -79.10690114634866,33.626869976701485,0.0 -79.1068773783902,33.6268684077026,0.0 -79.10685957206793,33.62687405501638,0.0 -79.10685588533904,33.6268854295447,0.0 -79.10687580940984,33.62690731422459,0.0 -79.10690420445529,33.626952732461774,0.0 -79.10692067753185,33.62695649778351,0.0 -79.10697856772839,33.626956733544176,0.0 -79.10702947605054,33.626939318809356,0.0 -79.10705426425031,33.626965361709765,0.0 -79.10708924825953,33.62698983562261,0.0 -79.1071090937522,33.62702191743388,0.0 -79.1070851699444,33.6270285077118,0.0 -79.10703967319532,33.62705227437342,0.0 -79.10704061485217,33.62705894193042,0.0 -79.10706563748171,33.627076278109776,0.0 -79.10702586793171,33.6270827884923,0.0 -79.10702453468497,33.62708718114261,0.0 -79.10703841854006,33.627106399321754,0.0 -79.10704249686873,33.627127579391136,0.0 -79.10701504349105,33.62713777651346,0.0 -79.10700766872046,33.62714671897367,0.0 -79.10704100647483,33.627193234720146,0.0 -79.1070194361525,33.62720845182973,0.0 -79.10699605979447,33.62724296700347,0.0 -79.10696829209617,33.62725779251809,0.0 -79.1069620161418,33.6272668908299,0.0 -79.10702986772668,33.62731152458439,0.0 -79.10703873291035,33.6273224276337,0.0 -79.10703708534199,33.627327604779396,0.0 -79.10701692553758,33.62733968521726,0.0 -79.10697244903099,33.627393652990506,0.0 -79.10694366109698,33.62740949874184,0.0 -79.106915264752,33.62740996890598,0.0 -79.10682333220326,33.62739326003908,0.0 -79.10673351608962,33.627387848431624,0.0 -79.10669562854034,33.62739239823103,0.0 -79.10668417675676,33.627406673687446,0.0 -79.1066656645391,33.627496647061136,0.0 -79.10665593759455,33.627505668101094,0.0 -79.10664801537733,33.62750096112566,0.0 -79.10664487739614,33.62748754743083,0.0 -79.10665554598532,33.627430363083946,0.0 -79.10664636778966,33.62741938145404,0.0 -79.10662032492463,33.627403222672356,0.0</coordinates>
                    </LinearRing>
                </outerBoundaryIs>
            </Polygon>
        </Placemark>
        <Placemark id="820">
            <name>Flood_89</name>
            <styleUrl>#825</styleUrl>
            <Polygon id="819">
                <outerBoundaryIs>
                    <LinearRing id="823">
                        <coordinates>-79.11238240713587,33.632106035019795,0.0 -79.11232671323867,33.632022573333295,0.0 -79.11227752974095,33.63198303946393,0.0 -79.11223713284356,33.63194005329341,0.0 -79.11213209961187,33.63187180870844,0.0 -79.11188626332351,33.631672017687045,0.0 -79.11173118482914,33.63156314041422,0.0 -79.1116894533835,33.631556002672205,0.0 -79.11160332530382,33.63153168590781,0.0 -79.11154982774514,33.631507369152835,0.0 -79.11143671513061,33.63141512214745,0.0 -79.11141561497189,33.631394334976626,0.0 -79.11140910326839,33.631371664497074,0.0 -79.1114234585789,33.63127996628286,0.0 -79.11143145937,33.63125729711729,0.0 -79.11144487304344,33.63123839195975,0.0 -79.11145946280611,33.63122748891806,0.0 -79.11147625020803,33.63124380485666,0.0 -79.11148385810255,33.63124294178287,0.0 -79.11149178162104,33.63121313488744,0.0 -79.11153327731574,33.63118277793845,0.0 -79.11154653383339,33.63118348385727,0.0 -79.11157783111072,33.6312004271345,0.0 -79.11165054681562,33.63120105449039,0.0 -79.1116871011204,33.63120654465959,0.0 -79.11172451718178,33.631177678119734,0.0 -79.1117358916994,33.63118262083726,0.0 -79.11174475557065,33.63118073752694,0.0 -79.11177150303098,33.631156263634615,0.0 -79.1118274326646,33.631222939215,0.0 -79.1118633583267,33.63123141151446,0.0 -79.11189504850658,33.63124953088004,0.0 -79.1119312112165,33.631245373981656,0.0 -79.11194964487711,33.63125651277454,0.0 -79.11198141363249,33.63125564970795,0.0 -79.11200471010993,33.63126004236539,0.0 -79.11202196767651,33.63124388359803,0.0 -79.11202981130425,33.631212193389885,0.0 -79.11204173456919,33.631193994146926,0.0 -79.11204173457396,33.63121258498623,0.0 -79.11204832354412,33.631219018112695,0.0 -79.11207977928946,33.63122576294915,0.0 -79.11213296252718,33.63125266893188,0.0 -79.11220450083827,33.63126435649435,0.0 -79.11222842595993,33.631272122875245,0.0 -79.11228404126986,33.63133024758601,0.0 -79.11230757349217,33.63134868127118,0.0 -79.11238287711954,33.63137692050962,0.0 -79.11251434480815,33.631454813479664,0.0 -79.11253983892367,33.63148030631456,0.0 -79.11257058745826,33.63153694191714,0.0 -79.11264291027277,33.631581888680856,0.0 -79.11271052743301,33.631640327716745,0.0 -79.11273264783476,33.631687706532595,0.0 -79.11271805807522,33.63170998410311,0.0 -79.11272472562669,33.63171947532112,0.0 -79.11272135190785,33.631722141818805,0.0 -79.11273068726949,33.631749753703325,0.0 -79.11271641053185,33.631809840286806,0.0 -79.1127194699354,33.631831724959916,0.0 -79.11273492278046,33.63184960988861,0.0 -79.1127857525354,33.6318791823689,0.0 -79.11277453649556,33.631901695682,0.0 -79.11278300747445,33.6319369154694,0.0 -79.11281101093188,33.63198892267881,0.0 -79.11288333375579,33.63206885479519,0.0 -79.11288937397623,33.63208815155103,0.0 -79.1128869432253,33.63210164251437,0.0 -79.1128762746235,33.63210360440469,0.0 -79.11286066462021,33.632095916606865,0.0 -79.11283203383537,33.632067834543456,0.0 -79.11281563933703,33.632058343322754,0.0 -79.11275280773282,33.632032457574745,0.0 -79.11272943136551,33.63202947674727,0.0 -79.11263490960431,33.63207356038658,0.0 -79.1125249349965,33.63209442609991,0.0 -79.11244288525526,33.63212776385814,0.0 -79.11241676381266,33.63212752810913,0.0 -79.11238240713587,33.632106035019795,0.0</coordinates>
                    </LinearRing>
                </outerBoundaryIs>
            </Polygon>
        </Placemark>
    </Document>
</kml>
