<?xml version="1.0" encoding="UTF-8"?>
<kml xmlns="http://www.opengis.net/kml/2.2" xmlns:gx="http://www.google.com/kml/ext/2.2">
    <Document id="1473">
        <Style id="1480">
            <LineStyle id="1482">
                <colorMode>normal</colorMode>
                <width>1</width>
            </LineStyle>
            <PolyStyle id="1481">
                <color>80ebce87</color>
                <colorMode>normal</colorMode>
                <fill>1</fill>
                <outline>1</outline>
            </PolyStyle>
        </Style>
        <Style id="1489">
            <LineStyle id="1491">
                <colorMode>normal</colorMode>
                <width>1</width>
            </LineStyle>
            <PolyStyle id="1490">
                <color>80ebce87</color>
                <colorMode>normal</colorMode>
                <fill>1</fill>
                <outline>1</outline>
            </PolyStyle>
        </Style>
        <Style id="1498">
            <LineStyle id="1500">
                <colorMode>normal</colorMode>
                <width>1</width>
            </LineStyle>
            <PolyStyle id="1499">
                <color>80ebce87</color>
                <colorMode>normal</colorMode>
                <fill>1</fill>
                <outline>1</outline>
            </PolyStyle>
        </Style>
        <Style id="1507">
            <LineStyle id="1509">
                <colorMode>normal</colorMode>
                <width>1</width>
            </LineStyle>
            <PolyStyle id="1508">
                <color>80ebce87</color>
                <colorMode>normal</colorMode>
                <fill>1</fill>
                <outline>1</outline>
            </PolyStyle>
        </Style>
        <Style id="1516">
            <LineStyle id="1518">
                <colorMode>normal</colorMode>
                <width>1</width>
            </LineStyle>
            <PolyStyle id="1517">
                <color>80ebce87</color>
                <colorMode>normal</colorMode>
                <fill>1</fill>
                <outline>1</outline>
            </PolyStyle>
        </Style>
        <Style id="1525">
            <LineStyle id="1527">
                <colorMode>normal</colorMode>
                <width>1</width>
            </LineStyle>
            <PolyStyle id="1526">
                <color>80ebce87</color>
                <colorMode>normal</colorMode>
                <fill>1</fill>
                <outline>1</outline>
            </PolyStyle>
        </Style>
        <Style id="1534">
            <LineStyle id="1536">
                <colorMode>normal</colorMode>
                <width>1</width>
            </LineStyle>
            <PolyStyle id="1535">
                <color>80ebce87</color>
                <colorMode>normal</colorMode>
                <fill>1</fill>
                <outline>1</outline>
            </PolyStyle>
        </Style>
        <Style id="1543">
            <LineStyle id="1545">
                <colorMode>normal</colorMode>
                <width>1</width>
            </LineStyle>
            <PolyStyle id="1544">
                <color>80ebce87</color>
                <colorMode>normal</colorMode>
                <fill>1</fill>
                <outline>1</outline>
            </PolyStyle>
        </Style>
        <Style id="1552">
            <LineStyle id="1554">
                <colorMode>normal</colorMode>
                <width>1</width>
            </LineStyle>
            <PolyStyle id="1553">
                <color>80ebce87</color>
                <colorMode>normal</colorMode>
                <fill>1</fill>
                <outline>1</outline>
            </PolyStyle>
        </Style>
        <Style id="1561">
            <LineStyle id="1563">
                <colorMode>normal</colorMode>
                <width>1</width>
            </LineStyle>
            <PolyStyle id="1562">
                <color>80ebce87</color>
                <colorMode>normal</colorMode>
                <fill>1</fill>
                <outline>1</outline>
            </PolyStyle>
        </Style>
        <Placemark id="1475">
            <name>Flood_160</name>
            <styleUrl>#1480</styleUrl>
            <Polygon id="1474">
                <outerBoundaryIs>
                    <LinearRing id="1478">
                        <coordinates>-79.01129482610718,33.87152989375207,0.0 -79.01129247262058,33.8715247166101,0.0 -79.01129066788783,33.87151914787521,0.0 -79.0112891774772,33.87151310765755,0.0 -79.01128815854963,33.87150691027867,0.0 -79.01128737405388,33.871500557048456,0.0 -79.01128705973156,33.87149412392792,0.0 -79.01128705973132,33.87148777069739,0.0 -79.01128768706552,33.87148133888609,0.0 -79.01128902031466,33.87147514150635,0.0 -79.01129121663978,33.87146878827492,0.0 -79.01129419746042,33.87146266947493,0.0 -79.01129764976405,33.8714566292551,0.0 -79.01130149235104,33.871450589035184,0.0 -79.01130565056962,33.87144470597618,0.0 -79.01131427870958,33.871433018438275,0.0 -79.01133224221421,33.87140979921352,0.0 -79.01134110609576,33.87139819025604,0.0 -79.01134526300473,33.87139238577737,0.0 -79.01134934264286,33.871386502718295,0.0 -79.0113531079589,33.87138061965936,0.0 -79.01135648037243,33.871374658020066,0.0 -79.01135938261251,33.87136861780062,0.0 -79.01136150035705,33.87136242042047,0.0 -79.01136275633543,33.87135614576994,0.0 -79.01136322650859,33.8713497139587,0.0 -79.01136330508882,33.87134320225749,0.0 -79.011362912186,33.87133661328585,0.0 -79.01136228485129,33.87133002431411,0.0 -79.01136150035553,33.87132335676211,0.0 -79.01135953977125,33.871309943077556,0.0 -79.01135734344537,33.871296530703,0.0 -79.01134369400695,33.871215892745795,0.0 -79.01134173342258,33.87120247906144,0.0 -79.01134094892691,33.87119589008985,0.0 -79.01134032159212,33.87118930111812,0.0 -79.01134008585034,33.87118278941713,0.0 -79.01134016443066,33.87117635760614,0.0 -79.0113409489259,33.87117000437521,0.0 -79.011342439336,33.87116396415633,0.0 -79.01134494998321,33.87115800251739,0.0 -79.0113483223967,33.87115235389035,0.0 -79.01135216629332,33.87114670657275,0.0 -79.01135655894382,33.87114129368667,0.0 -79.01136118733592,33.871135882110195,0.0 -79.01136605015985,33.87113046922383,0.0 -79.01137601285892,33.871119800612135,0.0 -79.01142237143127,33.87107210879993,0.0 -79.01143264714271,33.871061597348955,0.0 -79.01144315859578,33.871051243058915,0.0 -79.0114485714832,33.871046223074636,0.0 -79.01145414022218,33.8710413589417,0.0 -79.01145986612208,33.87103673185969,0.0 -79.0114659063441,33.87103241778983,0.0 -79.01147226088821,33.87102841673191,0.0 -79.01147892844462,33.871024729995746,0.0 -79.01148575185245,33.871021200420465,0.0 -79.0114928123115,33.87101790527675,0.0 -79.011507089081,33.871011552040414,0.0 -79.01155085842646,33.8709931969359,0.0 -79.01156537093753,33.870986999550695,0.0 -79.01157250866737,33.87098378298755,0.0 -79.01157949054597,33.870980489153574,0.0 -79.0115863139538,33.87097703684902,0.0 -79.01159290423944,33.870973428693404,0.0 -79.01159910031278,33.870969586106106,0.0 -79.01160474894186,33.8709653493072,0.0 -79.01160984750733,33.87096072222544,0.0 -79.01161400441632,33.87095554508083,0.0 -79.01161753399083,33.870949975034144,0.0 -79.01162059339202,33.870944170555994,0.0 -79.01162859419735,33.8709269129731,0.0 -79.01163134058612,33.87092173582904,0.0 -79.01163424282612,33.870917186018985,0.0 -79.01163761523979,33.87091365644511,0.0 -79.01164145913651,33.87091146011958,0.0 -79.01164600894825,33.87091098994461,0.0 -79.01165110751393,33.870911853017965,0.0 -79.01165659767257,33.87091365643739,0.0 -79.01166240346296,33.870916245661306,0.0 -79.0116683651048,33.870919303748565,0.0 -79.01167448259798,33.87092275604787,0.0 -79.01168060140078,33.87092644277883,0.0 -79.01168664162302,33.870930286670685,0.0 -79.01169244610385,33.87093428641404,0.0 -79.01169793757231,33.87093828746705,0.0 -79.01170287897716,33.87094236579118,0.0 -79.01170695730596,33.87094636684477,0.0 -79.01170993812687,33.87095028931838,0.0 -79.01171119410564,33.87095421048306,0.0 -79.01171025244926,33.87095813295836,0.0 -79.01170672287469,33.870962289866355,0.0 -79.01170076123324,33.870966839677564,0.0 -79.01169315202029,33.870971625231,0.0 -79.01168452388006,33.870976330894614,0.0 -79.01167558141778,33.87098080212661,0.0 -79.01166695196784,33.87098496034639,0.0 -79.0116484397087,33.87099335274747,0.0 -79.0116953483488,33.87104810497654,0.0 -79.01170476098511,33.87105908790227,0.0 -79.01171393918956,33.87107014809889,0.0 -79.01172272449142,33.87108136414691,0.0 -79.01172688140095,33.871087091351406,0.0 -79.01173072529792,33.87109289582675,0.0 -79.01173441203393,33.87109901462413,0.0 -79.0117377857576,33.87110521069235,0.0 -79.01174100101052,33.87111148665077,0.0 -79.01174711981379,33.871124194419075,0.0 -79.01178783107201,33.87121432357562,0.0 -79.0117934011213,33.87122718719538,0.0 -79.01179598903985,33.871233620314996,0.0 -79.011798421107,33.871240052124975,0.0 -79.01180053885206,33.87124640535465,0.0 -79.01180226500436,33.87125283847462,0.0 -79.01180336251238,33.87125927028522,0.0 -79.01180367683472,33.87126562351555,0.0 -79.01180297092004,33.87127197805608,0.0 -79.01180148050987,33.87127833128722,0.0 -79.01179936145563,33.8712846072479,0.0 -79.01179685211807,33.871290960479456,0.0 -79.0117940284586,33.87129723644033,0.0 -79.011791047638,33.871303511091554,0.0 -79.01178469309424,33.87131614028449,0.0 -79.01176155375407,33.87136030251469,0.0 -79.01173551086406,33.871410819286396,0.0 -79.01172876472737,33.87142321273803,0.0 -79.01172523515285,33.87142933153825,0.0 -79.01172146983683,33.87143529317761,0.0 -79.01171746877917,33.87144101907572,0.0 -79.01171307612869,33.87144651054232,0.0 -79.01170821330476,33.87145160910679,0.0 -79.01170295757825,33.87145608033728,0.0 -79.01169723167828,33.871460158665656,0.0 -79.01169111287568,33.87146400256262,0.0 -79.01168475833157,33.87146768929856,0.0 -79.01167150179911,33.871474671178234,0.0 -79.01165793225435,33.87148141731657,0.0 -79.01160984752899,33.87150455666342,0.0 -79.01158913894457,33.8715142050431,0.0 -79.01158223564663,33.87151726444529,0.0 -79.01157533234849,33.87152016668662,0.0 -79.01156835177956,33.871522913076674,0.0 -79.01156129132055,33.871525265254725,0.0 -79.01155415359055,33.87152722714985,0.0 -79.01154685869953,33.87152871756228,0.0 -79.01153971965986,33.87152950206018,0.0 -79.01153242476884,33.87152973649488,0.0 -79.01152505129728,33.87152957933692,0.0 -79.01151752066464,33.8715292663278,0.0 -79.01149493007644,33.871528011668836,0.0 -79.01148732086332,33.87152777593055,0.0 -79.0114793200573,33.871527854514305,0.0 -79.01147131925136,33.87152809025892,0.0 -79.01145523905885,33.87152910919209,0.0 -79.01144723694323,33.87152981510982,0.0 -79.01143107817025,33.87153138410627,0.0 -79.01140684001082,33.87153412919369,0.0 -79.0113662859173,33.87153883617993,0.0 -79.01135020572484,33.87154056233729,0.0 -79.01134228218969,33.87154126825499,0.0 -79.01133451712526,33.87154181701177,0.0 -79.01132698649266,33.871542131336604,0.0 -79.01131977018213,33.871541974178584,0.0 -79.01131310262544,33.871541424118035,0.0 -79.0113070624032,33.87154009087194,0.0 -79.01130188525688,33.87153773738914,0.0 -79.01129788419897,33.87153428639877,0.0 -79.01129482610718,33.87152989375207,0.0</coordinates>
                    </LinearRing>
                </outerBoundaryIs>
            </Polygon>
        </Placemark>
        <Placemark id="1484">
            <name>Flood_161</name>
            <styleUrl>#1489</styleUrl>
            <Polygon id="1483">
                <outerBoundaryIs>
                    <LinearRing id="1487">
                        <coordinates>-79.04446739745704,33.852184223694735,0.0 -79.04446080848125,33.852184066536765,0.0 -79.04445390518369,33.852184693873994,0.0 -79.04444684603467,33.85218579138436,0.0 -79.04443955114424,33.852187360377776,0.0 -79.04443217767344,33.8521890865321,0.0 -79.04442472562205,33.85219112569866,0.0 -79.04440974293888,33.85219543977329,0.0 -79.04439476025587,33.852200146750256,0.0 -79.04438730820452,33.85220257881915,0.0 -79.04437216967018,33.85220783454978,0.0 -79.04435710840663,33.852213246131704,0.0 -79.0442751371526,33.85224321152149,0.0 -79.04411135049578,33.852302748088995,0.0 -79.04400561125823,33.85234134162509,0.0 -79.04399157023165,33.852346284343014,0.0 -79.04398513841721,33.852348402089625,0.0 -79.04397933393713,33.85235020551404,0.0 -79.0439743912233,33.85235153876493,0.0 -79.04396991999236,33.852351538766946,0.0 -79.04397125455083,33.85234761760084,0.0 -79.0439745483833,33.85234440103876,0.0 -79.04397870660145,33.85234071430313,0.0 -79.04398882515049,33.85233232059473,0.0 -79.04400012109741,33.8523233008613,0.0 -79.04401204437875,33.852314044076394,0.0 -79.04402420209192,33.852304710020746,0.0 -79.0440365169661,33.85229568897715,0.0 -79.04404279292889,33.85229129632603,0.0 -79.0440491461624,33.85228713810665,0.0 -79.04405565786665,33.85228313835776,0.0 -79.04406193251997,33.852279687362575,0.0 -79.04406836433415,33.852276470799076,0.0 -79.04407487603855,33.852273332815976,0.0 -79.04408813256966,33.8522674497521,0.0 -79.04410154626181,33.85226180242963,0.0 -79.04411503722486,33.8522563895388,0.0 -79.04413668746358,33.85224783997375,0.0 -79.04417402630018,33.8522334060341,0.0 -79.04419606813188,33.85222477788852,0.0 -79.04428800077407,33.85218751760718,0.0 -79.0443098081738,33.85217896804214,0.0 -79.04436087371496,33.85215919979205,0.0 -79.04437546349537,33.85215347388852,0.0 -79.04438989742451,33.85214751224358,0.0 -79.04440425146326,33.85214131616701,0.0 -79.04442558868944,33.85213143204381,0.0 -79.04445374801298,33.85211786118387,0.0 -79.04477073128798,33.851964115730496,0.0 -79.04482038499856,33.851939877561904,0.0 -79.04487764661158,33.851911716914636,0.0 -79.044891844799,33.85190489219429,0.0 -79.04490541565198,33.851898696118056,0.0 -79.04491184746632,33.85189602830822,0.0 -79.04491780910726,33.851893831981286,0.0 -79.044923143414,33.851892341569354,0.0 -79.04492753606436,33.85189179281369,0.0 -79.04493075262666,33.851892655887724,0.0 -79.04493239888866,33.851895009372086,0.0 -79.0449328703723,33.851898773376426,0.0 -79.04493239888988,33.85190348034684,0.0 -79.04493122280239,33.85190881465168,0.0 -79.04492949665139,33.851914697710356,0.0 -79.0449273789075,33.85192073793017,0.0 -79.04492494684169,33.8519270125818,0.0 -79.04492212318294,33.85193320996288,0.0 -79.04491890793135,33.85193932876362,0.0 -79.0449152984675,33.85194529040358,0.0 -79.04491098439834,33.85195093772204,0.0 -79.04490604299478,33.851956114867626,0.0 -79.0449005515275,33.85196090042075,0.0 -79.04489466846736,33.85196544892304,0.0 -79.04488847239487,33.85196984157413,0.0 -79.04488211785157,33.85197399979353,0.0 -79.04487560745697,33.85197815670338,0.0 -79.04486227234574,33.851986236091555,0.0 -79.0447887733823,33.85202945800297,0.0 -79.04468248408483,33.85209221110513,0.0 -79.0446085136383,33.85213527585585,0.0 -79.04459549284901,33.85214319808283,0.0 -79.04458929546672,33.85214719914128,0.0 -79.044583490987,33.852151277470284,0.0 -79.04457807810029,33.85215551296007,0.0 -79.04457345101848,33.85215982833964,0.0 -79.04456976428365,33.852164376840925,0.0 -79.0445674107981,33.85216924097313,0.0 -79.04456670488385,33.85217441811681,0.0 -79.04456733221915,33.852179908271985,0.0 -79.04456897979125,33.852185556897446,0.0 -79.04457133196871,33.85219143995427,0.0 -79.04457415693882,33.852197323010884,0.0 -79.04457737219226,33.852203363228185,0.0 -79.04458074591624,33.85220940344559,0.0 -79.04458796222809,33.85222163973126,0.0 -79.04461400512473,33.85226446869518,0.0 -79.0446322816459,33.85229506137387,0.0 -79.04472978436553,33.85245963109952,0.0 -79.04473684482609,33.85247186869499,0.0 -79.04474359096459,33.85248418356131,0.0 -79.04474680621803,33.85249038093966,0.0 -79.04474978703954,33.85249665558884,0.0 -79.04475245484876,33.85250301012839,0.0 -79.04475480702632,33.8525094419388,0.0 -79.04475684750109,33.85251595232989,0.0 -79.04475872950528,33.85252254130156,0.0 -79.04476194606939,33.85253579782541,0.0 -79.04476775055348,33.85256254661495,0.0 -79.04478924364697,33.85266318723333,0.0 -79.04479379345871,33.85266475622132,0.0 -79.0447988920245,33.852667345445504,0.0 -79.04480446076377,33.85267095359631,0.0 -79.04480979507137,33.85267542482262,0.0 -79.04481410914202,33.852680679234844,0.0 -79.04481669837064,33.852686640872086,0.0 -79.04481748286699,33.85269283825145,0.0 -79.04481669837241,33.85269887847065,0.0 -79.04481473647981,33.85270405561489,0.0 -79.04481199140122,33.85270813394251,0.0 -79.04480908916155,33.85271127192397,0.0 -79.04480634408274,33.85271323250788,0.0 -79.04480375485502,33.85271354683096,0.0 -79.04480163711003,33.85271197784188,0.0 -79.04479975510642,33.852708918443085,0.0 -79.04479802895392,33.85270491869792,0.0 -79.04479638138196,33.852700133148026,0.0 -79.04479112565318,33.85268358279361,0.0 -79.04478908648814,33.85267777700744,0.0 -79.04478673300105,33.85267197253104,0.0 -79.04478390934057,33.85266624663537,0.0 -79.04478084993859,33.852661069493415,0.0 -79.04477747752433,33.85265604951253,0.0 -79.0447704170641,33.85264592966079,0.0 -79.04476641731533,33.852640046604684,0.0 -79.04476257341784,33.85263400769729,0.0 -79.04475512136446,33.85262169152148,0.0 -79.04474798363304,33.8526092980749,0.0 -79.04472711788318,33.85257195926406,0.0 -79.04462059411688,33.85237922892104,0.0 -79.04460663166651,33.85235451929838,0.0 -79.04459933677417,33.85234228301283,0.0 -79.04459549287671,33.85233624279573,0.0 -79.04459164897925,33.85233035973957,0.0 -79.0445876479208,33.852324633844454,0.0 -79.04457941268181,33.85231310216407,0.0 -79.04454121075983,33.852261723650365,0.0 -79.0445158737794,33.852227209809456,0.0 -79.04450732421829,33.852215835290274,0.0 -79.04450293156704,33.852210343827,0.0 -79.04449853891582,33.85220501083438,0.0 -79.0444939891036,33.85219998954444,0.0 -79.04448936071088,33.85219528388595,0.0 -79.04448441930599,33.852191125671666,0.0 -79.04447916357903,33.85218767468177,0.0 -79.04447351625949,33.85218532119922,0.0 -79.04446739745704,33.852184223694735,0.0</coordinates>
                    </LinearRing>
                </outerBoundaryIs>
            </Polygon>
        </Placemark>
        <Placemark id="1493">
            <name>Flood_162</name>
            <styleUrl>#1498</styleUrl>
            <Polygon id="1492">
                <outerBoundaryIs>
                    <LinearRing id="1496">
                        <coordinates>-79.02974123741816,33.85510186418379,0.0 -79.02973331388338,33.85510178560688,0.0 -79.02972539165833,33.855101864190836,0.0 -79.02970962447901,33.8551023356807,0.0 -79.02965440202584,33.855105080783,0.0 -79.02963863484652,33.85510562954359,0.0 -79.02963079120204,33.85510578670802,0.0 -79.02962294755737,33.85510578671151,0.0 -79.02961510260313,33.85510555097354,0.0 -79.02960733753905,33.85510500222343,0.0 -79.0295994140042,33.85510406057106,0.0 -79.02959157035947,33.855102884486904,0.0 -79.02958364813429,33.85510147266131,0.0 -79.02956803811564,33.85509817752735,0.0 -79.02955242809696,33.85509456938113,0.0 -79.02953681807827,33.85509080407403,0.0 -79.02950567662144,33.85508303902796,0.0 -79.02949038092476,33.85507880354759,0.0 -79.02948277171176,33.855076528646485,0.0 -79.02947539824041,33.85507409658433,0.0 -79.02946810334943,33.855071351509864,0.0 -79.02946112147083,33.855068213532924,0.0 -79.02945453249468,33.85506476254371,0.0 -79.02944817926016,33.855060918651986,0.0 -79.02944206045733,33.85505683901877,0.0 -79.02943602023504,33.85505252495377,0.0 -79.02942998001282,33.85504813230834,0.0 -79.02941821389017,33.85503903269542,0.0 -79.0293887985838,33.85501573621921,0.0 -79.02937161957323,33.85500169520694,0.0 -79.02936620799503,33.85499706681985,0.0 -79.0293611081195,33.854992517013045,0.0 -79.02935640245622,33.8549880457865,0.0 -79.02935240139813,33.85498365314016,0.0 -79.02934926472571,33.85497949623481,0.0 -79.02934738141244,33.85497549518023,0.0 -79.02934722425104,33.85497180844669,0.0 -79.02934918614417,33.854968514614534,0.0 -79.02935271571846,33.854965533793866,0.0 -79.02935757854208,33.85496271013355,0.0 -79.02936322717079,33.85496012090464,0.0 -79.02936965898526,33.85495768883625,0.0 -79.02937640512191,33.85495525807752,0.0 -79.02938354285128,33.854952983169845,0.0 -79.02939083774179,33.854950786842444,0.0 -79.02939821121271,33.854948667785905,0.0 -79.02940574184473,33.85494670719987,0.0 -79.02941319389633,33.85494498104562,0.0 -79.02942072452842,33.85494349063272,0.0 -79.02942817658,33.85494239312217,0.0 -79.02943555005112,33.85494184436533,0.0 -79.02944284494178,33.85494200152303,0.0 -79.02945006125204,33.85494302044652,0.0 -79.02945727756237,33.85494482517474,0.0 -79.02946433802143,33.85494710007609,0.0 -79.02947139717084,33.854949845150664,0.0 -79.02947837904938,33.85495274738613,0.0 -79.02948536092805,33.85495596394349,0.0 -79.02949924479516,33.8549625529095,0.0 -79.0295270125293,33.85497612243421,0.0 -79.02954105355742,33.85498263412942,0.0 -79.02954819259703,33.85498561494525,0.0 -79.02955548748793,33.85498843860015,0.0 -79.02956286095936,33.85499094793321,0.0 -79.02957031301123,33.85499298840262,0.0 -79.02957784364365,33.85499479182101,0.0 -79.02958553012735,33.85499636080756,0.0 -79.02960106156537,33.854999027297936,0.0 -79.02961659300342,33.85500122361499,0.0 -79.02963181142901,33.85500302833966,0.0 -79.02963926217112,33.8550035770899,0.0 -79.02964632262999,33.85500396998917,0.0 -79.02965306876676,33.85500389140566,0.0 -79.02965926483989,33.855003342649326,0.0 -79.02966467772725,33.855002086669124,0.0 -79.02966899179704,33.854999811762625,0.0 -79.02967212977845,33.85499628218856,0.0 -79.02967424752269,33.854991732378544,0.0 -79.02967550219101,33.854986398073876,0.0 -79.02967620941504,33.85498051501588,0.0 -79.02967644384633,33.85497431894592,0.0 -79.0296764438457,33.85496780855425,0.0 -79.02967597367102,33.85495439486851,0.0 -79.02967518917424,33.854940666861204,0.0 -79.02967409035548,33.85492694016366,0.0 -79.02967259994374,33.854913447898035,0.0 -79.02967158101595,33.8549068589263,0.0 -79.02967016918544,33.8549004271156,0.0 -79.02966836445243,33.85489430831735,0.0 -79.02966593238513,33.854888582421715,0.0 -79.02966263855154,33.854883248119066,0.0 -79.02965816732004,33.85487854115104,0.0 -79.02965283301275,33.85487430566623,0.0 -79.0296467927905,33.85487046177437,0.0 -79.02964036097543,33.85486677504371,0.0 -79.02963361483835,33.85486340263491,0.0 -79.0296265556888,33.85486002891672,0.0 -79.02961220033872,33.85485359711179,0.0 -79.02959039424628,33.85484410591065,0.0 -79.02957603889617,33.85483751694486,0.0 -79.02956905701748,33.854834143226554,0.0 -79.02956215502905,33.85483061365696,0.0 -79.02955556605295,33.854826926926286,0.0 -79.0295492900892,33.8548230044541,0.0 -79.0295434856084,33.85481869038899,0.0 -79.02953815130098,33.85481398473106,0.0 -79.02953313131559,33.85480904202189,0.0 -79.02952348293772,33.8547990806422,0.0 -79.02951838437181,33.85479445225497,0.0 -79.02951281432291,33.85479021677018,0.0 -79.02950724558383,33.854786921631764,0.0 -79.02950120536167,33.854784019395886,0.0 -79.02949485212719,33.854781431481946,0.0 -79.02948834042206,33.85477899941932,0.0 -79.02946818190127,33.85477201755379,0.0 -79.02946151434472,33.85476942964008,0.0 -79.02945437530514,33.854766370243745,0.0 -79.02944731615558,33.85476307510589,0.0 -79.02944041285754,33.85475954553632,0.0 -79.02943351086901,33.8547559373863,0.0 -79.02941986143372,33.854748406764216,0.0 -79.02940636915943,33.85474064171031,0.0 -79.02939303404617,33.85473271818577,0.0 -79.02938001325488,33.854724717390354,0.0 -79.02937373729111,33.85472056048641,0.0 -79.02936777564929,33.85471632500189,0.0 -79.02936228549066,33.85471200962694,0.0 -79.02935726550524,33.85470746112982,0.0 -79.02935318586674,33.85470267558109,0.0 -79.02935012646498,33.85469749843939,0.0 -79.02934848020278,33.85469200697507,0.0 -79.02934800871921,33.85468612391761,0.0 -79.02934824446012,33.854680085008596,0.0 -79.02934910753547,33.854673809048215,0.0 -79.02935028362312,33.85466737723645,0.0 -79.02935185261335,33.85466086684399,0.0 -79.02935357876464,33.85465435514176,0.0 -79.02935734407947,33.85464133435665,0.0 -79.02936126524574,33.85462870516401,0.0 -79.02936518772178,33.854617409220054,0.0 -79.02936714830504,33.85461254639792,0.0 -79.02936911019803,33.854608623922054,0.0 -79.02937201243788,33.85460548594071,0.0 -79.02937483609759,33.854606036002735,0.0 -79.02937671810112,33.854608859660026,0.0 -79.02937852283384,33.85461285940503,0.0 -79.02938040483758,33.854617880696104,0.0 -79.02938220957043,33.854623449431074,0.0 -79.02938981878556,33.85464878638981,0.0 -79.02939193653094,33.85465529678063,0.0 -79.02939429001783,33.85466172859081,0.0 -79.02939679935604,33.85466792596926,0.0 -79.02939978017731,33.85467388760604,0.0 -79.02940323248157,33.85467945634036,0.0 -79.02940746797158,33.85468447763029,0.0 -79.02941264511786,33.854688870276114,0.0 -79.02941860675962,33.85469263558749,0.0 -79.02942503857464,33.85469600799643,0.0 -79.02943194187274,33.854699145973306,0.0 -79.02943907960272,33.854702048208786,0.0 -79.02946104285603,33.85471020616115,0.0 -79.02946833905655,33.85471295123561,0.0 -79.02947539820603,33.85471585347104,0.0 -79.02948214434312,33.854718991448074,0.0 -79.02948834041663,33.854722442437456,0.0 -79.02949391046552,33.85472667923187,0.0 -79.0294986174386,33.8547321693851,0.0 -79.02950269576768,33.85473891551651,0.0 -79.02950630392353,33.85474644614298,0.0 -79.02950928474489,33.85475428978201,0.0 -79.02951187397352,33.854762056150406,0.0 -79.02951391313842,33.854769351036204,0.0 -79.02951775703659,33.854785195476154,0.0 -79.02952316861428,33.85478472530061,0.0 -79.0295665476748,33.854781431449986,0.0 -79.0295867847753,33.85477954812907,0.0 -79.0295958058178,33.85477860646916,0.0 -79.0296036507719,33.85477758753896,0.0 -79.02961125867485,33.85477641013821,0.0 -79.02961871072638,33.85477499830577,0.0 -79.02962600561686,33.8547732734613,0.0 -79.02963314465603,33.854771154404766,0.0 -79.02964028238537,33.85476833074344,0.0 -79.02964726426343,33.854765115489556,0.0 -79.0296540876707,33.85476150733342,0.0 -79.02966083380711,33.85475774201628,0.0 -79.02966750136295,33.85475381953832,0.0 -79.02968067931373,33.85474566157028,0.0 -79.02969385857409,33.85473734644118,0.0 -79.02975308208143,33.85469906724961,0.0 -79.02976594571005,33.854691145023075,0.0 -79.02977206451204,33.85468745828674,0.0 -79.02977802615312,33.85468416314317,0.0 -79.02978359489164,33.85468141806296,0.0 -79.02978861618607,33.85467945616842,0.0 -79.02979300883646,33.85467851582019,0.0 -79.02979630266958,33.854678985991846,0.0 -79.02979849899502,33.85468126089537,0.0 -79.02979967639338,33.85468486904803,0.0 -79.02980014656721,33.85468957601775,0.0 -79.02980022514822,33.85469506617316,0.0 -79.02979991082684,33.85470102781141,0.0 -79.02979849899883,33.85472040313599,0.0 -79.0297981859871,33.854727070688845,0.0 -79.02979818598774,33.85473365966104,0.0 -79.02979873474224,33.854740091472124,0.0 -79.02979991083122,33.85474628885109,0.0 -79.02980210715694,33.85475217190779,0.0 -79.02980540230023,33.85475758479086,0.0 -79.02980971637074,33.85476260477115,0.0 -79.02981465777555,33.8547673903194,0.0 -79.029820149244,33.8547718615456,0.0 -79.02982603230527,33.854776175610674,0.0 -79.02983207252751,33.85478017535378,0.0 -79.0298382686011,33.854783940665065,0.0 -79.02984462314527,33.85478731438366,0.0 -79.02985097637978,33.854790216619406,0.0 -79.02985725234338,33.854792491521195,0.0 -79.0298634484168,33.854793824767036,0.0 -79.02986956721917,33.85479398192525,0.0 -79.02987552886034,33.85479264736428,0.0 -79.02988133334048,33.85479013802544,0.0 -79.02988705923995,33.85478668572094,0.0 -79.02989262928804,33.854782607392224,0.0 -79.02989819802646,33.85477805758075,0.0 -79.02990376807439,33.854773273337436,0.0 -79.02990925823221,33.854768252043066,0.0 -79.02993090847042,33.85474793636317,0.0 -79.02993616419637,33.85474322939079,0.0 -79.02994141992237,33.85473891532084,0.0 -79.02994651848748,33.85473515000443,0.0 -79.02995145989155,33.85473224776356,0.0 -79.02995624544438,33.85473036575925,0.0 -79.02996063809493,33.85472997285497,0.0 -79.02996463915264,33.85473130610178,0.0 -79.0299683258886,33.854734131068,0.0 -79.02997185546344,33.85473797365129,0.0 -79.02997514929696,33.85474252345889,0.0 -79.02997844444023,33.85474770060059,0.0 -79.02998158242247,33.85475319206416,0.0 -79.02998471909498,33.854758996540006,0.0 -79.03000025053579,33.854789432057906,0.0 -79.03000668366141,33.854801668343526,0.0 -79.03000997749506,33.85480778714112,0.0 -79.03001335121878,33.85481367019731,0.0 -79.03002041036916,33.85482543630952,0.0 -79.03004213919321,33.85486026447287,0.0 -79.030049119763,33.85487187342417,0.0 -79.03005578732036,33.85488363953656,0.0 -79.03005876814166,33.85488960117343,0.0 -79.03006167038241,33.85489587713215,0.0 -79.03006433819137,33.85490215178126,0.0 -79.03006935817751,33.85491478096986,0.0 -79.03007861496411,33.854940510830225,0.0 -79.0300898310254,33.854972828352224,0.0 -79.0300938320843,33.85498553612179,0.0 -79.03009555823678,33.854991732190896,0.0 -79.03009697006718,33.854997850989406,0.0 -79.03009791041453,33.85500381262711,0.0 -79.03009814615659,33.85500945994331,0.0 -79.03009751882276,33.85501471566718,0.0 -79.03009571409082,33.85501950121844,0.0 -79.03009249883873,33.855023579546106,0.0 -79.03008818476904,33.85502710912078,0.0 -79.03008300762342,33.85503032568348,0.0 -79.0300772018337,33.85503330650526,0.0 -79.03007092718022,33.8550361301662,0.0 -79.03006433820474,33.85503887655648,0.0 -79.03005759206822,33.85504146447617,0.0 -79.03002252813621,33.855054485275325,0.0 -79.03000809551645,33.85506029106862,0.0 -79.02998660243817,33.85506938938672,0.0 -79.02993718446724,33.85509135395908,0.0 -79.02992306485986,33.85509731560348,0.0 -79.0299159258208,33.855100139264806,0.0 -79.02990878809138,33.85510280576518,0.0 -79.02990157178144,33.855105159253405,0.0 -79.02989427689099,33.85510719841977,0.0 -79.02988690341994,33.85510868883261,0.0 -79.0298791370463,33.855109630492045,0.0 -79.02987129340175,33.85511010066867,0.0 -79.0298632925962,33.85511010067223,0.0 -79.02985529048087,33.85510994351485,0.0 -79.02984721109472,33.8551094733453,0.0 -79.02983097374188,33.85510837584531,0.0 -79.02979018390842,33.85510484498118,0.0 -79.02977386928477,33.855103511739756,0.0 -79.02975755335144,33.85510241423988,0.0 -79.02974939538484,33.85510202134118,0.0 -79.02974123741816,33.85510186418379,0.0</coordinates>
                    </LinearRing>
                </outerBoundaryIs>
            </Polygon>
        </Placemark>
        <Placemark id="1502">
            <name>Flood_163</name>
            <styleUrl>#1507</styleUrl>
            <Polygon id="1501">
                <outerBoundaryIs>
                    <LinearRing id="1505">
                        <coordinates>-79.03546253049669,33.82683716114705,0.0 -79.03546229606516,33.82684006338588,0.0 -79.03545978541872,33.826844927518124,0.0 -79.03545625584489,33.82684932016812,0.0 -79.03545186319528,33.82685371281857,0.0 -79.03544684190169,33.82685810546934,0.0 -79.03544143032485,33.82686249812031,0.0 -79.03543570442604,33.82686696935196,0.0 -79.03542385972587,33.82687583323494,0.0 -79.03536918472612,33.8269162301724,0.0 -79.03535710559412,33.82692478104321,0.0 -79.03535051661947,33.82692917369479,0.0 -79.03534808455309,33.826930585525176,0.0 -79.0353450251524,33.826932311677695,0.0 -79.03534204433213,33.82693387935961,0.0 -79.0353389849314,33.82693536977075,0.0 -79.03533608269156,33.82693662575005,0.0 -79.03532980803858,33.826937959001896,0.0 -79.03532368923676,33.826938586339125,0.0 -79.0353174918544,33.826937880427785,0.0 -79.03531121720097,33.82693599842873,0.0 -79.03530501981838,33.82693325204453,0.0 -79.0352987451648,33.826929879636,0.0 -79.035292547782,33.826926114325005,0.0 -79.03528635039925,33.82692203469219,0.0 -79.03527387836269,33.82691332798266,0.0 -79.03521183119234,33.826868224135204,0.0 -79.03515598140488,33.826828140266755,0.0 -79.03467191760934,33.8264831552326,0.0 -79.03462838269758,33.826452249556716,0.0 -79.03458429772233,33.82642173547374,0.0 -79.03382561076722,33.82589986332829,0.0 -79.03378136994083,33.825869350555216,0.0 -79.03373752070719,33.82583852215042,0.0 -79.03279190774948,33.82517310323356,0.0 -79.03274766561356,33.825142431989995,0.0 -79.03208169711574,33.8246842558189,0.0 -79.03145016259765,33.82424192407303,0.0 -79.03141886529095,33.824220116699735,0.0 -79.0313998815499,33.82420717450655,0.0 -79.03136795690898,33.82418583730673,0.0 -79.03070135977278,33.8237446043976,0.0 -79.03063060457417,33.823697931565604,0.0 -79.03059820845041,33.82367675283677,0.0 -79.0305589876095,33.82365141589511,0.0 -79.0305461239805,33.82364294361764,0.0 -79.03053984801723,33.82363870813373,0.0 -79.03053388637606,33.82363439406914,0.0 -79.03052816047638,33.82363008000442,0.0 -79.0305229833305,33.82362560877855,0.0 -79.03051859067999,33.82362113755219,0.0 -79.03051513837607,33.823616430583954,0.0 -79.03051309921157,33.82361156776375,0.0 -79.03051286346958,33.823606469201216,0.0 -79.03051404086693,33.82360105631606,0.0 -79.03051631577186,33.82359556484979,0.0 -79.0305193751722,33.8235899961124,0.0 -79.0305229833264,33.823584270213786,0.0 -79.03052690580255,33.8235785430053,0.0 -79.03053114129101,33.82357273852582,0.0 -79.03054000517054,33.82356112956676,0.0 -79.03058354007297,33.823506062971575,0.0 -79.03059193377923,33.823495395668665,0.0 -79.03059507045053,33.82349123745056,0.0 -79.03061389702971,33.8234963373131,0.0 -79.03063225212583,33.82350151444668,0.0 -79.0306420576632,33.823504493950956,0.0 -79.03065178461993,33.82350755334541,0.0 -79.03066096151325,33.82351069132068,0.0 -79.03066904089886,33.823513907876944,0.0 -79.03067594419639,33.8235170458533,0.0 -79.03068276891331,33.823520654002934,0.0 -79.03068927930833,33.82352457516492,0.0 -79.03069571112283,33.823528733377934,0.0 -79.03070206566646,33.82353296886181,0.0 -79.03071453770279,33.82354175415166,0.0 -79.03072685257801,33.82355061802194,0.0 -79.03079454837601,33.823600193094116,0.0 -79.03087463632008,33.823658553456205,0.0 -79.03117051812642,33.823874032732085,0.0 -79.03121381860576,33.8239053313098,0.0 -79.03125758925832,33.82393615840462,0.0 -79.03225395473994,33.82463554238753,0.0 -79.03227913455414,33.82465303569636,0.0 -79.03231090334381,33.82467468590854,0.0 -79.03319454770764,33.82527523405962,0.0 -79.03323902427543,33.82530559098121,0.0 -79.03327636311377,33.825331632529064,0.0 -79.03363648841726,33.82558382325934,0.0 -79.03367398310704,33.82560978622674,0.0 -79.0338618507678,33.82573898027785,0.0 -79.03390570000138,33.825769415780215,0.0 -79.03450797507345,33.826191194824695,0.0 -79.03462704942848,33.826274813549574,0.0 -79.03465222924291,33.82629222827817,0.0 -79.0346650928722,33.826300621975186,0.0 -79.03467160326736,33.8263047002982,0.0 -79.0346782708234,33.8263086227698,0.0 -79.03468478252809,33.826312230919676,0.0 -79.03469811764026,33.826318898465516,0.0 -79.03471168718416,33.82632533026993,0.0 -79.03472541519876,33.82633160622294,0.0 -79.03477373435246,33.82635317653662,0.0 -79.03480142481331,33.826365178379326,0.0 -79.03484982385706,33.826385729766265,0.0 -79.03486355056194,33.82639169139746,0.0 -79.03487029669847,33.82639482937398,0.0 -79.03487704283499,33.826397967350594,0.0 -79.03488363181052,33.826401261178525,0.0 -79.0348900636251,33.82640471347712,0.0 -79.03489626100789,33.826408400207576,0.0 -79.03490253566146,33.82641263569158,0.0 -79.03490849730277,33.8264170283367,0.0 -79.03491438036369,33.826421656723326,0.0 -79.03492010757314,33.826426440961264,0.0 -79.03493140221192,33.82643616790781,0.0 -79.03494803246731,33.826451150575174,0.0 -79.03502514090349,33.82652135563588,0.0 -79.03504726131736,33.826541279702376,0.0 -79.03506420458517,33.826556026628296,0.0 -79.0350757349654,33.82656551783326,0.0 -79.0350816966067,33.826570146219844,0.0 -79.03508773682856,33.826574617445345,0.0 -79.03510005170409,33.826583402735466,0.0 -79.03512491850617,33.82660073888375,0.0 -79.03533804456315,33.826747032032685,0.0 -79.03537600942646,33.82677283914881,0.0 -79.03542723213131,33.82680727570325,0.0 -79.0354394684263,33.82681590383239,0.0 -79.03544519563582,33.826820217897215,0.0 -79.0354505286331,33.82682453196223,0.0 -79.03545523560575,33.82682884602757,0.0 -79.035459158083,33.826833161402924,0.0 -79.03546253049669,33.82683716114705,0.0</coordinates>
                    </LinearRing>
                </outerBoundaryIs>
            </Polygon>
        </Placemark>
        <Placemark id="1511">
            <name>Flood_164</name>
            <styleUrl>#1516</styleUrl>
            <Polygon id="1510">
                <outerBoundaryIs>
                    <LinearRing id="1514">
                        <coordinates>-79.04090143678175,33.81679734165166,0.0 -79.04089108248986,33.81678808487788,0.0 -79.04092826285375,33.81678816343838,0.0 -79.04093069491971,33.81678424096189,0.0 -79.04092332144829,33.816775142657164,0.0 -79.04084550710036,33.81672007612522,0.0 -79.0407579671074,33.81667732577742,0.0 -79.0407056455858,33.81663928107119,0.0 -79.04068909522198,33.81663394677585,0.0 -79.04065481578866,33.816636693181735,0.0 -79.04063747961844,33.816620534427166,0.0 -79.04059308163203,33.81659268684224,0.0 -79.04049550036169,33.8165560552992,0.0 -79.04047063486851,33.81652946368168,0.0 -79.04043157118912,33.81650663738595,0.0 -79.0404231774821,33.81650765631721,0.0 -79.04041650992838,33.816521305748374,0.0 -79.04039635010005,33.81651424530411,0.0 -79.04038536847295,33.81649730205099,0.0 -79.04036654320309,33.8164880465915,0.0 -79.04034363829129,33.81644474614575,0.0 -79.04032190947301,33.81644294273568,0.0 -79.04029029784873,33.8164541601148,0.0 -79.04027429492754,33.81643603946709,0.0 -79.04022691611985,33.81640121131882,0.0 -79.04017671365574,33.81638748464752,0.0 -79.04015663371518,33.81636191195417,0.0 -79.04013113958135,33.81636042155833,0.0 -79.04007975971516,33.81631453321113,0.0 -79.04005261931846,33.81630300285151,0.0 -79.04001998745541,33.816298531640456,0.0 -79.04000477033932,33.816281822821395,0.0 -79.0399679029865,33.81627154713523,0.0 -79.03995519520865,33.81626150717741,0.0 -79.03994797889686,33.81624197469591,0.0 -79.03995119414387,33.81620244085986,0.0 -79.03995958785082,33.81620095044584,0.0 -79.03998688540906,33.81621671760227,0.0 -79.04002077193933,33.816210598784764,0.0 -79.04007599569746,33.81622393386062,0.0 -79.04012376609813,33.816261349925476,0.0 -79.04014047362479,33.81628096098238,0.0 -79.04018863692347,33.816283000119554,0.0 -79.04021279781138,33.81630927741562,0.0 -79.04023570271853,33.81631618069753,0.0 -79.04031539906823,33.81636379518035,0.0 -79.04039368358414,33.81637916940705,0.0 -79.04040764603063,33.81638858203011,0.0 -79.04041007809909,33.816403250383196,0.0 -79.04041674565522,33.81640889900567,0.0 -79.04042859035552,33.816404897943755,0.0 -79.04043863032273,33.816394779393136,0.0 -79.04045612365182,33.81639493654465,0.0 -79.04046098647747,33.81641289872772,0.0 -79.04048138073847,33.81642631240292,0.0 -79.04050342387957,33.816434078760786,0.0 -79.04051707200496,33.816450080356375,0.0 -79.04062947879513,33.81647737784132,0.0 -79.040694899684,33.81649934104736,0.0 -79.04073396336392,33.81652593265726,0.0 -79.04079655928373,33.81654703409905,0.0 -79.0408148371113,33.81657127223507,0.0 -79.04085335203403,33.81657127221432,0.0 -79.04090645673779,33.81658288245013,0.0 -79.04091461470271,33.81657731240009,0.0 -79.04090896607181,33.81655809423952,0.0 -79.04091155529966,33.81656083931591,0.0 -79.04096795514701,33.81658170501959,0.0 -79.04102592267847,33.81662657312694,0.0 -79.0411552727371,33.81667465775641,0.0 -79.04127811240227,33.816730194437355,0.0 -79.04133725733018,33.81676392507226,0.0 -79.04159517426304,33.8168676249601,0.0 -79.04172852538068,33.8169279458764,0.0 -79.04173691777862,33.81693171118614,0.0 -79.04185097214233,33.816974382939314,0.0 -79.04214520636766,33.81710859691422,0.0 -79.04239174877166,33.817198490220086,0.0 -79.04241230019463,33.817217786953165,0.0 -79.04242571388927,33.817241712079735,0.0 -79.0424299493809,33.81726038148748,0.0 -79.04242751862743,33.81728508980791,0.0 -79.04240704448287,33.817321329822065,0.0 -79.04229981486112,33.81746668279453,0.0 -79.042264752245,33.817490999539835,0.0 -79.04221690196067,33.81750472626398,0.0 -79.04217540621617,33.81749445058004,0.0 -79.04209014112895,33.81745609287906,0.0 -79.04185591359094,33.81730627017102,0.0 -79.04173966290055,33.817251988154474,0.0 -79.0416726743276,33.817209394956464,0.0 -79.04157368122489,33.817154564177024,0.0 -79.04114389955151,33.81691665024855,0.0 -79.04090143678175,33.81679734165166,0.0</coordinates>
                    </LinearRing>
                </outerBoundaryIs>
            </Polygon>
        </Placemark>
        <Placemark id="1520">
            <name>Flood_165</name>
            <styleUrl>#1525</styleUrl>
            <Polygon id="1519">
                <outerBoundaryIs>
                    <LinearRing id="1523">
                        <coordinates>-79.04630771234253,33.82550223708258,0.0 -79.04638607541008,33.82530730901635,0.0 -79.04641549071285,33.82531531111247,0.0 -79.04648953974502,33.825350295099724,0.0 -79.04651205305925,33.82535139390505,0.0 -79.04652656425263,33.82531028976284,0.0 -79.0465246036682,33.82530448528637,0.0 -79.04646090892984,33.82528950264299,0.0 -79.04644561323228,33.8252710689821,0.0 -79.04643800401722,33.82525114490761,0.0 -79.04644263240752,33.825242046596316,0.0 -79.04648185324407,33.8252289459019,0.0 -79.04650883647477,33.82520055083479,0.0 -79.04652013242271,33.82520447199447,0.0 -79.04653142837276,33.82522384731337,0.0 -79.04656154958921,33.82522431878055,0.0 -79.04658570916627,33.82523435873287,0.0 -79.04663654028212,33.82528824788384,0.0 -79.04666893640679,33.82530652437494,0.0 -79.04669992069859,33.825303543539675,0.0 -79.0467539670559,33.82528565990617,0.0 -79.04677106748083,33.8252713831355,0.0 -79.04677412688217,33.825274363953035,0.0 -79.04680699317504,33.8252585967645,0.0 -79.0468266828274,33.82524345822661,0.0 -79.04683076115342,33.825229965957654,0.0 -79.04682315193968,33.825218434277524,0.0 -79.04676220358876,33.82519584373334,0.0 -79.04666564124531,33.82517913626562,0.0 -79.04690229951868,33.8251325418527,0.0 -79.04698764449108,33.82512030420978,0.0 -79.04708467699977,33.825083358241464,0.0 -79.04716021643345,33.82506021756325,0.0 -79.04722955848293,33.82502468343836,0.0 -79.04738934406649,33.82495628298444,0.0 -79.04741805344997,33.82493549581566,0.0 -79.04743609552784,33.82489949154409,0.0 -79.04744825323435,33.82485383759372,0.0 -79.04744464504581,33.82463247640867,0.0 -79.04744817461432,33.824594824574056,0.0 -79.04746958909057,33.824461707935335,0.0 -79.04748080643347,33.82430537470164,0.0 -79.04747829708917,33.82425972206859,0.0 -79.0474518612727,33.82409075835341,0.0 -79.04744260579707,33.82407656017682,0.0 -79.04743217292496,33.82407161878025,0.0 -79.04739193184973,33.824071697381726,0.0 -79.0473505146903,33.82409821045423,0.0 -79.0473360820757,33.82412684125632,0.0 -79.0473284728804,33.824236267185626,0.0 -79.04729458638533,33.82447951436095,0.0 -79.04726548414138,33.82477657344041,0.0 -79.04723355951397,33.82485164138103,0.0 -79.04720226090635,33.82489533344874,0.0 -79.04716523639527,33.82491094347852,0.0 -79.04703918017753,33.824944830062364,0.0 -79.04689218094859,33.82499495531135,0.0 -79.04679538417977,33.82502115409052,0.0 -79.04667544676231,33.82504562804039,0.0 -79.04652868196106,33.82506923892857,0.0 -79.04649212893106,33.825071828174,0.0 -79.04648177463949,33.82506751280189,0.0 -79.04653738996944,33.82492859297791,0.0 -79.04664250181801,33.82458854903227,0.0 -79.04660469267276,33.82367682306724,0.0 -79.04659033729958,33.82350966276805,0.0 -79.04659716201469,33.82349930847782,0.0 -79.04660877097305,33.82349162199203,0.0 -79.04664093266281,33.82349091606061,0.0 -79.04666069958672,33.823481267678176,0.0 -79.04665560101861,33.82345969603192,0.0 -79.04666603388372,33.82341882763315,0.0 -79.04667270143732,33.82340455217747,0.0 -79.04669207676673,33.82338439234753,0.0 -79.04668007490257,33.8233704299138,0.0 -79.04668117240912,33.82336282070431,0.0 -79.04674078880525,33.82328626102996,0.0 -79.04675012284766,33.823209153938,0.0 -79.04675647607858,33.823191347599966,0.0 -79.04677545981461,33.82316710944381,0.0 -79.04682707410429,33.823144125938725,0.0 -79.04685021474988,33.823126476752854,0.0 -79.04685939164085,33.82311314164216,0.0 -79.04686276536013,33.82308913792584,0.0 -79.0468741385779,33.823087568929765,0.0 -79.04688276802743,33.823092354475996,0.0 -79.04691422249897,33.82313377160639,0.0 -79.04694489377553,33.823113533190075,0.0 -79.04696599395022,33.82311408193263,0.0 -79.04699203684548,33.82316216661895,0.0 -79.04701007892999,33.82317040315255,0.0 -79.04702561036606,33.82316891273482,0.0 -79.04703415992313,33.82315847986315,0.0 -79.04703368974876,33.82315173372998,0.0 -79.04701737381153,33.823114396227666,0.0 -79.04704176912828,33.82311369030037,0.0 -79.04707589140334,33.82312475048382,0.0 -79.04711181710618,33.82317063884075,0.0 -79.04713856591793,33.82322845047928,0.0 -79.04715252836476,33.82323692144678,0.0 -79.04719724067225,33.823248295946534,0.0 -79.04721990983953,33.82326272854786,0.0 -79.04729662537788,33.82335113284736,0.0 -79.04731129374389,33.823387530004155,0.0 -79.04730909742642,33.82343788960987,0.0 -79.04729960621158,33.82343859552946,0.0 -79.04728085952112,33.82342565202598,0.0 -79.04724563842362,33.82338094106607,0.0 -79.04723693170344,33.82337741018809,0.0 -79.04722602866099,33.823392157128865,0.0 -79.04722014560411,33.82341506202954,0.0 -79.04723191173406,33.823476560409695,0.0 -79.0472875270981,33.82356598364699,0.0 -79.04729584092506,33.823631090182296,0.0 -79.04731309852053,33.82368027369007,0.0 -79.04737396960905,33.82375989139159,0.0 -79.04745311722398,33.823913166488225,0.0 -79.04751587032924,33.82408173728205,0.0 -79.04753485276306,33.82410675991351,0.0 -79.04757022970998,33.824138137077234,0.0 -79.04759376326291,33.82415202092449,0.0 -79.04761384320149,33.82415759095977,0.0 -79.0476839710597,33.82414794255113,0.0 -79.04790705847776,33.82409052237501,0.0 -79.04808480756799,33.82405067412555,0.0 -79.04825730092988,33.823995451609555,0.0 -79.04835543094367,33.82394501337331,0.0 -79.04837480627589,33.82394313136098,0.0 -79.0484261848287,33.82394979757741,0.0 -79.04844814938821,33.823945876400515,0.0 -79.0485586728588,33.82390775302726,0.0 -79.0486366443555,33.82386461099823,0.0 -79.04875360095168,33.82383841089851,0.0 -79.04886333992668,33.82379942575974,0.0 -79.0489522144675,33.82375314443513,0.0 -79.04900484898917,33.823699569552,0.0 -79.04902657780549,33.82368482260552,0.0 -79.0490423436731,33.82368168461719,0.0 -79.04908242758812,33.82368717606151,0.0 -79.0491036063425,33.82368317499477,0.0 -79.04914549498605,33.823665054316265,0.0 -79.04919969850187,33.82363328551309,0.0 -79.0492696678878,33.823615008968595,0.0 -79.04928857173489,33.82359979185042,0.0 -79.04930410316572,33.82356559100184,0.0 -79.04931806691954,33.82355641279544,0.0 -79.04933650059539,33.823554295042086,0.0 -79.04937125020427,33.82356127689889,0.0 -79.04939313487401,33.82356072682418,0.0 -79.04944529922832,33.82354503951546,0.0 -79.04951001288705,33.82351876086237,0.0 -79.04952562290191,33.823506681726094,0.0 -79.04953127021898,33.823495777373026,0.0 -79.04954186024162,33.82343475046371,0.0 -79.04955331334733,33.82341968920066,0.0 -79.0495691577944,33.82340980507881,0.0 -79.04958108107573,33.82340855040435,0.0 -79.04959998492615,33.82341419902066,0.0 -79.04968642872448,33.8234595372882,0.0 -79.0496933307142,33.823474049788096,0.0 -79.04969835070742,33.82352919363131,0.0 -79.04976588934868,33.82358708382946,0.0 -79.04984590003346,33.82369588237952,0.0 -79.049880571069,33.82374781095636,0.0 -79.04990771147628,33.823819113552446,0.0 -79.04991218272338,33.82392202908397,0.0 -79.04989092539643,33.823975918272765,0.0 -79.04984487985234,33.82404392707552,0.0 -79.04983970271185,33.82407483277767,0.0 -79.04984825358598,33.82411146567928,0.0 -79.0498963383143,33.82416864997314,0.0 -79.04988606260997,33.824206771984564,0.0 -79.04991932182124,33.82429188116635,0.0 -79.04992175258089,33.824309060165824,0.0 -79.0499160266838,33.82432262970656,0.0 -79.04990002507493,33.824327885438734,0.0 -79.04986402079828,33.82432694511114,0.0 -79.0497992272408,33.824300353513294,0.0 -79.0497687131207,33.824292274147034,0.0 -79.04958923917913,33.824272663174014,0.0 -79.04954068428644,33.824271015628696,0.0 -79.04918612776405,33.82436138073592,0.0 -79.04906893542808,33.82439942553205,0.0 -79.04902210668784,33.82440279796836,0.0 -79.04901669380052,33.8244002873251,0.0 -79.04901983178118,33.824395267341025,0.0 -79.04907152464965,33.824361616536905,0.0 -79.04908501691952,33.8243464766924,0.0 -79.04906885683549,33.82432294446899,0.0 -79.04906634749261,33.82428795913485,0.0 -79.0490603072692,33.824274468180704,0.0 -79.049016772366,33.824304981000395,0.0 -79.0488699289882,33.824350242118555,0.0 -79.04884325876637,33.824354243188125,0.0 -79.04878709466036,33.824344594845165,0.0 -79.04875163914359,33.824382482437805,0.0 -79.04868692548597,33.8244173879168,0.0 -79.04859616763085,33.82445496252598,0.0 -79.04845081597713,33.824527834201554,0.0 -79.04832664307438,33.82457450713689,0.0 -79.04825902586734,33.8246116102512,0.0 -79.0480742176332,33.82468212846204,0.0 -79.04794808414863,33.824741509170295,0.0 -79.0478805455189,33.824757903710925,0.0 -79.04785371813513,33.8247563347348,0.0 -79.04783755936319,33.8247479423489,0.0 -79.04783512729475,33.82473601907332,0.0 -79.0478395199435,33.824727233774404,0.0 -79.04786901382526,33.82472589920072,0.0 -79.04793890594021,33.82470393592274,0.0 -79.0480527245518,33.82465498808817,0.0 -79.04812528316447,33.8246290237531,0.0 -79.04827863693328,33.824558818570864,0.0 -79.04840414308161,33.824488927724786,0.0 -79.04848250617279,33.824455039855856,0.0 -79.04852408049229,33.824423036627635,0.0 -79.04856447741528,33.82439942579432,0.0 -79.04856745823454,33.82439267965932,0.0 -79.04856385007899,33.82438765967885,0.0 -79.04852863029636,33.82437793274438,0.0 -79.04845920965624,33.82434631985697,0.0 -79.0484506587868,33.82433949645715,0.0 -79.04845552291937,33.82433580972084,0.0 -79.04854369024007,33.82431643435006,0.0 -79.04876034715316,33.824255877506864,0.0 -79.04894711597123,33.82418975063342,0.0 -79.04901834133643,33.82417641549039,0.0 -79.0490708187014,33.824149275077914,0.0 -79.04918016608437,33.824114838439066,0.0 -79.04929829875924,33.8240283173495,0.0 -79.0494203539166,33.82397874217618,0.0 -79.0494651448014,33.82396870218795,0.0 -79.04952138748678,33.823972153150955,0.0 -79.04963685368409,33.82401670821822,0.0 -79.04973357188008,33.824042436723865,0.0 -79.04975341738576,33.82404078914295,0.0 -79.04976047653203,33.82402706244065,0.0 -79.04973568961798,33.82400047082194,0.0 -79.04972886489784,33.82397835042274,0.0 -79.04974988778596,33.82388108219446,0.0 -79.04974965203587,33.82382711443645,0.0 -79.04971176442693,33.82370325591706,0.0 -79.04968642875824,33.823671251413856,0.0 -79.04963010748729,33.8236357959346,0.0 -79.04960273134884,33.82362873680312,0.0 -79.0495588821202,33.82363681620813,0.0 -79.0495236623412,33.82365030718382,0.0 -79.04946537918809,33.823684195042595,0.0 -79.04918463726618,33.823806171725685,0.0 -79.0489316630711,33.823907518401214,0.0 -79.04876897525189,33.82399733334529,0.0 -79.0486861409302,33.824031142636215,0.0 -79.04862268193781,33.82404322179736,0.0 -79.0485089405901,33.824046124095396,0.0 -79.04833032973328,33.82408259993349,0.0 -79.04821007799525,33.82411358427586,0.0 -79.04808967040476,33.82413719515082,0.0 -79.04790156702457,33.82418277061233,0.0 -79.04778429741496,33.824203635098165,0.0 -79.04766679206641,33.82424065965792,0.0 -79.04762717832854,33.82426050517649,0.0 -79.04761321588502,33.82427407603105,0.0 -79.0476074114077,33.82429031337887,0.0 -79.04760662692479,33.824371735844025,0.0 -79.04762702250596,33.824448216896265,0.0 -79.04763682673585,33.824465160150424,0.0 -79.04765282965732,33.82447927974309,0.0 -79.04767926414048,33.824493399330336,0.0 -79.04770852228171,33.82449826213661,0.0 -79.04788940935491,33.82446743492374,0.0 -79.04791356893028,33.82446657183568,0.0 -79.04791772714925,33.82447159181596,0.0 -79.04787803483241,33.824501007126266,0.0 -79.04781379134533,33.82451912781633,0.0 -79.04773613416918,33.82455426904334,0.0 -79.04774107557374,33.8245581129355,0.0 -79.04779480892222,33.824564074546046,0.0 -79.04781638058152,33.824574821723864,0.0 -79.0478203803298,33.82457999886518,0.0 -79.04781449727152,33.82459247089866,0.0 -79.04784571731052,33.82462776923015,0.0 -79.0478446970753,33.82463843783928,0.0 -79.04778468908347,33.824696483954824,0.0 -79.04775943199978,33.82469334598775,0.0 -79.04772829054832,33.82470417177357,0.0 -79.04763808276041,33.824767316467614,0.0 -79.04756097434405,33.82484199283894,0.0 -79.04754183475828,33.8248768210233,0.0 -79.04753595170298,33.82490890412304,0.0 -79.04754622741449,33.82491698349981,0.0 -79.04756881799884,33.82491368834704,0.0 -79.04762710115169,33.824874781815865,0.0 -79.04767926419541,33.82485195547162,0.0 -79.04778766991818,33.82478951537297,0.0 -79.04780610490373,33.8247874762002,0.0 -79.04782226367504,33.8247917902597,0.0 -79.04783057749346,33.82479916372294,0.0 -79.04782744082266,33.82480583127757,0.0 -79.04769683480117,33.82488701937843,0.0 -79.047547875,33.82501048640155,0.0 -79.04737734222653,33.825102027500044,0.0 -79.0472341083156,33.82516689837243,0.0 -79.0471158970592,33.82525334088074,0.0 -79.04709997272319,33.825272403201566,0.0 -79.04708624602496,33.82531099538765,0.0 -79.0470469466139,33.82536402281956,0.0 -79.04703855291432,33.82541555851613,0.0 -79.04704365148207,33.82543430650415,0.0 -79.04705557476395,33.825436031339365,0.0 -79.04707934274532,33.8254267758572,0.0 -79.04718374872138,33.82536864982883,0.0 -79.04720704522006,33.82536190499297,0.0 -79.0472069666405,33.82536786532175,0.0 -79.04717457052081,33.82538245642234,0.0 -79.04714193866066,33.82540449826133,0.0 -79.0470739298644,33.82546670259734,0.0 -79.0468944559408,33.82556977538423,0.0 -79.04684621406577,33.82560530818847,0.0 -79.04666242607401,33.825719284017914,0.0 -79.04660688931295,33.82578140976684,0.0 -79.04656209843232,33.825820317600524,0.0 -79.04656327583166,33.82583075046709,0.0 -79.04658131660598,33.825834201450064,0.0 -79.04658672949431,33.82584322248536,0.0 -79.04658814132678,33.825862047746185,0.0 -79.0465815523535,33.82587452108958,0.0 -79.04656311867835,33.82588220757883,0.0 -79.04653566395858,33.825870284316224,0.0 -79.04649879660587,33.82586965700123,0.0 -79.04651205313321,33.82584620334315,0.0 -79.04650852355742,33.82583584905822,0.0 -79.04642153101449,33.82585357685741,0.0 -79.0463918799703,33.82584636056616,0.0 -79.0463699952969,33.825823455679824,0.0 -79.04635187462512,33.82577105561191,0.0 -79.04635422810753,33.82574658172302,0.0 -79.04637180001481,33.82572736355015,0.0 -79.046407332806,33.82571104891632,0.0 -79.04643973023684,33.82570563601482,0.0 -79.04657857151203,33.82573395372548,0.0 -79.0466027310873,33.82573191324009,0.0 -79.04662500865777,33.82571842227137,0.0 -79.04668140849587,33.82566429732354,0.0 -79.04675216237345,33.82561652559936,0.0 -79.04676228223022,33.825601700078536,0.0 -79.04675733951514,33.82559189585773,0.0 -79.04671607950911,33.82556961831551,0.0 -79.04670305871379,33.825529064250915,0.0 -79.04668423213093,33.82550184398549,0.0 -79.04666117006114,33.82548905895484,0.0 -79.0466331665888,33.8254857638282,0.0 -79.04660077046803,33.82549282430028,0.0 -79.04654107679583,33.82553784963139,0.0 -79.04651142575413,33.825547183696926,0.0 -79.04649079575185,33.82554012456197,0.0 -79.0464705573389,33.82551008063913,0.0 -79.04645667347205,33.82549941334736,0.0 -79.0464192560555,33.82549580521338,0.0 -79.0463611313685,33.825503727464564,0.0 -79.04634183461486,33.82549360761956,0.0 -79.04632410687078,33.82561032975051,0.0 -79.04630771234253,33.82550223708258,0.0</coordinates>
                    </LinearRing>
                </outerBoundaryIs>
            </Polygon>
        </Placemark>
        <Placemark id="1529">
            <name>Flood_166</name>
            <styleUrl>#1534</styleUrl>
            <Polygon id="1528">
                <outerBoundaryIs>
                    <LinearRing id="1532">
                        <coordinates>-79.03577919947662,33.8270965682086,0.0 -79.03578688726937,33.82709782287284,0.0 -79.03580688993684,33.82710127385486,0.0 -79.03581653831311,33.82710307858137,0.0 -79.03582061664129,33.827103941654755,0.0 -79.03582540219406,33.82710535348136,0.0 -79.03583434465584,33.82710943180305,0.0 -79.0358434429689,33.82711374586614,0.0 -79.0358515223548,33.827118138510286,0.0 -79.03585842565258,33.827122375303695,0.0 -79.03586477888666,33.82712661078768,0.0 -79.03587748666475,33.82713523891658,0.0 -79.0360656686498,33.82726835413436,0.0 -79.03747102868192,33.82826165900153,0.0 -79.03750868053342,33.82828825192276,0.0 -79.03752766296527,33.82830135127736,0.0 -79.03755927590431,33.828322687168274,0.0 -79.03804780962479,33.8286507302556,0.0 -79.03807949983474,33.82867206614654,0.0 -79.03809848357633,33.828685086920565,0.0 -79.0401904434508,33.83013233379714,0.0 -79.04052248670936,33.830360833848076,0.0 -79.04054750936353,33.83037832584797,0.0 -79.04057888656162,33.83040060339525,0.0 -79.04127944884637,33.830899883701825,0.0 -79.0413046286615,33.83091761144318,0.0 -79.04132353251318,33.830930632217544,0.0 -79.04136181169947,33.830956126321986,0.0 -79.04164977129174,33.83114571989606,0.0 -79.04177770953149,33.83123004453399,0.0 -79.04180343810053,33.83124675203858,0.0 -79.04181646020082,33.83125490999453,0.0 -79.04182297059614,33.83125891104688,0.0 -79.04182963815236,33.83126283220893,0.0 -79.04184305184558,33.83127044141109,0.0 -79.0418770169613,33.83128903222348,0.0 -79.04202072237842,33.831366532139796,0.0 -79.04192055190383,33.83153769224088,0.0 -79.0418827428904,33.831509138736486,0.0 -79.04185889632426,33.831490940821254,0.0 -79.04181724472366,33.83145854473374,0.0 -79.0414316252654,33.831156230143755,0.0 -79.04140777869927,33.831137717906735,0.0 -79.04139569825522,33.831128619604115,0.0 -79.04138958076243,33.83112422695894,0.0 -79.04138330479883,33.831119755733326,0.0 -79.04137059702055,33.831111049023654,0.0 -79.04134494703203,33.83109394861662,0.0 -79.04097729108588,33.83085195631594,0.0 -79.04085484431447,33.83077100408732,0.0 -79.04084190079465,33.83076253311918,0.0 -79.04082895858457,33.83075421800236,0.0 -79.04081570205247,33.83074613862709,0.0 -79.04080895591572,33.83074229473583,0.0 -79.04080205261786,33.830738686586116,0.0 -79.0407951493202,33.830735235597274,0.0 -79.04078801159065,33.83073201904031,0.0 -79.04077350039015,33.830725978828845,0.0 -79.04075883071897,33.830720174358845,0.0 -79.04062555948721,33.83066973624198,0.0 -79.04047761858429,33.83061341507456,0.0 -79.0404553410104,33.8306051785429,0.0 -79.04044035832695,33.83060000140717,0.0 -79.04043282769499,33.83059749207465,0.0 -79.04042514121171,33.83059521717398,0.0 -79.04040968704541,33.83059082453354,0.0 -79.0403785469002,33.83058274516722,0.0 -79.0401436920307,33.83052367896613,0.0 -79.04003246132379,33.830496145735395,0.0 -79.04001700846717,33.83049206610716,0.0 -79.04000963499625,33.83048986978677,0.0 -79.04000273300838,33.830487594885696,0.0 -79.03999637846461,33.8304850855525,0.0 -79.03999096557723,33.83048241774836,0.0 -79.03998680866819,33.83047951551172,0.0 -79.03998437660118,33.83047606452062,0.0 -79.03998406358838,33.830472456367595,0.0 -79.03998531825661,33.830468455311355,0.0 -79.03998782890311,33.83046429840332,0.0 -79.03999135847694,33.83046006291416,0.0 -79.03999575112657,33.83045606185633,0.0 -79.04000077111054,33.83045229653966,0.0 -79.04000649700957,33.8304490027054,0.0 -79.04001308729407,33.83044625631466,0.0 -79.04002022502291,33.8304439814065,0.0 -79.04002767707387,33.830442177980956,0.0 -79.04003544213711,33.830440687567446,0.0 -79.04004336567101,33.83043935431481,0.0 -79.04005952444173,33.8304370794021,0.0 -79.04007591895402,33.83043519608189,0.0 -79.04009223488573,33.83043339265178,0.0 -79.04016581242989,33.830425626244946,0.0 -79.04018181403957,33.83042374423456,0.0 -79.04018958041257,33.83042264541376,0.0 -79.04019718962452,33.83042146932223,0.0 -79.04020440593396,33.83042013606986,0.0 -79.04021107348954,33.83041848849604,0.0 -79.0402171137107,33.83041652660055,0.0 -79.04022205511434,33.83041393868131,0.0 -79.04022566326876,33.83041072211893,0.0 -79.04022762516146,33.83040672237203,0.0 -79.04022825249523,33.83040201540156,0.0 -79.04022785959204,33.83039683825848,0.0 -79.04022684066415,33.83039126952306,0.0 -79.04022535025315,33.83038546373671,0.0 -79.04022346693964,33.830379502099404,0.0 -79.04022134919423,33.83037330603046,0.0 -79.04021664222051,33.830360912583075,0.0 -79.04020903431557,33.83034208601605,0.0 -79.04020354284638,33.830329771149586,0.0 -79.04020048344466,33.830323809512784,0.0 -79.04019726819166,33.83031792645659,0.0 -79.04019365872647,33.83031227783235,0.0 -79.04018965897804,33.8303068662594,0.0 -79.04018487342469,33.83030161053801,0.0 -79.04017954042719,33.830296667829174,0.0 -79.04017389179803,33.83029188359107,0.0 -79.0401679301566,33.83028733378498,0.0 -79.04016181266375,33.83028278397879,0.0 -79.04015561528075,33.830278391333685,0.0 -79.04014298608298,33.83026968462403,0.0 -79.04008541014277,33.830231091165196,0.0 -79.04002814721498,33.830192340545175,0.0 -79.03945693500545,33.82980421224995,0.0 -79.03941261559746,33.829773933907845,0.0 -79.0393748065847,33.829747578037534,0.0 -79.03806742072128,33.82883145877657,0.0 -79.03804867272112,33.82881812368042,0.0 -79.03801768842585,33.82879561170144,0.0 -79.03758469016799,33.82848035493766,0.0 -79.03755982467517,33.828462391455155,0.0 -79.03754107667515,33.82844913493956,0.0 -79.03750938646515,33.82842764188773,0.0 -79.03729939838816,33.82828668303958,0.0 -79.037261354944,33.82826103177457,0.0 -79.03723005632689,33.82823938287131,0.0 -79.03711207947822,33.82815678307149,0.0 -79.03708070359029,33.82813521143902,0.0 -79.03665453005446,33.82784889978889,0.0 -79.03622388528801,33.827556862244826,0.0 -79.0361791729782,33.82752705538616,0.0 -79.03586587772638,33.82731863525948,0.0 -79.03580163423103,33.82727612063946,0.0 -79.03573652765995,33.827233683290615,0.0 -79.03572397704292,33.827225212322475,0.0 -79.03571793682106,33.8272208969482,0.0 -79.03571236808227,33.82721658288329,0.0 -79.03570719093628,33.82721219023775,0.0 -79.0357028755564,33.827207719011255,0.0 -79.0356995817232,33.827203091933086,0.0 -79.03569777699039,33.827198384963914,0.0 -79.03569777698984,33.82719352083287,0.0 -79.03569926739945,33.827188500849815,0.0 -79.03570177804596,33.82718340228581,0.0 -79.0357051504586,33.82717822514084,0.0 -79.03570907293475,33.827172969415074,0.0 -79.0357133870038,33.827167635108765,0.0 -79.0357179368143,33.82716230211195,0.0 -79.03573268375352,33.82714614203096,0.0 -79.0357756699028,33.82710041079541,0.0 -79.03577919947662,33.8270965682086,0.0</coordinates>
                    </LinearRing>
                </outerBoundaryIs>
            </Polygon>
        </Placemark>
        <Placemark id="1538">
            <name>Flood_167</name>
            <styleUrl>#1543</styleUrl>
            <Polygon id="1537">
                <outerBoundaryIs>
                    <LinearRing id="1541">
                        <coordinates>-79.04210269643706,33.85205275570864,0.0 -79.04209618604186,33.852052677131155,0.0 -79.04208920416376,33.852053540209816,0.0 -79.04208206643432,33.85205487346168,0.0 -79.04207461438297,33.852056678196554,0.0 -79.04206708375108,33.852058717363136,0.0 -79.04205947453875,33.852060992271234,0.0 -79.04204417884321,33.85206585640918,0.0 -79.04199005390056,33.852083427026805,0.0 -79.04189733545198,33.85211315667991,0.0 -79.04184289749688,33.8521308058781,0.0 -79.04182752322086,33.85213559012594,0.0 -79.041819992589,33.852137865033995,0.0 -79.0418126976987,33.85213990551018,0.0 -79.04180571582063,33.85214163035461,0.0 -79.04179912684513,33.85214296360632,0.0 -79.04179324378441,33.8521435922527,0.0 -79.04178814521903,33.852143356513615,0.0 -79.04178430132225,33.85214194468621,0.0 -79.04178202641617,33.85213919829981,0.0 -79.04178085032729,33.85213527713494,0.0 -79.04178045742411,33.85213057016495,0.0 -79.04178077174547,33.852125235860555,0.0 -79.04178139907911,33.85211950996328,0.0 -79.04178241931515,33.8521134697441,0.0 -79.04178359540268,33.852107195093005,0.0 -79.04178908686718,33.85208130937404,0.0 -79.04179167478347,33.852068287279344,0.0 -79.04179269501955,33.852061855467454,0.0 -79.04179347951415,33.85205558081653,0.0 -79.04179387110614,33.85204938343668,0.0 -79.0417937139443,33.85204334321786,0.0 -79.04179285217722,33.852037538740916,0.0 -79.04179104744418,33.852032047276516,0.0 -79.04178798804232,33.85202671428335,0.0 -79.04178383113268,33.85202169299316,0.0 -79.04177904557905,33.852016908754436,0.0 -79.04177371127147,33.85201220178669,0.0 -79.04175653357025,33.851998396515505,0.0 -79.04175080636023,33.85199368954802,0.0 -79.04174539478178,33.85198866956811,0.0 -79.04174029621576,33.85198357100754,0.0 -79.04173551066206,33.85197823670553,0.0 -79.04173096084973,33.85197274655208,0.0 -79.04172656819854,33.85196709792798,0.0 -79.04171817579862,33.851955646137895,0.0 -79.04171017368189,33.85194395729663,0.0 -79.04170248719682,33.8519321126039,0.0 -79.04169887904091,33.85192615096726,0.0 -79.04169542673641,33.85192011205972,0.0 -79.04169221148305,33.851913993261945,0.0 -79.04168938651301,33.851908188785806,0.0 -79.0416813857051,33.85189061819632,0.0 -79.04167848346422,33.851884890991116,0.0 -79.04167534548185,33.85187940083694,0.0 -79.04167165874559,33.85187414511487,0.0 -79.04166734467493,33.85186904655403,0.0 -79.04166256043091,33.85186418242508,0.0 -79.04165730470393,33.85185963261826,0.0 -79.04165181323538,33.85185516139197,0.0 -79.04164616591558,33.85185076874626,0.0 -79.04163439979287,33.851842297777,0.0 -79.04159823834878,33.85181719657188,0.0 -79.04158639364557,33.8518086457125,0.0 -79.04158058916468,33.8518043316473,0.0 -79.04157486195463,33.85179986042113,0.0 -79.04156937179583,33.85179523203397,0.0 -79.04156380174675,33.85179029063457,0.0 -79.04155846743915,33.85178527065463,0.0 -79.0415532130217,33.85178009351379,0.0 -79.0415430145799,33.85176950349032,0.0 -79.04153297460874,33.85175883619614,0.0 -79.04144857127149,33.85166705948425,0.0 -79.04138252303447,33.851596148498075,0.0 -79.04137264022424,33.851585244152744,0.0 -79.04136793325111,33.85157991116033,0.0 -79.04136354059996,33.85157465543858,0.0 -79.04135961812214,33.85156963414829,0.0 -79.04135624570802,33.85156484990885,0.0 -79.04135381364061,33.851560457261705,0.0 -79.04135271613237,33.851556613367535,0.0 -79.04135326488591,33.851553475387234,0.0 -79.04135553979134,33.85155151480346,0.0 -79.04135922652672,33.85155018155316,0.0 -79.04136393218943,33.85154939705596,0.0 -79.04136942365724,33.85154908273156,0.0 -79.04137538529861,33.85154916130938,0.0 -79.04138158268151,33.85154971006024,0.0 -79.04138793591582,33.85155065171327,0.0 -79.04139428915018,33.851552142119985,0.0 -79.04140032937227,33.851554259860855,0.0 -79.04140668391648,33.85155747641853,0.0 -79.04141272282912,33.851561398890986,0.0 -79.04141845003916,33.85156579153664,0.0 -79.04142394019806,33.85157065435555,0.0 -79.04142927450566,33.851575674335486,0.0 -79.04143453023273,33.85158093005684,0.0 -79.04143970737931,33.85158618577824,0.0 -79.04144982593098,33.85159708881385,0.0 -79.04151924658224,33.85167302109048,0.0 -79.04162326099804,33.85178574079842,0.0 -79.04163792936197,33.85180189955572,0.0 -79.0416427149157,33.851807312438346,0.0 -79.04164742057927,33.8518130383331,0.0 -79.04165244056502,33.85181962730321,0.0 -79.04165738328004,33.851827079348844,0.0 -79.04166201036342,33.85183500287747,0.0 -79.04166577568056,33.85184261077497,0.0 -79.04166899224367,33.851850062821384,0.0 -79.04167158147241,33.851856887534076,0.0 -79.0416736992179,33.85186284917139,0.0 -79.04167628713722,33.85187171304726,0.0 -79.04170115394116,33.85188496956128,0.0 -79.04171880312474,33.85189399059128,0.0 -79.0417279014386,33.85189838323541,0.0 -79.04173653088873,33.851902384287044,0.0 -79.04174445311422,33.85190567811484,0.0 -79.04175159084421,33.85190834591859,0.0 -79.04175880846422,33.851910619510164,0.0 -79.04176492595711,33.85191218849751,0.0 -79.0417773207231,33.85191501345975,0.0 -79.04178351679646,33.85191658113735,0.0 -79.04178955701852,33.85191830728559,0.0 -79.0417966161679,33.85192081792843,0.0 -79.04180344088557,33.85192379874453,0.0 -79.04181018702272,33.85192701399233,0.0 -79.04181685457934,33.85193046629127,0.0 -79.04182352213617,33.85193415302198,0.0 -79.04183662150797,33.85194168233482,0.0 -79.04188219689745,33.85196905844017,0.0 -79.04189513910832,33.85197658906271,0.0 -79.04190172808447,33.851980119942205,0.0 -79.04190823978973,33.85198341377064,0.0 -79.04191482876591,33.85198639458676,0.0 -79.04192133916145,33.85198882664941,0.0 -79.04192800671782,33.85199055148765,0.0 -79.04193467427419,33.85199141456013,0.0 -79.04194149899132,33.85199110154485,0.0 -79.04194840097927,33.85198976698338,0.0 -79.04195538285721,33.85198772781703,0.0 -79.04196236342545,33.85198529705807,0.0 -79.0419693453033,33.85198239350653,0.0 -79.04197632718117,33.851979335413375,0.0 -79.0419833863298,33.85197604026917,0.0 -79.04199742735616,33.85196921554895,0.0 -79.04205390578383,33.85194144780466,0.0 -79.04208245801,33.851927719783575,0.0 -79.04211814927497,33.85191077650846,0.0 -79.04213219030139,33.851903951788245,0.0 -79.04213901501811,33.851900500792816,0.0 -79.0421456039933,33.851896971217066,0.0 -79.04215180006597,33.85189336306097,0.0 -79.04215744869447,33.85188967632477,0.0 -79.0421624686788,33.8518857538473,0.0 -79.04216639115529,33.85188151835821,0.0 -79.04216890049224,33.85187704712829,0.0 -79.04216968498704,33.851872105726095,0.0 -79.04216913623237,33.85186685000258,0.0 -79.04216756724081,33.85186135853807,0.0 -79.04216521375379,33.85185563264224,0.0 -79.04216239009335,33.851849828166095,0.0 -79.04215917353037,33.851843866529265,0.0 -79.04215211437968,33.85183186467528,0.0 -79.04213728885365,33.85180754795561,0.0 -79.04213375927831,33.8518015077384,0.0 -79.04213046413476,33.85179538894065,0.0 -79.04212740473278,33.85178934872324,0.0 -79.04212489539438,33.85178338708607,0.0 -79.04212285491968,33.851777426758254,0.0 -79.04212175741107,33.851771465120464,0.0 -79.04212175741029,33.851765737913844,0.0 -79.04212309065895,33.85176024775773,0.0 -79.04212544414439,33.85175491345248,0.0 -79.04212866070594,33.85174973630771,0.0 -79.04213242602128,33.85174455916268,0.0 -79.04213658292953,33.85173953917843,0.0 -79.04214105415979,33.85173459646485,0.0 -79.04214575982195,33.85172981222174,0.0 -79.04215070253542,33.851725262410284,0.0 -79.04215572251961,33.8517210269207,0.0 -79.042160899665,33.85171726160411,0.0 -79.04216615539103,33.851714045041156,0.0 -79.04217156827802,33.85171169155361,0.0 -79.04217721559715,33.85171043688294,0.0 -79.04218333439951,33.851710515460596,0.0 -79.04218960905331,33.85171184870648,0.0 -79.04219604217796,33.851714045027606,0.0 -79.04220255257354,33.851716868682885,0.0 -79.04220914154968,33.851720163821,0.0 -79.04221580910638,33.85172369339074,0.0 -79.04222247666316,33.85172753728231,0.0 -79.04223573319611,33.85173545949742,0.0 -79.04228240609349,33.85176416885101,0.0 -79.04229566262646,33.85177193521479,0.0 -79.04230240876366,33.851775621945464,0.0 -79.0423090763203,33.85177907293478,0.0 -79.04231582245741,33.85178221091178,0.0 -79.04232256728486,33.85178480013519,0.0 -79.0423293920023,33.851786760714845,0.0 -79.04233637388073,33.85178778094812,0.0 -79.04234327586876,33.85178778094499,0.0 -79.0423503363274,33.85178683928587,0.0 -79.04235739547624,33.851785191712125,0.0 -79.0423645345152,33.851783152545714,0.0 -79.04237175082498,33.85178079905735,0.0 -79.0423789671347,33.8517781325568,0.0 -79.04239347964439,33.85177248392404,0.0 -79.04242273778567,33.85176063921464,0.0 -79.04244454518536,33.85175169674727,0.0 -79.04245858621188,33.85174557925127,0.0 -79.04246533103844,33.85174244126807,0.0 -79.04247160700142,33.85173922470465,0.0 -79.04247741148117,33.8517358522902,0.0 -79.04248251004603,33.85173232271512,0.0 -79.04248651110315,33.85172847881862,0.0 -79.04248917760117,33.8517242420204,0.0 -79.04249011925701,33.85171961493994,0.0 -79.0424897276635,33.851714516377314,0.0 -79.04248831452327,33.8517092606542,0.0 -79.04248611819722,33.85170369060953,0.0 -79.0424834516978,33.85169804329426,0.0 -79.04247725431338,33.85168635576179,0.0 -79.04246713576072,33.851668392270895,0.0 -79.0424639191977,33.851662273473195,0.0 -79.04246078252487,33.85165607740448,0.0 -79.0424578802839,33.851649880026116,0.0 -79.04245529105519,33.85164344821576,0.0 -79.04245293756804,33.851637015095676,0.0 -79.04245081982249,33.85163042612424,0.0 -79.04244689734362,33.85161724818113,0.0 -79.04244156434369,33.85159740268584,0.0 -79.04243842636022,33.85158438190333,0.0 -79.04243583713077,33.85157198714508,0.0 -79.04243497536376,33.85156626124856,0.0 -79.04243458246042,33.85156092694446,0.0 -79.04243473962082,33.85155629855465,0.0 -79.04243568127679,33.85155261182058,0.0 -79.04243779902112,33.85155018106373,0.0 -79.04244132859552,33.8515492394062,0.0 -79.04244595698759,33.851549553725924,0.0 -79.04245144714601,33.851550808391636,0.0 -79.04245756594857,33.85155276897161,0.0 -79.04246415492457,33.85155520103414,0.0 -79.04247097964219,33.851557946108755,0.0 -79.04248517783132,33.851564064901645,0.0 -79.04249953187194,33.851570653867526,0.0 -79.04250674818248,33.851574027585784,0.0 -79.04251373006116,33.85157747857496,0.0 -79.04252063335947,33.851581086725034,0.0 -79.04252722233565,33.85158469487534,0.0 -79.04253341840932,33.851588617347645,0.0 -79.04253914561924,33.8515926956714,0.0 -79.04254408702425,33.85159708831742,0.0 -79.04254800950197,33.85160195244678,0.0 -79.04255067600128,33.851607129588885,0.0 -79.0425524021539,33.851612776904574,0.0 -79.04255349966249,33.851618581381416,0.0 -79.04255412699776,33.85162470018047,0.0 -79.04255444132066,33.85163081897957,0.0 -79.04255475564513,33.85164909548711,0.0 -79.04255506865834,33.85165474280345,0.0 -79.04255569599339,33.85165991994649,0.0 -79.04255671623098,33.85166454833568,0.0 -79.04255852096388,33.85166823506859,0.0 -79.04256110888228,33.85167082429388,0.0 -79.04256510994006,33.85167192179933,0.0 -79.04257012992491,33.85167184321653,0.0 -79.04257593440498,33.85167074570664,0.0 -79.04258220905842,33.85166894097238,0.0 -79.04258887661436,33.85166674464523,0.0 -79.04259585849222,33.851664156725214,0.0 -79.04260291764096,33.85166133175415,0.0 -79.04261750873098,33.851655371418865,0.0 -79.04266920160627,33.851633485424806,0.0 -79.042698695489,33.851621249122545,0.0 -79.04272097306216,33.85161238523539,0.0 -79.04273595574517,33.85160697234389,0.0 -79.04274356364782,33.851604461694386,0.0 -79.0427512514406,33.851602186786245,0.0 -79.04275893923351,33.851600226200105,0.0 -79.04276662571674,33.85159850004563,0.0 -79.04279753143011,33.851592225381026,0.0 -79.04280498348147,33.85159049922667,0.0 -79.04281227837187,33.85158869580157,0.0 -79.04281918166923,33.85158657805473,0.0 -79.04282561348363,33.851584145986294,0.0 -79.04283141927316,33.85158124374498,0.0 -79.04283581192328,33.851578262923795,0.0 -79.04283965450965,33.85157520352243,0.0 -79.04284647922611,33.8515693990419,0.0 -79.04284961720744,33.851567281296774,0.0 -79.04285259802803,33.851566103898115,0.0 -79.04285612760248,33.851566182476944,0.0 -79.04285926558437,33.85156751572416,0.0 -79.04286177623194,33.851569633466724,0.0 -79.0428631880621,33.85157230127308,0.0 -79.04286295232099,33.85157512493142,0.0 -79.04286122616946,33.85157755699773,0.0 -79.04285824534914,33.85157991048417,0.0 -79.04285432418203,33.851582341241844,0.0 -79.04284506739886,33.85158759696981,0.0 -79.04284004741432,33.85159057779119,0.0 -79.04283432151507,33.851594421688475,0.0 -79.04282859430629,33.85159865717847,0.0 -79.04281149518931,33.85161238519432,0.0 -79.04280561081954,33.85161693500622,0.0 -79.04279933616648,33.851621483508666,0.0 -79.04279290435244,33.85162587615985,0.0 -79.04278639264821,33.85163019154026,0.0 -79.04277313611748,33.85163866252099,0.0 -79.04274631004357,33.85165497845811,0.0 -79.04268575328878,33.85169121848867,0.0 -79.04263147118711,33.85172330160958,0.0 -79.04261813607583,33.85173130241719,0.0 -79.04261162568119,33.85173538074658,0.0 -79.04260542829888,33.8517395389659,0.0 -79.0425995452387,33.85174369587545,0.0 -79.04259421093242,33.85174793136518,0.0 -79.0425895838507,33.85175232401554,0.0 -79.04258597438653,33.851756873826396,0.0 -79.04258385664254,33.851761737958476,0.0 -79.0425834650503,33.85176675794103,0.0 -79.04258448397835,33.85177209224484,0.0 -79.04258652445301,33.85177758239935,0.0 -79.04258926953287,33.85178315244386,0.0 -79.04259256336668,33.85178887833927,0.0 -79.04259617283218,33.85179460423454,0.0 -79.04260409505873,33.85180621449544,0.0 -79.04261248876844,33.85181798060735,0.0 -79.04264229567082,33.851859004837934,0.0 -79.04265053221957,33.851870692369495,0.0 -79.04265453327791,33.85187657673516,0.0 -79.04265837717531,33.851882459791284,0.0 -79.04266198533122,33.851888342847595,0.0 -79.04266527916505,33.8518943044844,0.0 -79.04266802424496,33.85190018754102,0.0 -79.04267022188071,33.85190622644913,0.0 -79.0426714765503,33.851912345247904,0.0 -79.042671710983,33.85191822830565,0.0 -79.0426710836494,33.851924189944235,0.0 -79.04266990756194,33.85193015158306,0.0 -79.0426682599914,33.85193619180262,0.0 -79.04266629940851,33.85194223202242,0.0 -79.0426617495987,33.85195438973283,0.0 -79.04265672961559,33.85196654875317,0.0 -79.04265123814929,33.85197862919328,0.0 -79.04264833590999,33.851984589523276,0.0 -79.04264527650966,33.85199047389214,0.0 -79.04264198267741,33.85199627837106,0.0 -79.04263845179395,33.85200192568913,0.0 -79.04263437346627,33.85200773016832,0.0 -79.04262990223611,33.85201337879653,0.0 -79.04262527384493,33.85201894753458,0.0 -79.04261562546952,33.85202985057918,0.0 -79.0426005655171,33.85204593207918,0.0 -79.042554990138,33.852094016799214,0.0 -79.04251969177837,33.85213151148648,0.0 -79.04249459054807,33.85215841745081,0.0 -79.0424545852166,33.85220155945665,0.0 -79.04244446666786,33.8522122280697,0.0 -79.04243928952266,33.852217405215356,0.0 -79.04243403379695,33.852222425200104,0.0 -79.04242862091021,33.852227210753156,0.0 -79.04242297359153,33.852231759255304,0.0 -79.0424170905313,33.85223583889403,0.0 -79.04241073598799,33.85223936846968,0.0 -79.04240406843209,33.852242034969976,0.0 -79.04239693070276,33.852244231297334,0.0 -79.04238955723196,33.85224595745174,0.0 -79.04238194801944,33.852247447864684,0.0 -79.04237418295567,33.8522487025364,0.0 -79.04235841577672,33.85225082159685,0.0 -79.04233441205083,33.85225364526594,0.0 -79.04231033105414,33.85225615461316,0.0 -79.04229448529463,33.852257566449474,0.0 -79.04228672023066,33.85225811651619,0.0 -79.04227903243759,33.85225842953196,0.0 -79.04227158038589,33.8522583509548,0.0 -79.04226444265629,33.85225788078488,0.0 -79.04225777509988,33.8522567047002,0.0 -79.04225157771675,33.85225474281064,0.0 -79.0422460089776,33.85225152756229,0.0 -79.04224106757265,33.85224752650889,0.0 -79.04223651776061,33.85224281954078,0.0 -79.0422322036899,33.85223764239941,0.0 -79.04222812405106,33.85223215224574,0.0 -79.04222420157312,33.85222642635061,0.0 -79.04222043756599,33.85222054329446,0.0 -79.04220929877626,33.85220234406263,0.0 -79.04214678010891,33.85209825247122,0.0 -79.04213932805568,33.852086250617496,0.0 -79.04213556273885,33.85208036756135,0.0 -79.04213164157063,33.852074720246655,0.0 -79.04212764051228,33.85206930736376,0.0 -79.04212340502217,33.85206436596374,0.0 -79.04211893379056,33.85205997331751,0.0 -79.04211414823709,33.852056363856754,0.0 -79.04210873665905,33.852053854522886,0.0 -79.04210269643706,33.85205275570864,0.0</coordinates>
                    </LinearRing>
                </outerBoundaryIs>
            </Polygon>
        </Placemark>
        <Placemark id="1547">
            <name>Flood_168</name>
            <styleUrl>#1552</styleUrl>
            <Polygon id="1546">
                <outerBoundaryIs>
                    <LinearRing id="1550">
                        <coordinates>-78.99137008110002,33.83467024861726,0.0 -78.9913543924631,33.83466867957444,0.0 -78.99133839081304,33.834667503432925,0.0 -78.99131446560908,33.834665620040525,0.0 -78.99122661107594,33.83465808911654,0.0 -78.99120268587197,33.8346561284533,0.0 -78.99118676280267,33.83465503089257,0.0 -78.99117907499104,33.834655736781365,0.0 -78.99117115274682,33.834655422432824,0.0 -78.9911632291929,33.83465526524526,0.0 -78.99115538552955,33.834655500960416,0.0 -78.9911474632854,33.834655971107004,0.0 -78.9911394624607,33.83465683415571,0.0 -78.99113153890707,33.834658011526514,0.0 -78.99112385240525,33.834659344749454,0.0 -78.99111553725794,33.834660913711694,0.0 -78.99110808518861,33.83466240409639,0.0 -78.99109184779745,33.834665776454074,0.0 -78.99108674921999,33.83466687525392,0.0 -78.99108439572815,33.83466734541921,0.0 -78.99098195138481,33.83468993565275,0.0 -78.99080828018953,33.83472844998097,0.0 -78.99080639818253,33.83473221528916,0.0 -78.99080326019424,33.83473645076632,0.0 -78.99079894611484,33.83474115772243,0.0 -78.99079353321531,33.83474562893347,0.0 -78.99078733712795,33.83474915848577,0.0 -78.99078019807192,33.83475135478614,0.0 -78.99077274600235,33.834751982095305,0.0 -78.99076560825533,33.834751354737186,0.0 -78.99075933227648,33.834749708455135,0.0 -78.99075446944039,33.83474743353404,0.0 -78.99075078269543,33.83474508003636,0.0 -78.99074827204143,33.834741784886546,0.0 -78.99074999819683,33.83473888265341,0.0 -78.99075360636019,33.834737313675255,0.0 -78.99075839192443,33.834735823281676,0.0 -78.99076411783783,33.834734411471594,0.0 -78.99078380623104,33.83472994030857,0.0 -78.99079063096441,33.834728058328984,0.0 -78.99079737711695,33.834725862027376,0.0 -78.99080388752725,33.83472327282244,0.0 -78.99081000634374,33.834720136172265,0.0 -78.99081588941799,33.834716526728755,0.0 -78.99082161533079,33.83471268416266,0.0 -78.99084389295551,33.83469644689147,0.0 -78.99084961886837,33.834692681596195,0.0 -78.99085565910404,33.83468907346285,0.0 -78.99086240525635,33.83468569976367,0.0 -78.9908695430025,33.83468264038773,0.0 -78.99087676063917,33.834679816753486,0.0 -78.99088421270824,33.834677228861416,0.0 -78.99089927269833,33.8346723647805,0.0 -78.9909145697401,33.83466781502224,0.0 -78.99102995763215,33.834634791964305,0.0 -78.99107600199017,33.834621457011956,0.0 -78.99113742197085,33.83460349372124,0.0 -78.99116040551444,33.834596904825496,0.0 -78.99117578113712,33.834592826550434,0.0 -78.99118354621949,33.83459102184478,0.0 -78.99119131261162,33.83458937430027,0.0 -78.9911990776941,33.83458804107761,0.0 -78.99120692135749,33.834587020867424,0.0 -78.9912147663305,33.83458655072059,0.0 -78.99122276715542,33.834586472167025,0.0 -78.99123068939963,33.834586707935046,0.0 -78.99123869022455,33.834587099554575,0.0 -78.99125477176501,33.834588355586625,0.0 -78.99127893140155,33.83459063057252,0.0 -78.99135956960735,33.834598710226004,0.0 -78.99145644520524,33.834607887441344,0.0 -78.99147244685533,33.83460961364629,0.0 -78.99148037040943,33.83461071118015,0.0 -78.99148813549242,33.83461188860372,0.0 -78.9914958233044,33.83461330045872,0.0 -78.99150327537447,33.83461502663486,0.0 -78.99151049170246,33.834617144402955,0.0 -78.9915173164368,33.834619889503884,0.0 -78.99152351252563,33.83462326193678,0.0 -78.99152931833038,33.834627184431675,0.0 -78.99153488708343,33.834631419938006,0.0 -78.99154037856557,33.834635891185556,0.0 -78.99155630163736,33.83464961924823,0.0 -78.99156171453868,33.834653776173504,0.0 -78.99156728329164,33.83465762008717,0.0 -78.99157308778662,33.83466075808704,0.0 -78.99157920660419,33.83466311159284,0.0 -78.99158579559607,33.83466436628327,0.0 -78.99159277749132,33.83466475789936,0.0 -78.99159999381884,33.83466452349182,0.0 -78.99160744588833,33.83466381760224,0.0 -78.9916149765385,33.83466271881057,0.0 -78.99162258445955,33.83466130700685,0.0 -78.9916301936904,33.8346598166227,0.0 -78.99163788150184,33.83465809049739,0.0 -78.99164549073242,33.834656208520585,0.0 -78.99165309865346,33.83465424796324,0.0 -78.99166055072267,33.834652051663966,0.0 -78.9916678456305,33.834649619622766,0.0 -78.9916749846865,33.83464695183955,0.0 -78.9916817308389,33.83464381519155,0.0 -78.99168800550702,33.83464028432988,0.0 -78.99169396716204,33.83463636318422,0.0 -78.9916997716556,33.83463220498682,0.0 -78.99172244218401,33.83461463446855,0.0 -78.99173412975163,33.834606006371615,0.0 -78.99175185755492,33.83459322007809,0.0 -78.9917995494847,33.8345597253106,0.0 -78.99181131563319,33.83455109721387,0.0 -78.99182276876849,33.83454231195521,0.0 -78.99182857326183,33.83453744915296,0.0 -78.99183429917454,33.8345325064603,0.0 -78.99184551656751,33.834522466532576,0.0 -78.9918620682793,33.8345070137376,0.0 -78.99189524897373,33.83447563666533,0.0 -78.9919064663667,33.83446536099623,0.0 -78.99191211369865,33.834460419612945,0.0 -78.99191776103073,33.83445571266144,0.0 -78.99192348825324,33.8344512414517,0.0 -78.99192921416612,33.834447240415045,0.0 -78.99193501865986,33.83444386802252,0.0 -78.99194082315381,33.83444143597635,0.0 -78.99194662764786,33.83444018132758,0.0 -78.99195211912911,33.834440417087436,0.0 -78.9919574534493,33.834441750354095,0.0 -78.99196255202743,33.83444402527605,0.0 -78.99196710185049,33.83444684894968,0.0 -78.99197094575703,33.83445022137474,0.0 -78.99197369084348,33.83445398669837,0.0 -78.99197502409677,33.83445806633919,0.0 -78.99197463250387,33.83446269472782,0.0 -78.99197259202595,33.83446755754279,0.0 -78.99196937676656,33.83447257751468,0.0 -78.99196537570027,33.834477676064374,0.0 -78.99196074729798,33.834482853192476,0.0 -78.99195572730194,33.834488030319264,0.0 -78.99194505997397,33.834498463151185,0.0 -78.9919339211617,33.834508895981514,0.0 -78.99187242260727,33.83456553134287,0.0 -78.99181194429232,33.834621773805324,0.0 -78.9917626034801,33.83466797503035,0.0 -78.99171349971978,33.834714726319504,0.0 -78.99170251675935,33.8347247662481,0.0 -78.99169694800808,33.834729551780356,0.0 -78.99169130067602,33.83473410157094,0.0 -78.99168557345352,33.8347382584589,0.0 -78.9916796903792,33.834741866592715,0.0 -78.99167365014335,33.83474476881132,0.0 -78.99166729689415,33.834746573521635,0.0 -78.99166086506408,33.83474712225367,0.0 -78.99165411891097,33.83474673063829,0.0 -78.99164721559633,33.834745553217736,0.0 -78.99164015642987,33.83474390562338,0.0 -78.99163301737286,33.83474178785556,0.0 -78.99162580104488,33.83473951292661,0.0 -78.99161858471683,33.83473700356588,0.0 -78.99160391631862,33.834731747792425,0.0 -78.99157465679309,33.834720766072756,0.0 -78.99154547715787,33.83470962719229,0.0 -78.99153104319193,33.83470389993688,0.0 -78.99151676769715,33.83469793955984,0.0 -78.9914882140877,33.83468515311086,0.0 -78.99148107634028,33.83468209368696,0.0 -78.9914739372831,33.83467919142418,0.0 -78.99146672095502,33.83467652359276,0.0 -78.99145934746568,33.83467424997289,0.0 -78.99145189539558,33.834672445216235,0.0 -78.99144475764857,33.83467126910448,0.0 -78.99143746274012,33.83467064043622,0.0 -78.99143032368353,33.834670248819506,0.0 -78.99142295019453,33.83467009163379,0.0 -78.99141557670558,33.83467009160904,0.0 -78.99139377056164,33.83467040585776,0.0 -78.99138561257536,33.83467048441081,0.0 -78.99137008110002,33.83467024861726,0.0</coordinates>
                    </LinearRing>
                </outerBoundaryIs>
            </Polygon>
        </Placemark>
        <Placemark id="1556">
            <name>Flood_169</name>
            <styleUrl>#1561</styleUrl>
            <Polygon id="1555">
                <outerBoundaryIs>
                    <LinearRing id="1559">
                        <coordinates>-78.97865834566736,33.82887823393138,0.0 -78.97865065916416,33.82887807674363,0.0 -78.97864304993223,33.82887831245862,0.0 -78.97862838153338,33.82887909690291,0.0 -78.97862163537953,33.82887925404045,0.0 -78.9786155165615,33.82887901827768,0.0 -78.97861033940185,33.82887799802279,0.0 -78.9786064169138,33.828876037425715,0.0 -78.97860429916221,33.82887313517866,0.0 -78.9786032016497,33.82886929127883,0.0 -78.9786028873247,33.828864820047485,0.0 -78.97860312306432,33.828859800064194,0.0 -78.9786037503977,33.82885446576024,0.0 -78.97860641689442,33.82883697375081,0.0 -78.97860712280813,33.82883093353236,0.0 -78.97860751570865,33.828824893312806,0.0 -78.97860759428617,33.828818540079865,0.0 -78.97860696694109,33.828800106402625,0.0 -78.97860712278997,33.82879437919465,0.0 -78.97860767285223,33.8287889676196,0.0 -78.97860908468323,33.82878394633077,0.0 -78.97861151675403,33.82877963226991,0.0 -78.9786154379297,33.82877602412901,0.0 -78.97862045792587,33.82877312190681,0.0 -78.97862634100056,33.82877068986093,0.0 -78.97863285272103,33.828768650719624,0.0 -78.97863975472588,33.828767003172636,0.0 -78.97864697236339,33.82876551278765,0.0 -78.97865426727205,33.828764415305415,0.0 -78.9786616407616,33.828763552255296,0.0 -78.97866901425134,33.828763082107656,0.0 -78.97867615199921,33.82876308213251,0.0 -78.97868313389559,33.82876370949114,0.0 -78.97868972288892,33.82876519992419,0.0 -78.97869584170802,33.8287677092827,0.0 -78.97870156762416,33.82877108302533,0.0 -78.97870705779842,33.82877508279176,0.0 -78.97871231354043,33.82877955404037,0.0 -78.97871741212124,33.82878433961039,0.0 -78.97872235485035,33.828789281031156,0.0 -78.97873208183773,33.828799713935695,0.0 -78.97874157308304,33.828810382580876,0.0 -78.97875075000557,33.82882112849589,0.0 -78.9787552212507,33.82882654139803,0.0 -78.9787593794826,33.82883203156992,0.0 -78.97876330066276,33.82883752305058,0.0 -78.97876683155876,33.82884309180084,0.0 -78.97876973380896,33.82884866185852,0.0 -78.9787717729813,33.82885446634495,0.0 -78.97877271464306,33.828860506569114,0.0 -78.97877247890445,33.82886756571628,0.0 -78.97877130281708,33.828875489245654,0.0 -78.97876934092282,33.828883803055454,0.0 -78.9787669874347,33.828892196754055,0.0 -78.97876432093315,33.82890027612955,0.0 -78.97876173170256,33.828907728171,0.0 -78.97875600579565,33.82892302384493,0.0 -78.97879310899059,33.82892937851681,0.0 -78.97881319029271,33.82893282958019,0.0 -78.97882283869508,33.828934712926326,0.0 -78.97883170259996,33.828936516379564,0.0 -78.978839311833,33.82893832113807,0.0 -78.97884676390461,33.82894036032786,0.0 -78.97886151088665,33.82894475302893,0.0 -78.9788761007074,33.828949460051454,0.0 -78.97891249798833,33.828961539310086,0.0 -78.97892716638981,33.82896616775241,0.0 -78.97893453988084,33.82896844268348,0.0 -78.9789419919525,33.828970560453726,0.0 -78.97895681751503,33.82897464014275,0.0 -78.97900929502929,33.828988131286884,0.0 -78.97902419917244,33.8289921323957,0.0 -78.97903149408259,33.82899417158494,0.0 -78.97903886757369,33.828996367935446,0.0 -78.9790460053226,33.8289988000266,0.0 -78.97905306580061,33.829001310698054,0.0 -78.97905996780764,33.82900421296169,0.0 -78.97906679254392,33.82900750681792,0.0 -78.97907338153819,33.8290111935758,0.0 -78.97907989195187,33.82901503749442,0.0 -78.97909259976618,33.82902311692332,0.0 -78.97911126923938,33.82903590334469,0.0 -78.97917919966648,33.82908359539382,0.0 -78.97921018405063,33.829105245737956,0.0 -78.97922908926589,33.82911803216009,0.0 -78.97924187435123,33.829126268750215,0.0 -78.97924846334564,33.82913026852036,0.0 -78.9792551309207,33.829134112439405,0.0 -78.9792620342378,33.82913779919843,0.0 -78.97926870181257,33.82914101578325,0.0 -78.97927560512929,33.82914407520787,0.0 -78.97928250713638,33.82914697747148,0.0 -78.97931710099047,33.82916054713369,0.0 -78.9793234542422,33.82916321496364,0.0 -78.97932941589994,33.82916596006297,0.0 -78.97933467164103,33.82916870515994,0.0 -78.97933906430406,33.82917160741484,0.0 -78.97934220229517,33.82917458824591,0.0 -78.97934369271081,33.829177726232196,0.0 -78.9793430653765,33.82918125580395,0.0 -78.97934055472464,33.82918486394973,0.0 -78.97933655365858,33.829188550670786,0.0 -78.97933153366259,33.829192160117465,0.0 -78.97932565058854,33.829195532509985,0.0 -78.9793192187589,33.82919867046883,0.0 -78.97931223686425,33.8292014155233,0.0 -78.97930494195619,33.82920384756431,0.0 -78.97929733272525,33.82920604386274,0.0 -78.97928172397899,33.82921004355571,0.0 -78.97925787735562,33.82921537777905,0.0 -78.97912358424703,33.829243930845784,0.0 -78.97910028768864,33.82924918518072,0.0 -78.97909259987682,33.82925106846669,0.0 -78.97908506922657,33.82925310760441,0.0 -78.97907769573774,33.82925530390369,0.0 -78.97907055799118,33.829257814525796,0.0 -78.97906373325802,33.8292606381613,0.0 -78.97905745858999,33.82926401055248,0.0 -78.97905157551625,33.82926816875005,0.0 -78.97904616261731,33.82927279581278,0.0 -78.97904106404137,33.82927781708885,0.0 -78.97903627847876,33.82928307279777,0.0 -78.97903165138743,33.82928856293909,0.0 -78.97902710156703,33.82929421155131,0.0 -78.97901831624941,33.82930574189906,0.0 -78.9790096082028,33.8293174294081,0.0 -78.97896638753194,33.82937633974697,0.0 -78.97895768079509,33.82938802725595,0.0 -78.97894889416773,33.82939947902319,0.0 -78.9789443456571,33.829404970474506,0.0 -78.97893971725586,33.829410226183995,0.0 -78.97893485311246,33.82941516757075,0.0 -78.97892975453622,33.82941956020283,0.0 -78.97892434294664,33.82942332549951,0.0 -78.97891838129152,33.82942614913803,0.0 -78.97891202673237,33.829427796687106,0.0 -78.97890512472708,33.82942850257795,0.0 -78.97889790708902,33.829428502552915,0.0 -78.97889037774716,33.829428110933954,0.0 -78.97888268993414,33.82942732641206,0.0 -78.97887492354026,33.829426306148335,0.0 -78.97885915762953,33.82942387402721,0.0 -78.97881099419935,33.82941579447542,0.0 -78.97877075301511,33.829409205361195,0.0 -78.97875482994282,33.82940653880777,0.0 -78.97874706354868,33.829405048370724,0.0 -78.9787393770449,33.829403479353495,0.0 -78.9787319249735,33.82940175317598,0.0 -78.97872486449579,33.829399713987605,0.0 -78.97871827550212,33.82939736047886,0.0 -78.97871239242498,33.82939453679924,0.0 -78.97870737242566,33.829390928627376,0.0 -78.9787036856786,33.82938661454526,0.0 -78.97870086200933,33.82938167182228,0.0 -78.97869866567578,33.829376260237716,0.0 -78.97869701809744,33.829370454442945,0.0 -78.97869576342241,33.82936441552731,0.0 -78.97869482176057,33.82935821814213,0.0 -78.97869419442142,33.82935186490683,0.0 -78.9786938015147,33.829345431782,0.0 -78.97869372293086,33.829338999968066,0.0 -78.97869395866972,33.82933248957467,0.0 -78.97869466458307,33.82932574344143,0.0 -78.97869576339995,33.82931899730956,0.0 -78.97869701806866,33.82931225117824,0.0 -78.9786985084794,33.82930542646726,0.0 -78.9787034498863,33.82928526796753,0.0 -78.97871905991447,33.829225102863894,0.0 -78.97872745362741,33.829191686536575,0.0 -78.97873208202137,33.82917168388708,0.0 -78.97873466993937,33.829158270205255,0.0 -78.97873569017564,33.82915160265358,0.0 -78.97873741501563,33.82913818896868,0.0 -78.97873874957138,33.82912485386297,0.0 -78.9787458872794,33.82904421720082,0.0 -78.97875177032519,33.82898342472926,0.0 -78.97875294640986,33.82897001104255,0.0 -78.97875365231998,33.82895667593458,0.0 -78.97875365231677,33.828950165540455,0.0 -78.97875333930048,33.828943810996456,0.0 -78.9787524762193,33.82893761492126,0.0 -78.97875098580222,33.82893165327573,0.0 -78.97874855372658,33.82892616180015,0.0 -78.97874478839827,33.82892098464195,0.0 -78.97874016130177,33.82891620038321,0.0 -78.97873474839834,33.82891172913414,0.0 -78.97872878673978,33.82890749231492,0.0 -78.97872243348739,33.82890341396506,0.0 -78.97871592176386,33.828899412885384,0.0 -78.97870909833712,33.8288956475461,0.0 -78.97870219501996,33.828892039367624,0.0 -78.97869521312218,33.82888866693035,0.0 -78.97868807537287,33.82888552892428,0.0 -78.97868078046224,33.828882783820156,0.0 -78.97867340697125,33.82888050888913,0.0 -78.97866595489977,33.82887893987264,0.0 -78.97865834566736,33.82887823393138,0.0</coordinates>
                    </LinearRing>
                </outerBoundaryIs>
            </Polygon>
        </Placemark>
    </Document>
</kml>
