<?xml version="1.0" encoding="UTF-8"?>
<kml xmlns="http://www.opengis.net/kml/2.2" xmlns:gx="http://www.google.com/kml/ext/2.2">
    <Document id="3957">
        <Style id="3964">
            <LineStyle id="3966">
                <colorMode>normal</colorMode>
                <width>1</width>
            </LineStyle>
            <PolyStyle id="3965">
                <color>80ebce87</color>
                <colorMode>normal</colorMode>
                <fill>1</fill>
                <outline>1</outline>
            </PolyStyle>
        </Style>
        <Style id="3973">
            <LineStyle id="3975">
                <colorMode>normal</colorMode>
                <width>1</width>
            </LineStyle>
            <PolyStyle id="3974">
                <color>80ebce87</color>
                <colorMode>normal</colorMode>
                <fill>1</fill>
                <outline>1</outline>
            </PolyStyle>
        </Style>
        <Style id="3982">
            <LineStyle id="3984">
                <colorMode>normal</colorMode>
                <width>1</width>
            </LineStyle>
            <PolyStyle id="3983">
                <color>80ebce87</color>
                <colorMode>normal</colorMode>
                <fill>1</fill>
                <outline>1</outline>
            </PolyStyle>
        </Style>
        <Style id="3991">
            <LineStyle id="3993">
                <colorMode>normal</colorMode>
                <width>1</width>
            </LineStyle>
            <PolyStyle id="3992">
                <color>80ebce87</color>
                <colorMode>normal</colorMode>
                <fill>1</fill>
                <outline>1</outline>
            </PolyStyle>
        </Style>
        <Style id="4000">
            <LineStyle id="4002">
                <colorMode>normal</colorMode>
                <width>1</width>
            </LineStyle>
            <PolyStyle id="4001">
                <color>80ebce87</color>
                <colorMode>normal</colorMode>
                <fill>1</fill>
                <outline>1</outline>
            </PolyStyle>
        </Style>
        <Style id="4009">
            <LineStyle id="4011">
                <colorMode>normal</colorMode>
                <width>1</width>
            </LineStyle>
            <PolyStyle id="4010">
                <color>80ebce87</color>
                <colorMode>normal</colorMode>
                <fill>1</fill>
                <outline>1</outline>
            </PolyStyle>
        </Style>
        <Style id="4018">
            <LineStyle id="4020">
                <colorMode>normal</colorMode>
                <width>1</width>
            </LineStyle>
            <PolyStyle id="4019">
                <color>80ebce87</color>
                <colorMode>normal</colorMode>
                <fill>1</fill>
                <outline>1</outline>
            </PolyStyle>
        </Style>
        <Style id="4027">
            <LineStyle id="4029">
                <colorMode>normal</colorMode>
                <width>1</width>
            </LineStyle>
            <PolyStyle id="4028">
                <color>80ebce87</color>
                <colorMode>normal</colorMode>
                <fill>1</fill>
                <outline>1</outline>
            </PolyStyle>
        </Style>
        <Style id="4036">
            <LineStyle id="4038">
                <colorMode>normal</colorMode>
                <width>1</width>
            </LineStyle>
            <PolyStyle id="4037">
                <color>80ebce87</color>
                <colorMode>normal</colorMode>
                <fill>1</fill>
                <outline>1</outline>
            </PolyStyle>
        </Style>
        <Style id="4045">
            <LineStyle id="4047">
                <colorMode>normal</colorMode>
                <width>1</width>
            </LineStyle>
            <PolyStyle id="4046">
                <color>80ebce87</color>
                <colorMode>normal</colorMode>
                <fill>1</fill>
                <outline>1</outline>
            </PolyStyle>
        </Style>
        <Placemark id="3959">
            <name>Flood_430</name>
            <styleUrl>#3964</styleUrl>
            <Polygon id="3958">
                <outerBoundaryIs>
                    <LinearRing id="3962">
                        <coordinates>-78.92541200414571,33.65210558502272,0.0 -78.9254145933827,33.65210558503342,0.0 -78.92542894747255,33.652106055266195,0.0 -78.92544408736944,33.65210730999773,0.0 -78.92544675387722,33.6521075457503,0.0 -78.92545938311771,33.65210911479368,0.0 -78.92546173661185,33.652109506396386,0.0 -78.92547499318836,33.65211154692537,0.0 -78.92547844550364,33.65211209569368,0.0 -78.92549076042016,33.652114292070216,0.0 -78.92549405426414,33.652114919418274,0.0 -78.92550676208415,33.65211750738943,0.0 -78.92550982149542,33.65211821331709,0.0 -78.92552221499201,33.65212111691868,0.0 -78.92552496138973,33.65212174426457,0.0 -78.92553759062821,33.65212511673091,0.0 -78.92554025713538,33.65212590123752,0.0 -78.92555249346925,33.65212982376592,0.0 -78.9255550827052,33.6521306868527,0.0 -78.92556794768423,33.652135706891706,0.0 -78.92557022128702,33.65213680440911,0.0 -78.92557414377589,33.652138766319055,0.0 -78.92558151726874,33.65214261024686,0.0 -78.92558693017153,33.652145982683386,0.0 -78.9255923430741,33.65214966944203,0.0 -78.92560395206546,33.652158924966194,0.0 -78.92561297313037,33.65216739729368,0.0 -78.92561501229962,33.65216943646671,0.0 -78.92562324886607,33.65217822180346,0.0 -78.92563203418685,33.652188341701574,0.0 -78.92564034933217,33.652198930461694,0.0 -78.9256482715731,33.65220983485186,0.0 -78.92565501772206,33.652220345024936,0.0 -78.9256611365335,33.65223164100063,0.0 -78.92566333286094,33.65223666099556,0.0 -78.9256650577045,33.65224097638315,0.0 -78.92566592078043,33.65224372146642,0.0 -78.92566670527486,33.652247172464406,0.0 -78.92566780409011,33.65225266393791,0.0 -78.9256678813562,33.652257213750595,0.0 -78.9256676469176,33.652262546747906,0.0 -78.92566615649662,33.65226741087625,0.0 -78.92566419459047,33.65227266659555,0.0 -78.92566144949657,33.65227729366744,0.0 -78.92565815564635,33.652282314949396,0.0 -78.9256544688928,33.65228678616596,0.0 -78.92565101657242,33.652290864480975,0.0 -78.92564866307515,33.65229329653845,0.0 -78.92564168247426,33.652300198498985,0.0 -78.92564003489551,33.65230168890289,0.0 -78.92563038647523,33.652310161153146,0.0 -78.92562003213736,33.65231871067151,0.0 -78.9256179143833,33.65232035823436,0.0 -78.92560795164052,33.65232820314894,0.0 -78.92560606962905,33.65232969355171,0.0 -78.92557234010798,33.65235495050259,0.0 -78.92556982944971,33.65235683380546,0.0 -78.92552433375633,33.652390328565964,0.0 -78.92552143019397,33.652392367718654,0.0 -78.92549923110393,33.65240836924099,0.0 -78.92549742767338,33.6524097024831,0.0 -78.92548613167656,33.652417547392055,0.0 -78.92548385676108,33.652419037793365,0.0 -78.92547460124722,33.65242523382936,0.0 -78.92547201200847,33.652426881390355,0.0 -78.92546181483472,33.65243315731273,0.0 -78.92545985424275,33.65243433339322,0.0 -78.92544753800648,33.6524411580608,0.0 -78.92543765515771,33.65244578641288,0.0 -78.92543538024293,33.65244672675043,0.0 -78.92542894709322,33.65244900162997,0.0 -78.92542533892407,33.65245025759375,0.0 -78.92542243667263,33.65245111934822,0.0 -78.92541631915712,33.65245229672104,0.0 -78.92541169074792,33.65245308119751,0.0 -78.92540894434899,33.65245339419856,0.0 -78.92540353275224,33.65245331559569,0.0 -78.92539780683232,33.65245323830116,0.0 -78.92539537475724,33.65245300254955,0.0 -78.92539058918821,33.65245213945368,0.0 -78.92538337285397,33.652450884754764,0.0 -78.92537168527524,33.65244751098257,0.0 -78.92536870444525,33.65244649204281,0.0 -78.9253581143791,33.652442333779554,0.0 -78.92534603520852,33.65243676498981,0.0 -78.9253439947287,33.65243566616364,0.0 -78.9253352094021,33.65243080330254,0.0 -78.92533270005713,33.65242939146212,0.0 -78.92532375757017,33.65242342978273,0.0 -78.92532148265806,33.652421939362696,0.0 -78.92531653993083,33.65241801686435,0.0 -78.9253112069196,33.652413624191,0.0 -78.92530704869101,33.65240938868356,0.0 -78.92530273461072,33.65240491743386,0.0 -78.92530140135871,33.65240311269569,0.0 -78.92529904786777,33.65239981885229,0.0 -78.92529598846068,33.65239542618835,0.0 -78.92529449804776,33.652392994114976,0.0 -78.9252897923776,33.65238460038582,0.0 -78.92528861497797,33.65238232547474,0.0 -78.92527849641336,33.65236302998515,0.0 -78.92527708458137,33.65236044075106,0.0 -78.9252721418589,33.65235228276247,0.0 -78.92527065144581,33.65235000785019,0.0 -78.92525810080559,33.6523309467824,0.0 -78.92525198330267,33.65232067104389,0.0 -78.92524766922692,33.6523121201553,0.0 -78.92524657040839,33.6523096108127,0.0 -78.92524500141725,33.6523048252523,0.0 -78.92524351100685,33.652300196853204,0.0 -78.92524264793474,33.65229392219482,0.0 -78.92524194202389,33.65228803912998,0.0 -78.925242177773,33.6522819203274,0.0 -78.9252426479556,33.65227509561085,0.0 -78.92524460986822,33.652264035410134,0.0 -78.92524515862654,33.65226176050626,0.0 -78.92524782514606,33.65225140622349,0.0 -78.92525159048783,33.65224026744975,0.0 -78.92525245356966,33.65223767953467,0.0 -78.92525708199082,33.65222607059102,0.0 -78.9252622591679,33.65221446033993,0.0 -78.92526822084308,33.65220285140178,0.0 -78.92526931835692,33.652200890822215,0.0 -78.92527575151593,33.652190143652476,0.0 -78.92528375236226,33.65217884904479,0.0 -78.9252915174638,33.65216967087157,0.0 -78.92529300788124,33.65216802330605,0.0 -78.92530108730485,33.65215986537137,0.0 -78.92531081430651,33.6521509229479,0.0 -78.92532077704965,33.65214276502091,0.0 -78.92533065990153,33.65213531300871,0.0 -78.92533270038422,33.652133901187085,0.0 -78.92534109281858,33.65212825390138,0.0 -78.92534313199137,33.652126999240735,0.0 -78.9253520744907,33.65212174355029,0.0 -78.92535411497313,33.652120566160505,0.0 -78.92536462515915,33.652115389057016,0.0 -78.92537254872538,33.65211217383667,0.0 -78.92537537239605,33.65211115361119,0.0 -78.9253829816381,33.65210895731697,0.0 -78.92538517797159,33.65210840857199,0.0 -78.9253910610543,33.652107466939725,0.0 -78.92539780721599,33.65210644673045,0.0 -78.925401101061,33.652106133731635,0.0 -78.92540565088875,33.65210589800888,0.0 -78.92541200414571,33.65210558502272,0.0</coordinates>
                    </LinearRing>
                </outerBoundaryIs>
            </Polygon>
        </Placemark>
        <Placemark id="3968">
            <name>Flood_431</name>
            <styleUrl>#3973</styleUrl>
            <Polygon id="3967">
                <outerBoundaryIs>
                    <LinearRing id="3971">
                        <coordinates>-78.93853603875121,33.65537422410594,0.0 -78.9385835735983,33.6553560263616,0.0 -78.93861863763041,33.655381833665125,0.0 -78.93862138270417,33.655397129377725,0.0 -78.93862232435978,33.65540136487247,0.0 -78.93864264139509,33.65542921258908,0.0 -78.93862608969415,33.65539642348212,0.0 -78.93863973788964,33.655374224537866,0.0 -78.93867786137143,33.65536214424891,0.0 -78.93869056919551,33.65536135980622,0.0 -78.93869998185947,33.655366302561085,0.0 -78.93873928142523,33.65536277183945,0.0 -78.93874477160193,33.6553639492606,0.0 -78.93878383672083,33.655374773892085,0.0 -78.93879811221971,33.6553859913229,0.0 -78.93882188030328,33.6553717146483,0.0 -78.93884659003801,33.655365988849546,0.0 -78.93887796604491,33.65535845834556,0.0 -78.93890910756691,33.655403562393,0.0 -78.9389243260356,33.65541454408618,0.0 -78.93893985752995,33.65541313232063,0.0 -78.9389626053594,33.65541250508076,0.0 -78.93895562346238,33.655406386247336,0.0 -78.93899327676489,33.65539854275705,0.0 -78.9390070820989,33.655399563051844,0.0 -78.9390055916717,33.65541125059066,0.0 -78.93900974858907,33.655417603844185,0.0 -78.9390019049108,33.655423565454846,0.0 -78.93898849116844,33.6554252129709,0.0 -78.93897084191505,33.65543344944718,0.0 -78.9389923350535,33.65545070713194,0.0 -78.93902120169113,33.65546616011461,0.0 -78.93903335944171,33.655473376477765,0.0 -78.93905038134362,33.65548020126815,0.0 -78.93905320500937,33.65548420102917,0.0 -78.93905014690199,33.65548922100299,0.0 -78.93905775481593,33.65550545839271,0.0 -78.93905948096425,33.65551534252163,0.0 -78.93906034403851,33.65552012807982,0.0 -78.93906112852271,33.65553424769566,0.0 -78.93906136295162,33.655538090284814,0.0 -78.93904355782972,33.655563035601624,0.0 -78.93907116848918,33.655573703024416,0.0 -78.93907885630495,33.65557848861104,0.0 -78.93908050387708,33.65558366576555,0.0 -78.93907085546243,33.65558711672055,0.0 -78.93905752028832,33.655601472019136,0.0 -78.93905367637392,33.655605628913456,0.0 -78.93902920237527,33.655617552098064,0.0 -78.93899986553778,33.655627200355845,0.0 -78.93898943261735,33.65563818194217,0.0 -78.93898637320727,33.655636299925625,0.0 -78.93898605889882,33.65562139581605,0.0 -78.9389904515772,33.6556090023743,0.0 -78.93895311392436,33.65559966685101,0.0 -78.93893256242475,33.65560358924383,0.0 -78.93887443622079,33.65559762735826,0.0 -78.93887765282196,33.65556985832012,0.0 -78.93887482915349,33.6555686036391,0.0 -78.93885639541854,33.65556005400003,0.0 -78.9388441577701,33.6555602098005,0.0 -78.93883984367113,33.65557393780202,0.0 -78.93884886474665,33.6555730747634,0.0 -78.93884964924217,33.65557581984667,0.0 -78.93885615963694,33.65559966644696,0.0 -78.93884862898184,33.65559574393721,0.0 -78.93883152849743,33.655590645298815,0.0 -78.93882156707492,33.65558837035085,0.0 -78.93881725168312,33.65558515507932,0.0 -78.93880391653326,33.65557503516047,0.0 -78.93879536697169,33.655546482887324,0.0 -78.93878587573376,33.655534638141695,0.0 -78.9387519890982,33.655514322312776,0.0 -78.9387530080419,33.65550137879316,0.0 -78.93874234069156,33.65550969387908,0.0 -78.93870170788892,33.65549580983885,0.0 -78.9386806063371,33.655486238641785,0.0 -78.93866672242558,33.65548200309303,0.0 -78.9386300893594,33.655494004807466,0.0 -78.9386170685106,33.65550608520085,0.0 -78.93860710709832,33.65549361311875,0.0 -78.93859769313377,33.655479493467034,0.0 -78.93858169148852,33.65545658848397,0.0 -78.9385744751806,33.65542850639008,0.0 -78.93856859212107,33.65540607162272,0.0 -78.93853603875121,33.65537422410594,0.0</coordinates>
                    </LinearRing>
                </outerBoundaryIs>
            </Polygon>
        </Placemark>
        <Placemark id="3977">
            <name>Flood_432</name>
            <styleUrl>#3982</styleUrl>
            <Polygon id="3976">
                <outerBoundaryIs>
                    <LinearRing id="3980">
                        <coordinates>-78.91604775407535,33.66232374551526,0.0 -78.91599778722093,33.66227911156994,0.0 -78.91597872615942,33.662262482542246,0.0 -78.9159564485266,33.66224381302676,0.0 -78.91595464378952,33.662242244028064,0.0 -78.91589871527327,33.66219674829127,0.0 -78.91589651894225,33.662194943549494,0.0 -78.91587784947434,33.6621789418578,0.0 -78.91587565314323,33.66217713711602,0.0 -78.91586773089823,33.6621698421912,0.0 -78.91586608332285,33.66216819461269,0.0 -78.91585870983405,33.66216066394858,0.0 -78.9158523565861,33.662152898856895,0.0 -78.91584953161296,33.66214756453758,0.0 -78.9158489042814,33.662143171884054,0.0 -78.91584992452586,33.66214003390637,0.0 -78.91585180653819,33.66213807333043,0.0 -78.91585416003436,33.66213689725201,0.0 -78.91585698370571,33.662135641285396,0.0 -78.91585941578208,33.66213493538064,0.0 -78.91586318111258,33.66213422948164,0.0 -78.91586616194459,33.66213375932083,0.0 -78.9158729081063,33.66213328917597,0.0 -78.91587549603389,33.66213321060645,0.0 -78.91588177201976,33.66213336648437,0.0 -78.91588443852773,33.66213360223719,0.0 -78.91589432268051,33.662134778367516,0.0 -78.91589761652492,33.66213524986452,0.0 -78.91592099299652,33.66213932829239,0.0 -78.91592420825998,33.66213987836962,0.0 -78.9159325234163,33.662140975912656,0.0 -78.9159351912339,33.66214129024605,0.0 -78.91594060283109,33.66214144612031,0.0 -78.91594452532226,33.66214152471749,0.0 -78.91594695739789,33.66214144614722,0.0 -78.91595189882102,33.66214066298233,0.0 -78.91595503681474,33.66214011293201,0.0 -78.91595739031025,33.66213948560758,0.0 -78.91596648866187,33.6621349358341,0.0 -78.91597315624882,33.66212936712308,0.0 -78.91597488240897,33.66212764097838,0.0 -78.91598013816171,33.66212152219776,0.0 -78.91598186301287,33.66211917002819,0.0 -78.91598657001053,33.66211234533028,0.0 -78.91598798184812,33.66211007043026,0.0 -78.91599268884707,33.66210214822444,0.0 -78.91599378636117,33.66210018633556,0.0 -78.91599857194228,33.66209108804168,0.0 -78.91599982661864,33.66208857739937,0.0 -78.9160090048779,33.662069516424246,0.0 -78.91601025955445,33.662066848621066,0.0 -78.91602994802338,33.66202378527148,0.0 -78.91603112542887,33.6620210388873,0.0 -78.9160355181076,33.66201060603262,0.0 -78.9160364597704,33.662008175279354,0.0 -78.91603983220678,33.66199915425025,0.0 -78.91604053812674,33.66199703650828,0.0 -78.91604351897021,33.661986916660084,0.0 -78.91604634265599,33.66197350428741,0.0 -78.91604806882887,33.66196103094741,0.0 -78.91604948067938,33.66194785300066,0.0 -78.91604971642519,33.661945029341744,0.0 -78.91605144130166,33.66192133994255,0.0 -78.91605167704736,33.6619185948642,0.0 -78.91605277588309,33.66190651442403,0.0 -78.916054579327,33.66189412097446,0.0 -78.91605701141593,33.661882825035455,0.0 -78.91605928633804,33.661876000327155,0.0 -78.91606054101561,33.6618723921771,0.0 -78.91606156125931,33.66186980426303,0.0 -78.91606422777345,33.66186486155982,0.0 -78.91606744435359,33.66185952857569,0.0 -78.91607136554062,33.66185497878035,0.0 -78.91607615111705,33.661849801654284,0.0 -78.91608054378766,33.661846193517434,0.0 -78.91608611386147,33.66184180089012,0.0 -78.91609168262471,33.661838191448545,0.0 -78.91609811446727,33.66183427030803,0.0 -78.91611043070459,33.66182783723516,0.0 -78.9161224313075,33.6618227387201,0.0 -78.91612486338414,33.66182179838353,0.0 -78.91613764979395,33.66181756163809,0.0 -78.91614408163382,33.6618159154034,0.0 -78.91614957312322,33.66181458086757,0.0 -78.91615208247043,33.66181411070477,0.0 -78.91615741679742,33.66181348339286,0.0 -78.91616275112436,33.66181285608096,0.0 -78.91616533905197,33.661812698930945,0.0 -78.91617075195869,33.66181293469538,0.0 -78.91617514462473,33.66181324772635,0.0 -78.91617781244224,33.66181356205965,0.0 -78.91618549895111,33.661815601256656,0.0 -78.91618769528334,33.661816385761384,0.0 -78.91619561884215,33.66182022969198,0.0 -78.91620212925586,33.66182446520928,0.0 -78.91620408984475,33.66182603420863,0.0 -78.91621028724305,33.66183191729623,0.0 -78.91621365966381,33.66183607421986,0.0 -78.91621718924581,33.66184062404674,0.0 -78.91621836664574,33.66184250736478,0.0 -78.91622032723247,33.66184595836739,0.0 -78.91622346521892,33.661851527120035,0.0 -78.9162278578742,33.66186086250402,0.0 -78.91622903396349,33.66186360758836,0.0 -78.91623319218445,33.66187427622088,0.0 -78.91623774199678,33.66188753277336,0.0 -78.91624974254943,33.66192479177632,0.0 -78.91625358644664,33.661936009161344,0.0 -78.91625468526487,33.66193867697458,0.0 -78.91625868501518,33.661948952703774,0.0 -78.91626417648862,33.66196103186224,0.0 -78.91627037257079,33.661972327837795,0.0 -78.91627154997082,33.66197421115575,0.0 -78.91627806037825,33.66198378098061,0.0 -78.9162860612003,33.66199421388789,0.0 -78.91628786593662,33.66199641022097,0.0 -78.91631265290376,33.66202558989128,0.0 -78.91631461480122,33.66202810054703,0.0 -78.91632253704279,33.662038376292934,0.0 -78.91632881170854,33.66204731878234,0.0 -78.91633053786364,33.66204982812748,0.0 -78.91634740258077,33.66207594967251,0.0 -78.91634912873589,33.66207846032727,0.0 -78.9163556391437,33.66208771583007,0.0 -78.91635705097626,33.66208967641997,0.0 -78.91636363996547,33.66209838447888,0.0 -78.91636505179822,33.66210026648821,0.0 -78.91637336694349,33.66211069939675,0.0 -78.91637493593785,33.662112581406745,0.0 -78.91638207368328,33.6621209751459,0.0 -78.91638387841971,33.66212301431803,0.0 -78.91639219356647,33.66213227113818,0.0 -78.91639415415477,33.66213438889136,0.0 -78.91640286089606,33.66214340997164,0.0 -78.91641345095563,33.66215352856773,0.0 -78.91642435402989,33.662162785398834,0.0 -78.91643596433215,33.6621712564277,0.0 -78.91643808208292,33.66217258968621,0.0 -78.91644231758478,33.66217510035169,0.0 -78.91644922090269,33.66217910143887,0.0 -78.91646028114349,33.6621841214711,0.0 -78.91647181156029,33.66218835700979,0.0 -78.91647487097121,33.66218945584037,0.0 -78.91651064093546,33.6622005161997,0.0 -78.91651385619828,33.662201613721145,0.0 -78.91652546650566,33.6622057719894,0.0 -78.91653582082947,33.66221039911598,0.0 -78.91653785999965,33.662211576522715,0.0 -78.91654146816512,33.66221385144402,0.0 -78.91654523349192,33.66221628221733,0.0 -78.91654711550021,33.662217772635785,0.0 -78.91655017490893,33.66222067488916,0.0 -78.91655323431753,33.66222373430358,0.0 -78.91655511763443,33.66222608779806,0.0 -78.91655692106067,33.662228677033724,0.0 -78.91655982330575,33.662233382709395,0.0 -78.91656170662043,33.66223761820723,0.0 -78.91656272554829,33.662240207439574,0.0 -78.9165635886241,33.66224295252268,0.0 -78.91656437311748,33.662247110745,0.0 -78.91656492186952,33.66225032600013,0.0 -78.9165650004475,33.66225275806753,0.0 -78.9165647647004,33.66225675912448,0.0 -78.91656429452048,33.66226083745138,0.0 -78.91656351001879,33.66226373968847,0.0 -78.91656249108478,33.662266328912175,0.0 -78.9165601375836,33.66227174048055,0.0 -78.91655739117968,33.662276055848956,0.0 -78.91655448892405,33.66228029132652,0.0 -78.91655299850618,33.66228209474317,0.0 -78.91655048915626,33.66228484112161,0.0 -78.91654703683554,33.662288683694264,0.0 -78.91654515482352,33.6622904098383,0.0 -78.91654185966543,33.66229331206476,0.0 -78.91653629090096,33.662298019014166,0.0 -78.91652711265661,33.662304450790664,0.0 -78.91652523064523,33.66230562818071,0.0 -78.91652060223338,33.6623082160795,0.0 -78.9165140918105,33.66231166704634,0.0 -78.91650805156402,33.66231409908773,0.0 -78.9165026386544,33.662316295390234,0.0 -78.9165002864686,33.66231692271475,0.0 -78.91649495214078,33.66231825594159,0.0 -78.91648930479938,33.6623196690573,0.0 -78.91648695130395,33.662320217801245,0.0 -78.9164797336568,33.66232123669809,0.0 -78.9164735375603,33.662322099747854,0.0 -78.91647110548439,33.66232233547907,0.0 -78.91645847624012,33.662323198501575,0.0 -78.9164554954084,33.66232343292076,0.0 -78.9164403568181,33.66232374717871,0.0 -78.91643768900012,33.662323747167406,0.0 -78.91642427525879,33.66232358994953,0.0 -78.91642113857553,33.66232351135576,0.0 -78.91636120893513,33.66232186484002,0.0 -78.9163579923613,33.66232186482638,0.0 -78.91634536311798,33.66232194204373,0.0 -78.91634253944802,33.662322020612244,0.0 -78.91633218511808,33.66232257063201,0.0 -78.91632920428631,33.662322805051275,0.0 -78.9163190856978,33.66232421683833,0.0 -78.91631665362152,33.662324766891636,0.0 -78.91631320261385,33.66232578580436,0.0 -78.91630904437865,33.66232704176541,0.0 -78.91630684804426,33.66232806068345,0.0 -78.91630221963173,33.66233127722634,0.0 -78.91630033761925,33.662333316382764,0.0 -78.91629790553777,33.662338336357834,0.0 -78.91629704244822,33.662347200236525,0.0 -78.91629727818778,33.66234955372401,0.0 -78.91629782693992,33.66235277028884,0.0 -78.91629861143272,33.66235732010409,0.0 -78.91629923876654,33.66235975086411,0.0 -78.9163017494127,33.66236838032519,0.0 -78.91630622064542,33.66238061664033,0.0 -78.91631077046038,33.662391519706354,0.0 -78.91631178938862,33.66239387319717,0.0 -78.91631610477233,33.66240360017382,0.0 -78.9163175166037,33.66240658100068,0.0 -78.91635399109855,33.66248290510187,0.0 -78.91636426813008,33.66250541715398,0.0 -78.91636544421928,33.662508242128524,0.0 -78.9163700726152,33.66251914519489,0.0 -78.9163745438481,33.662531147078134,0.0 -78.91637775909969,33.66254181439709,0.0 -78.91637948524684,33.66255099260877,0.0 -78.91637948523883,33.66255773874616,0.0 -78.91637901506078,33.662560248081995,0.0 -78.91637721031746,33.662564013390764,0.0 -78.91637540557632,33.66256597527674,0.0 -78.91637336640314,33.66256722993697,0.0 -78.91637117006876,33.66256825016472,0.0 -78.91636897373503,33.662568720328835,0.0 -78.91636332639452,33.66256934763936,0.0 -78.91635524697989,33.662568798851204,0.0 -78.91635297206642,33.6625684059389,0.0 -78.91634551998968,33.66256675964548,0.0 -78.91633532282631,33.662563150137174,0.0 -78.91633273359048,33.6625619740378,0.0 -78.91632888968235,33.66256001343759,0.0 -78.91632363394001,33.66255734560681,0.0 -78.91631210352699,33.66254997208606,0.0 -78.91630135761253,33.66254220697569,0.0 -78.9162994742944,33.66254087371836,0.0 -78.9162903746471,33.66253357747868,0.0 -78.9162879438837,33.66253145972351,0.0 -78.91626833275691,33.66251459495169,0.0 -78.91626597926474,33.66251239861626,0.0 -78.91620165702565,33.66245348914933,0.0 -78.91618141987303,33.662435682718396,0.0 -78.9161789877999,33.662433564963216,0.0 -78.91614910093445,33.662408385019546,0.0 -78.9161465915902,33.6624063445348,0.0 -78.91609121182992,33.662360691639115,0.0 -78.91607058177264,33.66234343396047,0.0 -78.91606814969953,33.66234131620529,0.0 -78.91605026472921,33.66232586327087,0.0 -78.91604775407535,33.66232374551526,0.0</coordinates>
                    </LinearRing>
                </outerBoundaryIs>
            </Polygon>
        </Placemark>
        <Placemark id="3986">
            <name>Flood_433</name>
            <styleUrl>#3991</styleUrl>
            <Polygon id="3985">
                <outerBoundaryIs>
                    <LinearRing id="3989">
                        <coordinates>-78.91588812212183,33.664789714087235,0.0 -78.9158772976174,33.66478955818967,0.0 -78.91587462979945,33.66478955817829,0.0 -78.91586584446627,33.66478971399227,0.0 -78.915862629202,33.66478979255905,0.0 -78.91582787946294,33.66479112566036,0.0 -78.91582474146972,33.66479128280804,0.0 -78.91581454430114,33.664791832828186,0.0 -78.91581171932124,33.66479206724805,0.0 -78.91580097339633,33.664793008858815,0.0 -78.91579140356356,33.66479434206737,0.0 -78.91578873705474,33.66479481353914,0.0 -78.91577665656395,33.66479740140603,0.0 -78.9157740673261,33.664798028729386,0.0 -78.91576465465333,33.664800617917265,0.0 -78.91576151665896,33.66480163683123,0.0 -78.91571602098011,33.66481654074199,0.0 -78.91571272582406,33.664817639545554,0.0 -78.91570095965561,33.66482101190922,0.0 -78.91569813598466,33.664821874973185,0.0 -78.91568605549345,33.664824855742644,0.0 -78.9156837033076,33.664825483067,0.0 -78.91567170139753,33.66482822809527,0.0 -78.91566848482279,33.6648289339965,0.0 -78.9156558555762,33.66483152317067,0.0 -78.91565271758242,33.664832071911285,0.0 -78.9156416573331,33.664834032447956,0.0 -78.91563930514751,33.66483442534059,0.0 -78.91562518548574,33.66483654302535,0.0 -78.91561302641573,33.664837876222855,0.0 -78.91561051575893,33.66483819053425,0.0 -78.91559780924335,33.6648389749756,0.0 -78.91559537716768,33.66483905354572,0.0 -78.91558423833983,33.664839053498234,0.0 -78.91558196342595,33.66483897490806,0.0 -78.91557035442433,33.66483787604095,0.0 -78.91556352968406,33.66483638560138,0.0 -78.91555882269571,33.6648352880735,0.0 -78.91555623476917,33.664834503566944,0.0 -78.91554689937517,33.664830659630205,0.0 -78.91554470304335,33.66482948353246,0.0 -78.91553591771643,33.66482446219997,0.0 -78.91552689795805,33.66481834466837,0.0 -78.91549936458175,33.664797557385015,0.0 -78.9154969325081,33.66479583122265,0.0 -78.91548830434382,33.66478994812456,0.0 -78.91548626386408,33.66478861486643,0.0 -78.91547653818779,33.66478288892469,0.0 -78.91547457628853,33.66478179009881,0.0 -78.91546390895233,33.66477614273354,0.0 -78.91546171262031,33.66477512248713,0.0 -78.91545182847162,33.66477033820119,0.0 -78.91544900480318,33.6647690822106,0.0 -78.91540931235492,33.6647512756964,0.0 -78.91539848785649,33.66474617708446,0.0 -78.91539644868615,33.664745079567865,0.0 -78.91538538844574,33.66473950947179,0.0 -78.91538327069476,33.66473833337438,0.0 -78.91537275921085,33.664732293107214,0.0 -78.9153704057179,33.66473080268671,0.0 -78.91536224772805,33.66472538976406,0.0 -78.9153597383834,33.66472366491098,0.0 -78.91532922417727,33.664701465785186,0.0 -78.91532687068441,33.66469981820364,0.0 -78.91531753660324,33.664693464929115,0.0 -78.91531479020641,33.66469173876531,0.0 -78.91530443588486,33.664685149744926,0.0 -78.91525682250584,33.664656125828316,0.0 -78.91525478202618,33.664654792570296,0.0 -78.91524583953861,33.664648909470785,0.0 -78.91524333019387,33.66464726188866,0.0 -78.91523391753242,33.664640437130764,0.0 -78.91523164262031,33.66463878954956,0.0 -78.9152223858115,33.66463141603825,0.0 -78.91521320889363,33.66462349377346,0.0 -78.91521061965925,33.66462121885653,0.0 -78.91516182889598,33.664577134979034,0.0 -78.91515335658632,33.66456897697573,0.0 -78.91515171032056,33.6645673293972,0.0 -78.9151422190824,33.6645571322251,0.0 -78.91513445269189,33.66454756239482,0.0 -78.9151268434642,33.66453697232825,0.0 -78.91512080454238,33.6645266965903,0.0 -78.91511845105381,33.66452144085345,0.0 -78.91511680348106,33.664517596949494,0.0 -78.91511601898536,33.664515479201214,0.0 -78.91511515591118,33.664511322288305,0.0 -78.91511444999747,33.664508184303315,0.0 -78.91511421425801,33.66450575223537,0.0 -78.91511452858535,33.66450222266187,0.0 -78.91511499876522,33.664498221605896,0.0 -78.91511617617124,33.664495084938636,0.0 -78.91511727368538,33.66449312304971,0.0 -78.91511939144243,33.66448928047151,0.0 -78.9151261376124,33.66448198429932,0.0 -78.91512833394788,33.66448010230535,0.0 -78.91513586461429,33.6644742978566,0.0 -78.9151449642774,33.664468414834054,0.0 -78.91514739635475,33.66446700301451,0.0 -78.91515720062543,33.66446135442677,0.0 -78.91515986844514,33.664459864027755,0.0 -78.91516975129602,33.664454686923484,0.0 -78.91517234053487,33.66445335368509,0.0 -78.91520991396509,33.66443413567015,0.0 -78.91522026830096,33.66442872282636,0.0 -78.91522317055349,33.66442715515739,0.0 -78.91523360347075,33.66442127083089,0.0 -78.91523595696718,33.66441993759149,0.0 -78.91525807747696,33.66440660257202,0.0 -78.91526050955423,33.664405190752476,0.0 -78.91527070672912,33.664399307734584,0.0 -78.91527298164469,33.664398053075324,0.0 -78.91528419906005,33.66439224864235,0.0 -78.9152872571646,33.66439067966442,0.0 -78.91532161532731,33.66437412813458,0.0 -78.91532436041818,33.6643726377358,0.0 -78.91533346008015,33.66436777495028,0.0 -78.91533612659033,33.66436620597069,0.0 -78.91534365725542,33.66436149902981,0.0 -78.91534608933304,33.66435985277836,0.0 -78.91535024626104,33.66435655765302,0.0 -78.91535338425699,33.66435412559944,0.0 -78.91535518899774,33.66435263519664,0.0 -78.91536279693767,33.66434479158391,0.0 -78.9153693086761,33.664336555063755,0.0 -78.91537064193253,33.66433467306611,0.0 -78.91537691662046,33.66432510198589,0.0 -78.91539323264645,33.66429694272731,0.0 -78.91539464448407,33.66429466782743,0.0 -78.91539990023958,33.664286274140956,0.0 -78.91540170498145,33.664283842081595,0.0 -78.91540625481676,33.66427772460783,0.0 -78.91540774523457,33.6642759198817,0.0 -78.91541441282341,33.66426901661163,0.0 -78.91541613767369,33.66426744762802,0.0 -78.91542139342413,33.66426329074116,0.0 -78.91542335532638,33.66426180033895,0.0 -78.91543692493143,33.66425230918006,0.0 -78.91543880825283,33.66425089735817,0.0 -78.9154467305141,33.66424462142791,0.0 -78.91544884826871,33.66424281801416,0.0 -78.91545590745085,33.66423654208031,0.0 -78.91545755502997,33.664235051676755,0.0 -78.91546477268426,33.664228149718824,0.0 -78.9154668118584,33.664226030672936,0.0 -78.9154928548748,33.66419983203953,0.0 -78.9155032092164,33.66418963495199,0.0 -78.91551136722161,33.664182025773385,0.0 -78.9155130920718,33.66418061395072,0.0 -78.91552164298044,33.664173474947226,0.0 -78.91552344641137,33.6641720631249,0.0 -78.91553340915479,33.66416516117864,0.0 -78.9155388207558,33.66416210180024,0.0 -78.91554392065258,33.66415943401347,0.0 -78.91555443083878,33.66415535572934,0.0 -78.91555749025208,33.66415449266637,0.0 -78.91556627558745,33.664152453539366,0.0 -78.91556847192106,33.66415206064606,0.0 -78.91557584542012,33.66415119891115,0.0 -78.91557906199426,33.66415096318331,0.0 -78.91558894614863,33.66415088464481,0.0 -78.91559129833355,33.66415104181586,0.0 -78.91560008497461,33.66415229652221,0.0 -78.91560996781593,33.66415512022418,0.0 -78.9156121641481,33.664156061890004,0.0 -78.91561600805616,33.66415810107074,0.0 -78.9156204007196,33.66416061173696,0.0 -78.91562236130898,33.66416186641427,0.0 -78.91562965752925,33.66416743649427,0.0 -78.91563146095692,33.66416876975137,0.0 -78.91564785551364,33.66418257510821,0.0 -78.91565028758698,33.66418445843161,0.0 -78.91565420876562,33.664187046366685,0.0 -78.91565868000924,33.66419010578714,0.0 -78.91566095492172,33.66419136046577,0.0 -78.91566526900496,33.66419340095813,0.0 -78.91567068190889,33.66419606748004,0.0 -78.91567327114495,33.66419700914763,0.0 -78.91567750664801,33.66419849957614,0.0 -78.91568291955285,33.66420046018299,0.0 -78.91568605623515,33.66420132327242,0.0 -78.91569672488444,33.66420414697775,0.0 -78.91569970571521,33.66420477432482,0.0 -78.91571029578455,33.66420681353428,0.0 -78.91571327661548,33.664207285030116,0.0 -78.9157232380393,33.66420869690242,0.0 -78.91572567011453,33.664209009925244,0.0 -78.9157348470408,33.66420979445974,0.0 -78.91573767202014,33.66420995163282,0.0 -78.9157467703662,33.66421026599354,0.0 -78.91574975119772,33.66421026600623,0.0 -78.91575877227369,33.66420963871025,0.0 -78.91576622435444,33.66420791258986,0.0 -78.91576920518774,33.664206422192166,0.0 -78.91577171584676,33.66420422587742,0.0 -78.91577297052419,33.66420077488837,0.0 -78.91577297052754,33.66419794991875,0.0 -78.91577077420263,33.664191047920724,0.0 -78.91576653870676,33.66418343868935,0.0 -78.91576120438982,33.6641755950214,0.0 -78.91575987113782,33.66417371170267,0.0 -78.91575359516139,33.66416555370861,0.0 -78.91575210474777,33.66416382885997,0.0 -78.91571806097663,33.664122881717596,0.0 -78.91571021731517,33.66411315472592,0.0 -78.91570841257911,33.66411072265127,0.0 -78.91570135341566,33.664101231404466,0.0 -78.9156940585118,33.664090092585134,0.0 -78.91568856703563,33.66408020975222,0.0 -78.91568739094588,33.66407785626074,0.0 -78.91568558621242,33.664073227860584,0.0 -78.91568354704697,33.66406805070551,0.0 -78.91568080066209,33.66405636315172,0.0 -78.9156804876542,33.664051656177435,0.0 -78.91568017333526,33.66404812660124,0.0 -78.91568009475723,33.66404577311442,0.0 -78.91568087926775,33.66403549740556,0.0 -78.91568244827342,33.664027809618325,0.0 -78.91568315419403,33.66402514312247,0.0 -78.91568699811609,33.66401549476109,0.0 -78.91568943019651,33.664011416442584,0.0 -78.91569139079108,33.66400827846901,0.0 -78.91569311695201,33.66400592498988,0.0 -78.9156960192064,33.6640028656007,0.0 -78.91569970596004,33.66399894313896,0.0 -78.91570205945727,33.663996903984575,0.0 -78.9157048831299,33.663994629090595,0.0 -78.91570896147694,33.66399141385517,0.0 -78.91571084479833,33.663990000723565,0.0 -78.91571931581467,33.66398443202036,0.0 -78.91572166931118,33.663982941619885,0.0 -78.91573241655215,33.66397658843083,0.0 -78.91573492590052,33.66397525388237,0.0 -78.91576787222975,33.66395729182611,0.0 -78.91577069590143,33.66395580142763,0.0 -78.91579195333071,33.663943563912234,0.0 -78.91579438540796,33.663942152092666,0.0 -78.91580340648903,33.66393728930674,0.0 -78.9158055242426,33.6639362690787,0.0 -78.91581493691717,33.66393203362892,0.0 -78.91582058556895,33.66393015033989,0.0 -78.91582333065895,33.66392936585604,0.0 -78.91582591858705,33.66392889569362,0.0 -78.91583227315431,33.663928659979135,0.0 -78.91583509682374,33.663928974313144,0.0 -78.91584027398613,33.663930934919165,0.0 -78.91584309765419,33.663932503922126,0.0 -78.91584874498841,33.663937210919116,0.0 -78.91585502096568,33.66394466299812,0.0 -78.91585627563684,33.6639465450068,0.0 -78.91586019812036,33.66395313399979,0.0 -78.91586153137153,33.66395564465307,0.0 -78.91586513953051,33.66396340973313,0.0 -78.91586615976819,33.66396584180442,0.0 -78.91586914058973,33.663974235525984,0.0 -78.91587219998988,33.663984432670745,0.0 -78.9158728273237,33.66398686474038,0.0 -78.91587776872305,33.66400616151697,0.0 -78.91588035795063,33.66401424091478,0.0 -78.91588114244632,33.66401643724355,0.0 -78.91588506361778,33.66402506540103,0.0 -78.9158913395932,33.664034086471,0.0 -78.9158953393512,33.6640378518045,0.0 -78.91589996775522,33.66404193015297,0.0 -78.91590436041837,33.66404467656072,0.0 -78.91590930314685,33.66404765740271,0.0 -78.91591942172778,33.66405275601159,0.0 -78.91592161805987,33.664053696367795,0.0 -78.91593063913069,33.66405746172258,0.0 -78.91593306989554,33.66405840338949,0.0 -78.91595464162363,33.664066640029105,0.0 -78.91595730944043,33.66406766027752,0.0 -78.91596562328438,33.66407111130729,0.0 -78.91596789819722,33.664072130244215,0.0 -78.91597762518411,33.664077073000186,0.0 -78.91598601891575,33.66408295609727,0.0 -78.91599103891198,33.664088760599505,0.0 -78.91599213773061,33.66409111409066,0.0 -78.91599401973305,33.66409746733346,0.0 -78.91599401972235,33.664106488376746,0.0 -78.91599252929579,33.664115666574816,0.0 -78.91599198053669,33.66411833307135,0.0 -78.9159882937664,33.66413629656174,0.0 -78.91598719493138,33.66414766977721,0.0 -78.91598766641052,33.664152455332754,0.0 -78.91598805799973,33.66415676940473,0.0 -78.91598892107525,33.664159750229366,0.0 -78.91598986273192,33.664162416732246,0.0 -78.91599190189719,33.66416775104837,0.0 -78.91599692189027,33.664176301939584,0.0 -78.91600358946005,33.664185244430854,0.0 -78.9160053941966,33.66418728360293,0.0 -78.91601151170315,33.66419426419823,0.0 -78.91601331643987,33.66419614751897,0.0 -78.91601998401198,33.6642032066971,0.0 -78.91604704589591,33.66423034852279,0.0 -78.91604892921342,33.66423223053416,0.0 -78.91605685145706,33.66424078012812,0.0 -78.91605889062598,33.66424313362328,0.0 -78.9160662641136,33.6642517631051,0.0 -78.91606830459205,33.66425419387112,0.0 -78.91609246422159,33.66428447235689,0.0 -78.91609442480957,33.6642869044322,0.0 -78.91610171971652,33.66429553260397,0.0 -78.91610376019497,33.66429788609915,0.0 -78.91611105510286,33.6643057310852,0.0 -78.91611293711057,33.66430769167713,0.0 -78.91613403864781,33.66432926342852,0.0 -78.91613615639757,33.664331538343546,0.0 -78.91614196089128,33.664338048764016,0.0 -78.91614627497009,33.664343853263276,0.0 -78.91614815828581,33.66434714841436,0.0 -78.91614909863313,33.66434957917562,0.0 -78.91614870703441,33.66435334449036,0.0 -78.9161470594548,33.6643552277964,0.0 -78.91614447152539,33.66435679677643,0.0 -78.91614196086812,33.664357581261186,0.0 -78.91613670512133,33.66435867874671,0.0 -78.91613427304539,33.66435891447788,0.0 -78.91612556629252,33.664359541775376,0.0 -78.9161227426227,33.66435954176335,0.0 -78.9161123882932,33.664359541719264,0.0 -78.91611011337925,33.66435946312901,0.0 -78.91609905313277,33.66435907148906,0.0 -78.9160967782189,33.66435899289879,0.0 -78.91608234554711,33.66435820834181,0.0 -78.91603488798948,33.66435491299677,0.0 -78.91603261307561,33.66435475582604,0.0 -78.91603033816175,33.664354599965016,0.0 -78.91600241316827,33.66435310943563,0.0 -78.91599958949845,33.66435303084304,0.0 -78.91598625433801,33.66435263788368,0.0 -78.91598272344092,33.66435263786865,0.0 -78.91596868236228,33.66435287355039,0.0 -78.91595432826892,33.66435404957775,0.0 -78.9159484451855,33.66435506978975,0.0 -78.91594405251806,33.664355932847045,0.0 -78.91594162044174,33.6643564815906,0.0 -78.91593565877635,33.66435852072961,0.0 -78.91593330528033,33.664359540956724,0.0 -78.91592977569051,33.66436158010609,0.0 -78.91592742219386,33.66436314908702,0.0 -78.91592436277794,33.66436620847544,0.0 -78.9159225593455,33.66436887496663,0.0 -78.91592114750586,33.66437279743806,0.0 -78.91592036300298,33.664376641331685,0.0 -78.91592044157954,33.66438024948746,0.0 -78.91592067600726,33.66438448497827,0.0 -78.91592334381279,33.66439499644339,0.0 -78.91592404972775,33.66439711419136,0.0 -78.91592726498129,33.66440605666784,0.0 -78.9159426405809,33.66444198243593,0.0 -78.91594742482704,33.664454298642646,0.0 -78.91595142588443,33.66446677069735,0.0 -78.91595440670086,33.664479399908856,0.0 -78.91596044559287,33.66451485546376,0.0 -78.91596099565508,33.6645177577065,0.0 -78.91596311339545,33.6645278762667,0.0 -78.91596374072898,33.664530544077955,0.0 -78.91596711314133,33.664541838731985,0.0 -78.9159710356218,33.6645510955335,0.0 -78.91597221302119,33.664553449025,0.0 -78.91597699727183,33.664561998605606,0.0 -78.91597817336212,33.66456388192367,0.0 -78.91598484093166,33.664573137427254,0.0 -78.9159921371489,33.664581216845235,0.0 -78.91599378341469,33.6645827858432,0.0 -78.9159966856624,33.6645852965031,0.0 -78.91599935347764,33.66458765000095,0.0 -78.91600186282203,33.664589610595556,0.0 -78.91600908046243,33.66459439487004,0.0 -78.91601151122663,33.664595808020024,0.0 -78.91602696543941,33.664604514807145,0.0 -78.91603480910634,33.66460969198696,0.0 -78.91604124093743,33.664615575075736,0.0 -78.91604712400903,33.6646245175636,0.0 -78.91604877158147,33.66462867447998,0.0 -78.91605065358515,33.66463400879545,0.0 -78.91605230115348,33.664641618015835,0.0 -78.91605277263496,33.664644441677765,0.0 -78.91605402729719,33.664653854319354,0.0 -78.91605426303647,33.66465644354837,0.0 -78.91605653791427,33.66468695637278,0.0 -78.91605787115633,33.66469715481985,0.0 -78.9160599103178,33.66470570438878,0.0 -78.91606265539943,33.664712057635356,0.0 -78.91606398865089,33.66471433254696,0.0 -78.91606744096278,33.664718019297595,0.0 -78.91606955871339,33.66471958829758,0.0 -78.91607300971816,33.66472107872277,0.0 -78.91607638345262,33.664722020393626,0.0 -78.91608375694994,33.66472249059849,0.0 -78.91609120903007,33.66472139312243,0.0 -78.9160941112818,33.66472053005879,0.0 -78.91610211211975,33.664717706432974,0.0 -78.9161113676334,33.66471299949944,0.0 -78.91611356396803,33.664711823420404,0.0 -78.91612187913168,33.66470688074134,0.0 -78.91612470280374,33.6647050773305,0.0 -78.91614133313236,33.66469417435464,0.0 -78.91614368662897,33.66469268395419,0.0 -78.9161528635628,33.66468711394432,0.0 -78.91616125730657,33.6646827213292,0.0 -78.9161689451309,33.66468005486299,0.0 -78.91617208181489,33.66467958339331,0.0 -78.91617435672906,33.66467950482252,0.0 -78.91617718039852,33.66467989773713,0.0 -78.91618016122818,33.66468138816032,0.0 -78.91618282904354,33.664683663077604,0.0 -78.91618549554775,33.66468711408338,0.0 -78.91618667294762,33.66468915325279,0.0 -78.91618933944785,33.66469597798209,0.0 -78.91619004536251,33.66469833147159,0.0 -78.91619161435105,33.66470507761565,0.0 -78.9161920059425,33.664707509684284,0.0 -78.91619302617258,33.66471645084184,0.0 -78.91619334048303,33.66472711945801,0.0 -78.91619263455294,33.66473778806992,0.0 -78.91619075122001,33.66474892685015,0.0 -78.91619012388004,33.66475167192683,0.0 -78.91618784895715,33.66475920255004,0.0 -78.91618510385887,33.66476696760306,0.0 -78.91618416219598,33.66476947824658,0.0 -78.91617678867513,33.6647887749708,0.0 -78.91617584701241,33.664791205724036,0.0 -78.9161720816717,33.66480038391243,0.0 -78.91617114131881,33.66480265881443,0.0 -78.91616729739789,33.664811365519334,0.0 -78.91616619857349,33.6648138761621,0.0 -78.91616078696306,33.664824857766334,0.0 -78.91615553120694,33.66483380020674,0.0 -78.91614988254771,33.66484195814996,0.0 -78.91614807911574,33.66484423304827,0.0 -78.91614164596005,33.66485090057775,0.0 -78.91613976394815,33.66485239098021,0.0 -78.91613694027609,33.66485427297151,0.0 -78.91613184168847,33.66485733235122,0.0 -78.916127527601,33.66485890132388,0.0 -78.91612329078475,33.66486031313573,0.0 -78.91612054569484,33.66486094045851,0.0 -78.9161170161069,33.6648614106169,0.0 -78.9161118389413,33.6648621178194,0.0 -78.91610854378654,33.664862195076225,0.0 -78.91609928827855,33.66486219503677,0.0 -78.9160967776223,33.664862039174714,0.0 -78.91608728637286,33.66486117605825,0.0 -78.91607387263356,33.664859058256106,0.0 -78.91607151913936,33.664858508182455,0.0 -78.91606124339357,33.664856155961864,0.0 -78.91605881131865,33.66485552730732,0.0 -78.91604767380443,33.664852233426565,0.0 -78.91603598491615,33.66484799788682,0.0 -78.91603371000328,33.66484705622064,0.0 -78.9160222581682,33.66484180044493,0.0 -78.91601245260114,33.66483630893463,0.0 -78.91600978609468,33.66483474124193,0.0 -78.91597997780232,33.664815522939826,0.0 -78.91597731129605,33.664813875356934,0.0 -78.91596726998654,33.66480838384563,0.0 -78.91596444631828,33.664806972003774,0.0 -78.91595432773633,33.66480265789025,0.0 -78.91594350192656,33.66479889252761,0.0 -78.915940599677,33.664797950858755,0.0 -78.91592914783922,33.66479496998898,0.0 -78.91591746025833,33.66479261645268,0.0 -78.91591510676406,33.664792146269214,0.0 -78.9159036536148,33.664790734390486,0.0 -78.91590122153949,33.6647904986385,0.0 -78.91589071135891,33.66478979267875,0.0 -78.91588812212183,33.664789714087235,0.0</coordinates>
                    </LinearRing>
                </outerBoundaryIs>
            </Polygon>
        </Placemark>
        <Placemark id="3995">
            <name>Flood_434</name>
            <styleUrl>#4000</styleUrl>
            <Polygon id="3994">
                <outerBoundaryIs>
                    <LinearRing id="3998">
                        <coordinates>-78.91499898285151,33.66494769249579,0.0 -78.91499733527594,33.6649462020783,0.0 -78.91498745244229,33.66493694525136,0.0 -78.91497866712024,33.66492784689985,0.0 -78.91497678380267,33.664925963578796,0.0 -78.91496886155905,33.66491741398479,0.0 -78.9149669009707,33.66491537481207,0.0 -78.91494940759983,33.66489537206712,0.0 -78.91494744701149,33.66489325300421,0.0 -78.9149304251265,33.66487238849501,0.0 -78.91492854180966,33.664869956419956,0.0 -78.91492218856239,33.66486156268407,0.0 -78.91492085531038,33.66485975925554,0.0 -78.91491434490271,33.66485034528194,0.0 -78.91490846183231,33.66484046244741,0.0 -78.91490430360929,33.66483151996689,0.0 -78.91490265604139,33.66482359773421,0.0 -78.914902813206,33.66482100850689,0.0 -78.91490375487062,33.66481708603351,0.0 -78.91490516670815,33.6648148897141,0.0 -78.91490885346137,33.66481136015499,0.0 -78.91491104979619,33.66481010549541,0.0 -78.91491795312264,33.66480704612343,0.0 -78.91492744437629,33.66480437966505,0.0 -78.9149386617873,33.66480233923879,0.0 -78.91494101528251,33.66480202623644,0.0 -78.91495230996364,33.66480077030601,0.0 -78.91496486062724,33.66480006444447,0.0 -78.91496823436292,33.66479990860752,0.0 -78.91500596493256,33.664799280124264,0.0 -78.91500949452025,33.6647990457074,0.0 -78.91501843701559,33.664798418411046,0.0 -78.9150271437698,33.66479661371569,0.0 -78.91502965442746,33.66479559348935,0.0 -78.91503404709756,33.66479261268714,0.0 -78.9150359291116,33.66478924028137,0.0 -78.91503640060017,33.66478610230139,0.0 -78.91503616486183,33.664782651306126,0.0 -78.91503545894794,33.664779670482176,0.0 -78.9150325567058,33.66477253273957,0.0 -78.91502769256454,33.66476413901003,0.0 -78.91502188807267,33.664756138179136,0.0 -78.91501545624342,33.66474876467996,0.0 -78.91501380866801,33.66474711710143,0.0 -78.91500596500364,33.664739822176806,0.0 -78.91500408168561,33.66473841033878,0.0 -78.91499694393607,33.66473339032306,0.0 -78.91498815860899,33.664728526151656,0.0 -78.91498047079219,33.664724839383005,0.0 -78.91497827446037,33.664723663285265,0.0 -78.91497356878317,33.66472130977875,0.0 -78.91497082238615,33.66471981935668,0.0 -78.91496588096797,33.66471636834125,0.0 -78.91496337031379,33.66471448501752,0.0 -78.91496031090544,33.66471119117117,0.0 -78.91495631114832,33.66470671992281,0.0 -78.91495348748363,33.66470232725986,0.0 -78.91495066381914,33.664697777435954,0.0 -78.9149456425198,33.664686481465395,0.0 -78.9149419557844,33.66467518550051,0.0 -78.91493889638599,33.66466349794546,0.0 -78.91493842621391,33.66466098729587,0.0 -78.91493646563589,33.66465031998252,0.0 -78.91493513239627,33.66463808237121,0.0 -78.91493489666703,33.66462710074304,0.0 -78.91493575975858,33.66461674645403,0.0 -78.91493615135555,33.66461447154981,0.0 -78.91493748461525,33.664609844472764,0.0 -78.91493858344136,33.664605922000035,0.0 -78.91493983811768,33.66460348993836,0.0 -78.9149414071172,33.66460098060724,0.0 -78.91494423079219,33.664596743819786,0.0 -78.91494791754494,33.66459360716322,0.0 -78.91495207578238,33.664590547779525,0.0 -78.91495709578824,33.664588194314454,0.0 -78.91495968371711,33.664587095507954,0.0 -78.91496180147062,33.66458623244099,0.0 -78.9149644692895,33.664585449266546,0.0 -78.91496752870273,33.664584664784066,0.0 -78.91497278444982,33.664583408827895,0.0 -78.91497592113389,33.66458286008735,0.0 -78.91497945203137,33.664582468509444,0.0 -78.91498407913122,33.664581918465544,0.0 -78.91498666836858,33.664581762625154,0.0 -78.91499176695267,33.66458168406639,0.0 -78.91499741429251,33.66458168409046,0.0 -78.91500918045524,33.66458301739001,0.0 -78.91501184827271,33.6645834875748,0.0 -78.91501608377614,33.66458474226179,0.0 -78.91502126093901,33.66458631127478,0.0 -78.91502369301338,33.66458733152219,0.0 -78.91503083076469,33.66459086112743,0.0 -78.91503286993499,33.66459203853421,0.0 -78.91504008757536,33.66459682280874,0.0 -78.91504236248737,33.66459847038994,0.0 -78.91505648082388,33.66460937349661,0.0 -78.9150586771551,33.66461102107748,0.0 -78.91506699230607,33.66461682559373,0.0 -78.91506918863769,33.66461815885252,0.0 -78.91507656213061,33.66462239568343,0.0 -78.91508801527603,33.664627022814884,0.0 -78.91509076036407,33.664627885902576,0.0 -78.91509923268055,33.66463039658627,0.0 -78.91510150759387,33.66463094534978,0.0 -78.91512409825624,33.66463651418534,0.0 -78.91512645175021,33.66463722142002,0.0 -78.91513664891428,33.66464035813575,0.0 -78.91513900240798,33.66464129980225,0.0 -78.91514276773594,33.66464286880933,0.0 -78.91514669022533,33.664644516397466,0.0 -78.9151488079765,33.66464553533391,0.0 -78.91515335649144,33.66464843759367,0.0 -78.9151578277352,33.66465133985308,0.0 -78.91515986821474,33.66465283027225,0.0 -78.91516339779848,33.66465588968871,0.0 -78.91516818205419,33.66466012650859,0.0 -78.91517673294321,33.66466953918128,0.0 -78.91518340051326,33.664678245930794,0.0 -78.9151846551844,33.664680129249184,0.0 -78.91519022524245,33.66468907042603,0.0 -78.91519532381439,33.6646991117281,0.0 -78.91519642132334,33.66470146521924,0.0 -78.91520630544856,33.66472593916307,0.0 -78.91520999218952,33.66473268400638,0.0 -78.91521367893307,33.664737155253505,0.0 -78.91521611100575,33.66473966591138,0.0 -78.91522089526251,33.664742961074715,0.0 -78.91522348449783,33.66474460734756,0.0 -78.91523172107055,33.664748215538076,0.0 -78.9152339946739,33.66474907862376,0.0 -78.91524944889048,33.66475457015808,0.0 -78.91525172380337,33.66475551182425,0.0 -78.91525729255918,33.66475817834683,0.0 -78.91525995906571,33.66475966876867,0.0 -78.91526639220686,33.66476523753531,0.0 -78.91526835279427,33.66476814109375,0.0 -78.91527007894874,33.664771199192906,0.0 -78.91527117645725,33.66477394558654,0.0 -78.91527180379116,33.664776299075676,0.0 -78.91527274544602,33.66478045598901,0.0 -78.91527313834699,33.664782966638285,0.0 -78.91527368709376,33.6647906531248,0.0 -78.91527345133886,33.66480116457739,0.0 -78.9152732941738,33.664803988236606,0.0 -78.91527227523115,33.664813793771096,0.0 -78.91527039189663,33.664826187220164,0.0 -78.91526811696822,33.66483826765509,0.0 -78.91526552902691,33.66484979802526,0.0 -78.91526498026842,33.66485199434825,0.0 -78.91526239101898,33.6648621914689,0.0 -78.91526176367955,33.664864544952685,0.0 -78.91525886141699,33.66487442905961,0.0 -78.91525470316877,33.66488658675746,0.0 -78.91525211523353,33.664893019871265,0.0 -78.91525117357118,33.6648951376122,0.0 -78.91524780113733,33.664901883735126,0.0 -78.91524325130077,33.66490894286551,0.0 -78.91524183946387,33.66491066901139,0.0 -78.91523917164245,33.66491349265991,0.0 -78.91523603495502,33.66491678778957,0.0 -78.9152343087951,33.664918355463456,0.0 -78.9152273268846,33.66492400406318,0.0 -78.91522481753583,33.66492573020447,0.0 -78.91521854154469,33.66492988708703,0.0 -78.91521626662882,33.664931377487704,0.0 -78.91520316720057,33.66493945681868,0.0 -78.91519924470583,33.664942280461844,0.0 -78.91519822577085,33.664945654181004,0.0 -78.91520144103316,33.664947221875956,0.0 -78.9152048147683,33.66494753621244,0.0 -78.91520763843805,33.66494769338552,0.0 -78.91521344293942,33.66494769341027,0.0 -78.91521681667511,33.66494753626361,0.0 -78.91522426875441,33.66494714470253,0.0 -78.9152268566821,33.664946987552426,0.0 -78.91523540758328,33.664946203093464,0.0 -78.91523838841522,33.664945810203605,0.0 -78.91524646783196,33.66494479131072,0.0 -78.91524913434077,33.664944398419514,0.0 -78.91525909707794,33.6649427522002,0.0 -78.91526231234286,33.66494212356972,0.0 -78.91527219649991,33.66493992728645,0.0 -78.9152747058474,33.664939299962676,0.0 -78.91528513876132,33.66493624060573,0.0 -78.91528796374209,33.66493522169045,0.0 -78.91529682765987,33.66493184800465,0.0 -78.9153136138361,33.66492463176547,0.0 -78.91531628034592,33.66492345568847,0.0 -78.91532483124992,33.664920239162456,0.0 -78.91533000841638,33.664918827354626,0.0 -78.91533298924847,33.66491835588421,0.0 -78.9153364402551,33.66491827862816,0.0 -78.91533949966684,33.66491874881462,0.0 -78.91534310783312,33.66492039640153,0.0 -78.91534522558354,33.664922121252836,0.0 -78.91534718617142,33.66492455332814,0.0 -78.9153484421522,33.6649265139174,0.0 -78.91534985398206,33.66493075072293,0.0 -78.9153504027353,33.664932947050694,0.0 -78.91535055988784,33.66494063353554,0.0 -78.91534891229875,33.66495043906735,0.0 -78.91534593145533,33.66496040175441,0.0 -78.91534506837347,33.66496275392749,0.0 -78.91534200895174,33.664970598869296,0.0 -78.91534091143704,33.66497310820242,0.0 -78.91533636159757,33.664982679289935,0.0 -78.91533071424489,33.664993425151444,0.0 -78.91532443824642,33.66500370083685,0.0 -78.91531737905949,33.66501389793843,0.0 -78.91531079005014,33.665021900026304,0.0 -78.91530906388978,33.665023782022274,0.0 -78.91530498554185,33.66502770448229,0.0 -78.91530239630174,33.66503013522849,0.0 -78.91529980837156,33.66503233154296,0.0 -78.91529572871512,33.66503523376594,0.0 -78.91529023722295,33.66503884320755,0.0 -78.91528545295952,33.66504103951266,0.0 -78.91528066738665,33.66504307865662,0.0 -78.91527815803879,33.665044020302396,0.0 -78.91527392253255,33.66504511779223,0.0 -78.91526827388127,33.66504660817861,0.0 -78.91526599896673,33.665047001071486,0.0 -78.91526129328601,33.66504762838579,0.0 -78.91525595895881,33.66504833427809,0.0 -78.91525329114057,33.66504849142775,0.0 -78.9152430153917,33.66504864723526,0.0 -78.9152404274644,33.665048491372886,0.0 -78.91522952437994,33.66504770683086,0.0 -78.9152181498116,33.6650461377914,0.0 -78.91521579631723,33.665045744878704,0.0 -78.91520552057106,33.66504362709003,0.0 -78.91520269690197,33.66504299974351,0.0 -78.91519218541401,33.66504033319983,0.0 -78.91518896884124,33.66503931294907,0.0 -78.91517932043298,33.66503617492593,0.0 -78.91517704551995,33.6650353904208,0.0 -78.91516849593322,33.665032175131586,0.0 -78.91509005400178,33.66500024884301,0.0 -78.9150871517525,33.66499907143254,0.0 -78.91507546417479,33.664994051397386,0.0 -78.91507248334486,33.66499271813526,0.0 -78.91506048144448,33.6649873051962,0.0 -78.91504840096385,33.66498142208338,0.0 -78.91504636179354,33.664980324566784,0.0 -78.91503428131377,33.66497373553902,0.0 -78.91502228072547,33.6649662834356,0.0 -78.91501106332682,33.664957968259436,0.0 -78.91500933717046,33.664956556422084,0.0 -78.91499898285151,33.66494769249579,0.0</coordinates>
                    </LinearRing>
                </outerBoundaryIs>
            </Polygon>
        </Placemark>
        <Placemark id="4004">
            <name>Flood_435</name>
            <styleUrl>#4009</styleUrl>
            <Polygon id="4003">
                <outerBoundaryIs>
                    <LinearRing id="4007">
                        <coordinates>-78.91454088131248,33.66526843787192,0.0 -78.91453797906186,33.665268359279054,0.0 -78.91452715455635,33.66526914372829,0.0 -78.91451844780238,33.66527055552111,0.0 -78.91451554555083,33.665271340004146,0.0 -78.91451052554561,33.665272987554225,0.0 -78.91450809346878,33.66527400778089,0.0 -78.91450181747824,33.66527761590948,0.0 -78.91449287497532,33.6652845964404,0.0 -78.91449060005915,33.66528632258276,0.0 -78.91448652171252,33.66528906764466,0.0 -78.9144842467973,33.66529008787198,0.0 -78.91448087437028,33.66529110809463,0.0 -78.91447804939052,33.66529126393391,0.0 -78.91447514713994,33.665291108070186,0.0 -78.91447271637423,33.66529095089877,0.0 -78.91447052004166,33.66529032355493,0.0 -78.9144658916346,33.66528883312471,0.0 -78.91446275364298,33.66528757713277,0.0 -78.9144555373109,33.66528396894667,0.0 -78.91445279222388,33.6652822440926,0.0 -78.91444471150498,33.66527698833132,0.0 -78.91443835825348,33.665272124170265,0.0 -78.91443569174777,33.665269927833485,0.0 -78.91442925860721,33.66526388758372,0.0 -78.91442361127515,33.6652573771639,0.0 -78.91442212086183,33.66525541657366,0.0 -78.91441835554006,33.66524867042034,0.0 -78.91441764962619,33.665245689596496,0.0 -78.91441710087541,33.66524137552383,0.0 -78.91441749247305,33.665238630446105,0.0 -78.91441906147446,33.665234550814375,0.0 -78.91442023887929,33.66523243307456,0.0 -78.91442502314746,33.66522623571162,0.0 -78.91442659214614,33.66522451087596,0.0 -78.9144379667302,33.665212979233864,0.0 -78.914439534419,33.665211331669056,0.0 -78.91444455573885,33.66520544862921,0.0 -78.91444635917131,33.66520286071866,0.0 -78.91444839834737,33.66519917399149,0.0 -78.91445012450964,33.66519572300451,0.0 -78.91445153635108,33.665190388703174,0.0 -78.9144521636924,33.66518646622847,0.0 -78.91445208642754,33.66518121050134,0.0 -78.91445177210933,33.6651771321712,0.0 -78.9144497329492,33.66516748378489,0.0 -78.91444902703483,33.66516489455391,0.0 -78.91444565331044,33.66515571764495,0.0 -78.91444086906178,33.66514559776381,0.0 -78.9144357704886,33.66513657669883,0.0 -78.91443443592733,33.6651344589483,0.0 -78.91442839700366,33.665125752201405,0.0 -78.91442706244204,33.66512387019231,0.0 -78.91442016043882,33.665115476454204,0.0 -78.91441859144446,33.665113671714956,0.0 -78.91441176671125,33.66510629821412,0.0 -78.91440400162851,33.66509837595539,0.0 -78.91440203973028,33.66509641536314,0.0 -78.91439419606611,33.66508896327748,0.0 -78.9143920783162,33.665086924104095,0.0 -78.91437544801882,33.66507162702611,0.0 -78.91437286009398,33.6650693521091,0.0 -78.91435403346479,33.665052880243096,0.0 -78.91435199429523,33.66505115408242,0.0 -78.91433638423504,33.66503876055886,0.0 -78.91432712742541,33.66503201438213,0.0 -78.91432532399774,33.66503068112503,0.0 -78.9143155184315,33.66502456228035,0.0 -78.91430641878104,33.66501985526873,0.0 -78.91430414517788,33.665018836331626,0.0 -78.91430045712079,33.66501750175686,0.0 -78.9142970846964,33.665016325654115,0.0 -78.91429418244657,33.6650156197267,0.0 -78.91429049569822,33.66501507095708,0.0 -78.91428539711497,33.66501452087172,0.0 -78.91428312220059,33.66501475660355,0.0 -78.91427935687018,33.665015305341385,0.0 -78.91427606171487,33.66501577681047,0.0 -78.91427370952908,33.665016325554426,0.0 -78.91426845378129,33.66501820753532,0.0 -78.91426382537021,33.66502001224803,0.0 -78.91426147187414,33.6650211110556,0.0 -78.91425739352817,33.665023307363604,0.0 -78.91425362819588,33.6650253465119,0.0 -78.91425096037604,33.66502691549146,0.0 -78.91424099894293,33.665033190103166,0.0 -78.91423872402704,33.6650347590844,0.0 -78.91421950576799,33.665047936954906,0.0 -78.91421723085202,33.66504950593613,0.0 -78.91420632775795,33.6650567222003,0.0 -78.91419675792002,33.66506229220834,0.0 -78.91419401151941,33.665063782607085,0.0 -78.9141827954145,33.66506880254451,0.0 -78.91418044191883,33.66506950844942,0.0 -78.9141767551686,33.66507052867072,0.0 -78.91417095066532,33.66507201905641,0.0 -78.91416138083324,33.66507272493054,0.0 -78.91415887017689,33.66507264633935,0.0 -78.91415063360104,33.66507162606719,0.0 -78.91414733844724,33.665070920138106,0.0 -78.91414106377273,33.665069195269076,0.0 -78.91413871027905,33.66506833218305,0.0 -78.91413259145764,33.66506558576794,0.0 -78.9141297677895,33.66506409534545,0.0 -78.91412412045426,33.665060331314656,0.0 -78.9141217669615,33.665058605152645,0.0 -78.91411549229286,33.6650520161496,0.0 -78.91411258873829,33.66504715200338,0.0 -78.91411007939703,33.665042603490555,0.0 -78.91410929490146,33.6650404058521,0.0 -78.91410835324533,33.66503726917585,0.0 -78.91410678425484,33.6650322491839,0.0 -78.9141044307754,33.66501946281435,0.0 -78.91410317611604,33.665007775266986,0.0 -78.91410301895735,33.6650053431994,0.0 -78.91410137271707,33.66498259544291,0.0 -78.91410121555856,33.664980084794756,0.0 -78.91409996089837,33.664969103162335,0.0 -78.91409807759261,33.66495749419286,0.0 -78.9140974502591,33.66495482638176,0.0 -78.9140961955908,33.66495059088657,0.0 -78.91409493961295,33.664946276810895,0.0 -78.91409384210463,33.66494337456588,0.0 -78.91409195878954,33.66493953066095,0.0 -78.91408944944877,33.66493458924556,0.0 -78.91408599713846,33.66492964651645,0.0 -78.91408207596275,33.664924705094954,0.0 -78.91407391797645,33.664916389932,0.0 -78.91407219182013,33.664914899514194,0.0 -78.9140568175033,33.66490172149618,0.0 -78.9140548569146,33.66489999533585,0.0 -78.91404685477916,33.664892543249564,0.0 -78.91404026578863,33.66488493531788,0.0 -78.91403901111788,33.66488273898714,0.0 -78.91403775644758,33.664880228334304,0.0 -78.9140360302935,33.66487677733271,0.0 -78.9140352457986,33.66487403094036,0.0 -78.91403501005952,33.66487128585998,0.0 -78.91403461846906,33.664868069295885,0.0 -78.91403461847199,33.66486563853868,0.0 -78.91403524581351,33.66486163748342,0.0 -78.91403610889795,33.66485716625575,0.0 -78.91403791233391,33.66485159752428,0.0 -78.91403971707875,33.66484673339806,0.0 -78.9140445799321,33.66483692918989,0.0 -78.91404591449871,33.66483457570914,0.0 -78.91405171901134,33.66482531894917,0.0 -78.914058621036,33.664815749181514,0.0 -78.91406662319194,33.664806100837964,0.0 -78.91407517279296,33.66479739415339,0.0 -78.91407972262574,33.66479355027581,0.0 -78.91408254629832,33.66479127538198,0.0 -78.91408442961972,33.6647899421406,0.0 -78.91408858654665,33.664787510091394,0.0 -78.91409313637773,33.66478500077301,0.0 -78.9140953327119,33.66478421628687,0.0 -78.91409823496365,33.66478335322325,0.0 -78.9141010586345,33.664782568739774,0.0 -78.91410427520906,33.664782019999585,0.0 -78.9141088250372,33.66478202001898,0.0 -78.91411321770336,33.66478225446961,0.0 -78.91411604137264,33.66478280454516,0.0 -78.91411957095899,33.66478366763628,0.0 -78.91412459096036,33.664785079487565,0.0 -78.91412741462905,33.664786098426916,0.0 -78.91413086694361,33.664787588852086,0.0 -78.91413627853817,33.6647899423616,0.0 -78.9141387891931,33.66479119704114,0.0 -78.91414804600468,33.664796295646426,0.0 -78.91415902766262,33.66480312041103,0.0 -78.91416114541329,33.664804610830515,0.0 -78.91417110683037,33.66481159275173,0.0 -78.91417346032323,33.66481324033326,0.0 -78.91418201121574,33.66481967218486,0.0 -78.9141838146434,33.66482100544196,0.0 -78.9141940118014,33.664829242033115,0.0 -78.91420428753962,33.66483794879804,0.0 -78.91420601369596,33.66483943921585,0.0 -78.91421597642,33.66484869604295,0.0 -78.91422578067217,33.66485850031376,0.0 -78.91425049036985,33.66488634804414,0.0 -78.91425252953894,33.66488846579776,0.0 -78.91425856977561,33.66489442746524,0.0 -78.91426068752583,33.66489630947758,0.0 -78.91426382551603,33.66489866297739,0.0 -78.91426688492551,33.66490101647688,0.0 -78.9142687669342,33.66490219257328,0.0 -78.91427276800395,33.664904154483835,0.0 -78.91427684634505,33.66490603650462,0.0 -78.91428555440494,33.66490760553268,0.0 -78.91428798517052,33.66490791986514,0.0 -78.9142904172462,33.66490784129494,0.0 -78.91429794790608,33.664907605585526,0.0 -78.9143003014011,33.66490744843451,0.0 -78.91432116591393,33.66490587953254,0.0 -78.91432367657056,33.66490564511143,0.0 -78.91434399363631,33.66490478212207,0.0 -78.91434744464304,33.664904703556225,0.0 -78.91438392053969,33.66490384063576,0.0 -78.91438721438482,33.66490376206932,0.0 -78.91441160979305,33.66490352774143,0.0 -78.91441513938045,33.664903527756486,0.0 -78.9144256508714,33.664903683652625,0.0 -78.91442925903945,33.664903762248585,0.0 -78.91444024201485,33.66490415519788,0.0 -78.91444330011741,33.66490423379149,0.0 -78.9144547532674,33.66490501833583,0.0 -78.91445765551784,33.66490525278011,0.0 -78.91446926451927,33.664906430227596,0.0 -78.91447248109279,33.66490674325369,0.0 -78.91448424725525,33.66490839087536,0.0 -78.91448714950548,33.664908861061164,0.0 -78.91449922999058,33.66491090158673,0.0 -78.91450205365996,33.6649113717722,0.0 -78.91451303532345,33.664913568144435,0.0 -78.91451538881773,33.664914038327886,0.0 -78.91452778231549,33.664916863350214,0.0 -78.91454064729741,33.66492023581885,0.0 -78.91454292221066,33.66492086316311,0.0 -78.9145539824536,33.664924236933665,0.0 -78.91455641321872,33.664924942858974,0.0 -78.91456818068771,33.66492925697948,0.0 -78.91457884802509,33.664933884107676,0.0 -78.914581750274,33.66493537453052,0.0 -78.9145865358414,33.6649379637789,0.0 -78.91459226175799,33.66494133621709,0.0 -78.91460261607838,33.66494894547451,0.0 -78.9146115585636,33.664956711887015,0.0 -78.91462858045394,33.66497310516479,0.0 -78.91463054104254,33.66497498848617,0.0 -78.91464003228248,33.6649836952478,0.0 -78.9146498378464,33.66499185325687,0.0 -78.91465179974509,33.66499334367561,0.0 -78.91465980057257,33.664999383932056,0.0 -78.91466262423995,33.66500150168902,0.0 -78.91467282139914,33.665008718043204,0.0 -78.91467525347285,33.665010365625086,0.0 -78.91470992460142,33.665033819437596,0.0 -78.91472090625837,33.66504158585874,0.0 -78.91473204507626,33.66504982245398,0.0 -78.9147413018848,33.66505750897758,0.0 -78.91474302673133,33.66505907797589,0.0 -78.91475079312438,33.6650666086418,0.0 -78.91475267513205,33.66506856923363,0.0 -78.9147582451931,33.66507500238237,0.0 -78.91475981418745,33.665076805811815,0.0 -78.91476703051325,33.66508566972482,0.0 -78.914774561163,33.66509390630467,0.0 -78.91477652175162,33.66509578962616,0.0 -78.91477965974137,33.66509853471885,0.0 -78.91478271915048,33.66510127981122,0.0 -78.91478475832002,33.66510300597199,0.0 -78.91479542565341,33.66511100682362,0.0 -78.91482954802703,33.665133833299386,0.0 -78.91483198010056,33.665135559461746,0.0 -78.9148407654258,33.66514199131442,0.0 -78.91484343193177,33.6651439532194,0.0 -78.91485057099047,33.66514944340857,0.0 -78.9148524529988,33.665150933827064,0.0 -78.91485433631667,33.66515250282605,0.0 -78.91487214270732,33.66516724984552,0.0 -78.91487480921293,33.66516952476279,0.0 -78.91489190968596,33.66518442894031,0.0 -78.91489379169403,33.665186076519845,0.0 -78.91491144223102,33.665202313949045,0.0 -78.91491332423888,33.665204117379915,0.0 -78.91492187381914,33.665212746866715,0.0 -78.9149300318046,33.66522176663517,0.0 -78.9149363077813,33.665229768777714,0.0 -78.9149379553557,33.66523219954206,0.0 -78.91494077902028,33.665236670785504,0.0 -78.91494368126506,33.66524169078319,0.0 -78.91494611333391,33.66524733942296,0.0 -78.91494862267277,33.66525392841,0.0 -78.91495003450122,33.66525934130381,0.0 -78.91495136905834,33.665265067209845,0.0 -78.91495215223935,33.66527134186733,0.0 -78.91495262371929,33.6652754215078,0.0 -78.91495278087761,33.66527816658788,0.0 -78.91495270229038,33.66528350089493,0.0 -78.91495270228513,33.665287893545774,0.0 -78.91495246653956,33.6652905600436,0.0 -78.914951760616,33.66529565860637,0.0 -78.91495121185565,33.6652993453399,0.0 -78.91495066309679,33.665301855985064,0.0 -78.91494893693182,33.665307581877954,0.0 -78.91494689775305,33.665313543511104,0.0 -78.91494446567128,33.66531864206651,0.0 -78.91494195500928,33.66532334902871,0.0 -78.91494046459061,33.665325702508724,0.0 -78.91493818967268,33.66532899633233,0.0 -78.91493481724116,33.66533378187141,0.0 -78.9149330910804,33.66533597818947,0.0 -78.91492579615301,33.66534444913799,0.0 -78.91491732513332,33.665352764230065,0.0 -78.91491567755406,33.66535433321406,0.0 -78.91490712664522,33.66536154948827,0.0 -78.9148966937258,33.66536908007646,0.0 -78.91489049762563,33.665372766785886,0.0 -78.91488704661666,33.66537480593552,0.0 -78.9148842216352,33.66537629633394,0.0 -78.91487943737194,33.66537833678758,0.0 -78.91487316138274,33.665380846098586,0.0 -78.91486767120286,33.665382179324574,0.0 -78.91486359154875,33.66538312096372,0.0 -78.91486061071663,33.66538359243404,0.0 -78.91485527639024,33.665383669682136,0.0 -78.91485041354859,33.66538374824186,0.0 -78.91484766845947,33.66538366964966,0.0 -78.91484249129563,33.66538288644175,0.0 -78.91483668679518,33.66538210192146,0.0 -78.91483394039712,33.66538147326565,0.0 -78.91482962631271,33.66538037573934,0.0 -78.9148233516381,33.66537872814112,0.0 -78.91482099814411,33.66537802221605,0.0 -78.91481064381874,33.665374571177594,0.0 -78.91480805458268,33.66537362950997,0.0 -78.9147969943406,33.66536939397298,0.0 -78.91479448499511,33.66536837372524,0.0 -78.9147837377672,33.665363745286925,0.0 -78.91478114984093,33.66536264776807,0.0 -78.91476891219828,33.66535715624741,0.0 -78.91474232047213,33.66534444835488,0.0 -78.91474004555945,33.665343350837276,0.0 -78.914673448374,33.66531079726467,0.0 -78.91467046754414,33.66530938542205,0.0 -78.91464434730206,33.66529730486593,0.0 -78.91464191522779,33.665296128767096,0.0 -78.91463148232302,33.6652915789108,0.0 -78.91462889308703,33.66529048008223,0.0 -78.9146154020807,33.66528498986585,0.0 -78.91460402751564,33.66528067574707,0.0 -78.91460190976412,33.66527996982308,0.0 -78.91459979201247,33.665279263899016,0.0 -78.91458896620233,33.66527573296837,0.0 -78.91458661401806,33.66527510562386,0.0 -78.91457484785705,33.665272124752725,0.0 -78.91457265152438,33.66527165456993,0.0 -78.91456363045087,33.6652700855405,0.0 -78.91456049245828,33.66526969393416,0.0 -78.91455029529145,33.66526875223418,0.0 -78.91454088131248,33.66526843787192,0.0</coordinates>
                    </LinearRing>
                </outerBoundaryIs>
            </Polygon>
        </Placemark>
        <Placemark id="4013">
            <name>Flood_436</name>
            <styleUrl>#4018</styleUrl>
            <Polygon id="4012">
                <outerBoundaryIs>
                    <LinearRing id="4016">
                        <coordinates>-78.938890414927,33.6800930741169,0.0 -78.93885464496034,33.68007675802028,0.0 -78.93879149878966,33.680021220947715,0.0 -78.93870576194578,33.67996685986416,0.0 -78.93873329541022,33.67990661752808,0.0 -78.93865195116042,33.67992591392878,0.0 -78.93861782877597,33.67990504802655,0.0 -78.93858841337891,33.6798870843862,0.0 -78.93856982248126,33.679875709771544,0.0 -78.93856692028912,33.67981640895787,0.0 -78.9385950810369,33.67980989737529,0.0 -78.93862684997231,33.679784404680326,0.0 -78.93865783437643,33.67979193545185,0.0 -78.93869117226377,33.67981154537171,0.0 -78.93869438883557,33.67981397745346,0.0 -78.93873870837554,33.67984864869116,0.0 -78.93875486719607,33.679861199383666,0.0 -78.9388076577905,33.67985194413944,0.0 -78.93881973823592,33.67989610645381,0.0 -78.9387982450388,33.67993352248068,0.0 -78.93882467957698,33.67997870509569,0.0 -78.93885017378946,33.679999179366895,0.0 -78.9388777071907,33.680002630483706,0.0 -78.93894438302613,33.679980667518805,0.0 -78.93893857722334,33.679971410706045,0.0 -78.9389493244509,33.67997878422713,0.0 -78.9389539528584,33.679980823412464,0.0 -78.93901874532723,33.6800058476704,0.0 -78.93898925128961,33.68004820506802,0.0 -78.93895159926282,33.680082248608954,0.0 -78.93893222384516,33.680092602818476,0.0 -78.93891786844227,33.68009197542047,0.0 -78.938890414927,33.6800930741169,0.0</coordinates>
                    </LinearRing>
                </outerBoundaryIs>
            </Polygon>
        </Placemark>
        <Placemark id="4022">
            <name>Flood_437</name>
            <styleUrl>#4027</styleUrl>
            <Polygon id="4021">
                <outerBoundaryIs>
                    <LinearRing id="4025">
                        <coordinates>-78.93798425332831,33.680582309900856,0.0 -78.93795962218213,33.68057485773784,0.0 -78.93794150146357,33.680559404795495,0.0 -78.93793169720676,33.68055101235094,0.0 -78.93790361505278,33.68054426608777,0.0 -78.93789977117179,33.68051414353247,0.0 -78.93786423692714,33.680518223014744,0.0 -78.93782909431467,33.6804846493258,0.0 -78.93782454453046,33.68044009414256,0.0 -78.93783035037544,33.680407070698564,0.0 -78.93783082057169,33.68038597051741,0.0 -78.93783505609217,33.68037090926706,0.0 -78.93785411718444,33.68036282996275,0.0 -78.93785717659767,33.68036220264167,0.0 -78.93785992299757,33.680361575319196,0.0 -78.93786392276114,33.68036102527314,0.0 -78.93786659057974,33.680360712272496,0.0 -78.93786957141168,33.680360712285676,0.0 -78.9378733354323,33.68036071230233,0.0 -78.93787710076224,33.680361025331436,0.0 -78.93788078751126,33.68036149683099,0.0 -78.93788353390988,33.68036204559717,0.0 -78.93788596467554,33.68036267294255,0.0 -78.93789098598734,33.68036432053666,0.0 -78.93794785618464,33.68040605229073,0.0 -78.93794981677466,33.68040714980766,0.0 -78.9379527190241,33.68040879739231,0.0 -78.93795562127367,33.680410366396465,0.0 -78.9379590735882,33.680412562737764,0.0 -78.9379608770163,33.680413974575984,0.0 -78.93796425074983,33.68041640665842,0.0 -78.9379664470816,33.68041813151091,0.0 -78.93796958376328,33.680420327850726,0.0 -78.93797342767171,33.68042291709634,0.0 -78.93797735016076,33.68042574077424,0.0 -78.93798072258505,33.68042777995402,0.0 -78.93798574389498,33.68043130955191,0.0 -78.93799060673429,33.68043429039506,0.0 -78.9379926459047,33.68043578081491,0.0 -78.93799735289217,33.680438604496295,0.0 -78.93800307880721,33.68044495906748,0.0 -78.93800386330108,33.680449508883996,0.0 -78.93800637395323,33.680454137288564,0.0 -78.93800598104647,33.680456882366805,0.0 -78.93800503938384,33.68045947028162,0.0 -78.93800370612581,33.680463157012476,0.0 -78.93800370612206,33.68046692232973,0.0 -78.93799923484748,33.680493749704546,0.0 -78.93799735282519,33.68050567298268,0.0 -78.93804363300114,33.680495476053395,0.0 -78.93807140212452,33.68051932143953,0.0 -78.93809971869419,33.68054308955732,0.0 -78.93808795249,33.68058144728361,0.0 -78.93813235065082,33.68057603590064,0.0 -78.93815737337746,33.68059745051676,0.0 -78.93818514250144,33.68062066856833,0.0 -78.93817627854379,33.680663576120544,0.0 -78.93819957511532,33.68068169689496,0.0 -78.93824875884155,33.68068208870572,0.0 -78.93827244831581,33.680701699892715,0.0 -78.9382846060656,33.6807122899834,0.0 -78.93831127635836,33.68074531357124,0.0 -78.93833441706738,33.68077410165266,0.0 -78.93834006571335,33.68077841574905,0.0 -78.93834351671904,33.68077982759466,0.0 -78.93835277222482,33.68078343579184,0.0 -78.93837748195021,33.68079261410778,0.0 -78.93833630029788,33.68086399517366,0.0 -78.93832594602051,33.680810263067734,0.0 -78.93832045453955,33.68080249797684,0.0 -78.93831715938875,33.680798182581235,0.0 -78.93828146931588,33.680778415489605,0.0 -78.93823189402227,33.68075096054091,0.0 -78.9382278929546,33.68074586195619,0.0 -78.9382098521203,33.68073668497951,0.0 -78.9381535306387,33.68073511573883,0.0 -78.93814152873848,33.680726879135875,0.0 -78.93813658731895,33.680723426809195,0.0 -78.93811509417394,33.68070813101295,0.0 -78.93811023004847,33.680681696499455,0.0 -78.9380799515793,33.6806565165428,0.0 -78.93804951592686,33.68065306541289,0.0 -78.93802166953208,33.68062937587775,0.0 -78.93799358739578,33.68060498042638,0.0 -78.93798425332831,33.680582309900856,0.0</coordinates>
                    </LinearRing>
                </outerBoundaryIs>
            </Polygon>
        </Placemark>
        <Placemark id="4031">
            <name>Flood_438</name>
            <styleUrl>#4036</styleUrl>
            <Polygon id="4030">
                <outerBoundaryIs>
                    <LinearRing id="4034">
                        <coordinates>-78.93813258593163,33.68103884120025,0.0 -78.93813627268551,33.6810344485647,0.0 -78.93814686275535,33.6810379781873,0.0 -78.93814113551984,33.6810423708139,0.0 -78.93813580249854,33.681046293268615,0.0 -78.93812089827865,33.68110669282095,0.0 -78.93808332483674,33.68113603069709,0.0 -78.93804716192095,33.6811648185158,0.0 -78.93801186339489,33.68119258610104,0.0 -78.93798903696081,33.681212039920865,0.0 -78.93795240517923,33.68124106347902,0.0 -78.93792338133524,33.6812641254276,0.0 -78.93790063348274,33.681282872023,0.0 -78.93789396589594,33.681288206302014,0.0 -78.93785811730336,33.68131683696092,0.0 -78.93782219144028,33.68134484028486,0.0 -78.93779669718792,33.68136421551227,0.0 -78.93778092993632,33.68137692322443,0.0 -78.93776210457946,33.68139190582962,0.0 -78.9377281393077,33.681419594840015,0.0 -78.93770193913585,33.68144085337775,0.0 -78.93766813102543,33.681468778130395,0.0 -78.93763361699698,33.68149725163401,0.0 -78.93753776017816,33.68151898003628,0.0 -78.93767566179613,33.68135888066698,0.0 -78.93772429549627,33.681320052930865,0.0 -78.93777081144404,33.68128067512148,0.0 -78.93781732738685,33.68124631860835,0.0 -78.93786839316414,33.681206156323455,0.0 -78.93790894743877,33.68117611254541,0.0 -78.93795460161257,33.68114112869374,0.0 -78.93796550470785,33.681132735031255,0.0 -78.93803241501031,33.68107727711537,0.0 -78.93813258593163,33.68103884120025,0.0</coordinates>
                    </LinearRing>
                </outerBoundaryIs>
            </Polygon>
        </Placemark>
        <Placemark id="4040">
            <name>Flood_439</name>
            <styleUrl>#4045</styleUrl>
            <Polygon id="4039">
                <outerBoundaryIs>
                    <LinearRing id="4043">
                        <coordinates>-78.92704591280766,33.6863077171836,0.0 -78.92704175459383,33.686288813309766,0.0 -78.92703469542684,33.68628041956826,0.0 -78.92701508436589,33.68619821246325,0.0 -78.92701508437223,33.6861924079818,0.0 -78.92700920131182,33.68617146362591,0.0 -78.92701179055892,33.68616291407631,0.0 -78.9270133595984,33.68612385039425,0.0 -78.92702002723155,33.68607670734734,0.0 -78.92696339143198,33.68606807764207,0.0 -78.9269612736878,33.68606023398642,0.0 -78.92695813570721,33.68604823210676,0.0 -78.92696362724932,33.68599952006344,0.0 -78.92696770563326,33.68596304431133,0.0 -78.92704112758584,33.685987754286714,0.0 -78.92706599318042,33.685981321272436,0.0 -78.92708332943155,33.685967830383575,0.0 -78.92711298061256,33.68594751352145,0.0 -78.92712811921683,33.68593715929529,0.0 -78.92716569394045,33.68593731662474,0.0 -78.92720640531275,33.68596994868023,0.0 -78.927205306439,33.686017640506186,0.0 -78.9272268781427,33.68605270454327,0.0 -78.92723111358482,33.68611098642871,0.0 -78.92722876006313,33.68613522458136,0.0 -78.92720718827857,33.68617428948353,0.0 -78.92721456304038,33.68621751011551,0.0 -78.9272071109459,33.68623068803626,0.0 -78.9271734586486,33.68629069590408,0.0 -78.92716679105384,33.686302619159314,0.0 -78.92715690689938,33.68630105012375,0.0 -78.92711902046048,33.6863110912354,0.0 -78.92704591280766,33.6863077171836,0.0</coordinates>
                    </LinearRing>
                </outerBoundaryIs>
            </Polygon>
        </Placemark>
    </Document>
</kml>
