<?xml version="1.0" encoding="UTF-8"?>
<kml xmlns="http://www.opengis.net/kml/2.2" xmlns:gx="http://www.google.com/kml/ext/2.2">
    <Document id="3129">
        <Style id="3136">
            <LineStyle id="3138">
                <colorMode>normal</colorMode>
                <width>1</width>
            </LineStyle>
            <PolyStyle id="3137">
                <color>80ebce87</color>
                <colorMode>normal</colorMode>
                <fill>1</fill>
                <outline>1</outline>
            </PolyStyle>
        </Style>
        <Style id="3145">
            <LineStyle id="3147">
                <colorMode>normal</colorMode>
                <width>1</width>
            </LineStyle>
            <PolyStyle id="3146">
                <color>80ebce87</color>
                <colorMode>normal</colorMode>
                <fill>1</fill>
                <outline>1</outline>
            </PolyStyle>
        </Style>
        <Style id="3154">
            <LineStyle id="3156">
                <colorMode>normal</colorMode>
                <width>1</width>
            </LineStyle>
            <PolyStyle id="3155">
                <color>80ebce87</color>
                <colorMode>normal</colorMode>
                <fill>1</fill>
                <outline>1</outline>
            </PolyStyle>
        </Style>
        <Style id="3163">
            <LineStyle id="3165">
                <colorMode>normal</colorMode>
                <width>1</width>
            </LineStyle>
            <PolyStyle id="3164">
                <color>80ebce87</color>
                <colorMode>normal</colorMode>
                <fill>1</fill>
                <outline>1</outline>
            </PolyStyle>
        </Style>
        <Style id="3172">
            <LineStyle id="3174">
                <colorMode>normal</colorMode>
                <width>1</width>
            </LineStyle>
            <PolyStyle id="3173">
                <color>80ebce87</color>
                <colorMode>normal</colorMode>
                <fill>1</fill>
                <outline>1</outline>
            </PolyStyle>
        </Style>
        <Style id="3181">
            <LineStyle id="3183">
                <colorMode>normal</colorMode>
                <width>1</width>
            </LineStyle>
            <PolyStyle id="3182">
                <color>80ebce87</color>
                <colorMode>normal</colorMode>
                <fill>1</fill>
                <outline>1</outline>
            </PolyStyle>
        </Style>
        <Style id="3190">
            <LineStyle id="3192">
                <colorMode>normal</colorMode>
                <width>1</width>
            </LineStyle>
            <PolyStyle id="3191">
                <color>80ebce87</color>
                <colorMode>normal</colorMode>
                <fill>1</fill>
                <outline>1</outline>
            </PolyStyle>
        </Style>
        <Style id="3199">
            <LineStyle id="3201">
                <colorMode>normal</colorMode>
                <width>1</width>
            </LineStyle>
            <PolyStyle id="3200">
                <color>80ebce87</color>
                <colorMode>normal</colorMode>
                <fill>1</fill>
                <outline>1</outline>
            </PolyStyle>
        </Style>
        <Style id="3208">
            <LineStyle id="3210">
                <colorMode>normal</colorMode>
                <width>1</width>
            </LineStyle>
            <PolyStyle id="3209">
                <color>80ebce87</color>
                <colorMode>normal</colorMode>
                <fill>1</fill>
                <outline>1</outline>
            </PolyStyle>
        </Style>
        <Style id="3217">
            <LineStyle id="3219">
                <colorMode>normal</colorMode>
                <width>1</width>
            </LineStyle>
            <PolyStyle id="3218">
                <color>80ebce87</color>
                <colorMode>normal</colorMode>
                <fill>1</fill>
                <outline>1</outline>
            </PolyStyle>
        </Style>
        <Placemark id="3131">
            <name>Flood_340</name>
            <styleUrl>#3136</styleUrl>
            <Polygon id="3130">
                <outerBoundaryIs>
                    <LinearRing id="3134">
                        <coordinates>-78.68319080253416,33.81867737576089,0.0 -78.68317189863353,33.81865219589965,0.0 -78.68313542264463,33.818572733782226,0.0 -78.68307204199834,33.81847381905011,0.0 -78.6830038753304,33.81826084956419,0.0 -78.68300003137576,33.81824437642134,0.0 -78.68297736186786,33.818147736516266,0.0 -78.68295492690969,33.81807902160078,0.0 -78.68295147588093,33.818068352957575,0.0 -78.68334242647835,33.81791546928061,0.0 -78.68339984566217,33.818052271748954,0.0 -78.68339984578648,33.81808153130284,0.0 -78.68339984603344,33.818139656197,0.0 -78.68339984606942,33.818148127205234,0.0 -78.68343051778501,33.818272066057325,0.0 -78.6834529526647,33.818322111489614,0.0 -78.68345914892609,33.81837082370259,0.0 -78.68347970054306,33.818431303356995,0.0 -78.68351241126658,33.818519863827625,0.0 -78.6835616736287,33.8186117194172,0.0 -78.68359869832432,33.81868027714096,0.0 -78.68366529537789,33.81874475645924,0.0 -78.68373353872781,33.81881849128047,0.0 -78.68376946578825,33.818856221766296,0.0 -78.68385277031221,33.81891944637624,0.0 -78.68397113866617,33.8189833755195,0.0 -78.6840987637703,33.81904589411828,0.0 -78.68413712149389,33.81906322895733,0.0 -78.68416975331212,33.81907515221199,0.0 -78.68424944959725,33.81911594201696,0.0 -78.68430318161305,33.819147789384274,0.0 -78.68430592800055,33.81914943695554,0.0 -78.68435848261944,33.81918065698873,0.0 -78.68440170450658,33.8192084247261,0.0 -78.68448642213288,33.81926356992026,0.0 -78.68449018613829,33.81926600067776,0.0 -78.68456141148995,33.81931126174789,0.0 -78.68463067635757,33.819378407570305,0.0 -78.68470299932278,33.81944908428287,0.0 -78.68473500256691,33.819476852044396,0.0 -78.68478481349683,33.81952477966826,0.0 -78.68482960443588,33.81956776588121,0.0 -78.68489800494112,33.81963954011412,0.0 -78.68489439700629,33.819688409511,0.0 -78.68487361010175,33.81973437669379,0.0 -78.68485823601459,33.819767793204385,0.0 -78.6847644997898,33.8199716633863,0.0 -78.68480842653194,33.82005802881304,0.0 -78.6846688012954,33.820086424273285,0.0 -78.6846364836935,33.820050184193946,0.0 -78.68460322439539,33.82000398269286,0.0 -78.68457059235567,33.81994044496003,0.0 -78.68457914170891,33.81989824313248,0.0 -78.68462204878516,33.819811250186106,0.0 -78.68465907279058,33.81971782541499,0.0 -78.68465342526554,33.81966574077431,0.0 -78.68459161234414,33.81957929811488,0.0 -78.68452070113173,33.81949159949201,0.0 -78.68446061448508,33.81943504372029,0.0 -78.68438844884099,33.81940186313782,0.0 -78.68425619679732,33.81936985877515,0.0 -78.68415500763327,33.81936083791597,0.0 -78.68408299796015,33.81935573948555,0.0 -78.68391403454932,33.819329775443904,0.0 -78.68383724060001,33.819313538197896,0.0 -78.68379354859552,33.81929855555488,0.0 -78.68369032014277,33.81925878604032,0.0 -78.68354708490224,33.81915736082018,0.0 -78.68341381352369,33.81902840218321,0.0 -78.68335670760585,33.81895184366894,0.0 -78.68327740241091,33.818792685014195,0.0 -78.68319080253416,33.81867737576089,0.0</coordinates>
                    </LinearRing>
                </outerBoundaryIs>
            </Polygon>
        </Placemark>
        <Placemark id="3140">
            <name>Flood_341</name>
            <styleUrl>#3145</styleUrl>
            <Polygon id="3139">
                <outerBoundaryIs>
                    <LinearRing id="3143">
                        <coordinates>-78.92300931702256,33.662275062945234,0.0 -78.92305865798555,33.66220179860402,0.0 -78.92309881930453,33.66221513388881,0.0 -78.92367677952109,33.662404024269414,0.0 -78.92429058703274,33.66255282956934,0.0 -78.92428588130502,33.66259573713469,0.0 -78.9242840765308,33.66262735007169,0.0 -78.92366313126583,33.66247626852513,0.0 -78.92301880957865,33.66227843539952,0.0 -78.92300931702256,33.662275062945234,0.0</coordinates>
                    </LinearRing>
                </outerBoundaryIs>
            </Polygon>
        </Placemark>
        <Placemark id="3149">
            <name>Flood_342</name>
            <styleUrl>#3154</styleUrl>
            <Polygon id="3148">
                <outerBoundaryIs>
                    <LinearRing id="3152">
                        <coordinates>-78.93710372281295,33.69994931549158,0.0 -78.93726421506307,33.699854950180274,0.0 -78.9372687648701,33.69987730636327,0.0 -78.93728437490083,33.699926097089175,0.0 -78.93728923772868,33.69994115838068,0.0 -78.93736862113289,33.70018911307526,0.0 -78.93740046852948,33.70028849795328,0.0 -78.9374982843174,33.700594028691334,0.0 -78.93763163555094,33.70101063318016,0.0 -78.93776632003609,33.70143108157406,0.0 -78.93778600839896,33.701492657372334,0.0 -78.93778781313284,33.70149830601144,0.0 -78.93778506804014,33.701500972498174,0.0 -78.93768615171896,33.70159533809323,0.0 -78.93760065050618,33.701636910727906,0.0 -78.93749828361835,33.701291140185475,0.0 -78.93710991888022,33.699979515329225,0.0 -78.93710372281295,33.69994931549158,0.0</coordinates>
                    </LinearRing>
                </outerBoundaryIs>
            </Polygon>
        </Placemark>
        <Placemark id="3158">
            <name>Flood_343</name>
            <styleUrl>#3163</styleUrl>
            <Polygon id="3157">
                <outerBoundaryIs>
                    <LinearRing id="3161">
                        <coordinates>-78.93677567907955,33.69889490072731,0.0 -78.93681654769584,33.69885301356235,0.0 -78.93680054608036,33.69879504462883,0.0 -78.93679976158492,33.698791985223025,0.0 -78.93679027036652,33.69875747129918,0.0 -78.93678564197258,33.698741391081256,0.0 -78.93676422746492,33.69866710618457,0.0 -78.93649713281349,33.698429504922416,0.0 -78.93636417458379,33.69792135936122,0.0 -78.93635632962929,33.697891316677506,0.0 -78.93614634154335,33.6970888578536,0.0 -78.93592537210218,33.69598039721948,0.0 -78.9356116837365,33.6949843443088,0.0 -78.93446227417441,33.695092744823484,0.0 -78.93355932804269,33.695256918995526,0.0 -78.93307071370442,33.69538595384845,0.0 -78.93301721586478,33.695405250362406,0.0 -78.93296332642977,33.69542540864117,0.0 -78.93242811753694,33.695610058649294,0.0 -78.93211662443778,33.69566096561855,0.0 -78.93180144462788,33.695674299290474,0.0 -78.93133565554461,33.69566033470598,0.0 -78.93117524200949,33.69562864375325,0.0 -78.9310553041939,33.695549102682584,0.0 -78.93067062648392,33.694061376369184,0.0 -78.93043239938442,33.69300884541739,0.0 -78.93042824247885,33.69299049029669,0.0 -78.9304273794034,33.69298688213677,0.0 -78.93041333837965,33.692932286940845,0.0 -78.9304956242909,33.69292146153814,0.0 -78.93059226430411,33.69290459728698,0.0 -78.93060418757936,33.692955035563294,0.0 -78.93089740289304,33.694028746839834,0.0 -78.93122575919456,33.69544156077034,0.0 -78.93130898544496,33.69544313014276,0.0 -78.93144210265446,33.69544556151008,0.0 -78.93194122834339,33.695454820582185,0.0 -78.93199543076992,33.69545583975791,0.0 -78.93239203337984,33.695463215047226,0.0 -78.9328726482138,33.69531339429897,0.0 -78.93292724356633,33.69529331329435,0.0 -78.93298160317576,33.69527385962313,0.0 -78.93345115777892,33.6951041933093,0.0 -78.93444313470239,33.69490275927439,0.0 -78.93560391761294,33.69470909238305,0.0 -78.93571514875369,33.69471285820874,0.0 -78.93577233330578,33.694729644581685,0.0 -78.93608092290631,33.69590352521637,0.0 -78.93646191305449,33.696973235907116,0.0 -78.93680431193906,33.69827176115578,0.0 -78.93684925882164,33.698307138319265,0.0 -78.93692111179759,33.69832133684318,0.0 -78.93693397547746,33.698321415482965,0.0 -78.93694040862701,33.6983214927835,0.0 -78.9371865591083,33.698323612973084,0.0 -78.93731285026892,33.698324711063314,0.0 -78.93746267507456,33.69832604500361,0.0 -78.93749828657886,33.69833883153036,0.0 -78.93755249029792,33.69835828570118,0.0 -78.93758402470684,33.69843155040778,0.0 -78.93758237706807,33.69849234161125,0.0 -78.93758229848314,33.69849642125028,0.0 -78.93758206273088,33.698506226790194,0.0 -78.93750087560599,33.69854905542641,0.0 -78.93749828636672,33.698550388664195,0.0 -78.93748691309698,33.69855635025501,0.0 -78.93738329113665,33.69861086633248,0.0 -78.93715267202892,33.69873252889027,0.0 -78.93714216052923,33.69873809758235,0.0 -78.93703971466202,33.69879206491074,0.0 -78.93701014197835,33.69889372572072,0.0 -78.93688644000615,33.698941261134024,0.0 -78.93649007165881,33.699090219183354,0.0 -78.93660585272183,33.69900613068887,0.0 -78.93675740247203,33.698913648648684,0.0 -78.93677567907955,33.69889490072731,0.0</coordinates>
                    </LinearRing>
                </outerBoundaryIs>
            </Polygon>
        </Placemark>
        <Placemark id="3167">
            <name>Flood_344</name>
            <styleUrl>#3172</styleUrl>
            <Polygon id="3166">
                <outerBoundaryIs>
                    <LinearRing id="3170">
                        <coordinates>-78.92272260359188,33.670054668336896,0.0 -78.92270777809006,33.66998775695815,0.0 -78.92268769684205,33.66992123845936,0.0 -78.92282442088488,33.66992022012197,0.0 -78.92335508127591,33.66962943911629,0.0 -78.92384212763142,33.66967807470254,0.0 -78.92420962777578,33.66966631016385,0.0 -78.92457312684614,33.66965603601833,0.0 -78.92470812598613,33.66970357257884,0.0 -78.92480068750082,33.66980962525333,0.0 -78.92485551844035,33.66991991456504,0.0 -78.92498659321876,33.67047269375692,0.0 -78.9253427971368,33.67186001350054,0.0 -78.92565436769686,33.67276860478753,0.0 -78.92555764781001,33.67278476314256,0.0 -78.92546124355458,33.67280217747756,0.0 -78.92532734342046,33.67258457956551,0.0 -78.92525219548288,33.67241130132486,0.0 -78.92508080083283,33.67191225531654,0.0 -78.92477856611352,33.67061239724261,0.0 -78.9245288854343,33.67003506505506,0.0 -78.92416726837033,33.670047615423,0.0 -78.9238043180511,33.67006102624183,0.0 -78.92331797742554,33.67017790219262,0.0 -78.92286113237445,33.67005325710489,0.0 -78.92272260359188,33.670054668336896,0.0</coordinates>
                    </LinearRing>
                </outerBoundaryIs>
            </Polygon>
        </Placemark>
        <Placemark id="3176">
            <name>Flood_345</name>
            <styleUrl>#3181</styleUrl>
            <Polygon id="3175">
                <outerBoundaryIs>
                    <LinearRing id="3179">
                        <coordinates>-78.92257043560913,33.66211770751923,0.0 -78.92254862813795,33.66210994105202,0.0 -78.92247057909638,33.66209048680356,0.0 -78.92225902132337,33.66203832284753,0.0 -78.92185143732513,33.66188716363048,0.0 -78.92171910601188,33.66184088307222,0.0 -78.92126273121448,33.66167733019258,0.0 -78.9212179401802,33.66166156282152,0.0 -78.92119974218562,33.66165513092884,0.0 -78.92116122713246,33.661643677655064,0.0 -78.9211351841569,33.661635755318734,0.0 -78.92112835941745,33.661633637544796,0.0 -78.92111384817241,33.661626499752714,0.0 -78.92099210563741,33.661566412642415,0.0 -78.92084581180315,33.66154138936663,0.0 -78.92084675339717,33.66159880815709,0.0 -78.92084745925649,33.66164963796997,0.0 -78.92084000706087,33.66175176904134,0.0 -78.92083804643916,33.66177875358385,0.0 -78.92083616309044,33.66180416782602,0.0 -78.92075419157747,33.66176769302073,0.0 -78.92069206559377,33.66177506623015,0.0 -78.92069457627389,33.661754279073676,0.0 -78.92069896898367,33.66171647007473,0.0 -78.9207105781004,33.661616849668754,0.0 -78.92026494935338,33.661345046931785,0.0 -78.91983924593768,33.661194986461794,0.0 -78.91964557317306,33.66112807433085,0.0 -78.91922567294493,33.660982799440895,0.0 -78.91882154126833,33.66083344498014,0.0 -78.91866991311365,33.66080473494741,0.0 -78.9185038510661,33.66069962232504,0.0 -78.91804598617355,33.66026968149211,0.0 -78.91768805615317,33.66005600514766,0.0 -78.91754003629686,33.659917319077174,0.0 -78.91738605478628,33.6597717309932,0.0 -78.91769197910764,33.659660815879946,0.0 -78.91799084294833,33.65954652701247,0.0 -78.91804332043625,33.659610300562846,0.0 -78.91818404407807,33.659738866741655,0.0 -78.91823958062932,33.66010166013345,0.0 -78.91839897496972,33.66031462972724,0.0 -78.91849679219054,33.66044303856553,0.0 -78.9185667617798,33.660492928322455,0.0 -78.9186765024398,33.66052407024501,0.0 -78.91878145755774,33.66053097398644,0.0 -78.91890312015785,33.660627378390316,0.0 -78.91967208655757,33.66093338334691,0.0 -78.91971060160908,33.660945855547695,0.0 -78.91971836669782,33.66094875782099,0.0 -78.91987125081067,33.66099935253444,0.0 -78.91990866704093,33.66101174745978,0.0 -78.92044905383099,33.66120863847482,0.0 -78.92073936652685,33.66130904465211,0.0 -78.92085765672688,33.66138521194126,0.0 -78.92094135440794,33.661412745599925,0.0 -78.92102207125096,33.66144600514665,0.0 -78.92121935217098,33.661525153591164,0.0 -78.92123174566603,33.66153017362929,0.0 -78.92124774863761,33.66153629250018,0.0 -78.92127622237547,33.66154735282896,0.0 -78.92132320974027,33.66156531522512,0.0 -78.92132964157574,33.66156751157788,0.0 -78.92136674479242,33.66158029809527,0.0 -78.9218897953731,33.661761030268515,0.0 -78.92262095135179,33.66204742400442,0.0 -78.92262526674506,33.662049148865194,0.0 -78.92265852605195,33.66206154377378,0.0 -78.92262722723561,33.662137866283096,0.0 -78.92257043560913,33.66211770751923,0.0</coordinates>
                    </LinearRing>
                </outerBoundaryIs>
            </Polygon>
        </Placemark>
        <Placemark id="3185">
            <name>Flood_346</name>
            <styleUrl>#3190</styleUrl>
            <Polygon id="3184">
                <outerBoundaryIs>
                    <LinearRing id="3188">
                        <coordinates>-78.90613914269234,33.77169874023095,0.0 -78.90613859334059,33.77142387963458,0.0 -78.90602006688708,33.771243071625506,0.0 -78.90616385136084,33.771205733410504,0.0 -78.90624809779345,33.77117875053186,0.0 -78.9063496018707,33.771146197678114,0.0 -78.90654907912796,33.771081170535375,0.0 -78.90676306887939,33.77098217829941,0.0 -78.90692277628827,33.77087094818782,0.0 -78.907103819614,33.770720105688945,0.0 -78.90725066327128,33.77057436160232,0.0 -78.90745257240177,33.77041253756291,0.0 -78.90761259279145,33.7702841284242,0.0 -78.90786988299375,33.770088966822755,0.0 -78.90809202932131,33.769933183112904,0.0 -78.90831300097584,33.76982862086257,0.0 -78.90900666227657,33.76964656071836,0.0 -78.90936529825638,33.76949297398831,0.0 -78.9096747519318,33.76939562848123,0.0 -78.91005150754502,33.76933930892154,0.0 -78.91050913862225,33.769324251114675,0.0 -78.91085216469419,33.76925020361118,0.0 -78.91123707950197,33.76913701399618,0.0 -78.91154629746494,33.76905104303729,0.0 -78.91179613434778,33.768878550619135,0.0 -78.91196541137981,33.76865342452913,0.0 -78.91213264883645,33.768228820248815,0.0 -78.91232247736559,33.76799828005684,0.0 -78.91242931547211,33.76781206024294,0.0 -78.91250830557522,33.76749170451056,0.0 -78.91257247026857,33.767255909299514,0.0 -78.91255058506003,33.76703321306451,0.0 -78.91247684937309,33.76669567757221,0.0 -78.91238044330149,33.76644897853273,0.0 -78.91231690507281,33.766254128444366,0.0 -78.9122798015027,33.76609387228523,0.0 -78.91225760199188,33.76588262786072,0.0 -78.91220990940083,33.765596865323225,0.0 -78.9121524096036,33.76515413928388,0.0 -78.91215225130865,33.764595555582396,0.0 -78.91215609433054,33.76415675363017,0.0 -78.91219076487816,33.76384957565495,0.0 -78.91223092703213,33.763599424963324,0.0 -78.91230521160297,33.76334990177322,0.0 -78.9124020866812,33.76301527065755,0.0 -78.91238012157905,33.762792574419485,0.0 -78.91229642471914,33.76258603667228,0.0 -78.91219186075261,33.76239612909831,0.0 -78.9121280082169,33.7622126535452,0.0 -78.91213820512075,33.762080322542175,0.0 -78.91213742010446,33.76182522893118,0.0 -78.91218479856545,33.76155813498767,0.0 -78.91237109856779,33.76119079382612,0.0 -78.91258822480185,33.760960803861735,0.0 -78.91277052406883,33.76075866007584,0.0 -78.91295352788869,33.76052812119291,0.0 -78.91318469649022,33.76028118801525,0.0 -78.91352105447389,33.75991643552816,0.0 -78.9137788148942,33.759698447653655,0.0 -78.91415627589332,33.759328674077935,0.0 -78.91438116847324,33.75905883594498,0.0 -78.91465948040059,33.75883551386763,0.0 -78.91495120610276,33.75862387941442,0.0 -78.91527721006854,33.758407067982,0.0 -78.9154778647005,33.75829074087453,0.0 -78.91558376137097,33.75820037632781,0.0 -78.9156649483384,33.758131111859896,0.0 -78.91568557838256,33.758107894014046,0.0 -78.91586458252083,33.75790637757108,0.0 -78.91614846303872,33.75758672881514,0.0 -78.91773173784107,33.7585675718754,0.0 -78.91762301752503,33.758673389279544,0.0 -78.91729662083766,33.75899092007426,0.0 -78.91726657813004,33.75902010083088,0.0 -78.91709988884118,33.75918223797531,0.0 -78.91701477932132,33.759220909686434,0.0 -78.91690778505792,33.75926954269015,0.0 -78.91671403374242,33.75938030239695,0.0 -78.91635476906134,33.75956236401378,0.0 -78.91565812697962,33.75986977312427,0.0 -78.91528411670205,33.76009717437409,0.0 -78.9150145113796,33.760240798741705,0.0 -78.91481205347341,33.76043117628115,0.0 -78.91460245652267,33.760632848439236,0.0 -78.91444125876399,33.76080683165146,0.0 -78.91430798597092,33.76095845882027,0.0 -78.9142150330508,33.76113361845935,0.0 -78.91412733469399,33.76137153259557,0.0 -78.9140457565378,33.76164090126889,0.0 -78.91400237750165,33.7617427179458,0.0 -78.91393727096705,33.761895521541746,0.0 -78.91392032790152,33.76203201073042,0.0 -78.91386706626604,33.762259099250024,0.0 -78.9138430640071,33.76238758627968,0.0 -78.9138577329439,33.76264652254074,0.0 -78.91390079824485,33.76284105820542,0.0 -78.91401234278861,33.76302531847933,0.0 -78.91407439071676,33.763280019475125,0.0 -78.91404842675304,33.763507578301876,0.0 -78.91406286123967,33.76375859232586,0.0 -78.91409996349557,33.76391884848077,0.0 -78.91413589105791,33.76412460148991,0.0 -78.91417926934722,33.764307762611196,0.0 -78.91420994103703,33.76445076243341,0.0 -78.91426061420074,33.76461117581414,0.0 -78.91427818511106,33.764731192055756,0.0 -78.91428618772149,33.764965027017205,0.0 -78.91427457779895,33.765164269392486,0.0 -78.91424022153272,33.76545724784152,0.0 -78.91422994606211,33.765599541550024,0.0 -78.91421213998545,33.76577023032366,0.0 -78.9141786454165,33.76602618552596,0.0 -78.91415417174584,33.76619106978067,0.0 -78.91414295469458,33.76637329029007,0.0 -78.91410208798041,33.76665183738165,0.0 -78.91403564700191,33.76686166823202,0.0 -78.91396928590295,33.767065694596,0.0 -78.91379985227142,33.76758152699851,0.0 -78.91371411582574,33.76781669476586,0.0 -78.9135903344924,33.7680596274264,0.0 -78.91355323280722,33.76818435038648,0.0 -78.91344106024351,33.76830789559011,0.0 -78.91316031781079,33.768628014617285,0.0 -78.91289518399213,33.76886867301324,0.0 -78.91272661281624,33.76906524683954,0.0 -78.91256306179655,33.769336105558075,0.0 -78.91244257551455,33.76952216814899,0.0 -78.91233008996701,33.76965708790015,0.0 -78.91221736870071,33.769803380884106,0.0 -78.91207138934351,33.76991484547669,0.0 -78.91187802964757,33.770008504790134,0.0 -78.9116860044002,33.77004513554379,0.0 -78.91142565576226,33.770086395682895,0.0 -78.91117981831233,33.77009361084193,0.0 -78.91093453088143,33.77007807822678,0.0 -78.91077035201133,33.77009243151,0.0 -78.91051776838638,33.77009384214954,0.0 -78.9103330380247,33.77011353095939,0.0 -78.91009998705512,33.77015518282219,0.0 -78.9099621642751,33.770209855941914,0.0 -78.90981736091123,33.770270097774905,0.0 -78.9096597710676,33.770295904214365,0.0 -78.90944789888037,33.770309474087085,0.0 -78.90926928740612,33.77035771519257,0.0 -78.90904211960665,33.77043937116546,0.0 -78.90886319383426,33.7704990653947,0.0 -78.90869697466458,33.77059884234535,0.0 -78.90855844733993,33.77068198914992,0.0 -78.90841317254305,33.770765058652366,0.0 -78.90823354091549,33.77085322656586,0.0 -78.90809242458447,33.77104462339474,0.0 -78.90798456765818,33.77127077003834,0.0 -78.90786988598914,33.77149683938,0.0 -78.90778508968462,33.77161505042059,0.0 -78.90765315139082,33.77170972896592,0.0 -78.90744127921107,33.77172322026488,0.0 -78.90718265658688,33.77169035140092,0.0 -78.90705322742177,33.77168250713937,0.0 -78.90686983020025,33.77164516739038,0.0 -78.90668509853712,33.77166485620788,0.0 -78.9065199781003,33.7717190577242,0.0 -78.9062480989318,33.77170454522979,0.0 -78.90613914269234,33.77169874023095,0.0</coordinates>
                    </LinearRing>
                </outerBoundaryIs>
            </Polygon>
        </Placemark>
        <Placemark id="3194">
            <name>Flood_347</name>
            <styleUrl>#3199</styleUrl>
            <Polygon id="3193">
                <outerBoundaryIs>
                    <LinearRing id="3197">
                        <coordinates>-78.90290476920747,33.695625846430765,0.0 -78.90291496636206,33.695638162662156,0.0 -78.9029298704754,33.6956751872456,0.0 -78.90303913933899,33.69596863747943,0.0 -78.90302768749278,33.69597004925665,0.0 -78.90299230909183,33.695976010735485,0.0 -78.90298901528583,33.69594526216829,0.0 -78.9029559904284,33.695914199142834,0.0 -78.90288782557869,33.695853013428774,0.0 -78.90284005373744,33.69580963546084,0.0 -78.90284648564132,33.69576029610006,0.0 -78.90285542822332,33.69569487525031,0.0 -78.90290476920747,33.695625846430765,0.0</coordinates>
                    </LinearRing>
                </outerBoundaryIs>
            </Polygon>
        </Placemark>
        <Placemark id="3203">
            <name>Flood_348</name>
            <styleUrl>#3208</styleUrl>
            <Polygon id="3202">
                <outerBoundaryIs>
                    <LinearRing id="3206">
                        <coordinates>-78.90048585344155,33.69698279754818,0.0 -78.90048765690425,33.69695777490456,0.0 -78.90045886888488,33.69691008164488,0.0 -78.9003899966339,33.69698114953643,0.0 -78.90037093553339,33.696991503739966,0.0 -78.90035822770483,33.69699205243539,0.0 -78.9002697457107,33.69698758079816,0.0 -78.90025970439679,33.6969838940167,0.0 -78.90023209372413,33.69697848231238,0.0 -78.90021970026528,33.696943967078724,0.0 -78.90027508007877,33.69695706801292,0.0 -78.90034606999542,33.69695220420589,0.0 -78.90044161255226,33.69689886419868,0.0 -78.9003372847803,33.696861133290255,0.0 -78.90029610188674,33.69685893677598,0.0 -78.90018942054989,33.69687376180762,0.0 -78.90016502520416,33.69682159864739,0.0 -78.90013349193586,33.696894314281494,0.0 -78.90011874487504,33.69694027987954,0.0 -78.90012619690769,33.69697667709358,0.0 -78.90012486358292,33.69702978179201,0.0 -78.90011623406092,33.69705896262254,0.0 -78.90007944512114,33.69707449389003,0.0 -78.90007458225655,33.69709088838018,0.0 -78.90005967802925,33.697140463441826,0.0 -78.90002029998215,33.69705731461037,0.0 -78.89996303689213,33.69701111293989,0.0 -78.89986906476366,33.696972283261864,0.0 -78.89986569104606,33.69695808505896,0.0 -78.89985886639275,33.69688968462814,0.0 -78.89985541539887,33.69687940890177,0.0 -78.8998683577011,33.69684795318557,0.0 -78.89990859892586,33.696856738670725,0.0 -78.89996366578372,33.69682606895304,0.0 -78.89999190379518,33.696829912979084,0.0 -78.90006603169395,33.696833913067245,0.0 -78.90015318046814,33.69681218595819,0.0 -78.90016275030459,33.696810224108944,0.0 -78.90022597515875,33.6967811234194,0.0 -78.90026472598244,33.69677845578925,0.0 -78.90031892841156,33.69677782870383,0.0 -78.9003644254504,33.69673578441408,0.0 -78.90040254769478,33.696682208401384,0.0 -78.90039242914578,33.696651302642636,0.0 -78.90036756361356,33.696607689038935,0.0 -78.90032865568445,33.6965677621062,0.0 -78.90027131534049,33.69650869549735,0.0 -78.90024440930168,33.69648382857331,0.0 -78.90020683595833,33.69642766429529,0.0 -78.90021326783362,33.696400838250405,0.0 -78.90017545868389,33.696393150284216,0.0 -78.90013498311542,33.69631706190622,0.0 -78.90012894292477,33.69627564471418,0.0 -78.90017867543374,33.69626074084015,0.0 -78.90024417377727,33.69631886582972,0.0 -78.90027437492068,33.696382247693215,0.0 -78.90033767701921,33.69637322694189,0.0 -78.90037415297498,33.696335105087364,0.0 -78.90040011737548,33.69634341902386,0.0 -78.90039337124139,33.69632145574197,0.0 -78.90037501609811,33.69630192316378,0.0 -78.90033312742845,33.696192654161194,0.0 -78.90027915944327,33.6961850447015,0.0 -78.90023970270325,33.6961868492528,0.0 -78.90024762631238,33.6961539816836,0.0 -78.9002568032678,33.69613445054144,0.0 -78.90027264917217,33.69607193196497,0.0 -78.90019883572246,33.6959730956879,0.0 -78.90018604933654,33.695955995201906,0.0 -78.90015341736432,33.695939757700884,0.0 -78.90009160573472,33.695909086137185,0.0 -78.90002077153937,33.696013178786586,0.0 -78.89998680626465,33.6960331812981,0.0 -78.89990154087813,33.6960043929395,0.0 -78.89988891163532,33.69600133348075,0.0 -78.89984404201446,33.695982193683655,0.0 -78.89979180023748,33.695937323976416,0.0 -78.89974889249656,33.69593410852747,0.0 -78.89969366985099,33.69591669352507,0.0 -78.89968268688587,33.695906339183665,0.0 -78.89968700229471,33.69589708372982,0.0 -78.89968072633806,33.69587355014987,0.0 -78.89973642052315,33.695849783731816,0.0 -78.89978419119613,33.69578561773088,0.0 -78.89987667426465,33.695788598975085,0.0 -78.89989424494279,33.695782873156254,0.0 -78.89991001215454,33.69580475789878,0.0 -78.89996005897595,33.695797856140594,0.0 -78.89999268966591,33.69579330647896,0.0 -78.90007011271133,33.69580358254443,0.0 -78.90009113439005,33.69580311246742,0.0 -78.90018087235575,33.6958158193461,0.0 -78.9001898148719,33.69580130818739,0.0 -78.90027892418716,33.695816997193404,0.0 -78.90028802384042,33.69582099829248,0.0 -78.90038725310694,33.695797543776386,0.0 -78.90047432344831,33.69566301697158,0.0 -78.90047518654335,33.69565109369368,0.0 -78.90048938478317,33.69565415315968,0.0 -78.90050389604403,33.69565148672771,0.0 -78.90052193818318,33.69566380168513,0.0 -78.90052091786917,33.69571918129079,0.0 -78.90048538349376,33.69581793979607,0.0 -78.90048005046235,33.6958280583212,0.0 -78.90048444309251,33.69585645471623,0.0 -78.90049597344593,33.6959108141426,0.0 -78.90051566183249,33.69593881770517,0.0 -78.90048295259135,33.69592085536163,0.0 -78.90046192961778,33.695910186652156,0.0 -78.9003850566562,33.695886103994596,0.0 -78.90031343946137,33.695847039987996,0.0 -78.90034207030114,33.69590814693864,0.0 -78.90038074233226,33.69606565780746,0.0 -78.9003817612527,33.696073815778185,0.0 -78.90042851285367,33.69611609623282,0.0 -78.90052860510751,33.696162533840926,0.0 -78.90057527816151,33.696179241579934,0.0 -78.90064736555658,33.69619955889994,0.0 -78.90075459560919,33.696214697926074,0.0 -78.9008380588974,33.69622724892513,0.0 -78.90085225582904,33.69622921088349,0.0 -78.90085947347285,33.6962323475885,0.0 -78.90095179938702,33.696230073106385,0.0 -78.90115135537745,33.696225054037264,0.0 -78.90116712258597,33.69624960658832,0.0 -78.9011813980517,33.696287179922216,0.0 -78.90119543905521,33.69634710940868,0.0 -78.90120202932444,33.696379035388354,0.0 -78.9010299267835,33.696435983199926,0.0 -78.90096858526154,33.69645629990788,0.0 -78.90100458952048,33.69657921831795,0.0 -78.90102106263782,33.69661051569887,0.0 -78.90102435772569,33.696662052738056,0.0 -78.9009947064999,33.69671084323721,0.0 -78.9009554854203,33.69677485080722,0.0 -78.90094450374053,33.69678293014232,0.0 -78.90088818219473,33.69682466137024,0.0 -78.90085476565385,33.69686137140906,0.0 -78.90082150630039,33.696878628844765,0.0 -78.90081421134522,33.69690592636889,0.0 -78.90082778091455,33.6969272623478,0.0 -78.90083923406566,33.696929537306076,0.0 -78.90091869625333,33.69696318846265,0.0 -78.90098999920467,33.696942245776114,0.0 -78.90099682395127,33.696940205333696,0.0 -78.90112021276046,33.69701590250085,0.0 -78.90107950121288,33.69711928806454,0.0 -78.90104231938172,33.697125249534544,0.0 -78.90102961286088,33.69712728994992,0.0 -78.9008714728394,33.69716972531483,0.0 -78.90077812796018,33.69719710102379,0.0 -78.90075624188319,33.69720447439385,0.0 -78.90074157345343,33.69721247513138,0.0 -78.90058916061162,33.697294289832435,0.0 -78.90058225740442,33.69720517950879,0.0 -78.90053432972893,33.697148545009256,0.0 -78.90056923672819,33.69707990902827,0.0 -78.90056617733254,33.69706665248312,0.0 -78.90055409686008,33.697052611401126,0.0 -78.90048585344155,33.69698279754818,0.0</coordinates>
                    </LinearRing>
                </outerBoundaryIs>
            </Polygon>
        </Placemark>
        <Placemark id="3212">
            <name>Flood_349</name>
            <styleUrl>#3217</styleUrl>
            <Polygon id="3211">
                <outerBoundaryIs>
                    <LinearRing id="3215">
                        <coordinates>-78.84553707562368,33.72152283622967,0.0 -78.84553974344358,33.72152252192074,0.0 -78.84554248853372,33.721522679094974,0.0 -78.84554233136693,33.72152558133251,0.0 -78.84554044935227,33.72152762179599,0.0 -78.84553848744793,33.721529189466686,0.0 -78.84553127109962,33.721533896401226,0.0 -78.84552154409234,33.72153938781855,0.0 -78.84551268016459,33.72154479934985,0.0 -78.84550993507081,33.721546682648224,0.0 -78.8455059339909,33.72154989787926,0.0 -78.84550075681548,33.72155444766276,0.0 -78.84549777597506,33.72155860586433,0.0 -78.84549456070049,33.721563547249936,0.0 -78.84549283453224,33.721568724384184,0.0 -78.84549173570359,33.72157241111209,0.0 -78.84549142268487,33.72157523476843,0.0 -78.84549157983953,33.72157915724378,0.0 -78.84549173568519,33.721582686816845,0.0 -78.84549236432714,33.7215853533169,0.0 -78.84549401058942,33.72158880562638,0.0 -78.84549620691598,33.721593119704195,0.0 -78.8454976187486,33.72159484586189,0.0 -78.8454998936596,33.72159712077718,0.0 -78.84550303164836,33.721600414623346,0.0 -78.84550514939855,33.72160221936479,0.0 -78.84551958336755,33.72161367122715,0.0 -78.84552170111772,33.7216154759686,0.0 -78.8455275841932,33.721620887571504,0.0 -78.84552993768453,33.721623476809036,0.0 -78.84553252560723,33.72162684923296,0.0 -78.84553495767757,33.721630457397566,0.0 -78.84553715400267,33.72163563455085,0.0 -78.84553848725052,33.721639478451394,0.0 -78.84553927174008,33.72164457701741,0.0 -78.84553974321625,33.72164951973059,0.0 -78.84553935029233,33.72166057992839,0.0 -78.84553801702135,33.721669600958734,0.0 -78.84553754684126,33.72167226745328,0.0 -78.84553550634419,33.72168050398523,0.0 -78.8455348790031,33.72168277888654,0.0 -78.84553174099118,33.72169242724205,0.0 -78.84552828996765,33.72170097677931,0.0 -78.8455269567075,33.72170395759163,0.0 -78.84552232827959,33.72171337019855,0.0 -78.84551581783867,33.721723881613165,0.0 -78.84550828715744,33.72173392284974,0.0 -78.84549314852782,33.72175180637915,0.0 -78.84549150094598,33.721753846843775,0.0 -78.84548420600834,33.72176325943776,0.0 -78.84547738124459,33.72177353510948,0.0 -78.84547620383823,33.72177549568617,0.0 -78.84547079222034,33.72178545835249,0.0 -78.84546577219625,33.72179573403289,0.0 -78.84546459478901,33.721798244672875,0.0 -78.84546004493961,33.72180891194821,0.0 -78.84545541781725,33.72182059945948,0.0 -78.84545455473355,33.72182295293997,0.0 -78.84545071080183,33.72183370010886,0.0 -78.84544670970647,33.721845544784,0.0 -78.8454459252035,33.721847975535766,0.0 -78.84543918030931,33.72186994005121,0.0 -78.84543855165866,33.721872136371985,0.0 -78.84543243410054,33.72189456975384,0.0 -78.84543180544954,33.721897001815975,0.0 -78.84542913891954,33.7219083763246,0.0 -78.84542647238575,33.721921868576544,0.0 -78.84542451046227,33.72193418343466,0.0 -78.84542341293101,33.72194469487552,0.0 -78.84542309860296,33.721947361370916,0.0 -78.84542262840657,33.72195912748277,0.0 -78.8454225498209,33.72196179528894,0.0 -78.84542192244477,33.72198367994392,0.0 -78.84542176527776,33.72198666076194,0.0 -78.84542074501987,33.72199599480593,0.0 -78.84541933317273,33.72200242791937,0.0 -78.84541776416539,33.72200799664695,0.0 -78.84541580356583,33.72201231070469,0.0 -78.84541392154814,33.722016076009204,0.0 -78.84541258698006,33.72201811516563,0.0 -78.84540984188392,33.72202125313203,0.0 -78.84540693962619,33.72202439109766,0.0 -78.84540529204534,33.722025881498965,0.0 -78.84539893877606,33.7220308228694,0.0 -78.84539642811545,33.72203247042744,0.0 -78.8453881142542,33.72203749036878,0.0 -78.84537854309983,33.7220424330332,0.0 -78.84537634676346,33.72204353052965,0.0 -78.84534112680508,33.72205953195963,0.0 -78.84532943920568,33.7220651019478,0.0 -78.84532653695105,33.7220665137626,0.0 -78.84530284742718,33.72207867266408,0.0 -78.84530025818631,33.72208000589989,0.0 -78.84527719599846,33.72209271355793,0.0 -78.84527437232418,33.722094359804835,0.0 -78.84526166448025,33.722101811790004,0.0 -78.84522597433529,33.722124010596495,0.0 -78.84522322793234,33.72212557957307,0.0 -78.84521350223476,33.72213099240981,0.0 -78.84521114873667,33.72213216848591,0.0 -78.84520040148901,33.72213718841541,0.0 -78.84519742065375,33.7221384443786,0.0 -78.84518667471713,33.722142679813246,0.0 -78.84517435847319,33.7221470724011,0.0 -78.84517153480004,33.722148092623705,0.0 -78.84515953418995,33.722152013730295,0.0 -78.84515710211176,33.722152798213436,0.0 -78.84513458868989,33.72215993713883,0.0 -78.8451323923544,33.722160643042606,0.0 -78.84513027459964,33.72216134894685,0.0 -78.84510995882258,33.722168094980624,0.0 -78.84510195666988,33.72217052569724,0.0 -78.84509952590169,33.72217115432916,0.0 -78.84509403440906,33.72217225180961,0.0 -78.84509144647946,33.722172721970125,0.0 -78.84508885724073,33.722172879118396,0.0 -78.84508305273611,33.72217303625114,0.0 -78.84508062065981,33.72217272191756,0.0 -78.84507458041521,33.72217154580062,0.0 -78.84507238408194,33.72217091845602,0.0 -78.8450659522451,33.72216848635952,0.0 -78.84505747992897,33.72216432941209,0.0 -78.84505551933911,33.722163230585835,0.0 -78.84504791010306,33.72215875932072,0.0 -78.84504555791946,33.72215726889991,0.0 -78.84502837885896,33.72214636577778,0.0 -78.84502578962343,33.72214471819498,0.0 -78.8450068071368,33.722131618740185,0.0 -78.84500437506289,33.72212997115815,0.0 -78.84499504098193,33.722123069129196,0.0 -78.84499323624446,33.72212173456227,0.0 -78.84498366642221,33.72211412661764,0.0 -78.84497542985403,33.722106987542965,0.0 -78.8449735478461,33.7221052626927,0.0 -78.84496491968564,33.72209686894809,0.0 -78.84496272335505,33.722094751194106,0.0 -78.84495440820906,33.72208588727801,0.0 -78.84495291779554,33.72208423970046,0.0 -78.84494366099241,33.72207357104846,0.0 -78.84493613165547,33.72206431554352,0.0 -78.8449345626617,33.72206235495343,0.0 -78.84492742360956,33.72205309814068,0.0 -78.84492585461584,33.722051058970166,0.0 -78.84491777521643,33.7220399201509,0.0 -78.84491048031508,33.7220290956572,0.0 -78.84490381275108,33.722018112696006,0.0 -78.84489792968611,33.72200689661659,0.0 -78.84489573336126,33.72200164088292,0.0 -78.84489385135876,33.72199693390427,0.0 -78.84489314544551,33.72199434598444,0.0 -78.84489236095312,33.72199089367908,0.0 -78.84489134072027,33.721986265285025,0.0 -78.84489126214964,33.721980539388625,0.0 -78.8448915764826,33.72197520508663,0.0 -78.8448944001691,33.721966734126816,0.0 -78.84489808693188,33.72196006659281,0.0 -78.84489934160919,33.721958183287235,0.0 -78.84490459737033,33.721950967007245,0.0 -78.84491769682377,33.72193512263088,0.0 -78.84491973731048,33.72193269057551,0.0 -78.84494107336458,33.72190594189078,0.0 -78.84494279952736,33.72190382415585,0.0 -78.84495095754453,33.72189441156612,0.0 -78.84495903697913,33.72188593932208,0.0 -78.8449609189933,33.72188413590976,0.0 -78.8449702531015,33.72187589941318,0.0 -78.84497998011263,33.7218682902526,0.0 -78.84498209786894,33.72186672127306,0.0 -78.84499080594632,33.72186044666571,0.0 -78.84499276654059,33.72185903353663,0.0 -78.84500194479301,33.721852916092395,0.0 -78.84500437556288,33.721851347114374,0.0 -78.84501386682798,33.72184577711546,0.0 -78.84501653464999,33.721844286719104,0.0 -78.84502649608861,33.72183965968805,0.0 -78.84502892816745,33.721838560883036,0.0 -78.84503873375186,33.721835188519265,0.0 -78.84504116582991,33.72183448261662,0.0 -78.84506971819019,33.72182655922552,0.0 -78.84507199310653,33.721825853322116,0.0 -78.84508305336608,33.721821853630416,0.0 -78.84508556402545,33.72182091198671,0.0 -78.8450981147045,33.721815186151495,0.0 -78.84510988088579,33.721808988829665,0.0 -78.8451124688173,33.72180749843292,0.0 -78.84512235298764,33.72180130241159,0.0 -78.84512423500085,33.721800046443065,0.0 -78.84513215857868,33.721794242004975,0.0 -78.84513913918582,33.72178882915478,0.0 -78.8451408653473,33.72178741733428,0.0 -78.84514776737454,33.721781455730294,0.0 -78.8451556123741,33.721774239462846,0.0 -78.84516502506561,33.721764591137735,0.0 -78.84518832301923,33.72173886269872,0.0 -78.84519020503376,33.72173690212538,0.0 -78.84519852021012,33.72172882278483,0.0 -78.84520706981789,33.72172152663065,0.0 -78.84520887456048,33.7217199576496,0.0 -78.84522581792177,33.72170670120829,0.0 -78.84523397593547,33.72169917193019,0.0 -78.84523860435716,33.7216932888955,0.0 -78.84523993761647,33.72169077825636,0.0 -78.84524150662065,33.721686934369814,0.0 -78.84524464332921,33.72167375644195,0.0 -78.84524644807827,33.72166857930809,0.0 -78.8452475469043,33.72166630440916,0.0 -78.84525201816545,33.72165979403977,0.0 -78.84525931309973,33.72165226344777,0.0 -78.84526684246451,33.72164598752495,0.0 -78.8452686472069,33.72164457570482,0.0 -78.84527751113599,33.7216383796786,0.0 -78.84528739530644,33.72163210376719,0.0 -78.84528990465705,33.72163061336998,0.0 -78.84529829840837,33.72162582917036,0.0 -78.84530049474478,33.72162465178377,0.0 -78.84531226092548,33.72161876878377,0.0 -78.84533398985435,33.72160833602349,0.0 -78.84533657778543,33.721607081368006,0.0 -78.84534567745413,33.72160253160363,0.0 -78.84534771662871,33.72160143410641,0.0 -78.84535493297604,33.72159727592538,0.0 -78.84535689487969,33.721596099847375,0.0 -78.84536450282442,33.72159029540762,0.0 -78.84536811231146,33.721586137209194,0.0 -78.8453694455698,33.72158417663317,0.0 -78.84537054308916,33.72158025416392,0.0 -78.84537085741827,33.72157703891492,0.0 -78.84537015151088,33.72157123443495,0.0 -78.84536889684657,33.721565821544885,0.0 -78.84536787661663,33.72155954558058,0.0 -78.84536889686709,33.72155436844291,0.0 -78.84537038597765,33.72155225070672,0.0 -78.8453721907206,33.72155052587443,0.0 -78.84537430847696,33.72154887831438,0.0 -78.84538168198497,33.72154527019742,0.0 -78.84539117324552,33.721542210844135,0.0 -78.84539360532327,33.721541662102425,0.0 -78.84540388108101,33.721539387247994,0.0 -78.8454067047533,33.72153883719838,0.0 -78.84542074584283,33.721536485091406,0.0 -78.84542388383827,33.72153601362383,0.0 -78.84544122008428,33.7215335816427,0.0 -78.84544412233721,33.72153311148369,0.0 -78.84546153585377,33.72153099382479,0.0 -78.84549981651455,33.72152667994317,0.0 -78.84550240444393,33.72152636563385,0.0 -78.84553707562368,33.72152283622967,0.0</coordinates>
                    </LinearRing>
                </outerBoundaryIs>
            </Polygon>
        </Placemark>
    </Document>
</kml>
