<?xml version="1.0" encoding="UTF-8"?>
<kml xmlns="http://www.opengis.net/kml/2.2" xmlns:gx="http://www.google.com/kml/ext/2.2">
    <Document id="2025">
        <Style id="2032">
            <LineStyle id="2034">
                <colorMode>normal</colorMode>
                <width>1</width>
            </LineStyle>
            <PolyStyle id="2033">
                <color>80ebce87</color>
                <colorMode>normal</colorMode>
                <fill>1</fill>
                <outline>1</outline>
            </PolyStyle>
        </Style>
        <Style id="2041">
            <LineStyle id="2043">
                <colorMode>normal</colorMode>
                <width>1</width>
            </LineStyle>
            <PolyStyle id="2042">
                <color>80ebce87</color>
                <colorMode>normal</colorMode>
                <fill>1</fill>
                <outline>1</outline>
            </PolyStyle>
        </Style>
        <Style id="2050">
            <LineStyle id="2052">
                <colorMode>normal</colorMode>
                <width>1</width>
            </LineStyle>
            <PolyStyle id="2051">
                <color>80ebce87</color>
                <colorMode>normal</colorMode>
                <fill>1</fill>
                <outline>1</outline>
            </PolyStyle>
        </Style>
        <Style id="2059">
            <LineStyle id="2061">
                <colorMode>normal</colorMode>
                <width>1</width>
            </LineStyle>
            <PolyStyle id="2060">
                <color>80ebce87</color>
                <colorMode>normal</colorMode>
                <fill>1</fill>
                <outline>1</outline>
            </PolyStyle>
        </Style>
        <Style id="2068">
            <LineStyle id="2070">
                <colorMode>normal</colorMode>
                <width>1</width>
            </LineStyle>
            <PolyStyle id="2069">
                <color>80ebce87</color>
                <colorMode>normal</colorMode>
                <fill>1</fill>
                <outline>1</outline>
            </PolyStyle>
        </Style>
        <Style id="2077">
            <LineStyle id="2079">
                <colorMode>normal</colorMode>
                <width>1</width>
            </LineStyle>
            <PolyStyle id="2078">
                <color>80ebce87</color>
                <colorMode>normal</colorMode>
                <fill>1</fill>
                <outline>1</outline>
            </PolyStyle>
        </Style>
        <Style id="2086">
            <LineStyle id="2088">
                <colorMode>normal</colorMode>
                <width>1</width>
            </LineStyle>
            <PolyStyle id="2087">
                <color>80ebce87</color>
                <colorMode>normal</colorMode>
                <fill>1</fill>
                <outline>1</outline>
            </PolyStyle>
        </Style>
        <Style id="2095">
            <LineStyle id="2097">
                <colorMode>normal</colorMode>
                <width>1</width>
            </LineStyle>
            <PolyStyle id="2096">
                <color>80ebce87</color>
                <colorMode>normal</colorMode>
                <fill>1</fill>
                <outline>1</outline>
            </PolyStyle>
        </Style>
        <Style id="2104">
            <LineStyle id="2106">
                <colorMode>normal</colorMode>
                <width>1</width>
            </LineStyle>
            <PolyStyle id="2105">
                <color>80ebce87</color>
                <colorMode>normal</colorMode>
                <fill>1</fill>
                <outline>1</outline>
            </PolyStyle>
        </Style>
        <Style id="2113">
            <LineStyle id="2115">
                <colorMode>normal</colorMode>
                <width>1</width>
            </LineStyle>
            <PolyStyle id="2114">
                <color>80ebce87</color>
                <colorMode>normal</colorMode>
                <fill>1</fill>
                <outline>1</outline>
            </PolyStyle>
        </Style>
        <Placemark id="2027">
            <name>Flood_220</name>
            <styleUrl>#2032</styleUrl>
            <Polygon id="2026">
                <outerBoundaryIs>
                    <LinearRing id="2030">
                        <coordinates>-79.14049008280463,33.70369327122846,0.0 -79.14047329669317,33.70365812872778,0.0 -79.14045086196145,33.70363506797955,0.0 -79.14043635074732,33.703584081031536,0.0 -79.14041069945633,33.703562979557965,0.0 -79.14039069678715,33.70353356426641,0.0 -79.14038222579629,33.703494577867396,0.0 -79.14034629879707,33.70346555548322,0.0 -79.14032315945639,33.703432766470286,0.0 -79.14030754942917,33.70339017322875,0.0 -79.14026283710986,33.70330529845249,0.0 -79.14026730833048,33.70328796359447,0.0 -79.14029484160139,33.70325901846142,0.0 -79.14029860690842,33.70324387861876,0.0 -79.1402940570941,33.703231014993506,0.0 -79.14028370280694,33.70322693535947,0.0 -79.14025460053901,33.703239485982735,0.0 -79.1401885536693,33.70325580193286,0.0 -79.14016251079303,33.70325109627901,0.0 -79.14016619752299,33.7032435656473,0.0 -79.14017608163334,33.703239251575255,0.0 -79.14022087118633,33.70324003605661,0.0 -79.14019569135522,33.70316661438112,0.0 -79.14020400646858,33.70314598437976,0.0 -79.14022244012865,33.70313178618877,0.0 -79.14024785566737,33.70312864819998,0.0 -79.14029225363086,33.70313633597779,0.0 -79.14032849361773,33.703109822908395,0.0 -79.14038865744395,33.70312449124855,0.0 -79.14048004258892,33.70312158898082,0.0 -79.14048702315903,33.703134845507755,0.0 -79.14046709909955,33.70317171286168,0.0 -79.14046788359975,33.70318363614152,0.0 -79.14053965770302,33.70323015184189,0.0 -79.14055950320989,33.70325650773294,0.0 -79.14057848696412,33.703312280231515,0.0 -79.14060852958812,33.70332208575806,0.0 -79.140618648136,33.70333110548569,0.0 -79.14062845368039,33.703359659014275,0.0 -79.14062084449428,33.70340891981771,0.0 -79.14071913168799,33.703552389430726,0.0 -79.14071952460378,33.703582903545495,0.0 -79.1407360762827,33.70361592699227,0.0 -79.14073435014726,33.703650285003384,0.0 -79.14074235096494,33.703689114241506,0.0 -79.14073693808186,33.703691310567955,0.0 -79.14067685283483,33.7036742101619,0.0 -79.14062727773673,33.703684956059725,0.0 -79.14060092055003,33.703706213400885,0.0 -79.14059778388736,33.70372307939497,0.0 -79.1406253158683,33.703738610820636,0.0 -79.14063865098682,33.7037710855146,0.0 -79.14061935426226,33.70381007061259,0.0 -79.14059111638498,33.7038354075916,0.0 -79.1405560524707,33.70382850430634,0.0 -79.14050137879524,33.703805050665906,0.0 -79.14048145471337,33.70379132266006,0.0 -79.14051165448545,33.70377179146914,0.0 -79.1405651520595,33.70376394649992,0.0 -79.14058209531149,33.70375265185853,0.0 -79.1405387948499,33.703733589554226,0.0 -79.14049008280463,33.70369327122846,0.0</coordinates>
                    </LinearRing>
                </outerBoundaryIs>
            </Polygon>
        </Placemark>
        <Placemark id="2036">
            <name>Flood_221</name>
            <styleUrl>#2041</styleUrl>
            <Polygon id="2035">
                <outerBoundaryIs>
                    <LinearRing id="2039">
                        <coordinates>-79.14131756309646,33.70490040877108,0.0 -79.14128775621494,33.70489389838692,0.0 -79.141268851067,33.70489680063251,0.0 -79.1412510447255,33.70487664081311,0.0 -79.14119629247871,33.70487483740848,0.0 -79.14119880312282,33.70487115067292,0.0 -79.14119715554207,33.70484785286718,0.0 -79.14120860863345,33.70482353613021,0.0 -79.1411675830707,33.70479286486774,0.0 -79.14114585555417,33.7047500358872,0.0 -79.14110961555356,33.70474642774455,0.0 -79.14106074637104,33.70476039020412,0.0 -79.1410566667335,33.7047560761364,0.0 -79.14105721547938,33.70473866269915,0.0 -79.14105156816065,33.704732150997465,0.0 -79.14102583961065,33.70473819122624,0.0 -79.14100450368981,33.70470226554185,0.0 -79.14099532548859,33.70469457775327,0.0 -79.14092174797092,33.70466602555507,0.0 -79.14091468751073,33.70465308204057,0.0 -79.14090425462076,33.70459887983972,0.0 -79.1408890375001,33.704566482417356,0.0 -79.1408883315773,33.70454765715093,0.0 -79.14085256173459,33.70450969099752,0.0 -79.14084463949649,33.7044691369177,0.0 -79.14082424393274,33.70445760654663,0.0 -79.14081593011552,33.70444756527209,0.0 -79.14081483128457,33.704415717908546,0.0 -79.14078965147353,33.704388656104726,0.0 -79.14078267089653,33.70435978956308,0.0 -79.14076054918358,33.70435194461768,0.0 -79.1407457249724,33.70433547284147,0.0 -79.14074478329326,33.70428299547934,0.0 -79.14071497510564,33.704284092996375,0.0 -79.14069120712631,33.704263071412484,0.0 -79.1406681450653,33.704250755237304,0.0 -79.14066947962036,33.70424385325033,0.0 -79.14068940369664,33.70424479359058,0.0 -79.14071262160935,33.70425820727327,0.0 -79.14074360587212,33.70422887054627,0.0 -79.14078596466219,33.704212397442284,0.0 -79.1408775056502,33.70418957108993,0.0 -79.14089617505829,33.70419019841829,0.0 -79.14091774670935,33.704201337196196,0.0 -79.14094457407144,33.704185178419166,0.0 -79.14097516544157,33.7041777263595,0.0 -79.14099469792599,33.70418047143179,0.0 -79.14100371897507,33.70420800472373,0.0 -79.14101101386304,33.70421208435863,0.0 -79.14102560363112,33.70420274899148,0.0 -79.1410401933941,33.704181961827395,0.0 -79.14107941420328,33.70416305796788,0.0 -79.14110231909686,33.70416054731388,0.0 -79.14109675036991,33.704179295311434,0.0 -79.1410539999947,33.70421263309874,0.0 -79.14104513612698,33.70423122393635,0.0 -79.14104968594509,33.704252402687196,0.0 -79.14107259085993,33.70429766373377,0.0 -79.14106725657417,33.70433782622491,0.0 -79.14108255227322,33.704365593946655,0.0 -79.14108459144518,33.70438583235172,0.0 -79.14105470598551,33.70438418479023,0.0 -79.14103635090558,33.70439775564711,0.0 -79.14107839538984,33.70441728681499,0.0 -79.14109345534388,33.704436819301165,0.0 -79.14108545454604,33.70444309395605,0.0 -79.14107541457638,33.70442936725695,0.0 -79.14104968602031,33.70442144504189,0.0 -79.141035566423,33.70442560195444,0.0 -79.14103242844793,33.70443595624489,0.0 -79.14107070762438,33.7044687452527,0.0 -79.14112577420414,33.704496042788435,0.0 -79.14112844070338,33.704501141351805,0.0 -79.14112091008751,33.70452726150981,0.0 -79.14112749907177,33.70455542213676,0.0 -79.1411722113743,33.704600840337164,0.0 -79.14119848869744,33.70463904092524,0.0 -79.14120649080786,33.70463919808367,0.0 -79.1412119809578,33.70462837361917,0.0 -79.14119903873147,33.70457354277527,0.0 -79.14119927315366,33.704552128281485,0.0 -79.14120343136823,33.704548911718675,0.0 -79.14121990314844,33.70456201108142,0.0 -79.14123268950797,33.70458209232212,0.0 -79.14123316100569,33.70461550867612,0.0 -79.14127065568464,33.70464241462464,0.0 -79.14127018551589,33.704652141579956,0.0 -79.14125590876046,33.70466241729352,0.0 -79.14124320099037,33.70466280889043,0.0 -79.14121912000293,33.70465135710106,0.0 -79.14120664666675,33.704656377088924,0.0 -79.14120045060181,33.70466626120707,0.0 -79.14121017757364,33.70471222686278,0.0 -79.14122280677138,33.70472995461776,0.0 -79.14124320102239,33.704734583002136,0.0 -79.14128203024126,33.704720463384916,0.0 -79.1412988949215,33.704728699924736,0.0 -79.14128101002034,33.70475497855667,0.0 -79.14123849407486,33.70478407954584,0.0 -79.14123496450736,33.704794983900044,0.0 -79.14123919999963,33.70480722019087,0.0 -79.14126351803696,33.70481600548201,0.0 -79.14127332226424,33.70482730142465,0.0 -79.14130446369893,33.7048228301846,0.0 -79.14132140696248,33.70483741995714,0.0 -79.14133074232055,33.70483569511238,0.0 -79.1413418810935,33.70481914343778,0.0 -79.14135019490546,33.704817260122645,0.0 -79.14139851536522,33.704872248115954,0.0 -79.14138282678053,33.704881975076255,0.0 -79.14131756309646,33.70490040877108,0.0</coordinates>
                    </LinearRing>
                </outerBoundaryIs>
            </Polygon>
        </Placemark>
        <Placemark id="2045">
            <name>Flood_222</name>
            <styleUrl>#2050</styleUrl>
            <Polygon id="2044">
                <outerBoundaryIs>
                    <LinearRing id="2048">
                        <coordinates>-79.1668011963583,33.709494332991476,0.0 -79.16679962735418,33.709471192351735,0.0 -79.16681131619603,33.70946781993548,0.0 -79.16685194884893,33.709475820722794,0.0 -79.16687838331553,33.70947362438905,0.0 -79.16689854312749,33.70946389742861,0.0 -79.16690254286102,33.709444207779455,0.0 -79.16688991365633,33.70942044111929,0.0 -79.16687179430362,33.70940812494604,0.0 -79.16677813424403,33.70939973258509,0.0 -79.16676017205025,33.70938412258016,0.0 -79.1667477000081,33.70936294252723,0.0 -79.16672550094542,33.709229121295564,0.0 -79.16669349638752,33.709155778220534,0.0 -79.16665968838994,33.709052706842584,0.0 -79.16665482423734,33.709016858431525,0.0 -79.16665725625508,33.708938809683254,0.0 -79.16663113477351,33.70889645088738,0.0 -79.16662760518366,33.70886797594377,0.0 -79.16663913556015,33.708873153083324,0.0 -79.16666133456378,33.70891049189791,0.0 -79.16667435665828,33.70891394288583,0.0 -79.16670745866007,33.708883978829114,0.0 -79.16674550337783,33.70886177983132,0.0 -79.1667583669766,33.708824049411625,0.0 -79.1667793898623,33.70881173322425,0.0 -79.1668687345362,33.70880694895126,0.0 -79.16692748783146,33.70879486849198,0.0 -79.16695517696817,33.7087962803113,0.0 -79.1669605112701,33.708793220909584,0.0 -79.1669653740807,33.70877627764774,0.0 -79.1669717286186,33.7087727480725,0.0 -79.16700318308399,33.70879824218672,0.0 -79.16703220678146,33.708803889493225,0.0 -79.16705817106686,33.708788672374986,0.0 -79.16709197899523,33.70877863108799,0.0 -79.16712147284636,33.70875243234717,0.0 -79.16714853596409,33.708762550883435,0.0 -79.16719018753675,33.7087596486297,0.0 -79.1672360759139,33.70876953272749,0.0 -79.1672511371724,33.70877455270481,0.0 -79.16725380367438,33.708782474925385,0.0 -79.16724493980692,33.708796751691146,0.0 -79.1672042285908,33.70881651862411,0.0 -79.16720415134645,33.70885958334372,0.0 -79.16719089353136,33.70889009745648,0.0 -79.16723764500007,33.708926180284216,0.0 -79.16728604407253,33.70901646661318,0.0 -79.1672853381675,33.70903184088337,0.0 -79.16726588425274,33.70901332864014,0.0 -79.16725968687471,33.70901528922521,0.0 -79.1672546668994,33.70902587925568,0.0 -79.16725694181577,33.709045411741556,0.0 -79.16727561123857,33.709068865387216,0.0 -79.16728941652175,33.70907765067941,0.0 -79.167302202872,33.70907647458709,0.0 -79.16732259711273,33.709062040656214,0.0 -79.16734016899514,33.7090314479614,0.0 -79.1673444830636,33.70903309553051,0.0 -79.16737185919949,33.70905286243908,0.0 -79.1673938224398,33.709054196989655,0.0 -79.16741076570682,33.70906957125343,0.0 -79.16740441249732,33.70910361493675,0.0 -79.1674130406658,33.709158288608705,0.0 -79.16739931397075,33.70916189676706,0.0 -79.16732189125787,33.70915915171693,0.0 -79.16727835638255,33.70917703664859,0.0 -79.16726957109319,33.709187469519456,0.0 -79.16730228156294,33.70925610562349,0.0 -79.16730267316635,33.709273676217464,0.0 -79.16729647710675,33.70928967782377,0.0 -79.16727404239148,33.70930120951649,0.0 -79.16719638525403,33.70931023058299,0.0 -79.16718477630499,33.70931791706729,0.0 -79.16721238687086,33.70933478173689,0.0 -79.16728023979306,33.70933768395131,0.0 -79.16729961380905,33.709342077902654,0.0 -79.16734746410681,33.709397691906766,0.0 -79.16747500939108,33.70943738416823,0.0 -79.16749964044848,33.70945550350713,0.0 -79.16750230695115,33.709464445964166,0.0 -79.16749830721011,33.709471819433496,0.0 -79.16746912636138,33.70948225231173,0.0 -79.16743414233957,33.70948319398043,0.0 -79.16738197799552,33.70946193536144,0.0 -79.16732714716116,33.7094516596745,0.0 -79.16723897854816,33.70941369485959,0.0 -79.16714971244521,33.70940365361673,0.0 -79.16713708325912,33.709410242594174,0.0 -79.1671177865342,33.709438874706855,0.0 -79.16698169044697,33.709498882735744,0.0 -79.16690936763949,33.70955065419821,0.0 -79.16689744436498,33.709552536204875,0.0 -79.16687155864761,33.70954775066333,0.0 -79.1668212776153,33.709526336192326,0.0 -79.1668011963583,33.709494332991476,0.0</coordinates>
                    </LinearRing>
                </outerBoundaryIs>
            </Polygon>
        </Placemark>
        <Placemark id="2054">
            <name>Flood_223</name>
            <styleUrl>#2059</styleUrl>
            <Polygon id="2053">
                <outerBoundaryIs>
                    <LinearRing id="2057">
                        <coordinates>-79.1435066348755,33.70962251404881,0.0 -79.14350185063383,33.709620161874554,0.0 -79.1434699247086,33.70963632065431,0.0 -79.14345392179654,33.709634673089134,0.0 -79.14344874465121,33.70962941736589,0.0 -79.14345792284509,33.70962023916122,0.0 -79.14345635385061,33.70961027777498,0.0 -79.14343407627437,33.709578194678414,0.0 -79.14340717160904,33.70952532573408,0.0 -79.14342097686969,33.70948822264077,0.0 -79.14341525096859,33.70947802551458,0.0 -79.1433886593359,33.7094696318181,0.0 -79.1433561060715,33.70947457323308,0.0 -79.14332057198382,33.70947010201596,0.0 -79.1432888817866,33.70945715982053,0.0 -79.14326079974587,33.709451668364096,0.0 -79.14322840233757,33.709467199809744,0.0 -79.14322055868955,33.709449629214916,0.0 -79.14323938392633,33.70939958391294,0.0 -79.14323428535681,33.70938420964174,0.0 -79.14322063723732,33.709378482438545,0.0 -79.14319443720157,33.70937926694325,0.0 -79.14315498194736,33.7093715804758,0.0 -79.1431505107103,33.70935267532104,0.0 -79.14313701844213,33.70934694942749,0.0 -79.14312054535037,33.70933110367747,0.0 -79.14308556001507,33.70932380880113,0.0 -79.14307010715939,33.70930733571646,0.0 -79.1430261806705,33.709285843968054,0.0 -79.1429803708577,33.709237602111514,0.0 -79.14297433062842,33.70921359839304,0.0 -79.14300358873253,33.7091661410048,0.0 -79.14297111405094,33.70917602513247,0.0 -79.14295966224715,33.70915225715746,0.0 -79.14293181465122,33.709175319231846,0.0 -79.14291542014817,33.70917751556243,0.0 -79.14283925340348,33.709152727373834,0.0 -79.142848510176,33.70913947084176,0.0 -79.14288122059371,33.70911790048526,0.0 -79.14288412282671,33.70910605578493,0.0 -79.14287596485894,33.70909295511031,0.0 -79.14286011910389,33.70908275798759,0.0 -79.14278654158883,33.709065344577205,0.0 -79.14279854212154,33.70903522205127,0.0 -79.14281070113451,33.70902643674806,0.0 -79.1428153295283,33.70903639944297,0.0 -79.14283815585294,33.70905773534778,0.0 -79.14286890439567,33.70907405126604,0.0 -79.14293456100111,33.709093739584596,0.0 -79.14295205301099,33.70909107308026,0.0 -79.1429535434167,33.7090828365347,0.0 -79.14293181459456,33.70905138208158,0.0 -79.14293118724595,33.709019534718486,0.0 -79.14292491258695,33.708999923649586,0.0 -79.14291275356688,33.7089931775188,0.0 -79.14289957562329,33.708993256103966,0.0 -79.14290796802707,33.709015925262996,0.0 -79.14290381112458,33.70902471187296,0.0 -79.14289800664824,33.709025730802125,0.0 -79.14285588357731,33.70899623693955,0.0 -79.14284090089338,33.70897639144192,0.0 -79.14284654951356,33.708964546740525,0.0 -79.14286004046498,33.70895497694159,0.0 -79.1428711006636,33.70895144736402,0.0 -79.14290945840864,33.70895481976304,0.0 -79.14292624581324,33.70895129018326,0.0 -79.14295118986593,33.70893873956035,0.0 -79.14296672128688,33.70892226646457,0.0 -79.14291800926108,33.708929326939064,0.0 -79.142906085984,33.708926110381796,0.0 -79.1429164402655,33.7089170893378,0.0 -79.14295675989494,33.70890343989217,0.0 -79.14297935047594,33.70891999155489,0.0 -79.14302437578107,33.70894030852468,0.0 -79.14303198499947,33.7089626633619,0.0 -79.1430395942101,33.708967997664864,0.0 -79.1430574778159,33.70897246888844,0.0 -79.14309465947201,33.708973096209434,0.0 -79.14314917599087,33.709001178238005,0.0 -79.1431765521175,33.709007297029075,0.0 -79.14321310643999,33.70900886600645,0.0 -79.1432264415392,33.708997178463335,0.0 -79.14325067968107,33.708992864385806,0.0 -79.14326801584218,33.7089953737166,0.0 -79.14329374439943,33.709003924574496,0.0 -79.14331406139088,33.70903169229324,0.0 -79.14333382829685,33.70901082654657,0.0 -79.1433470848185,33.70900541496542,0.0 -79.1433919529579,33.70901514059475,0.0 -79.14343705683328,33.709013415736905,0.0 -79.14348208213244,33.7090207891901,0.0 -79.14353973662651,33.709038595508645,0.0 -79.14358217401627,33.709061657557726,0.0 -79.14359409729045,33.70905828383115,0.0 -79.14360170649122,33.70904243938215,0.0 -79.14360703948489,33.709041497723994,0.0 -79.14364037725709,33.709064481195874,0.0 -79.1436452414019,33.70909507257911,0.0 -79.14365159463699,33.709105113853795,0.0 -79.14365896810486,33.7091075459173,0.0 -79.14371254426246,33.709102603185364,0.0 -79.14373960607274,33.70912064525615,0.0 -79.14374133223184,33.709138530175196,0.0 -79.14371121104976,33.70918010319445,0.0 -79.14370815165906,33.70919885119084,0.0 -79.14372415326177,33.70920096892934,0.0 -79.14376627631613,33.70919437994013,0.0 -79.14380000698681,33.70920920544718,0.0 -79.14383805040785,33.70920779360399,0.0 -79.14385460207451,33.70921163749372,0.0 -79.1438678586045,33.70922418810295,0.0 -79.1438984500038,33.709277998701985,0.0 -79.14397469532808,33.70930027624359,0.0 -79.1440120341557,33.70932349545532,0.0 -79.14403729252807,33.709306473602325,0.0 -79.1440677280476,33.7092985500586,0.0 -79.14405203947013,33.709324592948455,0.0 -79.1440147792455,33.70934985135074,0.0 -79.14400622969599,33.70936036280401,0.0 -79.144008504605,33.709370402770496,0.0 -79.14403007625108,33.709368755191846,0.0 -79.1440287417132,33.70941236867399,0.0 -79.14402466338804,33.70941440914887,0.0 -79.14401399477815,33.70940938916907,0.0 -79.1439899923649,33.70938632711355,0.0 -79.14397045988089,33.7093860127986,0.0 -79.14396559707681,33.70942248855424,0.0 -79.14393774948786,33.70946053199899,0.0 -79.14392943569676,33.70950791079891,0.0 -79.14389186114128,33.709513951032854,0.0 -79.14388895890482,33.709518186522295,0.0 -79.14389335155731,33.70952807063675,0.0 -79.14388786140464,33.70953324778338,0.0 -79.14386362325614,33.70952336367612,0.0 -79.14384683584903,33.70952179600138,0.0 -79.14383044134756,33.709527443325236,0.0 -79.14382502977962,33.70954172009253,0.0 -79.14379882974043,33.70953528697929,0.0 -79.14377914140645,33.709537719052555,0.0 -79.143777651003,33.709550739840374,0.0 -79.14379584894144,33.709578194547404,0.0 -79.14378871122213,33.70959152965926,0.0 -79.14375286281815,33.70959921746349,0.0 -79.14371897630365,33.7096006293053,0.0 -79.14369356076607,33.7096085515375,0.0 -79.14367810792285,33.70961922015441,0.0 -79.14365771368544,33.70964581179982,0.0 -79.1436358290322,33.70965844100214,0.0 -79.14360280428532,33.709664009751606,0.0 -79.14353150168033,33.70965969570853,0.0 -79.14351761650879,33.70965193065147,0.0 -79.1435066348755,33.70962251404881,0.0</coordinates>
                    </LinearRing>
                </outerBoundaryIs>
            </Polygon>
        </Placemark>
        <Placemark id="2063">
            <name>Flood_224</name>
            <styleUrl>#2068</styleUrl>
            <Polygon id="2062">
                <outerBoundaryIs>
                    <LinearRing id="2066">
                        <coordinates>-79.1685642517091,33.71239588623438,0.0 -79.16859107907607,33.71238992458535,0.0 -79.1686215918536,33.71236262702665,0.0 -79.1686708539476,33.71236333292224,0.0 -79.16867807023841,33.71233893761134,0.0 -79.16870427027703,33.71234215416197,0.0 -79.16873392129621,33.71232670130036,0.0 -79.16878412370926,33.71228402815466,0.0 -79.16878679019237,33.71226159473801,0.0 -79.16880977366486,33.71225563309061,0.0 -79.16882812874495,33.712244572881836,0.0 -79.1688398162573,33.71220911736755,0.0 -79.16888217506236,33.71221790264832,0.0 -79.16887684073492,33.71218025081626,0.0 -79.168909238143,33.71216770019246,0.0 -79.16893426076994,33.71214785468423,0.0 -79.16897002927611,33.712129106679185,0.0 -79.16899591497474,33.712103299531975,0.0 -79.16900242667681,33.712104632778185,0.0 -79.1690173294732,33.71212259626878,0.0 -79.16904556867779,33.71213036131847,0.0 -79.16907074848814,33.7121464414931,0.0 -79.16908549543693,33.71217020946125,0.0 -79.16908926076607,33.7121945261874,0.0 -79.16905655035494,33.712221746476075,0.0 -79.16903458713354,33.71225139751664,0.0 -79.16894861490577,33.712314463618526,0.0 -79.16892076863631,33.71235917591883,0.0 -79.16886444741372,33.71238474733635,0.0 -79.16885872152216,33.71239282672102,0.0 -79.16884875884594,33.71242012427184,0.0 -79.16883299301738,33.71247126837928,0.0 -79.16878310361993,33.71251951026113,0.0 -79.168772513595,33.71252351132105,0.0 -79.16873517608602,33.71252178518435,0.0 -79.16871878157362,33.712508841677035,0.0 -79.16870787853415,33.71250892026169,0.0 -79.16866763753787,33.71260485524879,0.0 -79.16865571426794,33.712614425045466,0.0 -79.1686377520781,33.71260618850917,0.0 -79.16861861117329,33.71258493118867,0.0 -79.16861547449787,33.7125766160661,0.0 -79.16861939564517,33.71254782810789,0.0 -79.16859743239203,33.71252688380068,0.0 -79.16858951016144,33.71251072503905,0.0 -79.16858346991863,33.71247158279762,0.0 -79.16858801969165,33.7124138497215,0.0 -79.16858472454408,33.71240310253335,0.0 -79.1685642517091,33.71239588623438,0.0</coordinates>
                    </LinearRing>
                </outerBoundaryIs>
            </Polygon>
        </Placemark>
        <Placemark id="2072">
            <name>Flood_225</name>
            <styleUrl>#2077</styleUrl>
            <Polygon id="2071">
                <outerBoundaryIs>
                    <LinearRing id="2075">
                        <coordinates>-79.14892789049898,33.71210385597789,0.0 -79.14894483506554,33.712101738227325,0.0 -79.14898272132022,33.71208808878223,0.0 -79.1490096272784,33.712102444117185,0.0 -79.14907536114882,33.712106209406954,0.0 -79.14897832868232,33.712108562929735,0.0 -79.14892789049898,33.71210385597789,0.0</coordinates>
                    </LinearRing>
                </outerBoundaryIs>
            </Polygon>
        </Placemark>
        <Placemark id="2081">
            <name>Flood_226</name>
            <styleUrl>#2086</styleUrl>
            <Polygon id="2080">
                <outerBoundaryIs>
                    <LinearRing id="2084">
                        <coordinates>-79.15628430137497,33.71417879043311,0.0 -79.15627331844324,33.71417518228367,0.0 -79.15626131791055,33.71420122516993,0.0 -79.15623103956057,33.71422546333184,0.0 -79.15624884587858,33.714196832526,0.0 -79.15622193991943,33.71418279151426,0.0 -79.15622154700911,33.71416804457726,0.0 -79.15619566128308,33.71414796334545,0.0 -79.15622507786243,33.71411485999596,0.0 -79.15622115538166,33.71410403553608,0.0 -79.15620476086895,33.71408889701269,0.0 -79.15617848356315,33.714092583757484,0.0 -79.1561313392254,33.71411595885051,0.0 -79.1560886674049,33.714100819028005,0.0 -79.15609478622338,33.71413690318296,0.0 -79.15608819725679,33.71414694315189,0.0 -79.15607635255719,33.71413956968803,0.0 -79.15605187867459,33.714145922929816,0.0 -79.1560319545824,33.71411815521468,0.0 -79.15601022577106,33.71411282091835,0.0 -79.1560088139341,33.71409815256218,0.0 -79.15597430008063,33.714092269517295,0.0 -79.15597822123719,33.71407634518095,0.0 -79.15596504328578,33.7140627756466,0.0 -79.15582157364634,33.713980804473735,0.0 -79.15580102222489,33.71396166489576,0.0 -79.15578745137557,33.713956409176596,0.0 -79.15576972359217,33.713900322364374,0.0 -79.15575756587394,33.713880791190256,0.0 -79.15574360342995,33.71387169157595,0.0 -79.15571810930373,33.71386471101989,0.0 -79.15569873396882,33.713843530968205,0.0 -79.1556677496818,33.713826196126135,0.0 -79.15567441723076,33.71381937140853,0.0 -79.15571889376808,33.713807918285525,0.0 -79.15573340495379,33.71379513323529,0.0 -79.15574117131497,33.71377999339258,0.0 -79.15573889640451,33.713768854610116,0.0 -79.15573262044244,33.71376469770508,0.0 -79.1557002243465,33.71378454321878,0.0 -79.15570445982853,33.71377520916543,0.0 -79.15567637776729,33.713734105035904,0.0 -79.15567504449366,33.713687667900345,0.0 -79.15565080634781,33.713685314424495,0.0 -79.15563237267443,33.71367456855074,0.0 -79.15562288145706,33.71366201794183,0.0 -79.15561433057684,33.71363260134157,0.0 -79.15561574239761,33.71361722706957,0.0 -79.15563001914727,33.71359628274602,0.0 -79.15565504177479,33.71357392789845,0.0 -79.15567473141608,33.7135664758416,0.0 -79.15570265629891,33.71357526112847,0.0 -79.15573505240233,33.71356937805686,0.0 -79.15575105400583,33.71357181011653,0.0 -79.15578297996116,33.71361236418115,0.0 -79.15583749779977,33.71365174083933,0.0 -79.15584573303435,33.71365495739715,0.0 -79.15588503243306,33.71365158496922,0.0 -79.15591672394427,33.713669076972,0.0 -79.15594025617831,33.713676371850745,0.0 -79.1560405039366,33.71374822449434,0.0 -79.15604419067614,33.7137593632762,0.0 -79.15603344480834,33.71377944452277,0.0 -79.15603438516008,33.713789563069135,0.0 -79.15607305723441,33.713803996978704,0.0 -79.15609172665926,33.71383325510413,0.0 -79.15614624319056,33.713876632818256,0.0 -79.15617338489979,33.71390683390615,0.0 -79.15618883776703,33.7139411905964,0.0 -79.156228998949,33.71396997854007,0.0 -79.1562473553447,33.71396793936917,0.0 -79.15625347283587,33.7139713903596,0.0 -79.15622515638886,33.71401531817015,0.0 -79.1562410008488,33.71404959758949,0.0 -79.156214409226,33.71406230406399,0.0 -79.15621103681885,33.71407054060963,0.0 -79.1562301764123,33.71409140633924,0.0 -79.1562639843457,33.71408717083776,0.0 -79.15627826111044,33.71409407412741,0.0 -79.15627802537145,33.714098466776434,0.0 -79.1562573168018,33.71410293801418,0.0 -79.15624515910972,33.71413180324946,0.0 -79.15626288687322,33.71415086555765,0.0 -79.1563092454369,33.71418373182572,0.0 -79.15632916951891,33.71419283143756,0.0 -79.15633450382786,33.714201931055236,0.0 -79.15633018976543,33.71421142226956,0.0 -79.15628508589612,33.71422687513945,0.0 -79.15629214502385,33.714194792035435,0.0 -79.15628430137497,33.71417879043311,0.0</coordinates>
                    </LinearRing>
                </outerBoundaryIs>
            </Polygon>
        </Placemark>
        <Placemark id="2090">
            <name>Flood_227</name>
            <styleUrl>#2095</styleUrl>
            <Polygon id="2089">
                <outerBoundaryIs>
                    <LinearRing id="2093">
                        <coordinates>-79.14624416952361,33.71412694443048,0.0 -79.14621051873876,33.71410607870486,0.0 -79.1461689444346,33.71410804061432,0.0 -79.14615506057442,33.71410482405862,0.0 -79.1461405480637,33.71408733204756,0.0 -79.14613505789637,33.71406199508088,0.0 -79.14614415750887,33.71405062055146,0.0 -79.14619749792246,33.714036736667424,0.0 -79.1462168719315,33.71402661811203,0.0 -79.14621561725939,33.714018302987185,0.0 -79.14620000724642,33.714011165265745,0.0 -79.14623907089124,33.71398119989038,0.0 -79.14624063987783,33.71397398358153,0.0 -79.14623209031708,33.713961511551744,0.0 -79.14622150028721,33.71395625583097,0.0 -79.14619561457127,33.71395445110936,0.0 -79.14615121659374,33.713924487077065,0.0 -79.14606398963785,33.71388346154829,0.0 -79.14602445449316,33.71387773566576,0.0 -79.14590483144843,33.71387397039825,0.0 -79.14588412287388,33.713868714681475,0.0 -79.14586615937348,33.71385624265538,0.0 -79.14586827842176,33.713845888365405,0.0 -79.14589314389261,33.71382949384622,0.0 -79.14598358738046,33.713811060137196,0.0 -79.14601692513514,33.71379443118284,0.0 -79.14602790674766,33.713778664003364,0.0 -79.1460133942396,33.71376666214906,0.0 -79.14594201305366,33.71376532892847,0.0 -79.14592977545435,33.71376234811351,0.0 -79.14591722483948,33.71375207240991,0.0 -79.14591259775314,33.713738267129465,0.0 -79.14593487527696,33.71365825646681,0.0 -79.14593314911028,33.71362491869511,0.0 -79.1459059301487,33.71362915419421,0.0 -79.14586372850646,33.71362256523695,0.0 -79.14584105805076,33.71364076317746,0.0 -79.14583211559462,33.713642489332486,0.0 -79.14580622987377,33.71363025305084,0.0 -79.14579352340371,33.71361181807318,0.0 -79.14579752314671,33.713606170753856,0.0 -79.1458122700785,33.713601386505886,0.0 -79.14582576234793,33.71360875996969,0.0 -79.14583133239253,33.71360719097708,0.0 -79.14584756972593,33.71358585505822,0.0 -79.14585815843168,33.71356075251691,0.0 -79.14587753375095,33.713551811359245,0.0 -79.14590906678141,33.71355055536856,0.0 -79.14594083556395,33.71357134251469,0.0 -79.14594899352598,33.713571499672454,0.0 -79.14596891890339,33.713552045754845,0.0 -79.14597299721798,33.71352765044047,0.0 -79.14596177984954,33.71351306066747,0.0 -79.14594122843225,33.71349996130809,0.0 -79.14585400148556,33.713477605193425,0.0 -79.1458419210453,33.71347078048277,0.0 -79.14583815572648,33.71346050477558,0.0 -79.1458569822817,33.71342975622284,0.0 -79.14585564902985,33.7134228529274,0.0 -79.14582168393494,33.71342622535342,0.0 -79.14576787203953,33.71344167822791,0.0 -79.14574888961698,33.71343862014466,0.0 -79.1457429279735,33.71342716704073,0.0 -79.14574214345313,33.71337366944412,0.0 -79.14572904407568,33.7133444113138,0.0 -79.14571547322346,33.713332252298144,0.0 -79.14569170524787,33.713323624169846,0.0 -79.14564871911497,33.71332566335044,0.0 -79.14561640158553,33.71331868279634,0.0 -79.14560612587697,33.71331224967768,0.0 -79.145613577919,33.71330064071718,0.0 -79.14564409201687,33.71328699258393,0.0 -79.14566480058689,33.713282912938645,0.0 -79.14570056910539,33.71328361883929,0.0 -79.14573414260529,33.71327522512025,0.0 -79.14574426114527,33.713265420890565,0.0 -79.14574331948238,33.71325082980375,0.0 -79.14573382826607,33.71323882925719,0.0 -79.14568056642248,33.71323004397937,0.0 -79.14565311170861,33.71321113883418,0.0 -79.14564966070354,33.71318391986379,0.0 -79.14566754559198,33.713130109247466,0.0 -79.14563875762552,33.71310288897738,0.0 -79.14563146272104,33.71306500270706,0.0 -79.14561844062483,33.71305770782347,0.0 -79.14560290920001,33.7130664931282,0.0 -79.14557921980273,33.71305315802849,0.0 -79.14558133752676,33.71301197530296,0.0 -79.1455555303794,33.71298483492174,0.0 -79.14554447016548,33.712956517137144,0.0 -79.14551576077871,33.7129274161739,0.0 -79.14548054101465,33.712928200682796,0.0 -79.1454565372935,33.712910628785124,0.0 -79.14546249892764,33.7129026279793,0.0 -79.14549803300807,33.71288999877117,0.0 -79.14550799569687,33.71288050755382,0.0 -79.14550383747363,33.712865917778025,0.0 -79.14548705137241,33.71285705390537,0.0 -79.14550399462088,33.712836972654706,0.0 -79.14551246688852,33.712802693222656,0.0 -79.14551238830153,33.712789045101424,0.0 -79.1454961509428,33.7127568834232,0.0 -79.14549834726475,33.71275256935347,0.0 -79.14551003479998,33.712753981178345,0.0 -79.145513878684,33.71273201793019,0.0 -79.14550917170705,33.712717035252,0.0 -79.14549567943395,33.71270173956503,0.0 -79.14549952331649,33.71267679418726,0.0 -79.14547842312918,33.71262863221361,0.0 -79.1454829715801,33.71252665700128,0.0 -79.14545285036301,33.71249457521854,0.0 -79.14544053546153,33.71242491885833,0.0 -79.14543080850487,33.71241503474618,0.0 -79.14540452988311,33.71240523053067,0.0 -79.14542476828093,33.712403347210376,0.0 -79.14548265851543,33.712415897801876,0.0 -79.14550987747705,33.712412132476295,0.0 -79.14550854422559,33.712406014985696,0.0 -79.14548548215964,33.71238663966523,0.0 -79.14548132524716,33.71237424490439,0.0 -79.14553090033417,33.7123348682022,0.0 -79.14553592031088,33.71232365083541,0.0 -79.14553348823765,33.71230702058548,0.0 -79.14556141311047,33.71229643185383,0.0 -79.14557631720474,33.71229517586986,0.0 -79.14566040747717,33.7123104728394,0.0 -79.14568252787345,33.712300745875986,0.0 -79.14572951375267,33.71230051011646,0.0 -79.14575916478346,33.71230490275436,0.0 -79.14576700842869,33.712315728523464,0.0 -79.14576559660746,33.712332200304154,0.0 -79.14575798871606,33.71234741872842,0.0 -79.1457485747791,33.712353223210876,0.0 -79.14571453110223,33.71235306606301,0.0 -79.14570511846992,33.71234820324405,0.0 -79.14570033422235,33.71233369073924,0.0 -79.145689351291,33.71233008258931,0.0 -79.14567844825245,33.71233212175718,0.0 -79.14567444851954,33.71235894913774,0.0 -79.14568433133736,33.712389698989,0.0 -79.14570362808722,33.7124046017713,0.0 -79.14573335770214,33.71241652503938,0.0 -79.14576057667665,33.71243974425371,0.0 -79.1457865409772,33.71245088302798,0.0 -79.14578301141428,33.71247112143434,0.0 -79.14581203511514,33.712483906468655,0.0 -79.14585627591875,33.71248775034707,0.0 -79.14586451245782,33.71248076846747,0.0 -79.14586545279752,33.71246719892634,0.0 -79.14593503055224,33.71244954972167,0.0 -79.14593730547104,33.71247974951237,0.0 -79.14592632386488,33.71250869463969,0.0 -79.14592765712219,33.71252704973177,0.0 -79.14593848289027,33.712525716478524,0.0 -79.14595597489598,33.71251340028981,0.0 -79.14599386244119,33.71245896233182,0.0 -79.14605928198397,33.71245072576165,0.0 -79.14608077505424,33.71245786348112,0.0 -79.14609152224789,33.71246908084168,0.0 -79.14608234405522,33.71248100412473,0.0 -79.14606799002573,33.71248531819914,0.0 -79.1460272002101,33.712472924762125,0.0 -79.14601880650811,33.71247582700473,0.0 -79.14603849487735,33.71254658086935,0.0 -79.14603739738871,33.71258525294768,0.0 -79.14603402498123,33.71259388239633,0.0 -79.14602178738699,33.712601333141116,0.0 -79.14600617737823,33.712602667705745,0.0 -79.14598586170588,33.71259678465435,0.0 -79.1459782524994,33.71260070582374,0.0 -79.145983036759,33.71264039813649,0.0 -79.14598044886526,33.7126884828483,0.0 -79.1460264158538,33.712763629352004,0.0 -79.14603347499697,33.71275939386085,0.0 -79.14605355621003,33.71270754382721,0.0 -79.14606469498992,33.71270542607868,0.0 -79.14607912891756,33.71271766236485,0.0 -79.14607669689356,33.71280426199347,0.0 -79.14608305012705,33.712810302211246,0.0 -79.14612180077886,33.712821048078,0.0 -79.14611175952281,33.712858072588936,0.0 -79.1461530994181,33.71290466687361,0.0 -79.14616306081231,33.71292671000652,0.0 -79.14615827658149,33.712947340006046,0.0 -79.14613340980398,33.71296961758428,0.0 -79.1461171724742,33.71299832697221,0.0 -79.1461241543558,33.7130136226617,0.0 -79.14617043433921,33.71305198039949,0.0 -79.14614815678306,33.71306390368771,0.0 -79.14614203799141,33.713079199382236,0.0 -79.14615254944344,33.71308986798911,0.0 -79.14617592582663,33.713099280612916,0.0 -79.14619067276058,33.7130992020266,0.0 -79.14620338052825,33.71309230003539,0.0 -79.14621514665063,33.7131077528838,0.0 -79.14622306889244,33.7131521508569,0.0 -79.14621710726813,33.71318062449936,0.0 -79.14620510542154,33.71320125450172,0.0 -79.14620777323512,33.71321537410474,0.0 -79.14628456732285,33.71325357597915,0.0 -79.14635124287915,33.7133190741,0.0 -79.146356262868,33.71333319370206,0.0 -79.14635406655042,33.71334660739237,0.0 -79.1463145314229,33.713376650038434,0.0 -79.14630425572538,33.713393358873695,0.0 -79.14631735510096,33.71341838151556,0.0 -79.14632778800136,33.71348921396395,0.0 -79.14636355784761,33.71352741585437,0.0 -79.14637312764756,33.7135460839553,0.0 -79.14637540255985,33.71356232130273,0.0 -79.14636512686427,33.71358318704578,0.0 -79.14636559704878,33.71360695502411,0.0 -79.14637861915189,33.71362829093129,0.0 -79.14642984054659,33.71368641689843,0.0 -79.14644576489638,33.71372477464791,0.0 -79.14650443963237,33.71374971869107,0.0 -79.14651832349671,33.713761799125926,0.0 -79.14652130432002,33.71377074158441,0.0 -79.14650804780355,33.713787606272156,0.0 -79.1464696900697,33.71380996243639,0.0 -79.14640874047564,33.7138818924206,0.0 -79.14631264968129,33.71392048595615,0.0 -79.14624926929763,33.713921740649916,0.0 -79.14625672004016,33.71393154618224,0.0 -79.14630394298605,33.71396300193303,0.0 -79.14635869524477,33.713982847413575,0.0 -79.14636826503549,33.71398214149506,0.0 -79.14637469684338,33.713975316777095,0.0 -79.14636324373244,33.713958687840524,0.0 -79.14636567579433,33.713951235789914,0.0 -79.14641509373726,33.71394645021848,0.0 -79.14643054659295,33.713961275731144,0.0 -79.14643140968235,33.7139901422733,0.0 -79.14639862199111,33.71400716412987,0.0 -79.14637752051789,33.71400975205575,0.0 -79.14629452905277,33.713976650058044,0.0 -79.14628699973498,33.713977513136655,0.0 -79.14626589828622,33.71403116790283,0.0 -79.14628292013595,33.714054542972036,0.0 -79.14628613670558,33.71407383971945,0.0 -79.14628064524229,33.714077056282974,0.0 -79.14623985543126,33.714075251567444,0.0 -79.14622675607075,33.7140817619661,0.0 -79.14622024568362,33.71409117460156,0.0 -79.14622393242054,33.71409823505702,0.0 -79.14625789752212,33.71410851075199,0.0 -79.14626676140455,33.714120747040205,0.0 -79.14625672013396,33.71412749317917,0.0 -79.14624416952361,33.71412694443048,0.0</coordinates>
                    </LinearRing>
                </outerBoundaryIs>
            </Polygon>
        </Placemark>
        <Placemark id="2099">
            <name>Flood_228</name>
            <styleUrl>#2104</styleUrl>
            <Polygon id="2098">
                <outerBoundaryIs>
                    <LinearRing id="2102">
                        <coordinates>-79.14860235907022,33.714621595866134,0.0 -79.14861632281445,33.714612418969246,0.0 -79.14864699277344,33.714618615028336,0.0 -79.14865664114268,33.71461383078241,0.0 -79.14865938621723,33.71460771198073,0.0 -79.14865209131291,33.71457194214592,0.0 -79.14863891336782,33.71456998156807,0.0 -79.1486007127901,33.71458237503602,0.0 -79.14857153192224,33.71455860837944,0.0 -79.14850901460038,33.714532722682534,0.0 -79.14850548372115,33.714538918755366,0.0 -79.14850838727955,33.71455954875146,0.0 -79.14850391605466,33.71456684364179,0.0 -79.14848587398406,33.714575864689046,0.0 -79.14846853782288,33.71457445286657,0.0 -79.14842672907743,33.71455727387929,0.0 -79.14841237373014,33.714545429186344,0.0 -79.14839998027126,33.71452574085029,0.0 -79.14839911717566,33.71448479386835,0.0 -79.1483792716783,33.71448338204687,0.0 -79.14834107109895,33.714492717424235,0.0 -79.14833628554578,33.7144869902183,0.0 -79.14834703272017,33.714458437993905,0.0 -79.14838170370702,33.71440894144062,0.0 -79.14847818606178,33.714305319932656,0.0 -79.14847395057119,33.71429841663846,0.0 -79.14845763464665,33.714297397718056,0.0 -79.1484498695843,33.71429198483529,0.0 -79.14842225769317,33.71424123363868,0.0 -79.14838797825945,33.71421048379807,0.0 -79.14838593909245,33.714202482995574,0.0 -79.14845434077809,33.7142214653946,0.0 -79.148515446284,33.71427425705107,0.0 -79.1485374095259,33.71427762945481,0.0 -79.14856219773218,33.7142742570323,0.0 -79.1485781207504,33.71426711929829,0.0 -79.1485888679324,33.71425417577805,0.0 -79.14857718038144,33.71422115233298,0.0 -79.14858369076617,33.71420718988749,0.0 -79.14859067132919,33.714203737581975,0.0 -79.14861459646231,33.714204993550574,0.0 -79.14864558073106,33.71418679429725,0.0 -79.14866652504494,33.714187500203636,0.0 -79.1486817421485,33.714180205308935,0.0 -79.14869845096598,33.71416224180288,0.0 -79.14872535558295,33.71411188217725,0.0 -79.14872739474269,33.71410513735134,0.0 -79.14872221759605,33.71409784115519,0.0 -79.14868048744069,33.71409980306468,0.0 -79.14869358678528,33.71406144530437,0.0 -79.1486892727092,33.714044109140964,0.0 -79.14865923008217,33.714033440542195,0.0 -79.14863004922569,33.71403250020734,0.0 -79.14859686863055,33.714045599587806,0.0 -79.14856557004343,33.71407070082722,0.0 -79.14855607885353,33.714112745320755,0.0 -79.14853584046926,33.714142474946435,0.0 -79.14853160499786,33.71417424372951,0.0 -79.14852078054551,33.7141881275962,0.0 -79.14850532769967,33.71419377622981,0.0 -79.14847818600633,33.71419283458447,0.0 -79.14846696995232,33.71418859910074,0.0 -79.14845214442936,33.714171498682944,0.0 -79.14844131865802,33.71416640012337,0.0 -79.14845057543307,33.71415863374817,0.0 -79.14848689401083,33.71415079009132,0.0 -79.14851458313424,33.71412364968958,0.0 -79.14852791821316,33.71407054368138,0.0 -79.1485462732837,33.714036971470485,0.0 -79.14854839100255,33.71398684628653,0.0 -79.1485567061146,33.71396480445658,0.0 -79.14857121861472,33.71396033322103,0.0 -79.14861930331486,33.71396739365864,0.0 -79.14863695248552,33.71396347117563,0.0 -79.1485888677716,33.713928485852264,0.0 -79.14858690587212,33.71391405323691,0.0 -79.14859561388757,33.713894050570445,0.0 -79.14860957632199,33.7138846379322,0.0 -79.1486549932101,33.71388110703086,0.0 -79.14867240795394,33.71388714724405,0.0 -79.14867436855006,33.71391444479477,0.0 -79.1487019018462,33.713935859276255,0.0 -79.1487073147472,33.71396943278723,0.0 -79.14874700573375,33.713955940501705,0.0 -79.14877602942826,33.71395484298272,0.0 -79.14879046204344,33.71396088319708,0.0 -79.14882780087703,33.71399241622188,0.0 -79.14886223613549,33.713969589886325,0.0 -79.14888537677396,33.713971471879816,0.0 -79.1488874945279,33.713992416198046,0.0 -79.14886733473044,33.71403485359814,0.0 -79.14886592290824,33.71404873746102,0.0 -79.14890294739621,33.71403234293733,0.0 -79.14896342554538,33.71403893188698,0.0 -79.14899786212312,33.71403563804122,0.0 -79.14901221615631,33.71403846169424,0.0 -79.14901974678914,33.71404818864585,0.0 -79.14903410215554,33.71409854694512,0.0 -79.14903880783253,33.71413227761727,0.0 -79.14903394501692,33.71414349498374,0.0 -79.14902437522721,33.71414624006587,0.0 -79.14895660219297,33.71414247477796,0.0 -79.14897731078918,33.71419110823306,0.0 -79.1489765263025,33.71420773848377,0.0 -79.14896264115521,33.71425025315209,0.0 -79.14894287424258,33.714257470777774,0.0 -79.14890412492088,33.714289160993985,0.0 -79.14890757594955,33.71436281710242,0.0 -79.14889628002464,33.71439725369572,0.0 -79.14888537698998,33.714407293667,0.0 -79.14886388392256,33.71440674492187,0.0 -79.14885729495566,33.714417099213385,0.0 -79.14884960721629,33.714517191111746,0.0 -79.1488619234061,33.71454009600911,0.0 -79.148839331525,33.71454605634818,0.0 -79.14880528784198,33.71453429024368,0.0 -79.14876253746328,33.714563000951514,0.0 -79.14876708727614,33.71457084459197,0.0 -79.14879642399043,33.71458488560351,0.0 -79.1488104650164,33.71459759337221,0.0 -79.14881470051081,33.71461257605002,0.0 -79.14880999485554,33.71462238027739,0.0 -79.14876865630907,33.71465767995858,0.0 -79.14875359505683,33.714665209284995,0.0 -79.14874496692134,33.7146646605347,0.0 -79.14873186623949,33.71464740295543,0.0 -79.14873986833248,33.71461147726317,0.0 -79.14872519865663,33.71458621888123,0.0 -79.14871633477799,33.714582061977026,0.0 -79.14870896132494,33.714610457039,0.0 -79.1487070007784,33.714683251383676,0.0 -79.14870049039857,33.71470709794481,0.0 -79.14862730451878,33.71478279324807,0.0 -79.14857600327134,33.71480279593189,0.0 -79.14856337408584,33.714813228806364,0.0 -79.14856384557444,33.71482491765362,0.0 -79.14859208349836,33.71489261211248,0.0 -79.14856839411144,33.71490116167912,0.0 -79.1485350563493,33.71490257483186,0.0 -79.14852352597313,33.71489771070437,0.0 -79.14851889757965,33.71488947416151,0.0 -79.14851270148341,33.71483582071699,0.0 -79.14852478060266,33.71481942620315,0.0 -79.14856407999447,33.71480114967553,0.0 -79.14855529468808,33.71478051968186,0.0 -79.14856274672543,33.71475973252059,0.0 -79.14856541320735,33.714728825504274,0.0 -79.1485738854842,33.714714550045606,0.0 -79.1485932608014,33.71470168510236,0.0 -79.14859961402539,33.71468811424963,0.0 -79.14859388810311,33.71463610837594,0.0 -79.14860235907022,33.714621595866134,0.0</coordinates>
                    </LinearRing>
                </outerBoundaryIs>
            </Polygon>
        </Placemark>
        <Placemark id="2108">
            <name>Flood_229</name>
            <styleUrl>#2113</styleUrl>
            <Polygon id="2107">
                <outerBoundaryIs>
                    <LinearRing id="2111">
                        <coordinates>-79.15441935298907,33.715120874259554,0.0 -79.15439127094184,33.715105971482366,0.0 -79.15437338603236,33.71511483536812,0.0 -79.15434930373675,33.71511083432175,0.0 -79.15431165189399,33.715087772274934,0.0 -79.15427972724613,33.71504298272208,0.0 -79.15426537189944,33.7150331771933,0.0 -79.15426278266376,33.71501576375921,0.0 -79.1542524283753,33.715011213953446,0.0 -79.15424638945974,33.714998663343,0.0 -79.15421736575477,33.714980151102615,0.0 -79.15420034390611,33.714961403115915,0.0 -79.15419140144054,33.71494516577229,0.0 -79.15417869364425,33.71489762982364,0.0 -79.15412111769834,33.71482538556986,0.0 -79.15411178363891,33.714807030482405,0.0 -79.1541143715524,33.714800911680975,0.0 -79.1541457487219,33.71478075184528,0.0 -79.15416496686878,33.71475102222113,0.0 -79.15416018131572,33.71474592365939,0.0 -79.15413641334713,33.71475180672789,0.0 -79.15413610031766,33.714719174872585,0.0 -79.15411201800134,33.714676111467746,0.0 -79.15415100440221,33.71469925078501,0.0 -79.1541608086221,33.71469383920503,0.0 -79.1541645739259,33.71467446387563,0.0 -79.1541543767908,33.714655715886025,0.0 -79.15415241619635,33.7146334383198,0.0 -79.15413327530032,33.71462567326604,0.0 -79.15413562878081,33.71461720097932,0.0 -79.1541303730538,33.714610377576115,0.0 -79.15409805551867,33.714593904500475,0.0 -79.15408981896934,33.71458103956901,0.0 -79.1540880155398,33.71456621405187,0.0 -79.15412111757173,33.71458629528102,0.0 -79.15413633468116,33.714590296331096,0.0 -79.1541328836837,33.71458033363696,0.0 -79.15410338979879,33.71454895777148,0.0 -79.1540789159058,33.714535935685575,0.0 -79.15407248408997,33.714527150390055,0.0 -79.15403663568112,33.71452668023129,0.0 -79.1539947483437,33.714488792668064,0.0 -79.15395882133272,33.71444737552894,0.0 -79.15394909436465,33.714417018582324,0.0 -79.1539719219982,33.71443247142532,0.0 -79.15400180747719,33.71446667225906,0.0 -79.15402628136364,33.71446737816385,0.0 -79.15403506665669,33.71446149510144,0.0 -79.15403279174896,33.71445529772153,0.0 -79.15396297951325,33.71437975833081,0.0 -79.15391748271985,33.71435449996233,0.0 -79.15389889186926,33.71431284838446,0.0 -79.15386994674019,33.71428547226515,0.0 -79.15379801675655,33.71420122615747,0.0 -79.15377158097013,33.71418585058676,0.0 -79.15371855487064,33.71418373286395,0.0 -79.15370584709663,33.71417808555159,0.0 -79.15365737076162,33.714091328787866,0.0 -79.15364497728216,33.71403375287229,0.0 -79.15362795542725,33.71400269001382,0.0 -79.15359453907126,33.71397813755507,0.0 -79.15351821513036,33.713894048609646,0.0 -79.15349687921805,33.71388243966125,0.0 -79.1534644831094,33.71387867435933,0.0 -79.15346856142787,33.71386392742019,0.0 -79.15344918608615,33.7138291778282,0.0 -79.1534287918334,33.71382439228486,0.0 -79.15339600282887,33.713832864583736,0.0 -79.15338353079767,33.71382972660809,0.0 -79.15337066585741,33.713813880858616,0.0 -79.15337200041222,33.713807291884436,0.0 -79.15340455367917,33.713806037203156,0.0 -79.15340769034773,33.713802820640765,0.0 -79.15340557259448,33.71378438696971,0.0 -79.15339576705313,33.713767365131126,0.0 -79.15338596282763,33.713762030829805,0.0 -79.15338164876678,33.71377505292736,0.0 -79.15337521564811,33.71377889682528,0.0 -79.15334838958773,33.713780700258056,0.0 -79.15333309258843,33.71377693494931,0.0 -79.15327292874028,33.71373049783619,0.0 -79.15324076703381,33.71367041128174,0.0 -79.1532462584971,33.713667509040285,0.0 -79.15327128113907,33.71367182309896,0.0 -79.15331787543577,33.7136902567524,0.0 -79.1533276809649,33.71368398209682,0.0 -79.1533119923665,33.713667823336195,0.0 -79.15331301129079,33.71366327352576,0.0 -79.15334619319735,33.71365433105354,0.0 -79.15337717747519,33.71365472263396,0.0 -79.15339741456997,33.713665391236376,0.0 -79.15343844012679,33.71367566692806,0.0 -79.1534703660807,33.71371449615187,0.0 -79.15351280215899,33.713728771589594,0.0 -79.15352009705033,33.71373779262629,0.0 -79.15352794200099,33.71373944019392,0.0 -79.15354151153609,33.71373614504695,0.0 -79.15354825766393,33.71372641939973,0.0 -79.15352927522481,33.71369237572225,0.0 -79.15353045130908,33.71368602118004,0.0 -79.15360175525345,33.713742656725834,0.0 -79.15369698300715,33.71377379682402,0.0 -79.15373259567319,33.7137720719683,0.0 -79.15377001307738,33.713782974995475,0.0 -79.1537763663041,33.71377552294376,0.0 -79.15376750241015,33.713742499499055,0.0 -79.15377377705595,33.713734105791204,0.0 -79.15377087482393,33.713746420663796,0.0 -79.15382374508401,33.71377136601734,0.0 -79.15387481061731,33.713804859618584,0.0 -79.15388406608308,33.71379842780235,0.0 -79.15388532205027,33.71377826797875,0.0 -79.15392360120939,33.71376885533129,0.0 -79.15399404207322,33.71381552818156,0.0 -79.15404432309785,33.71382313737172,0.0 -79.15416512226368,33.7138897342834,0.0 -79.15420622640269,33.71390299079459,0.0 -79.1542183841286,33.71393742606727,0.0 -79.15423587746537,33.71396644976188,0.0 -79.15427101866759,33.714000336271596,0.0 -79.15429572830254,33.71401445586501,0.0 -79.15429863055017,33.71403163486719,0.0 -79.15430906341928,33.71403649768526,0.0 -79.15432161404198,33.71406010849619,0.0 -79.15434569503496,33.71407760181185,0.0 -79.15443794333575,33.71421416810651,0.0 -79.15452948438156,33.71429276688852,0.0 -79.15456525424106,33.71435159746257,0.0 -79.15461004381926,33.71439356466133,0.0 -79.15461482806485,33.71440266296964,0.0 -79.15461090691565,33.71443286407023,0.0 -79.1546169471422,33.71444800259794,0.0 -79.15468879852742,33.71449757768614,0.0 -79.1547022908193,33.71454613256121,0.0 -79.15472974554376,33.714582372559285,0.0 -79.15477461370051,33.71462026012105,0.0 -79.15481093230721,33.71466701156475,0.0 -79.15483454312619,33.71468254298771,0.0 -79.1548462319847,33.714708977457434,0.0 -79.15485784093977,33.71471062502356,0.0 -79.15486082175,33.71469415193374,0.0 -79.15487352952661,33.71470466337784,0.0 -79.1548776864449,33.714726392189455,0.0 -79.15489580711275,33.714749454244185,0.0 -79.15488772773317,33.71475321825262,0.0 -79.15486717500563,33.71474098196998,0.0 -79.15486435135375,33.71475243376691,0.0 -79.15489917955811,33.71481252031907,0.0 -79.15493071262586,33.71488045051452,0.0 -79.1549504022818,33.71489998299522,0.0 -79.15496444331805,33.714930967274,0.0 -79.15496452191782,33.714967128702526,0.0 -79.15495228431385,33.714955911343544,0.0 -79.15494953921998,33.71492547712356,0.0 -79.15493832185003,33.714909788534804,0.0 -79.15491455387081,33.71489566894127,0.0 -79.15489808209499,33.71489480587234,0.0 -79.15489125738381,33.7148991985241,0.0 -79.1548910216577,33.71492775074277,0.0 -79.15491761331369,33.714976855675765,0.0 -79.15491306350553,33.714978424667905,0.0 -79.15487101901775,33.714960932669534,0.0 -79.15489447269516,33.715012625521,0.0 -79.15489510134485,33.71502384288472,0.0 -79.15488341250155,33.715025646311574,0.0 -79.15486568474589,33.71502109650884,0.0 -79.15482458190831,33.714993014480314,0.0 -79.15480653982945,33.71498587676042,0.0 -79.15477908512361,33.714984856535,0.0 -79.1547115478393,33.714998113090026,0.0 -79.15467522924773,33.71497983659412,0.0 -79.15466377615154,33.71499254437262,0.0 -79.15462596715821,33.71498885765369,0.0 -79.15461600579482,33.71502705824993,0.0 -79.15459639474064,33.71504745382242,0.0 -79.1545839226956,33.71501874313825,0.0 -79.15457082333026,33.71501552789219,0.0 -79.15455795839986,33.71501866587802,0.0 -79.15457678497722,33.71503239257109,0.0 -79.154576706408,33.71505357132101,0.0 -79.15458768804041,33.71507647621777,0.0 -79.15458588462155,33.715081810523586,0.0 -79.15456619497323,33.71507655480699,0.0 -79.15454242700555,33.715084085446364,0.0 -79.15451144272306,33.71507530016101,0.0 -79.15449598987462,33.715075927501445,0.0 -79.15448689025958,33.71508149755176,0.0 -79.1545059525781,33.715094832652035,0.0 -79.1545016385158,33.715104636878706,0.0 -79.15447951680875,33.715111933085694,0.0 -79.15444806234969,33.715096871839194,0.0 -79.15443519742662,33.715113657945366,0.0 -79.15441935298907,33.715120874259554,0.0</coordinates>
                    </LinearRing>
                </outerBoundaryIs>
            </Polygon>
        </Placemark>
    </Document>
</kml>
