<?xml version="1.0" encoding="UTF-8"?>
<kml xmlns="http://www.opengis.net/kml/2.2" xmlns:gx="http://www.google.com/kml/ext/2.2">
    <Document id="6947">
        <NetworkLink id="6948">
            <name>Parcel_Analysis_757</name>
            <Link id="6949">
                <href>https://raw.githubusercontent.com/robmohammedmahid-stack/Horry-County-Data/Parcel_Analysis/KML-Output/Parcel_Analysis/Parcel_Analysis_757.kml</href>
                <refreshMode>onChange</refreshMode>
            </Link>
        </NetworkLink>
        <NetworkLink id="6950">
            <name>Parcel_Analysis_758</name>
            <Link id="6951">
                <href>https://raw.githubusercontent.com/robmohammedmahid-stack/Horry-County-Data/Parcel_Analysis/KML-Output/Parcel_Analysis/Parcel_Analysis_758.kml</href>
                <refreshMode>onChange</refreshMode>
            </Link>
        </NetworkLink>
        <NetworkLink id="6952">
            <name>Parcel_Analysis_759</name>
            <Link id="6953">
                <href>https://raw.githubusercontent.com/robmohammedmahid-stack/Horry-County-Data/Parcel_Analysis/KML-Output/Parcel_Analysis/Parcel_Analysis_759.kml</href>
                <refreshMode>onChange</refreshMode>
            </Link>
        </NetworkLink>
        <NetworkLink id="6954">
            <name>Parcel_Analysis_760</name>
            <Link id="6955">
                <href>https://raw.githubusercontent.com/robmohammedmahid-stack/Horry-County-Data/Parcel_Analysis/KML-Output/Parcel_Analysis/Parcel_Analysis_760.kml</href>
                <refreshMode>onChange</refreshMode>
            </Link>
        </NetworkLink>
        <NetworkLink id="6956">
            <name>Parcel_Analysis_761</name>
            <Link id="6957">
                <href>https://raw.githubusercontent.com/robmohammedmahid-stack/Horry-County-Data/Parcel_Analysis/KML-Output/Parcel_Analysis/Parcel_Analysis_761.kml</href>
                <refreshMode>onChange</refreshMode>
            </Link>
        </NetworkLink>
        <NetworkLink id="6958">
            <name>Parcel_Analysis_762</name>
            <Link id="6959">
                <href>https://raw.githubusercontent.com/robmohammedmahid-stack/Horry-County-Data/Parcel_Analysis/KML-Output/Parcel_Analysis/Parcel_Analysis_762.kml</href>
                <refreshMode>onChange</refreshMode>
            </Link>
        </NetworkLink>
        <NetworkLink id="6960">
            <name>Parcel_Analysis_763</name>
            <Link id="6961">
                <href>https://raw.githubusercontent.com/robmohammedmahid-stack/Horry-County-Data/Parcel_Analysis/KML-Output/Parcel_Analysis/Parcel_Analysis_763.kml</href>
                <refreshMode>onChange</refreshMode>
            </Link>
        </NetworkLink>
        <NetworkLink id="6962">
            <name>Parcel_Analysis_764</name>
            <Link id="6963">
                <href>https://raw.githubusercontent.com/robmohammedmahid-stack/Horry-County-Data/Parcel_Analysis/KML-Output/Parcel_Analysis/Parcel_Analysis_764.kml</href>
                <refreshMode>onChange</refreshMode>
            </Link>
        </NetworkLink>
        <NetworkLink id="6964">
            <name>Parcel_Analysis_765</name>
            <Link id="6965">
                <href>https://raw.githubusercontent.com/robmohammedmahid-stack/Horry-County-Data/Parcel_Analysis/KML-Output/Parcel_Analysis/Parcel_Analysis_765.kml</href>
                <refreshMode>onChange</refreshMode>
            </Link>
        </NetworkLink>
        <NetworkLink id="6966">
            <name>Parcel_Analysis_766</name>
            <Link id="6967">
                <href>https://raw.githubusercontent.com/robmohammedmahid-stack/Horry-County-Data/Parcel_Analysis/KML-Output/Parcel_Analysis/Parcel_Analysis_766.kml</href>
                <refreshMode>onChange</refreshMode>
            </Link>
        </NetworkLink>
        <NetworkLink id="6968">
            <name>Parcel_Analysis_767</name>
            <Link id="6969">
                <href>https://raw.githubusercontent.com/robmohammedmahid-stack/Horry-County-Data/Parcel_Analysis/KML-Output/Parcel_Analysis/Parcel_Analysis_767.kml</href>
                <refreshMode>onChange</refreshMode>
            </Link>
        </NetworkLink>
        <NetworkLink id="6970">
            <name>Parcel_Analysis_768</name>
            <Link id="6971">
                <href>https://raw.githubusercontent.com/robmohammedmahid-stack/Horry-County-Data/Parcel_Analysis/KML-Output/Parcel_Analysis/Parcel_Analysis_768.kml</href>
                <refreshMode>onChange</refreshMode>
            </Link>
        </NetworkLink>
        <NetworkLink id="6972">
            <name>Parcel_Analysis_769</name>
            <Link id="6973">
                <href>https://raw.githubusercontent.com/robmohammedmahid-stack/Horry-County-Data/Parcel_Analysis/KML-Output/Parcel_Analysis/Parcel_Analysis_769.kml</href>
                <refreshMode>onChange</refreshMode>
            </Link>
        </NetworkLink>
        <NetworkLink id="6974">
            <name>Parcel_Analysis_770</name>
            <Link id="6975">
                <href>https://raw.githubusercontent.com/robmohammedmahid-stack/Horry-County-Data/Parcel_Analysis/KML-Output/Parcel_Analysis/Parcel_Analysis_770.kml</href>
                <refreshMode>onChange</refreshMode>
            </Link>
        </NetworkLink>
        <NetworkLink id="6976">
            <name>Parcel_Analysis_771</name>
            <Link id="6977">
                <href>https://raw.githubusercontent.com/robmohammedmahid-stack/Horry-County-Data/Parcel_Analysis/KML-Output/Parcel_Analysis/Parcel_Analysis_771.kml</href>
                <refreshMode>onChange</refreshMode>
            </Link>
        </NetworkLink>
        <NetworkLink id="6978">
            <name>Parcel_Analysis_772</name>
            <Link id="6979">
                <href>https://raw.githubusercontent.com/robmohammedmahid-stack/Horry-County-Data/Parcel_Analysis/KML-Output/Parcel_Analysis/Parcel_Analysis_772.kml</href>
                <refreshMode>onChange</refreshMode>
            </Link>
        </NetworkLink>
        <NetworkLink id="6980">
            <name>Parcel_Analysis_773</name>
            <Link id="6981">
                <href>https://raw.githubusercontent.com/robmohammedmahid-stack/Horry-County-Data/Parcel_Analysis/KML-Output/Parcel_Analysis/Parcel_Analysis_773.kml</href>
                <refreshMode>onChange</refreshMode>
            </Link>
        </NetworkLink>
        <NetworkLink id="6982">
            <name>Parcel_Analysis_774</name>
            <Link id="6983">
                <href>https://raw.githubusercontent.com/robmohammedmahid-stack/Horry-County-Data/Parcel_Analysis/KML-Output/Parcel_Analysis/Parcel_Analysis_774.kml</href>
                <refreshMode>onChange</refreshMode>
            </Link>
        </NetworkLink>
        <NetworkLink id="6984">
            <name>Parcel_Analysis_775</name>
            <Link id="6985">
                <href>https://raw.githubusercontent.com/robmohammedmahid-stack/Horry-County-Data/Parcel_Analysis/KML-Output/Parcel_Analysis/Parcel_Analysis_775.kml</href>
                <refreshMode>onChange</refreshMode>
            </Link>
        </NetworkLink>
        <NetworkLink id="6986">
            <name>Parcel_Analysis_776</name>
            <Link id="6987">
                <href>https://raw.githubusercontent.com/robmohammedmahid-stack/Horry-County-Data/Parcel_Analysis/KML-Output/Parcel_Analysis/Parcel_Analysis_776.kml</href>
                <refreshMode>onChange</refreshMode>
            </Link>
        </NetworkLink>
        <NetworkLink id="6988">
            <name>Parcel_Analysis_777</name>
            <Link id="6989">
                <href>https://raw.githubusercontent.com/robmohammedmahid-stack/Horry-County-Data/Parcel_Analysis/KML-Output/Parcel_Analysis/Parcel_Analysis_777.kml</href>
                <refreshMode>onChange</refreshMode>
            </Link>
        </NetworkLink>
        <NetworkLink id="6990">
            <name>Parcel_Analysis_778</name>
            <Link id="6991">
                <href>https://raw.githubusercontent.com/robmohammedmahid-stack/Horry-County-Data/Parcel_Analysis/KML-Output/Parcel_Analysis/Parcel_Analysis_778.kml</href>
                <refreshMode>onChange</refreshMode>
            </Link>
        </NetworkLink>
        <NetworkLink id="6992">
            <name>Parcel_Analysis_779</name>
            <Link id="6993">
                <href>https://raw.githubusercontent.com/robmohammedmahid-stack/Horry-County-Data/Parcel_Analysis/KML-Output/Parcel_Analysis/Parcel_Analysis_779.kml</href>
                <refreshMode>onChange</refreshMode>
            </Link>
        </NetworkLink>
        <NetworkLink id="6994">
            <name>Parcel_Analysis_780</name>
            <Link id="6995">
                <href>https://raw.githubusercontent.com/robmohammedmahid-stack/Horry-County-Data/Parcel_Analysis/KML-Output/Parcel_Analysis/Parcel_Analysis_780.kml</href>
                <refreshMode>onChange</refreshMode>
            </Link>
        </NetworkLink>
        <NetworkLink id="6996">
            <name>Parcel_Analysis_781</name>
            <Link id="6997">
                <href>https://raw.githubusercontent.com/robmohammedmahid-stack/Horry-County-Data/Parcel_Analysis/KML-Output/Parcel_Analysis/Parcel_Analysis_781.kml</href>
                <refreshMode>onChange</refreshMode>
            </Link>
        </NetworkLink>
        <NetworkLink id="6998">
            <name>Parcel_Analysis_782</name>
            <Link id="6999">
                <href>https://raw.githubusercontent.com/robmohammedmahid-stack/Horry-County-Data/Parcel_Analysis/KML-Output/Parcel_Analysis/Parcel_Analysis_782.kml</href>
                <refreshMode>onChange</refreshMode>
            </Link>
        </NetworkLink>
        <NetworkLink id="7000">
            <name>Parcel_Analysis_783</name>
            <Link id="7001">
                <href>https://raw.githubusercontent.com/robmohammedmahid-stack/Horry-County-Data/Parcel_Analysis/KML-Output/Parcel_Analysis/Parcel_Analysis_783.kml</href>
                <refreshMode>onChange</refreshMode>
            </Link>
        </NetworkLink>
        <NetworkLink id="7002">
            <name>Parcel_Analysis_784</name>
            <Link id="7003">
                <href>https://raw.githubusercontent.com/robmohammedmahid-stack/Horry-County-Data/Parcel_Analysis/KML-Output/Parcel_Analysis/Parcel_Analysis_784.kml</href>
                <refreshMode>onChange</refreshMode>
            </Link>
        </NetworkLink>
        <NetworkLink id="7004">
            <name>Parcel_Analysis_785</name>
            <Link id="7005">
                <href>https://raw.githubusercontent.com/robmohammedmahid-stack/Horry-County-Data/Parcel_Analysis/KML-Output/Parcel_Analysis/Parcel_Analysis_785.kml</href>
                <refreshMode>onChange</refreshMode>
            </Link>
        </NetworkLink>
        <NetworkLink id="7006">
            <name>Parcel_Analysis_786</name>
            <Link id="7007">
                <href>https://raw.githubusercontent.com/robmohammedmahid-stack/Horry-County-Data/Parcel_Analysis/KML-Output/Parcel_Analysis/Parcel_Analysis_786.kml</href>
                <refreshMode>onChange</refreshMode>
            </Link>
        </NetworkLink>
        <NetworkLink id="7008">
            <name>Parcel_Analysis_787</name>
            <Link id="7009">
                <href>https://raw.githubusercontent.com/robmohammedmahid-stack/Horry-County-Data/Parcel_Analysis/KML-Output/Parcel_Analysis/Parcel_Analysis_787.kml</href>
                <refreshMode>onChange</refreshMode>
            </Link>
        </NetworkLink>
        <NetworkLink id="7010">
            <name>Parcel_Analysis_788</name>
            <Link id="7011">
                <href>https://raw.githubusercontent.com/robmohammedmahid-stack/Horry-County-Data/Parcel_Analysis/KML-Output/Parcel_Analysis/Parcel_Analysis_788.kml</href>
                <refreshMode>onChange</refreshMode>
            </Link>
        </NetworkLink>
        <NetworkLink id="7012">
            <name>Parcel_Analysis_789</name>
            <Link id="7013">
                <href>https://raw.githubusercontent.com/robmohammedmahid-stack/Horry-County-Data/Parcel_Analysis/KML-Output/Parcel_Analysis/Parcel_Analysis_789.kml</href>
                <refreshMode>onChange</refreshMode>
            </Link>
        </NetworkLink>
        <NetworkLink id="7014">
            <name>Parcel_Analysis_790</name>
            <Link id="7015">
                <href>https://raw.githubusercontent.com/robmohammedmahid-stack/Horry-County-Data/Parcel_Analysis/KML-Output/Parcel_Analysis/Parcel_Analysis_790.kml</href>
                <refreshMode>onChange</refreshMode>
            </Link>
        </NetworkLink>
        <NetworkLink id="7016">
            <name>Parcel_Analysis_791</name>
            <Link id="7017">
                <href>https://raw.githubusercontent.com/robmohammedmahid-stack/Horry-County-Data/Parcel_Analysis/KML-Output/Parcel_Analysis/Parcel_Analysis_791.kml</href>
                <refreshMode>onChange</refreshMode>
            </Link>
        </NetworkLink>
        <NetworkLink id="7018">
            <name>Parcel_Analysis_792</name>
            <Link id="7019">
                <href>https://raw.githubusercontent.com/robmohammedmahid-stack/Horry-County-Data/Parcel_Analysis/KML-Output/Parcel_Analysis/Parcel_Analysis_792.kml</href>
                <refreshMode>onChange</refreshMode>
            </Link>
        </NetworkLink>
        <NetworkLink id="7020">
            <name>Parcel_Analysis_793</name>
            <Link id="7021">
                <href>https://raw.githubusercontent.com/robmohammedmahid-stack/Horry-County-Data/Parcel_Analysis/KML-Output/Parcel_Analysis/Parcel_Analysis_793.kml</href>
                <refreshMode>onChange</refreshMode>
            </Link>
        </NetworkLink>
        <NetworkLink id="7022">
            <name>Parcel_Analysis_794</name>
            <Link id="7023">
                <href>https://raw.githubusercontent.com/robmohammedmahid-stack/Horry-County-Data/Parcel_Analysis/KML-Output/Parcel_Analysis/Parcel_Analysis_794.kml</href>
                <refreshMode>onChange</refreshMode>
            </Link>
        </NetworkLink>
        <NetworkLink id="7024">
            <name>Parcel_Analysis_795</name>
            <Link id="7025">
                <href>https://raw.githubusercontent.com/robmohammedmahid-stack/Horry-County-Data/Parcel_Analysis/KML-Output/Parcel_Analysis/Parcel_Analysis_795.kml</href>
                <refreshMode>onChange</refreshMode>
            </Link>
        </NetworkLink>
        <NetworkLink id="7026">
            <name>Parcel_Analysis_796</name>
            <Link id="7027">
                <href>https://raw.githubusercontent.com/robmohammedmahid-stack/Horry-County-Data/Parcel_Analysis/KML-Output/Parcel_Analysis/Parcel_Analysis_796.kml</href>
                <refreshMode>onChange</refreshMode>
            </Link>
        </NetworkLink>
        <NetworkLink id="7028">
            <name>Parcel_Analysis_797</name>
            <Link id="7029">
                <href>https://raw.githubusercontent.com/robmohammedmahid-stack/Horry-County-Data/Parcel_Analysis/KML-Output/Parcel_Analysis/Parcel_Analysis_797.kml</href>
                <refreshMode>onChange</refreshMode>
            </Link>
        </NetworkLink>
        <NetworkLink id="7030">
            <name>Parcel_Analysis_798</name>
            <Link id="7031">
                <href>https://raw.githubusercontent.com/robmohammedmahid-stack/Horry-County-Data/Parcel_Analysis/KML-Output/Parcel_Analysis/Parcel_Analysis_798.kml</href>
                <refreshMode>onChange</refreshMode>
            </Link>
        </NetworkLink>
        <NetworkLink id="7032">
            <name>Parcel_Analysis_799</name>
            <Link id="7033">
                <href>https://raw.githubusercontent.com/robmohammedmahid-stack/Horry-County-Data/Parcel_Analysis/KML-Output/Parcel_Analysis/Parcel_Analysis_799.kml</href>
                <refreshMode>onChange</refreshMode>
            </Link>
        </NetworkLink>
        <NetworkLink id="7034">
            <name>Parcel_Analysis_800</name>
            <Link id="7035">
                <href>https://raw.githubusercontent.com/robmohammedmahid-stack/Horry-County-Data/Parcel_Analysis/KML-Output/Parcel_Analysis/Parcel_Analysis_800.kml</href>
                <refreshMode>onChange</refreshMode>
            </Link>
        </NetworkLink>
        <NetworkLink id="7036">
            <name>Parcel_Analysis_801</name>
            <Link id="7037">
                <href>https://raw.githubusercontent.com/robmohammedmahid-stack/Horry-County-Data/Parcel_Analysis/KML-Output/Parcel_Analysis/Parcel_Analysis_801.kml</href>
                <refreshMode>onChange</refreshMode>
            </Link>
        </NetworkLink>
        <NetworkLink id="7038">
            <name>Parcel_Analysis_802</name>
            <Link id="7039">
                <href>https://raw.githubusercontent.com/robmohammedmahid-stack/Horry-County-Data/Parcel_Analysis/KML-Output/Parcel_Analysis/Parcel_Analysis_802.kml</href>
                <refreshMode>onChange</refreshMode>
            </Link>
        </NetworkLink>
        <NetworkLink id="7040">
            <name>Parcel_Analysis_803</name>
            <Link id="7041">
                <href>https://raw.githubusercontent.com/robmohammedmahid-stack/Horry-County-Data/Parcel_Analysis/KML-Output/Parcel_Analysis/Parcel_Analysis_803.kml</href>
                <refreshMode>onChange</refreshMode>
            </Link>
        </NetworkLink>
        <NetworkLink id="7042">
            <name>Parcel_Analysis_804</name>
            <Link id="7043">
                <href>https://raw.githubusercontent.com/robmohammedmahid-stack/Horry-County-Data/Parcel_Analysis/KML-Output/Parcel_Analysis/Parcel_Analysis_804.kml</href>
                <refreshMode>onChange</refreshMode>
            </Link>
        </NetworkLink>
        <NetworkLink id="7044">
            <name>Parcel_Analysis_805</name>
            <Link id="7045">
                <href>https://raw.githubusercontent.com/robmohammedmahid-stack/Horry-County-Data/Parcel_Analysis/KML-Output/Parcel_Analysis/Parcel_Analysis_805.kml</href>
                <refreshMode>onChange</refreshMode>
            </Link>
        </NetworkLink>
        <NetworkLink id="7046">
            <name>Parcel_Analysis_806</name>
            <Link id="7047">
                <href>https://raw.githubusercontent.com/robmohammedmahid-stack/Horry-County-Data/Parcel_Analysis/KML-Output/Parcel_Analysis/Parcel_Analysis_806.kml</href>
                <refreshMode>onChange</refreshMode>
            </Link>
        </NetworkLink>
        <NetworkLink id="7048">
            <name>Parcel_Analysis_807</name>
            <Link id="7049">
                <href>https://raw.githubusercontent.com/robmohammedmahid-stack/Horry-County-Data/Parcel_Analysis/KML-Output/Parcel_Analysis/Parcel_Analysis_807.kml</href>
                <refreshMode>onChange</refreshMode>
            </Link>
        </NetworkLink>
        <NetworkLink id="7050">
            <name>Parcel_Analysis_808</name>
            <Link id="7051">
                <href>https://raw.githubusercontent.com/robmohammedmahid-stack/Horry-County-Data/Parcel_Analysis/KML-Output/Parcel_Analysis/Parcel_Analysis_808.kml</href>
                <refreshMode>onChange</refreshMode>
            </Link>
        </NetworkLink>
        <NetworkLink id="7052">
            <name>Parcel_Analysis_809</name>
            <Link id="7053">
                <href>https://raw.githubusercontent.com/robmohammedmahid-stack/Horry-County-Data/Parcel_Analysis/KML-Output/Parcel_Analysis/Parcel_Analysis_809.kml</href>
                <refreshMode>onChange</refreshMode>
            </Link>
        </NetworkLink>
        <NetworkLink id="7054">
            <name>Parcel_Analysis_810</name>
            <Link id="7055">
                <href>https://raw.githubusercontent.com/robmohammedmahid-stack/Horry-County-Data/Parcel_Analysis/KML-Output/Parcel_Analysis/Parcel_Analysis_810.kml</href>
                <refreshMode>onChange</refreshMode>
            </Link>
        </NetworkLink>
        <NetworkLink id="7056">
            <name>Parcel_Analysis_811</name>
            <Link id="7057">
                <href>https://raw.githubusercontent.com/robmohammedmahid-stack/Horry-County-Data/Parcel_Analysis/KML-Output/Parcel_Analysis/Parcel_Analysis_811.kml</href>
                <refreshMode>onChange</refreshMode>
            </Link>
        </NetworkLink>
        <NetworkLink id="7058">
            <name>Parcel_Analysis_812</name>
            <Link id="7059">
                <href>https://raw.githubusercontent.com/robmohammedmahid-stack/Horry-County-Data/Parcel_Analysis/KML-Output/Parcel_Analysis/Parcel_Analysis_812.kml</href>
                <refreshMode>onChange</refreshMode>
            </Link>
        </NetworkLink>
        <NetworkLink id="7060">
            <name>Parcel_Analysis_813</name>
            <Link id="7061">
                <href>https://raw.githubusercontent.com/robmohammedmahid-stack/Horry-County-Data/Parcel_Analysis/KML-Output/Parcel_Analysis/Parcel_Analysis_813.kml</href>
                <refreshMode>onChange</refreshMode>
            </Link>
        </NetworkLink>
        <NetworkLink id="7062">
            <name>Parcel_Analysis_814</name>
            <Link id="7063">
                <href>https://raw.githubusercontent.com/robmohammedmahid-stack/Horry-County-Data/Parcel_Analysis/KML-Output/Parcel_Analysis/Parcel_Analysis_814.kml</href>
                <refreshMode>onChange</refreshMode>
            </Link>
        </NetworkLink>
        <NetworkLink id="7064">
            <name>Parcel_Analysis_815</name>
            <Link id="7065">
                <href>https://raw.githubusercontent.com/robmohammedmahid-stack/Horry-County-Data/Parcel_Analysis/KML-Output/Parcel_Analysis/Parcel_Analysis_815.kml</href>
                <refreshMode>onChange</refreshMode>
            </Link>
        </NetworkLink>
        <NetworkLink id="7066">
            <name>Parcel_Analysis_816</name>
            <Link id="7067">
                <href>https://raw.githubusercontent.com/robmohammedmahid-stack/Horry-County-Data/Parcel_Analysis/KML-Output/Parcel_Analysis/Parcel_Analysis_816.kml</href>
                <refreshMode>onChange</refreshMode>
            </Link>
        </NetworkLink>
        <NetworkLink id="7068">
            <name>Parcel_Analysis_817</name>
            <Link id="7069">
                <href>https://raw.githubusercontent.com/robmohammedmahid-stack/Horry-County-Data/Parcel_Analysis/KML-Output/Parcel_Analysis/Parcel_Analysis_817.kml</href>
                <refreshMode>onChange</refreshMode>
            </Link>
        </NetworkLink>
        <NetworkLink id="7070">
            <name>Parcel_Analysis_818</name>
            <Link id="7071">
                <href>https://raw.githubusercontent.com/robmohammedmahid-stack/Horry-County-Data/Parcel_Analysis/KML-Output/Parcel_Analysis/Parcel_Analysis_818.kml</href>
                <refreshMode>onChange</refreshMode>
            </Link>
        </NetworkLink>
        <NetworkLink id="7072">
            <name>Parcel_Analysis_819</name>
            <Link id="7073">
                <href>https://raw.githubusercontent.com/robmohammedmahid-stack/Horry-County-Data/Parcel_Analysis/KML-Output/Parcel_Analysis/Parcel_Analysis_819.kml</href>
                <refreshMode>onChange</refreshMode>
            </Link>
        </NetworkLink>
        <NetworkLink id="7074">
            <name>Parcel_Analysis_820</name>
            <Link id="7075">
                <href>https://raw.githubusercontent.com/robmohammedmahid-stack/Horry-County-Data/Parcel_Analysis/KML-Output/Parcel_Analysis/Parcel_Analysis_820.kml</href>
                <refreshMode>onChange</refreshMode>
            </Link>
        </NetworkLink>
        <NetworkLink id="7076">
            <name>Parcel_Analysis_821</name>
            <Link id="7077">
                <href>https://raw.githubusercontent.com/robmohammedmahid-stack/Horry-County-Data/Parcel_Analysis/KML-Output/Parcel_Analysis/Parcel_Analysis_821.kml</href>
                <refreshMode>onChange</refreshMode>
            </Link>
        </NetworkLink>
        <NetworkLink id="7078">
            <name>Parcel_Analysis_822</name>
            <Link id="7079">
                <href>https://raw.githubusercontent.com/robmohammedmahid-stack/Horry-County-Data/Parcel_Analysis/KML-Output/Parcel_Analysis/Parcel_Analysis_822.kml</href>
                <refreshMode>onChange</refreshMode>
            </Link>
        </NetworkLink>
        <NetworkLink id="7080">
            <name>Parcel_Analysis_823</name>
            <Link id="7081">
                <href>https://raw.githubusercontent.com/robmohammedmahid-stack/Horry-County-Data/Parcel_Analysis/KML-Output/Parcel_Analysis/Parcel_Analysis_823.kml</href>
                <refreshMode>onChange</refreshMode>
            </Link>
        </NetworkLink>
        <NetworkLink id="7082">
            <name>Parcel_Analysis_824</name>
            <Link id="7083">
                <href>https://raw.githubusercontent.com/robmohammedmahid-stack/Horry-County-Data/Parcel_Analysis/KML-Output/Parcel_Analysis/Parcel_Analysis_824.kml</href>
                <refreshMode>onChange</refreshMode>
            </Link>
        </NetworkLink>
        <NetworkLink id="7084">
            <name>Parcel_Analysis_825</name>
            <Link id="7085">
                <href>https://raw.githubusercontent.com/robmohammedmahid-stack/Horry-County-Data/Parcel_Analysis/KML-Output/Parcel_Analysis/Parcel_Analysis_825.kml</href>
                <refreshMode>onChange</refreshMode>
            </Link>
        </NetworkLink>
        <NetworkLink id="7086">
            <name>Parcel_Analysis_826</name>
            <Link id="7087">
                <href>https://raw.githubusercontent.com/robmohammedmahid-stack/Horry-County-Data/Parcel_Analysis/KML-Output/Parcel_Analysis/Parcel_Analysis_826.kml</href>
                <refreshMode>onChange</refreshMode>
            </Link>
        </NetworkLink>
        <NetworkLink id="7088">
            <name>Parcel_Analysis_827</name>
            <Link id="7089">
                <href>https://raw.githubusercontent.com/robmohammedmahid-stack/Horry-County-Data/Parcel_Analysis/KML-Output/Parcel_Analysis/Parcel_Analysis_827.kml</href>
                <refreshMode>onChange</refreshMode>
            </Link>
        </NetworkLink>
        <NetworkLink id="7090">
            <name>Parcel_Analysis_828</name>
            <Link id="7091">
                <href>https://raw.githubusercontent.com/robmohammedmahid-stack/Horry-County-Data/Parcel_Analysis/KML-Output/Parcel_Analysis/Parcel_Analysis_828.kml</href>
                <refreshMode>onChange</refreshMode>
            </Link>
        </NetworkLink>
        <NetworkLink id="7092">
            <name>Parcel_Analysis_829</name>
            <Link id="7093">
                <href>https://raw.githubusercontent.com/robmohammedmahid-stack/Horry-County-Data/Parcel_Analysis/KML-Output/Parcel_Analysis/Parcel_Analysis_829.kml</href>
                <refreshMode>onChange</refreshMode>
            </Link>
        </NetworkLink>
        <NetworkLink id="7094">
            <name>Parcel_Analysis_830</name>
            <Link id="7095">
                <href>https://raw.githubusercontent.com/robmohammedmahid-stack/Horry-County-Data/Parcel_Analysis/KML-Output/Parcel_Analysis/Parcel_Analysis_830.kml</href>
                <refreshMode>onChange</refreshMode>
            </Link>
        </NetworkLink>
        <NetworkLink id="7096">
            <name>Parcel_Analysis_831</name>
            <Link id="7097">
                <href>https://raw.githubusercontent.com/robmohammedmahid-stack/Horry-County-Data/Parcel_Analysis/KML-Output/Parcel_Analysis/Parcel_Analysis_831.kml</href>
                <refreshMode>onChange</refreshMode>
            </Link>
        </NetworkLink>
        <NetworkLink id="7098">
            <name>Parcel_Analysis_832</name>
            <Link id="7099">
                <href>https://raw.githubusercontent.com/robmohammedmahid-stack/Horry-County-Data/Parcel_Analysis/KML-Output/Parcel_Analysis/Parcel_Analysis_832.kml</href>
                <refreshMode>onChange</refreshMode>
            </Link>
        </NetworkLink>
        <NetworkLink id="7100">
            <name>Parcel_Analysis_833</name>
            <Link id="7101">
                <href>https://raw.githubusercontent.com/robmohammedmahid-stack/Horry-County-Data/Parcel_Analysis/KML-Output/Parcel_Analysis/Parcel_Analysis_833.kml</href>
                <refreshMode>onChange</refreshMode>
            </Link>
        </NetworkLink>
        <NetworkLink id="7102">
            <name>Parcel_Analysis_834</name>
            <Link id="7103">
                <href>https://raw.githubusercontent.com/robmohammedmahid-stack/Horry-County-Data/Parcel_Analysis/KML-Output/Parcel_Analysis/Parcel_Analysis_834.kml</href>
                <refreshMode>onChange</refreshMode>
            </Link>
        </NetworkLink>
        <NetworkLink id="7104">
            <name>Parcel_Analysis_835</name>
            <Link id="7105">
                <href>https://raw.githubusercontent.com/robmohammedmahid-stack/Horry-County-Data/Parcel_Analysis/KML-Output/Parcel_Analysis/Parcel_Analysis_835.kml</href>
                <refreshMode>onChange</refreshMode>
            </Link>
        </NetworkLink>
        <NetworkLink id="7106">
            <name>Parcel_Analysis_836</name>
            <Link id="7107">
                <href>https://raw.githubusercontent.com/robmohammedmahid-stack/Horry-County-Data/Parcel_Analysis/KML-Output/Parcel_Analysis/Parcel_Analysis_836.kml</href>
                <refreshMode>onChange</refreshMode>
            </Link>
        </NetworkLink>
        <NetworkLink id="7108">
            <name>Parcel_Analysis_837</name>
            <Link id="7109">
                <href>https://raw.githubusercontent.com/robmohammedmahid-stack/Horry-County-Data/Parcel_Analysis/KML-Output/Parcel_Analysis/Parcel_Analysis_837.kml</href>
                <refreshMode>onChange</refreshMode>
            </Link>
        </NetworkLink>
        <NetworkLink id="7110">
            <name>Parcel_Analysis_838</name>
            <Link id="7111">
                <href>https://raw.githubusercontent.com/robmohammedmahid-stack/Horry-County-Data/Parcel_Analysis/KML-Output/Parcel_Analysis/Parcel_Analysis_838.kml</href>
                <refreshMode>onChange</refreshMode>
            </Link>
        </NetworkLink>
        <NetworkLink id="7112">
            <name>Parcel_Analysis_839</name>
            <Link id="7113">
                <href>https://raw.githubusercontent.com/robmohammedmahid-stack/Horry-County-Data/Parcel_Analysis/KML-Output/Parcel_Analysis/Parcel_Analysis_839.kml</href>
                <refreshMode>onChange</refreshMode>
            </Link>
        </NetworkLink>
        <NetworkLink id="7114">
            <name>Parcel_Analysis_840</name>
            <Link id="7115">
                <href>https://raw.githubusercontent.com/robmohammedmahid-stack/Horry-County-Data/Parcel_Analysis/KML-Output/Parcel_Analysis/Parcel_Analysis_840.kml</href>
                <refreshMode>onChange</refreshMode>
            </Link>
        </NetworkLink>
        <NetworkLink id="7116">
            <name>Parcel_Analysis_841</name>
            <Link id="7117">
                <href>https://raw.githubusercontent.com/robmohammedmahid-stack/Horry-County-Data/Parcel_Analysis/KML-Output/Parcel_Analysis/Parcel_Analysis_841.kml</href>
                <refreshMode>onChange</refreshMode>
            </Link>
        </NetworkLink>
        <NetworkLink id="7118">
            <name>Parcel_Analysis_842</name>
            <Link id="7119">
                <href>https://raw.githubusercontent.com/robmohammedmahid-stack/Horry-County-Data/Parcel_Analysis/KML-Output/Parcel_Analysis/Parcel_Analysis_842.kml</href>
                <refreshMode>onChange</refreshMode>
            </Link>
        </NetworkLink>
        <NetworkLink id="7120">
            <name>Parcel_Analysis_843</name>
            <Link id="7121">
                <href>https://raw.githubusercontent.com/robmohammedmahid-stack/Horry-County-Data/Parcel_Analysis/KML-Output/Parcel_Analysis/Parcel_Analysis_843.kml</href>
                <refreshMode>onChange</refreshMode>
            </Link>
        </NetworkLink>
        <NetworkLink id="7122">
            <name>Parcel_Analysis_844</name>
            <Link id="7123">
                <href>https://raw.githubusercontent.com/robmohammedmahid-stack/Horry-County-Data/Parcel_Analysis/KML-Output/Parcel_Analysis/Parcel_Analysis_844.kml</href>
                <refreshMode>onChange</refreshMode>
            </Link>
        </NetworkLink>
        <NetworkLink id="7124">
            <name>Parcel_Analysis_845</name>
            <Link id="7125">
                <href>https://raw.githubusercontent.com/robmohammedmahid-stack/Horry-County-Data/Parcel_Analysis/KML-Output/Parcel_Analysis/Parcel_Analysis_845.kml</href>
                <refreshMode>onChange</refreshMode>
            </Link>
        </NetworkLink>
        <NetworkLink id="7126">
            <name>Parcel_Analysis_846</name>
            <Link id="7127">
                <href>https://raw.githubusercontent.com/robmohammedmahid-stack/Horry-County-Data/Parcel_Analysis/KML-Output/Parcel_Analysis/Parcel_Analysis_846.kml</href>
                <refreshMode>onChange</refreshMode>
            </Link>
        </NetworkLink>
        <NetworkLink id="7128">
            <name>Parcel_Analysis_847</name>
            <Link id="7129">
                <href>https://raw.githubusercontent.com/robmohammedmahid-stack/Horry-County-Data/Parcel_Analysis/KML-Output/Parcel_Analysis/Parcel_Analysis_847.kml</href>
                <refreshMode>onChange</refreshMode>
            </Link>
        </NetworkLink>
        <NetworkLink id="7130">
            <name>Parcel_Analysis_848</name>
            <Link id="7131">
                <href>https://raw.githubusercontent.com/robmohammedmahid-stack/Horry-County-Data/Parcel_Analysis/KML-Output/Parcel_Analysis/Parcel_Analysis_848.kml</href>
                <refreshMode>onChange</refreshMode>
            </Link>
        </NetworkLink>
        <NetworkLink id="7132">
            <name>Parcel_Analysis_849</name>
            <Link id="7133">
                <href>https://raw.githubusercontent.com/robmohammedmahid-stack/Horry-County-Data/Parcel_Analysis/KML-Output/Parcel_Analysis/Parcel_Analysis_849.kml</href>
                <refreshMode>onChange</refreshMode>
            </Link>
        </NetworkLink>
        <NetworkLink id="7134">
            <name>Parcel_Analysis_850</name>
            <Link id="7135">
                <href>https://raw.githubusercontent.com/robmohammedmahid-stack/Horry-County-Data/Parcel_Analysis/KML-Output/Parcel_Analysis/Parcel_Analysis_850.kml</href>
                <refreshMode>onChange</refreshMode>
            </Link>
        </NetworkLink>
        <NetworkLink id="7136">
            <name>Parcel_Analysis_851</name>
            <Link id="7137">
                <href>https://raw.githubusercontent.com/robmohammedmahid-stack/Horry-County-Data/Parcel_Analysis/KML-Output/Parcel_Analysis/Parcel_Analysis_851.kml</href>
                <refreshMode>onChange</refreshMode>
            </Link>
        </NetworkLink>
        <NetworkLink id="7138">
            <name>Parcel_Analysis_852</name>
            <Link id="7139">
                <href>https://raw.githubusercontent.com/robmohammedmahid-stack/Horry-County-Data/Parcel_Analysis/KML-Output/Parcel_Analysis/Parcel_Analysis_852.kml</href>
                <refreshMode>onChange</refreshMode>
            </Link>
        </NetworkLink>
        <NetworkLink id="7140">
            <name>Parcel_Analysis_853</name>
            <Link id="7141">
                <href>https://raw.githubusercontent.com/robmohammedmahid-stack/Horry-County-Data/Parcel_Analysis/KML-Output/Parcel_Analysis/Parcel_Analysis_853.kml</href>
                <refreshMode>onChange</refreshMode>
            </Link>
        </NetworkLink>
        <NetworkLink id="7142">
            <name>Parcel_Analysis_854</name>
            <Link id="7143">
                <href>https://raw.githubusercontent.com/robmohammedmahid-stack/Horry-County-Data/Parcel_Analysis/KML-Output/Parcel_Analysis/Parcel_Analysis_854.kml</href>
                <refreshMode>onChange</refreshMode>
            </Link>
        </NetworkLink>
        <NetworkLink id="7144">
            <name>Parcel_Analysis_855</name>
            <Link id="7145">
                <href>https://raw.githubusercontent.com/robmohammedmahid-stack/Horry-County-Data/Parcel_Analysis/KML-Output/Parcel_Analysis/Parcel_Analysis_855.kml</href>
                <refreshMode>onChange</refreshMode>
            </Link>
        </NetworkLink>
        <NetworkLink id="7146">
            <name>Parcel_Analysis_856</name>
            <Link id="7147">
                <href>https://raw.githubusercontent.com/robmohammedmahid-stack/Horry-County-Data/Parcel_Analysis/KML-Output/Parcel_Analysis/Parcel_Analysis_856.kml</href>
                <refreshMode>onChange</refreshMode>
            </Link>
        </NetworkLink>
        <NetworkLink id="7148">
            <name>Parcel_Analysis_857</name>
            <Link id="7149">
                <href>https://raw.githubusercontent.com/robmohammedmahid-stack/Horry-County-Data/Parcel_Analysis/KML-Output/Parcel_Analysis/Parcel_Analysis_857.kml</href>
                <refreshMode>onChange</refreshMode>
            </Link>
        </NetworkLink>
        <NetworkLink id="7150">
            <name>Parcel_Analysis_858</name>
            <Link id="7151">
                <href>https://raw.githubusercontent.com/robmohammedmahid-stack/Horry-County-Data/Parcel_Analysis/KML-Output/Parcel_Analysis/Parcel_Analysis_858.kml</href>
                <refreshMode>onChange</refreshMode>
            </Link>
        </NetworkLink>
        <NetworkLink id="7152">
            <name>Parcel_Analysis_859</name>
            <Link id="7153">
                <href>https://raw.githubusercontent.com/robmohammedmahid-stack/Horry-County-Data/Parcel_Analysis/KML-Output/Parcel_Analysis/Parcel_Analysis_859.kml</href>
                <refreshMode>onChange</refreshMode>
            </Link>
        </NetworkLink>
        <NetworkLink id="7154">
            <name>Parcel_Analysis_860</name>
            <Link id="7155">
                <href>https://raw.githubusercontent.com/robmohammedmahid-stack/Horry-County-Data/Parcel_Analysis/KML-Output/Parcel_Analysis/Parcel_Analysis_860.kml</href>
                <refreshMode>onChange</refreshMode>
            </Link>
        </NetworkLink>
        <NetworkLink id="7156">
            <name>Parcel_Analysis_861</name>
            <Link id="7157">
                <href>https://raw.githubusercontent.com/robmohammedmahid-stack/Horry-County-Data/Parcel_Analysis/KML-Output/Parcel_Analysis/Parcel_Analysis_861.kml</href>
                <refreshMode>onChange</refreshMode>
            </Link>
        </NetworkLink>
        <NetworkLink id="7158">
            <name>Parcel_Analysis_862</name>
            <Link id="7159">
                <href>https://raw.githubusercontent.com/robmohammedmahid-stack/Horry-County-Data/Parcel_Analysis/KML-Output/Parcel_Analysis/Parcel_Analysis_862.kml</href>
                <refreshMode>onChange</refreshMode>
            </Link>
        </NetworkLink>
        <NetworkLink id="7160">
            <name>Parcel_Analysis_863</name>
            <Link id="7161">
                <href>https://raw.githubusercontent.com/robmohammedmahid-stack/Horry-County-Data/Parcel_Analysis/KML-Output/Parcel_Analysis/Parcel_Analysis_863.kml</href>
                <refreshMode>onChange</refreshMode>
            </Link>
        </NetworkLink>
        <NetworkLink id="7162">
            <name>Parcel_Analysis_864</name>
            <Link id="7163">
                <href>https://raw.githubusercontent.com/robmohammedmahid-stack/Horry-County-Data/Parcel_Analysis/KML-Output/Parcel_Analysis/Parcel_Analysis_864.kml</href>
                <refreshMode>onChange</refreshMode>
            </Link>
        </NetworkLink>
        <NetworkLink id="7164">
            <name>Parcel_Analysis_865</name>
            <Link id="7165">
                <href>https://raw.githubusercontent.com/robmohammedmahid-stack/Horry-County-Data/Parcel_Analysis/KML-Output/Parcel_Analysis/Parcel_Analysis_865.kml</href>
                <refreshMode>onChange</refreshMode>
            </Link>
        </NetworkLink>
        <NetworkLink id="7166">
            <name>Parcel_Analysis_866</name>
            <Link id="7167">
                <href>https://raw.githubusercontent.com/robmohammedmahid-stack/Horry-County-Data/Parcel_Analysis/KML-Output/Parcel_Analysis/Parcel_Analysis_866.kml</href>
                <refreshMode>onChange</refreshMode>
            </Link>
        </NetworkLink>
        <NetworkLink id="7168">
            <name>Parcel_Analysis_867</name>
            <Link id="7169">
                <href>https://raw.githubusercontent.com/robmohammedmahid-stack/Horry-County-Data/Parcel_Analysis/KML-Output/Parcel_Analysis/Parcel_Analysis_867.kml</href>
                <refreshMode>onChange</refreshMode>
            </Link>
        </NetworkLink>
        <NetworkLink id="7170">
            <name>Parcel_Analysis_868</name>
            <Link id="7171">
                <href>https://raw.githubusercontent.com/robmohammedmahid-stack/Horry-County-Data/Parcel_Analysis/KML-Output/Parcel_Analysis/Parcel_Analysis_868.kml</href>
                <refreshMode>onChange</refreshMode>
            </Link>
        </NetworkLink>
        <NetworkLink id="7172">
            <name>Parcel_Analysis_869</name>
            <Link id="7173">
                <href>https://raw.githubusercontent.com/robmohammedmahid-stack/Horry-County-Data/Parcel_Analysis/KML-Output/Parcel_Analysis/Parcel_Analysis_869.kml</href>
                <refreshMode>onChange</refreshMode>
            </Link>
        </NetworkLink>
        <NetworkLink id="7174">
            <name>Parcel_Analysis_870</name>
            <Link id="7175">
                <href>https://raw.githubusercontent.com/robmohammedmahid-stack/Horry-County-Data/Parcel_Analysis/KML-Output/Parcel_Analysis/Parcel_Analysis_870.kml</href>
                <refreshMode>onChange</refreshMode>
            </Link>
        </NetworkLink>
        <NetworkLink id="7176">
            <name>Parcel_Analysis_871</name>
            <Link id="7177">
                <href>https://raw.githubusercontent.com/robmohammedmahid-stack/Horry-County-Data/Parcel_Analysis/KML-Output/Parcel_Analysis/Parcel_Analysis_871.kml</href>
                <refreshMode>onChange</refreshMode>
            </Link>
        </NetworkLink>
        <NetworkLink id="7178">
            <name>Parcel_Analysis_872</name>
            <Link id="7179">
                <href>https://raw.githubusercontent.com/robmohammedmahid-stack/Horry-County-Data/Parcel_Analysis/KML-Output/Parcel_Analysis/Parcel_Analysis_872.kml</href>
                <refreshMode>onChange</refreshMode>
            </Link>
        </NetworkLink>
        <NetworkLink id="7180">
            <name>Parcel_Analysis_873</name>
            <Link id="7181">
                <href>https://raw.githubusercontent.com/robmohammedmahid-stack/Horry-County-Data/Parcel_Analysis/KML-Output/Parcel_Analysis/Parcel_Analysis_873.kml</href>
                <refreshMode>onChange</refreshMode>
            </Link>
        </NetworkLink>
        <NetworkLink id="7182">
            <name>Parcel_Analysis_874</name>
            <Link id="7183">
                <href>https://raw.githubusercontent.com/robmohammedmahid-stack/Horry-County-Data/Parcel_Analysis/KML-Output/Parcel_Analysis/Parcel_Analysis_874.kml</href>
                <refreshMode>onChange</refreshMode>
            </Link>
        </NetworkLink>
        <NetworkLink id="7184">
            <name>Parcel_Analysis_875</name>
            <Link id="7185">
                <href>https://raw.githubusercontent.com/robmohammedmahid-stack/Horry-County-Data/Parcel_Analysis/KML-Output/Parcel_Analysis/Parcel_Analysis_875.kml</href>
                <refreshMode>onChange</refreshMode>
            </Link>
        </NetworkLink>
        <NetworkLink id="7186">
            <name>Parcel_Analysis_876</name>
            <Link id="7187">
                <href>https://raw.githubusercontent.com/robmohammedmahid-stack/Horry-County-Data/Parcel_Analysis/KML-Output/Parcel_Analysis/Parcel_Analysis_876.kml</href>
                <refreshMode>onChange</refreshMode>
            </Link>
        </NetworkLink>
        <NetworkLink id="7188">
            <name>Parcel_Analysis_877</name>
            <Link id="7189">
                <href>https://raw.githubusercontent.com/robmohammedmahid-stack/Horry-County-Data/Parcel_Analysis/KML-Output/Parcel_Analysis/Parcel_Analysis_877.kml</href>
                <refreshMode>onChange</refreshMode>
            </Link>
        </NetworkLink>
        <NetworkLink id="7190">
            <name>Parcel_Analysis_878</name>
            <Link id="7191">
                <href>https://raw.githubusercontent.com/robmohammedmahid-stack/Horry-County-Data/Parcel_Analysis/KML-Output/Parcel_Analysis/Parcel_Analysis_878.kml</href>
                <refreshMode>onChange</refreshMode>
            </Link>
        </NetworkLink>
        <NetworkLink id="7192">
            <name>Parcel_Analysis_879</name>
            <Link id="7193">
                <href>https://raw.githubusercontent.com/robmohammedmahid-stack/Horry-County-Data/Parcel_Analysis/KML-Output/Parcel_Analysis/Parcel_Analysis_879.kml</href>
                <refreshMode>onChange</refreshMode>
            </Link>
        </NetworkLink>
        <NetworkLink id="7194">
            <name>Parcel_Analysis_880</name>
            <Link id="7195">
                <href>https://raw.githubusercontent.com/robmohammedmahid-stack/Horry-County-Data/Parcel_Analysis/KML-Output/Parcel_Analysis/Parcel_Analysis_880.kml</href>
                <refreshMode>onChange</refreshMode>
            </Link>
        </NetworkLink>
        <NetworkLink id="7196">
            <name>Parcel_Analysis_881</name>
            <Link id="7197">
                <href>https://raw.githubusercontent.com/robmohammedmahid-stack/Horry-County-Data/Parcel_Analysis/KML-Output/Parcel_Analysis/Parcel_Analysis_881.kml</href>
                <refreshMode>onChange</refreshMode>
            </Link>
        </NetworkLink>
        <NetworkLink id="7198">
            <name>Parcel_Analysis_882</name>
            <Link id="7199">
                <href>https://raw.githubusercontent.com/robmohammedmahid-stack/Horry-County-Data/Parcel_Analysis/KML-Output/Parcel_Analysis/Parcel_Analysis_882.kml</href>
                <refreshMode>onChange</refreshMode>
            </Link>
        </NetworkLink>
        <NetworkLink id="7200">
            <name>Parcel_Analysis_883</name>
            <Link id="7201">
                <href>https://raw.githubusercontent.com/robmohammedmahid-stack/Horry-County-Data/Parcel_Analysis/KML-Output/Parcel_Analysis/Parcel_Analysis_883.kml</href>
                <refreshMode>onChange</refreshMode>
            </Link>
        </NetworkLink>
        <NetworkLink id="7202">
            <name>Parcel_Analysis_884</name>
            <Link id="7203">
                <href>https://raw.githubusercontent.com/robmohammedmahid-stack/Horry-County-Data/Parcel_Analysis/KML-Output/Parcel_Analysis/Parcel_Analysis_884.kml</href>
                <refreshMode>onChange</refreshMode>
            </Link>
        </NetworkLink>
        <NetworkLink id="7204">
            <name>Parcel_Analysis_885</name>
            <Link id="7205">
                <href>https://raw.githubusercontent.com/robmohammedmahid-stack/Horry-County-Data/Parcel_Analysis/KML-Output/Parcel_Analysis/Parcel_Analysis_885.kml</href>
                <refreshMode>onChange</refreshMode>
            </Link>
        </NetworkLink>
        <NetworkLink id="7206">
            <name>Parcel_Analysis_886</name>
            <Link id="7207">
                <href>https://raw.githubusercontent.com/robmohammedmahid-stack/Horry-County-Data/Parcel_Analysis/KML-Output/Parcel_Analysis/Parcel_Analysis_886.kml</href>
                <refreshMode>onChange</refreshMode>
            </Link>
        </NetworkLink>
        <NetworkLink id="7208">
            <name>Parcel_Analysis_887</name>
            <Link id="7209">
                <href>https://raw.githubusercontent.com/robmohammedmahid-stack/Horry-County-Data/Parcel_Analysis/KML-Output/Parcel_Analysis/Parcel_Analysis_887.kml</href>
                <refreshMode>onChange</refreshMode>
            </Link>
        </NetworkLink>
        <NetworkLink id="7210">
            <name>Parcel_Analysis_888</name>
            <Link id="7211">
                <href>https://raw.githubusercontent.com/robmohammedmahid-stack/Horry-County-Data/Parcel_Analysis/KML-Output/Parcel_Analysis/Parcel_Analysis_888.kml</href>
                <refreshMode>onChange</refreshMode>
            </Link>
        </NetworkLink>
        <NetworkLink id="7212">
            <name>Parcel_Analysis_889</name>
            <Link id="7213">
                <href>https://raw.githubusercontent.com/robmohammedmahid-stack/Horry-County-Data/Parcel_Analysis/KML-Output/Parcel_Analysis/Parcel_Analysis_889.kml</href>
                <refreshMode>onChange</refreshMode>
            </Link>
        </NetworkLink>
        <NetworkLink id="7214">
            <name>Parcel_Analysis_890</name>
            <Link id="7215">
                <href>https://raw.githubusercontent.com/robmohammedmahid-stack/Horry-County-Data/Parcel_Analysis/KML-Output/Parcel_Analysis/Parcel_Analysis_890.kml</href>
                <refreshMode>onChange</refreshMode>
            </Link>
        </NetworkLink>
        <NetworkLink id="7216">
            <name>Parcel_Analysis_891</name>
            <Link id="7217">
                <href>https://raw.githubusercontent.com/robmohammedmahid-stack/Horry-County-Data/Parcel_Analysis/KML-Output/Parcel_Analysis/Parcel_Analysis_891.kml</href>
                <refreshMode>onChange</refreshMode>
            </Link>
        </NetworkLink>
        <NetworkLink id="7218">
            <name>Parcel_Analysis_892</name>
            <Link id="7219">
                <href>https://raw.githubusercontent.com/robmohammedmahid-stack/Horry-County-Data/Parcel_Analysis/KML-Output/Parcel_Analysis/Parcel_Analysis_892.kml</href>
                <refreshMode>onChange</refreshMode>
            </Link>
        </NetworkLink>
        <NetworkLink id="7220">
            <name>Parcel_Analysis_893</name>
            <Link id="7221">
                <href>https://raw.githubusercontent.com/robmohammedmahid-stack/Horry-County-Data/Parcel_Analysis/KML-Output/Parcel_Analysis/Parcel_Analysis_893.kml</href>
                <refreshMode>onChange</refreshMode>
            </Link>
        </NetworkLink>
        <NetworkLink id="7222">
            <name>Parcel_Analysis_894</name>
            <Link id="7223">
                <href>https://raw.githubusercontent.com/robmohammedmahid-stack/Horry-County-Data/Parcel_Analysis/KML-Output/Parcel_Analysis/Parcel_Analysis_894.kml</href>
                <refreshMode>onChange</refreshMode>
            </Link>
        </NetworkLink>
        <NetworkLink id="7224">
            <name>Parcel_Analysis_895</name>
            <Link id="7225">
                <href>https://raw.githubusercontent.com/robmohammedmahid-stack/Horry-County-Data/Parcel_Analysis/KML-Output/Parcel_Analysis/Parcel_Analysis_895.kml</href>
                <refreshMode>onChange</refreshMode>
            </Link>
        </NetworkLink>
        <NetworkLink id="7226">
            <name>Parcel_Analysis_896</name>
            <Link id="7227">
                <href>https://raw.githubusercontent.com/robmohammedmahid-stack/Horry-County-Data/Parcel_Analysis/KML-Output/Parcel_Analysis/Parcel_Analysis_896.kml</href>
                <refreshMode>onChange</refreshMode>
            </Link>
        </NetworkLink>
        <NetworkLink id="7228">
            <name>Parcel_Analysis_897</name>
            <Link id="7229">
                <href>https://raw.githubusercontent.com/robmohammedmahid-stack/Horry-County-Data/Parcel_Analysis/KML-Output/Parcel_Analysis/Parcel_Analysis_897.kml</href>
                <refreshMode>onChange</refreshMode>
            </Link>
        </NetworkLink>
        <NetworkLink id="7230">
            <name>Parcel_Analysis_898</name>
            <Link id="7231">
                <href>https://raw.githubusercontent.com/robmohammedmahid-stack/Horry-County-Data/Parcel_Analysis/KML-Output/Parcel_Analysis/Parcel_Analysis_898.kml</href>
                <refreshMode>onChange</refreshMode>
            </Link>
        </NetworkLink>
        <NetworkLink id="7232">
            <name>Parcel_Analysis_899</name>
            <Link id="7233">
                <href>https://raw.githubusercontent.com/robmohammedmahid-stack/Horry-County-Data/Parcel_Analysis/KML-Output/Parcel_Analysis/Parcel_Analysis_899.kml</href>
                <refreshMode>onChange</refreshMode>
            </Link>
        </NetworkLink>
        <NetworkLink id="7234">
            <name>Parcel_Analysis_900</name>
            <Link id="7235">
                <href>https://raw.githubusercontent.com/robmohammedmahid-stack/Horry-County-Data/Parcel_Analysis/KML-Output/Parcel_Analysis/Parcel_Analysis_900.kml</href>
                <refreshMode>onChange</refreshMode>
            </Link>
        </NetworkLink>
        <NetworkLink id="7236">
            <name>Parcel_Analysis_901</name>
            <Link id="7237">
                <href>https://raw.githubusercontent.com/robmohammedmahid-stack/Horry-County-Data/Parcel_Analysis/KML-Output/Parcel_Analysis/Parcel_Analysis_901.kml</href>
                <refreshMode>onChange</refreshMode>
            </Link>
        </NetworkLink>
        <NetworkLink id="7238">
            <name>Parcel_Analysis_902</name>
            <Link id="7239">
                <href>https://raw.githubusercontent.com/robmohammedmahid-stack/Horry-County-Data/Parcel_Analysis/KML-Output/Parcel_Analysis/Parcel_Analysis_902.kml</href>
                <refreshMode>onChange</refreshMode>
            </Link>
        </NetworkLink>
        <NetworkLink id="7240">
            <name>Parcel_Analysis_903</name>
            <Link id="7241">
                <href>https://raw.githubusercontent.com/robmohammedmahid-stack/Horry-County-Data/Parcel_Analysis/KML-Output/Parcel_Analysis/Parcel_Analysis_903.kml</href>
                <refreshMode>onChange</refreshMode>
            </Link>
        </NetworkLink>
        <NetworkLink id="7242">
            <name>Parcel_Analysis_904</name>
            <Link id="7243">
                <href>https://raw.githubusercontent.com/robmohammedmahid-stack/Horry-County-Data/Parcel_Analysis/KML-Output/Parcel_Analysis/Parcel_Analysis_904.kml</href>
                <refreshMode>onChange</refreshMode>
            </Link>
        </NetworkLink>
        <NetworkLink id="7244">
            <name>Parcel_Analysis_905</name>
            <Link id="7245">
                <href>https://raw.githubusercontent.com/robmohammedmahid-stack/Horry-County-Data/Parcel_Analysis/KML-Output/Parcel_Analysis/Parcel_Analysis_905.kml</href>
                <refreshMode>onChange</refreshMode>
            </Link>
        </NetworkLink>
        <NetworkLink id="7246">
            <name>Parcel_Analysis_906</name>
            <Link id="7247">
                <href>https://raw.githubusercontent.com/robmohammedmahid-stack/Horry-County-Data/Parcel_Analysis/KML-Output/Parcel_Analysis/Parcel_Analysis_906.kml</href>
                <refreshMode>onChange</refreshMode>
            </Link>
        </NetworkLink>
    </Document>
</kml>
