<?xml version="1.0" encoding="UTF-8"?>
<kml xmlns="http://www.opengis.net/kml/2.2" xmlns:gx="http://www.google.com/kml/ext/2.2">
    <Document id="5739">
        <NetworkLink id="5740">
            <name>Parcel_Analysis_3500</name>
            <Link id="5741">
                <href>https://raw.githubusercontent.com/robmohammedmahid-stack/Horry-County-Data/Parcel_Analysis/KML-Output/Parcel_Analysis/Parcel_Analysis_3500.kml</href>
                <refreshMode>onChange</refreshMode>
            </Link>
        </NetworkLink>
        <NetworkLink id="5742">
            <name>Parcel_Analysis_3501</name>
            <Link id="5743">
                <href>https://raw.githubusercontent.com/robmohammedmahid-stack/Horry-County-Data/Parcel_Analysis/KML-Output/Parcel_Analysis/Parcel_Analysis_3501.kml</href>
                <refreshMode>onChange</refreshMode>
            </Link>
        </NetworkLink>
        <NetworkLink id="5744">
            <name>Parcel_Analysis_3502</name>
            <Link id="5745">
                <href>https://raw.githubusercontent.com/robmohammedmahid-stack/Horry-County-Data/Parcel_Analysis/KML-Output/Parcel_Analysis/Parcel_Analysis_3502.kml</href>
                <refreshMode>onChange</refreshMode>
            </Link>
        </NetworkLink>
        <NetworkLink id="5746">
            <name>Parcel_Analysis_3503</name>
            <Link id="5747">
                <href>https://raw.githubusercontent.com/robmohammedmahid-stack/Horry-County-Data/Parcel_Analysis/KML-Output/Parcel_Analysis/Parcel_Analysis_3503.kml</href>
                <refreshMode>onChange</refreshMode>
            </Link>
        </NetworkLink>
        <NetworkLink id="5748">
            <name>Parcel_Analysis_3504</name>
            <Link id="5749">
                <href>https://raw.githubusercontent.com/robmohammedmahid-stack/Horry-County-Data/Parcel_Analysis/KML-Output/Parcel_Analysis/Parcel_Analysis_3504.kml</href>
                <refreshMode>onChange</refreshMode>
            </Link>
        </NetworkLink>
        <NetworkLink id="5750">
            <name>Parcel_Analysis_3505</name>
            <Link id="5751">
                <href>https://raw.githubusercontent.com/robmohammedmahid-stack/Horry-County-Data/Parcel_Analysis/KML-Output/Parcel_Analysis/Parcel_Analysis_3505.kml</href>
                <refreshMode>onChange</refreshMode>
            </Link>
        </NetworkLink>
        <NetworkLink id="5752">
            <name>Parcel_Analysis_3506</name>
            <Link id="5753">
                <href>https://raw.githubusercontent.com/robmohammedmahid-stack/Horry-County-Data/Parcel_Analysis/KML-Output/Parcel_Analysis/Parcel_Analysis_3506.kml</href>
                <refreshMode>onChange</refreshMode>
            </Link>
        </NetworkLink>
        <NetworkLink id="5754">
            <name>Parcel_Analysis_3507</name>
            <Link id="5755">
                <href>https://raw.githubusercontent.com/robmohammedmahid-stack/Horry-County-Data/Parcel_Analysis/KML-Output/Parcel_Analysis/Parcel_Analysis_3507.kml</href>
                <refreshMode>onChange</refreshMode>
            </Link>
        </NetworkLink>
        <NetworkLink id="5756">
            <name>Parcel_Analysis_3508</name>
            <Link id="5757">
                <href>https://raw.githubusercontent.com/robmohammedmahid-stack/Horry-County-Data/Parcel_Analysis/KML-Output/Parcel_Analysis/Parcel_Analysis_3508.kml</href>
                <refreshMode>onChange</refreshMode>
            </Link>
        </NetworkLink>
        <NetworkLink id="5758">
            <name>Parcel_Analysis_3509</name>
            <Link id="5759">
                <href>https://raw.githubusercontent.com/robmohammedmahid-stack/Horry-County-Data/Parcel_Analysis/KML-Output/Parcel_Analysis/Parcel_Analysis_3509.kml</href>
                <refreshMode>onChange</refreshMode>
            </Link>
        </NetworkLink>
        <NetworkLink id="5760">
            <name>Parcel_Analysis_351</name>
            <Link id="5761">
                <href>https://raw.githubusercontent.com/robmohammedmahid-stack/Horry-County-Data/Parcel_Analysis/KML-Output/Parcel_Analysis/Parcel_Analysis_351.kml</href>
                <refreshMode>onChange</refreshMode>
            </Link>
        </NetworkLink>
        <NetworkLink id="5762">
            <name>Parcel_Analysis_3510</name>
            <Link id="5763">
                <href>https://raw.githubusercontent.com/robmohammedmahid-stack/Horry-County-Data/Parcel_Analysis/KML-Output/Parcel_Analysis/Parcel_Analysis_3510.kml</href>
                <refreshMode>onChange</refreshMode>
            </Link>
        </NetworkLink>
        <NetworkLink id="5764">
            <name>Parcel_Analysis_3511</name>
            <Link id="5765">
                <href>https://raw.githubusercontent.com/robmohammedmahid-stack/Horry-County-Data/Parcel_Analysis/KML-Output/Parcel_Analysis/Parcel_Analysis_3511.kml</href>
                <refreshMode>onChange</refreshMode>
            </Link>
        </NetworkLink>
        <NetworkLink id="5766">
            <name>Parcel_Analysis_3512</name>
            <Link id="5767">
                <href>https://raw.githubusercontent.com/robmohammedmahid-stack/Horry-County-Data/Parcel_Analysis/KML-Output/Parcel_Analysis/Parcel_Analysis_3512.kml</href>
                <refreshMode>onChange</refreshMode>
            </Link>
        </NetworkLink>
        <NetworkLink id="5768">
            <name>Parcel_Analysis_3513</name>
            <Link id="5769">
                <href>https://raw.githubusercontent.com/robmohammedmahid-stack/Horry-County-Data/Parcel_Analysis/KML-Output/Parcel_Analysis/Parcel_Analysis_3513.kml</href>
                <refreshMode>onChange</refreshMode>
            </Link>
        </NetworkLink>
        <NetworkLink id="5770">
            <name>Parcel_Analysis_3514</name>
            <Link id="5771">
                <href>https://raw.githubusercontent.com/robmohammedmahid-stack/Horry-County-Data/Parcel_Analysis/KML-Output/Parcel_Analysis/Parcel_Analysis_3514.kml</href>
                <refreshMode>onChange</refreshMode>
            </Link>
        </NetworkLink>
        <NetworkLink id="5772">
            <name>Parcel_Analysis_3515</name>
            <Link id="5773">
                <href>https://raw.githubusercontent.com/robmohammedmahid-stack/Horry-County-Data/Parcel_Analysis/KML-Output/Parcel_Analysis/Parcel_Analysis_3515.kml</href>
                <refreshMode>onChange</refreshMode>
            </Link>
        </NetworkLink>
        <NetworkLink id="5774">
            <name>Parcel_Analysis_3516</name>
            <Link id="5775">
                <href>https://raw.githubusercontent.com/robmohammedmahid-stack/Horry-County-Data/Parcel_Analysis/KML-Output/Parcel_Analysis/Parcel_Analysis_3516.kml</href>
                <refreshMode>onChange</refreshMode>
            </Link>
        </NetworkLink>
        <NetworkLink id="5776">
            <name>Parcel_Analysis_3517</name>
            <Link id="5777">
                <href>https://raw.githubusercontent.com/robmohammedmahid-stack/Horry-County-Data/Parcel_Analysis/KML-Output/Parcel_Analysis/Parcel_Analysis_3517.kml</href>
                <refreshMode>onChange</refreshMode>
            </Link>
        </NetworkLink>
        <NetworkLink id="5778">
            <name>Parcel_Analysis_3518</name>
            <Link id="5779">
                <href>https://raw.githubusercontent.com/robmohammedmahid-stack/Horry-County-Data/Parcel_Analysis/KML-Output/Parcel_Analysis/Parcel_Analysis_3518.kml</href>
                <refreshMode>onChange</refreshMode>
            </Link>
        </NetworkLink>
        <NetworkLink id="5780">
            <name>Parcel_Analysis_3519</name>
            <Link id="5781">
                <href>https://raw.githubusercontent.com/robmohammedmahid-stack/Horry-County-Data/Parcel_Analysis/KML-Output/Parcel_Analysis/Parcel_Analysis_3519.kml</href>
                <refreshMode>onChange</refreshMode>
            </Link>
        </NetworkLink>
        <NetworkLink id="5782">
            <name>Parcel_Analysis_352</name>
            <Link id="5783">
                <href>https://raw.githubusercontent.com/robmohammedmahid-stack/Horry-County-Data/Parcel_Analysis/KML-Output/Parcel_Analysis/Parcel_Analysis_352.kml</href>
                <refreshMode>onChange</refreshMode>
            </Link>
        </NetworkLink>
        <NetworkLink id="5784">
            <name>Parcel_Analysis_3520</name>
            <Link id="5785">
                <href>https://raw.githubusercontent.com/robmohammedmahid-stack/Horry-County-Data/Parcel_Analysis/KML-Output/Parcel_Analysis/Parcel_Analysis_3520.kml</href>
                <refreshMode>onChange</refreshMode>
            </Link>
        </NetworkLink>
        <NetworkLink id="5786">
            <name>Parcel_Analysis_3521</name>
            <Link id="5787">
                <href>https://raw.githubusercontent.com/robmohammedmahid-stack/Horry-County-Data/Parcel_Analysis/KML-Output/Parcel_Analysis/Parcel_Analysis_3521.kml</href>
                <refreshMode>onChange</refreshMode>
            </Link>
        </NetworkLink>
        <NetworkLink id="5788">
            <name>Parcel_Analysis_3522</name>
            <Link id="5789">
                <href>https://raw.githubusercontent.com/robmohammedmahid-stack/Horry-County-Data/Parcel_Analysis/KML-Output/Parcel_Analysis/Parcel_Analysis_3522.kml</href>
                <refreshMode>onChange</refreshMode>
            </Link>
        </NetworkLink>
        <NetworkLink id="5790">
            <name>Parcel_Analysis_3523</name>
            <Link id="5791">
                <href>https://raw.githubusercontent.com/robmohammedmahid-stack/Horry-County-Data/Parcel_Analysis/KML-Output/Parcel_Analysis/Parcel_Analysis_3523.kml</href>
                <refreshMode>onChange</refreshMode>
            </Link>
        </NetworkLink>
        <NetworkLink id="5792">
            <name>Parcel_Analysis_3524</name>
            <Link id="5793">
                <href>https://raw.githubusercontent.com/robmohammedmahid-stack/Horry-County-Data/Parcel_Analysis/KML-Output/Parcel_Analysis/Parcel_Analysis_3524.kml</href>
                <refreshMode>onChange</refreshMode>
            </Link>
        </NetworkLink>
        <NetworkLink id="5794">
            <name>Parcel_Analysis_3525</name>
            <Link id="5795">
                <href>https://raw.githubusercontent.com/robmohammedmahid-stack/Horry-County-Data/Parcel_Analysis/KML-Output/Parcel_Analysis/Parcel_Analysis_3525.kml</href>
                <refreshMode>onChange</refreshMode>
            </Link>
        </NetworkLink>
        <NetworkLink id="5796">
            <name>Parcel_Analysis_3526</name>
            <Link id="5797">
                <href>https://raw.githubusercontent.com/robmohammedmahid-stack/Horry-County-Data/Parcel_Analysis/KML-Output/Parcel_Analysis/Parcel_Analysis_3526.kml</href>
                <refreshMode>onChange</refreshMode>
            </Link>
        </NetworkLink>
        <NetworkLink id="5798">
            <name>Parcel_Analysis_3527</name>
            <Link id="5799">
                <href>https://raw.githubusercontent.com/robmohammedmahid-stack/Horry-County-Data/Parcel_Analysis/KML-Output/Parcel_Analysis/Parcel_Analysis_3527.kml</href>
                <refreshMode>onChange</refreshMode>
            </Link>
        </NetworkLink>
        <NetworkLink id="5800">
            <name>Parcel_Analysis_3528</name>
            <Link id="5801">
                <href>https://raw.githubusercontent.com/robmohammedmahid-stack/Horry-County-Data/Parcel_Analysis/KML-Output/Parcel_Analysis/Parcel_Analysis_3528.kml</href>
                <refreshMode>onChange</refreshMode>
            </Link>
        </NetworkLink>
        <NetworkLink id="5802">
            <name>Parcel_Analysis_3529</name>
            <Link id="5803">
                <href>https://raw.githubusercontent.com/robmohammedmahid-stack/Horry-County-Data/Parcel_Analysis/KML-Output/Parcel_Analysis/Parcel_Analysis_3529.kml</href>
                <refreshMode>onChange</refreshMode>
            </Link>
        </NetworkLink>
        <NetworkLink id="5804">
            <name>Parcel_Analysis_353</name>
            <Link id="5805">
                <href>https://raw.githubusercontent.com/robmohammedmahid-stack/Horry-County-Data/Parcel_Analysis/KML-Output/Parcel_Analysis/Parcel_Analysis_353.kml</href>
                <refreshMode>onChange</refreshMode>
            </Link>
        </NetworkLink>
        <NetworkLink id="5806">
            <name>Parcel_Analysis_3530</name>
            <Link id="5807">
                <href>https://raw.githubusercontent.com/robmohammedmahid-stack/Horry-County-Data/Parcel_Analysis/KML-Output/Parcel_Analysis/Parcel_Analysis_3530.kml</href>
                <refreshMode>onChange</refreshMode>
            </Link>
        </NetworkLink>
        <NetworkLink id="5808">
            <name>Parcel_Analysis_3531</name>
            <Link id="5809">
                <href>https://raw.githubusercontent.com/robmohammedmahid-stack/Horry-County-Data/Parcel_Analysis/KML-Output/Parcel_Analysis/Parcel_Analysis_3531.kml</href>
                <refreshMode>onChange</refreshMode>
            </Link>
        </NetworkLink>
        <NetworkLink id="5810">
            <name>Parcel_Analysis_3532</name>
            <Link id="5811">
                <href>https://raw.githubusercontent.com/robmohammedmahid-stack/Horry-County-Data/Parcel_Analysis/KML-Output/Parcel_Analysis/Parcel_Analysis_3532.kml</href>
                <refreshMode>onChange</refreshMode>
            </Link>
        </NetworkLink>
        <NetworkLink id="5812">
            <name>Parcel_Analysis_3533</name>
            <Link id="5813">
                <href>https://raw.githubusercontent.com/robmohammedmahid-stack/Horry-County-Data/Parcel_Analysis/KML-Output/Parcel_Analysis/Parcel_Analysis_3533.kml</href>
                <refreshMode>onChange</refreshMode>
            </Link>
        </NetworkLink>
        <NetworkLink id="5814">
            <name>Parcel_Analysis_3534</name>
            <Link id="5815">
                <href>https://raw.githubusercontent.com/robmohammedmahid-stack/Horry-County-Data/Parcel_Analysis/KML-Output/Parcel_Analysis/Parcel_Analysis_3534.kml</href>
                <refreshMode>onChange</refreshMode>
            </Link>
        </NetworkLink>
        <NetworkLink id="5816">
            <name>Parcel_Analysis_3535</name>
            <Link id="5817">
                <href>https://raw.githubusercontent.com/robmohammedmahid-stack/Horry-County-Data/Parcel_Analysis/KML-Output/Parcel_Analysis/Parcel_Analysis_3535.kml</href>
                <refreshMode>onChange</refreshMode>
            </Link>
        </NetworkLink>
        <NetworkLink id="5818">
            <name>Parcel_Analysis_3536</name>
            <Link id="5819">
                <href>https://raw.githubusercontent.com/robmohammedmahid-stack/Horry-County-Data/Parcel_Analysis/KML-Output/Parcel_Analysis/Parcel_Analysis_3536.kml</href>
                <refreshMode>onChange</refreshMode>
            </Link>
        </NetworkLink>
        <NetworkLink id="5820">
            <name>Parcel_Analysis_3537</name>
            <Link id="5821">
                <href>https://raw.githubusercontent.com/robmohammedmahid-stack/Horry-County-Data/Parcel_Analysis/KML-Output/Parcel_Analysis/Parcel_Analysis_3537.kml</href>
                <refreshMode>onChange</refreshMode>
            </Link>
        </NetworkLink>
        <NetworkLink id="5822">
            <name>Parcel_Analysis_3538</name>
            <Link id="5823">
                <href>https://raw.githubusercontent.com/robmohammedmahid-stack/Horry-County-Data/Parcel_Analysis/KML-Output/Parcel_Analysis/Parcel_Analysis_3538.kml</href>
                <refreshMode>onChange</refreshMode>
            </Link>
        </NetworkLink>
        <NetworkLink id="5824">
            <name>Parcel_Analysis_3539</name>
            <Link id="5825">
                <href>https://raw.githubusercontent.com/robmohammedmahid-stack/Horry-County-Data/Parcel_Analysis/KML-Output/Parcel_Analysis/Parcel_Analysis_3539.kml</href>
                <refreshMode>onChange</refreshMode>
            </Link>
        </NetworkLink>
        <NetworkLink id="5826">
            <name>Parcel_Analysis_354</name>
            <Link id="5827">
                <href>https://raw.githubusercontent.com/robmohammedmahid-stack/Horry-County-Data/Parcel_Analysis/KML-Output/Parcel_Analysis/Parcel_Analysis_354.kml</href>
                <refreshMode>onChange</refreshMode>
            </Link>
        </NetworkLink>
        <NetworkLink id="5828">
            <name>Parcel_Analysis_3540</name>
            <Link id="5829">
                <href>https://raw.githubusercontent.com/robmohammedmahid-stack/Horry-County-Data/Parcel_Analysis/KML-Output/Parcel_Analysis/Parcel_Analysis_3540.kml</href>
                <refreshMode>onChange</refreshMode>
            </Link>
        </NetworkLink>
        <NetworkLink id="5830">
            <name>Parcel_Analysis_3541</name>
            <Link id="5831">
                <href>https://raw.githubusercontent.com/robmohammedmahid-stack/Horry-County-Data/Parcel_Analysis/KML-Output/Parcel_Analysis/Parcel_Analysis_3541.kml</href>
                <refreshMode>onChange</refreshMode>
            </Link>
        </NetworkLink>
        <NetworkLink id="5832">
            <name>Parcel_Analysis_3542</name>
            <Link id="5833">
                <href>https://raw.githubusercontent.com/robmohammedmahid-stack/Horry-County-Data/Parcel_Analysis/KML-Output/Parcel_Analysis/Parcel_Analysis_3542.kml</href>
                <refreshMode>onChange</refreshMode>
            </Link>
        </NetworkLink>
        <NetworkLink id="5834">
            <name>Parcel_Analysis_3543</name>
            <Link id="5835">
                <href>https://raw.githubusercontent.com/robmohammedmahid-stack/Horry-County-Data/Parcel_Analysis/KML-Output/Parcel_Analysis/Parcel_Analysis_3543.kml</href>
                <refreshMode>onChange</refreshMode>
            </Link>
        </NetworkLink>
        <NetworkLink id="5836">
            <name>Parcel_Analysis_3544</name>
            <Link id="5837">
                <href>https://raw.githubusercontent.com/robmohammedmahid-stack/Horry-County-Data/Parcel_Analysis/KML-Output/Parcel_Analysis/Parcel_Analysis_3544.kml</href>
                <refreshMode>onChange</refreshMode>
            </Link>
        </NetworkLink>
        <NetworkLink id="5838">
            <name>Parcel_Analysis_3545</name>
            <Link id="5839">
                <href>https://raw.githubusercontent.com/robmohammedmahid-stack/Horry-County-Data/Parcel_Analysis/KML-Output/Parcel_Analysis/Parcel_Analysis_3545.kml</href>
                <refreshMode>onChange</refreshMode>
            </Link>
        </NetworkLink>
        <NetworkLink id="5840">
            <name>Parcel_Analysis_3546</name>
            <Link id="5841">
                <href>https://raw.githubusercontent.com/robmohammedmahid-stack/Horry-County-Data/Parcel_Analysis/KML-Output/Parcel_Analysis/Parcel_Analysis_3546.kml</href>
                <refreshMode>onChange</refreshMode>
            </Link>
        </NetworkLink>
        <NetworkLink id="5842">
            <name>Parcel_Analysis_3547</name>
            <Link id="5843">
                <href>https://raw.githubusercontent.com/robmohammedmahid-stack/Horry-County-Data/Parcel_Analysis/KML-Output/Parcel_Analysis/Parcel_Analysis_3547.kml</href>
                <refreshMode>onChange</refreshMode>
            </Link>
        </NetworkLink>
        <NetworkLink id="5844">
            <name>Parcel_Analysis_3548</name>
            <Link id="5845">
                <href>https://raw.githubusercontent.com/robmohammedmahid-stack/Horry-County-Data/Parcel_Analysis/KML-Output/Parcel_Analysis/Parcel_Analysis_3548.kml</href>
                <refreshMode>onChange</refreshMode>
            </Link>
        </NetworkLink>
        <NetworkLink id="5846">
            <name>Parcel_Analysis_3549</name>
            <Link id="5847">
                <href>https://raw.githubusercontent.com/robmohammedmahid-stack/Horry-County-Data/Parcel_Analysis/KML-Output/Parcel_Analysis/Parcel_Analysis_3549.kml</href>
                <refreshMode>onChange</refreshMode>
            </Link>
        </NetworkLink>
        <NetworkLink id="5848">
            <name>Parcel_Analysis_355</name>
            <Link id="5849">
                <href>https://raw.githubusercontent.com/robmohammedmahid-stack/Horry-County-Data/Parcel_Analysis/KML-Output/Parcel_Analysis/Parcel_Analysis_355.kml</href>
                <refreshMode>onChange</refreshMode>
            </Link>
        </NetworkLink>
        <NetworkLink id="5850">
            <name>Parcel_Analysis_3550</name>
            <Link id="5851">
                <href>https://raw.githubusercontent.com/robmohammedmahid-stack/Horry-County-Data/Parcel_Analysis/KML-Output/Parcel_Analysis/Parcel_Analysis_3550.kml</href>
                <refreshMode>onChange</refreshMode>
            </Link>
        </NetworkLink>
        <NetworkLink id="5852">
            <name>Parcel_Analysis_3551</name>
            <Link id="5853">
                <href>https://raw.githubusercontent.com/robmohammedmahid-stack/Horry-County-Data/Parcel_Analysis/KML-Output/Parcel_Analysis/Parcel_Analysis_3551.kml</href>
                <refreshMode>onChange</refreshMode>
            </Link>
        </NetworkLink>
        <NetworkLink id="5854">
            <name>Parcel_Analysis_3552</name>
            <Link id="5855">
                <href>https://raw.githubusercontent.com/robmohammedmahid-stack/Horry-County-Data/Parcel_Analysis/KML-Output/Parcel_Analysis/Parcel_Analysis_3552.kml</href>
                <refreshMode>onChange</refreshMode>
            </Link>
        </NetworkLink>
        <NetworkLink id="5856">
            <name>Parcel_Analysis_3553</name>
            <Link id="5857">
                <href>https://raw.githubusercontent.com/robmohammedmahid-stack/Horry-County-Data/Parcel_Analysis/KML-Output/Parcel_Analysis/Parcel_Analysis_3553.kml</href>
                <refreshMode>onChange</refreshMode>
            </Link>
        </NetworkLink>
        <NetworkLink id="5858">
            <name>Parcel_Analysis_3554</name>
            <Link id="5859">
                <href>https://raw.githubusercontent.com/robmohammedmahid-stack/Horry-County-Data/Parcel_Analysis/KML-Output/Parcel_Analysis/Parcel_Analysis_3554.kml</href>
                <refreshMode>onChange</refreshMode>
            </Link>
        </NetworkLink>
        <NetworkLink id="5860">
            <name>Parcel_Analysis_3555</name>
            <Link id="5861">
                <href>https://raw.githubusercontent.com/robmohammedmahid-stack/Horry-County-Data/Parcel_Analysis/KML-Output/Parcel_Analysis/Parcel_Analysis_3555.kml</href>
                <refreshMode>onChange</refreshMode>
            </Link>
        </NetworkLink>
        <NetworkLink id="5862">
            <name>Parcel_Analysis_3556</name>
            <Link id="5863">
                <href>https://raw.githubusercontent.com/robmohammedmahid-stack/Horry-County-Data/Parcel_Analysis/KML-Output/Parcel_Analysis/Parcel_Analysis_3556.kml</href>
                <refreshMode>onChange</refreshMode>
            </Link>
        </NetworkLink>
        <NetworkLink id="5864">
            <name>Parcel_Analysis_3557</name>
            <Link id="5865">
                <href>https://raw.githubusercontent.com/robmohammedmahid-stack/Horry-County-Data/Parcel_Analysis/KML-Output/Parcel_Analysis/Parcel_Analysis_3557.kml</href>
                <refreshMode>onChange</refreshMode>
            </Link>
        </NetworkLink>
        <NetworkLink id="5866">
            <name>Parcel_Analysis_3558</name>
            <Link id="5867">
                <href>https://raw.githubusercontent.com/robmohammedmahid-stack/Horry-County-Data/Parcel_Analysis/KML-Output/Parcel_Analysis/Parcel_Analysis_3558.kml</href>
                <refreshMode>onChange</refreshMode>
            </Link>
        </NetworkLink>
        <NetworkLink id="5868">
            <name>Parcel_Analysis_3559</name>
            <Link id="5869">
                <href>https://raw.githubusercontent.com/robmohammedmahid-stack/Horry-County-Data/Parcel_Analysis/KML-Output/Parcel_Analysis/Parcel_Analysis_3559.kml</href>
                <refreshMode>onChange</refreshMode>
            </Link>
        </NetworkLink>
        <NetworkLink id="5870">
            <name>Parcel_Analysis_356</name>
            <Link id="5871">
                <href>https://raw.githubusercontent.com/robmohammedmahid-stack/Horry-County-Data/Parcel_Analysis/KML-Output/Parcel_Analysis/Parcel_Analysis_356.kml</href>
                <refreshMode>onChange</refreshMode>
            </Link>
        </NetworkLink>
        <NetworkLink id="5872">
            <name>Parcel_Analysis_3560</name>
            <Link id="5873">
                <href>https://raw.githubusercontent.com/robmohammedmahid-stack/Horry-County-Data/Parcel_Analysis/KML-Output/Parcel_Analysis/Parcel_Analysis_3560.kml</href>
                <refreshMode>onChange</refreshMode>
            </Link>
        </NetworkLink>
        <NetworkLink id="5874">
            <name>Parcel_Analysis_3561</name>
            <Link id="5875">
                <href>https://raw.githubusercontent.com/robmohammedmahid-stack/Horry-County-Data/Parcel_Analysis/KML-Output/Parcel_Analysis/Parcel_Analysis_3561.kml</href>
                <refreshMode>onChange</refreshMode>
            </Link>
        </NetworkLink>
        <NetworkLink id="5876">
            <name>Parcel_Analysis_3562</name>
            <Link id="5877">
                <href>https://raw.githubusercontent.com/robmohammedmahid-stack/Horry-County-Data/Parcel_Analysis/KML-Output/Parcel_Analysis/Parcel_Analysis_3562.kml</href>
                <refreshMode>onChange</refreshMode>
            </Link>
        </NetworkLink>
        <NetworkLink id="5878">
            <name>Parcel_Analysis_3563</name>
            <Link id="5879">
                <href>https://raw.githubusercontent.com/robmohammedmahid-stack/Horry-County-Data/Parcel_Analysis/KML-Output/Parcel_Analysis/Parcel_Analysis_3563.kml</href>
                <refreshMode>onChange</refreshMode>
            </Link>
        </NetworkLink>
        <NetworkLink id="5880">
            <name>Parcel_Analysis_3564</name>
            <Link id="5881">
                <href>https://raw.githubusercontent.com/robmohammedmahid-stack/Horry-County-Data/Parcel_Analysis/KML-Output/Parcel_Analysis/Parcel_Analysis_3564.kml</href>
                <refreshMode>onChange</refreshMode>
            </Link>
        </NetworkLink>
        <NetworkLink id="5882">
            <name>Parcel_Analysis_3565</name>
            <Link id="5883">
                <href>https://raw.githubusercontent.com/robmohammedmahid-stack/Horry-County-Data/Parcel_Analysis/KML-Output/Parcel_Analysis/Parcel_Analysis_3565.kml</href>
                <refreshMode>onChange</refreshMode>
            </Link>
        </NetworkLink>
        <NetworkLink id="5884">
            <name>Parcel_Analysis_3566</name>
            <Link id="5885">
                <href>https://raw.githubusercontent.com/robmohammedmahid-stack/Horry-County-Data/Parcel_Analysis/KML-Output/Parcel_Analysis/Parcel_Analysis_3566.kml</href>
                <refreshMode>onChange</refreshMode>
            </Link>
        </NetworkLink>
        <NetworkLink id="5886">
            <name>Parcel_Analysis_3567</name>
            <Link id="5887">
                <href>https://raw.githubusercontent.com/robmohammedmahid-stack/Horry-County-Data/Parcel_Analysis/KML-Output/Parcel_Analysis/Parcel_Analysis_3567.kml</href>
                <refreshMode>onChange</refreshMode>
            </Link>
        </NetworkLink>
        <NetworkLink id="5888">
            <name>Parcel_Analysis_3568</name>
            <Link id="5889">
                <href>https://raw.githubusercontent.com/robmohammedmahid-stack/Horry-County-Data/Parcel_Analysis/KML-Output/Parcel_Analysis/Parcel_Analysis_3568.kml</href>
                <refreshMode>onChange</refreshMode>
            </Link>
        </NetworkLink>
        <NetworkLink id="5890">
            <name>Parcel_Analysis_3569</name>
            <Link id="5891">
                <href>https://raw.githubusercontent.com/robmohammedmahid-stack/Horry-County-Data/Parcel_Analysis/KML-Output/Parcel_Analysis/Parcel_Analysis_3569.kml</href>
                <refreshMode>onChange</refreshMode>
            </Link>
        </NetworkLink>
        <NetworkLink id="5892">
            <name>Parcel_Analysis_357</name>
            <Link id="5893">
                <href>https://raw.githubusercontent.com/robmohammedmahid-stack/Horry-County-Data/Parcel_Analysis/KML-Output/Parcel_Analysis/Parcel_Analysis_357.kml</href>
                <refreshMode>onChange</refreshMode>
            </Link>
        </NetworkLink>
        <NetworkLink id="5894">
            <name>Parcel_Analysis_3570</name>
            <Link id="5895">
                <href>https://raw.githubusercontent.com/robmohammedmahid-stack/Horry-County-Data/Parcel_Analysis/KML-Output/Parcel_Analysis/Parcel_Analysis_3570.kml</href>
                <refreshMode>onChange</refreshMode>
            </Link>
        </NetworkLink>
        <NetworkLink id="5896">
            <name>Parcel_Analysis_3571</name>
            <Link id="5897">
                <href>https://raw.githubusercontent.com/robmohammedmahid-stack/Horry-County-Data/Parcel_Analysis/KML-Output/Parcel_Analysis/Parcel_Analysis_3571.kml</href>
                <refreshMode>onChange</refreshMode>
            </Link>
        </NetworkLink>
        <NetworkLink id="5898">
            <name>Parcel_Analysis_3572</name>
            <Link id="5899">
                <href>https://raw.githubusercontent.com/robmohammedmahid-stack/Horry-County-Data/Parcel_Analysis/KML-Output/Parcel_Analysis/Parcel_Analysis_3572.kml</href>
                <refreshMode>onChange</refreshMode>
            </Link>
        </NetworkLink>
        <NetworkLink id="5900">
            <name>Parcel_Analysis_3573</name>
            <Link id="5901">
                <href>https://raw.githubusercontent.com/robmohammedmahid-stack/Horry-County-Data/Parcel_Analysis/KML-Output/Parcel_Analysis/Parcel_Analysis_3573.kml</href>
                <refreshMode>onChange</refreshMode>
            </Link>
        </NetworkLink>
        <NetworkLink id="5902">
            <name>Parcel_Analysis_3574</name>
            <Link id="5903">
                <href>https://raw.githubusercontent.com/robmohammedmahid-stack/Horry-County-Data/Parcel_Analysis/KML-Output/Parcel_Analysis/Parcel_Analysis_3574.kml</href>
                <refreshMode>onChange</refreshMode>
            </Link>
        </NetworkLink>
        <NetworkLink id="5904">
            <name>Parcel_Analysis_3575</name>
            <Link id="5905">
                <href>https://raw.githubusercontent.com/robmohammedmahid-stack/Horry-County-Data/Parcel_Analysis/KML-Output/Parcel_Analysis/Parcel_Analysis_3575.kml</href>
                <refreshMode>onChange</refreshMode>
            </Link>
        </NetworkLink>
        <NetworkLink id="5906">
            <name>Parcel_Analysis_3576</name>
            <Link id="5907">
                <href>https://raw.githubusercontent.com/robmohammedmahid-stack/Horry-County-Data/Parcel_Analysis/KML-Output/Parcel_Analysis/Parcel_Analysis_3576.kml</href>
                <refreshMode>onChange</refreshMode>
            </Link>
        </NetworkLink>
        <NetworkLink id="5908">
            <name>Parcel_Analysis_3577</name>
            <Link id="5909">
                <href>https://raw.githubusercontent.com/robmohammedmahid-stack/Horry-County-Data/Parcel_Analysis/KML-Output/Parcel_Analysis/Parcel_Analysis_3577.kml</href>
                <refreshMode>onChange</refreshMode>
            </Link>
        </NetworkLink>
        <NetworkLink id="5910">
            <name>Parcel_Analysis_3578</name>
            <Link id="5911">
                <href>https://raw.githubusercontent.com/robmohammedmahid-stack/Horry-County-Data/Parcel_Analysis/KML-Output/Parcel_Analysis/Parcel_Analysis_3578.kml</href>
                <refreshMode>onChange</refreshMode>
            </Link>
        </NetworkLink>
        <NetworkLink id="5912">
            <name>Parcel_Analysis_3579</name>
            <Link id="5913">
                <href>https://raw.githubusercontent.com/robmohammedmahid-stack/Horry-County-Data/Parcel_Analysis/KML-Output/Parcel_Analysis/Parcel_Analysis_3579.kml</href>
                <refreshMode>onChange</refreshMode>
            </Link>
        </NetworkLink>
        <NetworkLink id="5914">
            <name>Parcel_Analysis_358</name>
            <Link id="5915">
                <href>https://raw.githubusercontent.com/robmohammedmahid-stack/Horry-County-Data/Parcel_Analysis/KML-Output/Parcel_Analysis/Parcel_Analysis_358.kml</href>
                <refreshMode>onChange</refreshMode>
            </Link>
        </NetworkLink>
        <NetworkLink id="5916">
            <name>Parcel_Analysis_3580</name>
            <Link id="5917">
                <href>https://raw.githubusercontent.com/robmohammedmahid-stack/Horry-County-Data/Parcel_Analysis/KML-Output/Parcel_Analysis/Parcel_Analysis_3580.kml</href>
                <refreshMode>onChange</refreshMode>
            </Link>
        </NetworkLink>
        <NetworkLink id="5918">
            <name>Parcel_Analysis_3581</name>
            <Link id="5919">
                <href>https://raw.githubusercontent.com/robmohammedmahid-stack/Horry-County-Data/Parcel_Analysis/KML-Output/Parcel_Analysis/Parcel_Analysis_3581.kml</href>
                <refreshMode>onChange</refreshMode>
            </Link>
        </NetworkLink>
        <NetworkLink id="5920">
            <name>Parcel_Analysis_3582</name>
            <Link id="5921">
                <href>https://raw.githubusercontent.com/robmohammedmahid-stack/Horry-County-Data/Parcel_Analysis/KML-Output/Parcel_Analysis/Parcel_Analysis_3582.kml</href>
                <refreshMode>onChange</refreshMode>
            </Link>
        </NetworkLink>
        <NetworkLink id="5922">
            <name>Parcel_Analysis_3583</name>
            <Link id="5923">
                <href>https://raw.githubusercontent.com/robmohammedmahid-stack/Horry-County-Data/Parcel_Analysis/KML-Output/Parcel_Analysis/Parcel_Analysis_3583.kml</href>
                <refreshMode>onChange</refreshMode>
            </Link>
        </NetworkLink>
        <NetworkLink id="5924">
            <name>Parcel_Analysis_3584</name>
            <Link id="5925">
                <href>https://raw.githubusercontent.com/robmohammedmahid-stack/Horry-County-Data/Parcel_Analysis/KML-Output/Parcel_Analysis/Parcel_Analysis_3584.kml</href>
                <refreshMode>onChange</refreshMode>
            </Link>
        </NetworkLink>
        <NetworkLink id="5926">
            <name>Parcel_Analysis_3585</name>
            <Link id="5927">
                <href>https://raw.githubusercontent.com/robmohammedmahid-stack/Horry-County-Data/Parcel_Analysis/KML-Output/Parcel_Analysis/Parcel_Analysis_3585.kml</href>
                <refreshMode>onChange</refreshMode>
            </Link>
        </NetworkLink>
        <NetworkLink id="5928">
            <name>Parcel_Analysis_3586</name>
            <Link id="5929">
                <href>https://raw.githubusercontent.com/robmohammedmahid-stack/Horry-County-Data/Parcel_Analysis/KML-Output/Parcel_Analysis/Parcel_Analysis_3586.kml</href>
                <refreshMode>onChange</refreshMode>
            </Link>
        </NetworkLink>
        <NetworkLink id="5930">
            <name>Parcel_Analysis_3587</name>
            <Link id="5931">
                <href>https://raw.githubusercontent.com/robmohammedmahid-stack/Horry-County-Data/Parcel_Analysis/KML-Output/Parcel_Analysis/Parcel_Analysis_3587.kml</href>
                <refreshMode>onChange</refreshMode>
            </Link>
        </NetworkLink>
        <NetworkLink id="5932">
            <name>Parcel_Analysis_3588</name>
            <Link id="5933">
                <href>https://raw.githubusercontent.com/robmohammedmahid-stack/Horry-County-Data/Parcel_Analysis/KML-Output/Parcel_Analysis/Parcel_Analysis_3588.kml</href>
                <refreshMode>onChange</refreshMode>
            </Link>
        </NetworkLink>
        <NetworkLink id="5934">
            <name>Parcel_Analysis_3589</name>
            <Link id="5935">
                <href>https://raw.githubusercontent.com/robmohammedmahid-stack/Horry-County-Data/Parcel_Analysis/KML-Output/Parcel_Analysis/Parcel_Analysis_3589.kml</href>
                <refreshMode>onChange</refreshMode>
            </Link>
        </NetworkLink>
        <NetworkLink id="5936">
            <name>Parcel_Analysis_359</name>
            <Link id="5937">
                <href>https://raw.githubusercontent.com/robmohammedmahid-stack/Horry-County-Data/Parcel_Analysis/KML-Output/Parcel_Analysis/Parcel_Analysis_359.kml</href>
                <refreshMode>onChange</refreshMode>
            </Link>
        </NetworkLink>
        <NetworkLink id="5938">
            <name>Parcel_Analysis_3590</name>
            <Link id="5939">
                <href>https://raw.githubusercontent.com/robmohammedmahid-stack/Horry-County-Data/Parcel_Analysis/KML-Output/Parcel_Analysis/Parcel_Analysis_3590.kml</href>
                <refreshMode>onChange</refreshMode>
            </Link>
        </NetworkLink>
        <NetworkLink id="5940">
            <name>Parcel_Analysis_3591</name>
            <Link id="5941">
                <href>https://raw.githubusercontent.com/robmohammedmahid-stack/Horry-County-Data/Parcel_Analysis/KML-Output/Parcel_Analysis/Parcel_Analysis_3591.kml</href>
                <refreshMode>onChange</refreshMode>
            </Link>
        </NetworkLink>
        <NetworkLink id="5942">
            <name>Parcel_Analysis_3592</name>
            <Link id="5943">
                <href>https://raw.githubusercontent.com/robmohammedmahid-stack/Horry-County-Data/Parcel_Analysis/KML-Output/Parcel_Analysis/Parcel_Analysis_3592.kml</href>
                <refreshMode>onChange</refreshMode>
            </Link>
        </NetworkLink>
        <NetworkLink id="5944">
            <name>Parcel_Analysis_3593</name>
            <Link id="5945">
                <href>https://raw.githubusercontent.com/robmohammedmahid-stack/Horry-County-Data/Parcel_Analysis/KML-Output/Parcel_Analysis/Parcel_Analysis_3593.kml</href>
                <refreshMode>onChange</refreshMode>
            </Link>
        </NetworkLink>
        <NetworkLink id="5946">
            <name>Parcel_Analysis_3594</name>
            <Link id="5947">
                <href>https://raw.githubusercontent.com/robmohammedmahid-stack/Horry-County-Data/Parcel_Analysis/KML-Output/Parcel_Analysis/Parcel_Analysis_3594.kml</href>
                <refreshMode>onChange</refreshMode>
            </Link>
        </NetworkLink>
        <NetworkLink id="5948">
            <name>Parcel_Analysis_3595</name>
            <Link id="5949">
                <href>https://raw.githubusercontent.com/robmohammedmahid-stack/Horry-County-Data/Parcel_Analysis/KML-Output/Parcel_Analysis/Parcel_Analysis_3595.kml</href>
                <refreshMode>onChange</refreshMode>
            </Link>
        </NetworkLink>
        <NetworkLink id="5950">
            <name>Parcel_Analysis_3596</name>
            <Link id="5951">
                <href>https://raw.githubusercontent.com/robmohammedmahid-stack/Horry-County-Data/Parcel_Analysis/KML-Output/Parcel_Analysis/Parcel_Analysis_3596.kml</href>
                <refreshMode>onChange</refreshMode>
            </Link>
        </NetworkLink>
        <NetworkLink id="5952">
            <name>Parcel_Analysis_3597</name>
            <Link id="5953">
                <href>https://raw.githubusercontent.com/robmohammedmahid-stack/Horry-County-Data/Parcel_Analysis/KML-Output/Parcel_Analysis/Parcel_Analysis_3597.kml</href>
                <refreshMode>onChange</refreshMode>
            </Link>
        </NetworkLink>
        <NetworkLink id="5954">
            <name>Parcel_Analysis_3598</name>
            <Link id="5955">
                <href>https://raw.githubusercontent.com/robmohammedmahid-stack/Horry-County-Data/Parcel_Analysis/KML-Output/Parcel_Analysis/Parcel_Analysis_3598.kml</href>
                <refreshMode>onChange</refreshMode>
            </Link>
        </NetworkLink>
        <NetworkLink id="5956">
            <name>Parcel_Analysis_3599</name>
            <Link id="5957">
                <href>https://raw.githubusercontent.com/robmohammedmahid-stack/Horry-County-Data/Parcel_Analysis/KML-Output/Parcel_Analysis/Parcel_Analysis_3599.kml</href>
                <refreshMode>onChange</refreshMode>
            </Link>
        </NetworkLink>
        <NetworkLink id="5958">
            <name>Parcel_Analysis_360</name>
            <Link id="5959">
                <href>https://raw.githubusercontent.com/robmohammedmahid-stack/Horry-County-Data/Parcel_Analysis/KML-Output/Parcel_Analysis/Parcel_Analysis_360.kml</href>
                <refreshMode>onChange</refreshMode>
            </Link>
        </NetworkLink>
        <NetworkLink id="5960">
            <name>Parcel_Analysis_3600</name>
            <Link id="5961">
                <href>https://raw.githubusercontent.com/robmohammedmahid-stack/Horry-County-Data/Parcel_Analysis/KML-Output/Parcel_Analysis/Parcel_Analysis_3600.kml</href>
                <refreshMode>onChange</refreshMode>
            </Link>
        </NetworkLink>
        <NetworkLink id="5962">
            <name>Parcel_Analysis_3601</name>
            <Link id="5963">
                <href>https://raw.githubusercontent.com/robmohammedmahid-stack/Horry-County-Data/Parcel_Analysis/KML-Output/Parcel_Analysis/Parcel_Analysis_3601.kml</href>
                <refreshMode>onChange</refreshMode>
            </Link>
        </NetworkLink>
        <NetworkLink id="5964">
            <name>Parcel_Analysis_3602</name>
            <Link id="5965">
                <href>https://raw.githubusercontent.com/robmohammedmahid-stack/Horry-County-Data/Parcel_Analysis/KML-Output/Parcel_Analysis/Parcel_Analysis_3602.kml</href>
                <refreshMode>onChange</refreshMode>
            </Link>
        </NetworkLink>
        <NetworkLink id="5966">
            <name>Parcel_Analysis_3603</name>
            <Link id="5967">
                <href>https://raw.githubusercontent.com/robmohammedmahid-stack/Horry-County-Data/Parcel_Analysis/KML-Output/Parcel_Analysis/Parcel_Analysis_3603.kml</href>
                <refreshMode>onChange</refreshMode>
            </Link>
        </NetworkLink>
        <NetworkLink id="5968">
            <name>Parcel_Analysis_3604</name>
            <Link id="5969">
                <href>https://raw.githubusercontent.com/robmohammedmahid-stack/Horry-County-Data/Parcel_Analysis/KML-Output/Parcel_Analysis/Parcel_Analysis_3604.kml</href>
                <refreshMode>onChange</refreshMode>
            </Link>
        </NetworkLink>
        <NetworkLink id="5970">
            <name>Parcel_Analysis_3605</name>
            <Link id="5971">
                <href>https://raw.githubusercontent.com/robmohammedmahid-stack/Horry-County-Data/Parcel_Analysis/KML-Output/Parcel_Analysis/Parcel_Analysis_3605.kml</href>
                <refreshMode>onChange</refreshMode>
            </Link>
        </NetworkLink>
        <NetworkLink id="5972">
            <name>Parcel_Analysis_3606</name>
            <Link id="5973">
                <href>https://raw.githubusercontent.com/robmohammedmahid-stack/Horry-County-Data/Parcel_Analysis/KML-Output/Parcel_Analysis/Parcel_Analysis_3606.kml</href>
                <refreshMode>onChange</refreshMode>
            </Link>
        </NetworkLink>
        <NetworkLink id="5974">
            <name>Parcel_Analysis_3607</name>
            <Link id="5975">
                <href>https://raw.githubusercontent.com/robmohammedmahid-stack/Horry-County-Data/Parcel_Analysis/KML-Output/Parcel_Analysis/Parcel_Analysis_3607.kml</href>
                <refreshMode>onChange</refreshMode>
            </Link>
        </NetworkLink>
        <NetworkLink id="5976">
            <name>Parcel_Analysis_3608</name>
            <Link id="5977">
                <href>https://raw.githubusercontent.com/robmohammedmahid-stack/Horry-County-Data/Parcel_Analysis/KML-Output/Parcel_Analysis/Parcel_Analysis_3608.kml</href>
                <refreshMode>onChange</refreshMode>
            </Link>
        </NetworkLink>
        <NetworkLink id="5978">
            <name>Parcel_Analysis_3609</name>
            <Link id="5979">
                <href>https://raw.githubusercontent.com/robmohammedmahid-stack/Horry-County-Data/Parcel_Analysis/KML-Output/Parcel_Analysis/Parcel_Analysis_3609.kml</href>
                <refreshMode>onChange</refreshMode>
            </Link>
        </NetworkLink>
        <NetworkLink id="5980">
            <name>Parcel_Analysis_361</name>
            <Link id="5981">
                <href>https://raw.githubusercontent.com/robmohammedmahid-stack/Horry-County-Data/Parcel_Analysis/KML-Output/Parcel_Analysis/Parcel_Analysis_361.kml</href>
                <refreshMode>onChange</refreshMode>
            </Link>
        </NetworkLink>
        <NetworkLink id="5982">
            <name>Parcel_Analysis_3610</name>
            <Link id="5983">
                <href>https://raw.githubusercontent.com/robmohammedmahid-stack/Horry-County-Data/Parcel_Analysis/KML-Output/Parcel_Analysis/Parcel_Analysis_3610.kml</href>
                <refreshMode>onChange</refreshMode>
            </Link>
        </NetworkLink>
        <NetworkLink id="5984">
            <name>Parcel_Analysis_3611</name>
            <Link id="5985">
                <href>https://raw.githubusercontent.com/robmohammedmahid-stack/Horry-County-Data/Parcel_Analysis/KML-Output/Parcel_Analysis/Parcel_Analysis_3611.kml</href>
                <refreshMode>onChange</refreshMode>
            </Link>
        </NetworkLink>
        <NetworkLink id="5986">
            <name>Parcel_Analysis_3612</name>
            <Link id="5987">
                <href>https://raw.githubusercontent.com/robmohammedmahid-stack/Horry-County-Data/Parcel_Analysis/KML-Output/Parcel_Analysis/Parcel_Analysis_3612.kml</href>
                <refreshMode>onChange</refreshMode>
            </Link>
        </NetworkLink>
        <NetworkLink id="5988">
            <name>Parcel_Analysis_3613</name>
            <Link id="5989">
                <href>https://raw.githubusercontent.com/robmohammedmahid-stack/Horry-County-Data/Parcel_Analysis/KML-Output/Parcel_Analysis/Parcel_Analysis_3613.kml</href>
                <refreshMode>onChange</refreshMode>
            </Link>
        </NetworkLink>
        <NetworkLink id="5990">
            <name>Parcel_Analysis_3614</name>
            <Link id="5991">
                <href>https://raw.githubusercontent.com/robmohammedmahid-stack/Horry-County-Data/Parcel_Analysis/KML-Output/Parcel_Analysis/Parcel_Analysis_3614.kml</href>
                <refreshMode>onChange</refreshMode>
            </Link>
        </NetworkLink>
        <NetworkLink id="5992">
            <name>Parcel_Analysis_3615</name>
            <Link id="5993">
                <href>https://raw.githubusercontent.com/robmohammedmahid-stack/Horry-County-Data/Parcel_Analysis/KML-Output/Parcel_Analysis/Parcel_Analysis_3615.kml</href>
                <refreshMode>onChange</refreshMode>
            </Link>
        </NetworkLink>
        <NetworkLink id="5994">
            <name>Parcel_Analysis_3616</name>
            <Link id="5995">
                <href>https://raw.githubusercontent.com/robmohammedmahid-stack/Horry-County-Data/Parcel_Analysis/KML-Output/Parcel_Analysis/Parcel_Analysis_3616.kml</href>
                <refreshMode>onChange</refreshMode>
            </Link>
        </NetworkLink>
        <NetworkLink id="5996">
            <name>Parcel_Analysis_3617</name>
            <Link id="5997">
                <href>https://raw.githubusercontent.com/robmohammedmahid-stack/Horry-County-Data/Parcel_Analysis/KML-Output/Parcel_Analysis/Parcel_Analysis_3617.kml</href>
                <refreshMode>onChange</refreshMode>
            </Link>
        </NetworkLink>
        <NetworkLink id="5998">
            <name>Parcel_Analysis_3618</name>
            <Link id="5999">
                <href>https://raw.githubusercontent.com/robmohammedmahid-stack/Horry-County-Data/Parcel_Analysis/KML-Output/Parcel_Analysis/Parcel_Analysis_3618.kml</href>
                <refreshMode>onChange</refreshMode>
            </Link>
        </NetworkLink>
        <NetworkLink id="6000">
            <name>Parcel_Analysis_3619</name>
            <Link id="6001">
                <href>https://raw.githubusercontent.com/robmohammedmahid-stack/Horry-County-Data/Parcel_Analysis/KML-Output/Parcel_Analysis/Parcel_Analysis_3619.kml</href>
                <refreshMode>onChange</refreshMode>
            </Link>
        </NetworkLink>
        <NetworkLink id="6002">
            <name>Parcel_Analysis_362</name>
            <Link id="6003">
                <href>https://raw.githubusercontent.com/robmohammedmahid-stack/Horry-County-Data/Parcel_Analysis/KML-Output/Parcel_Analysis/Parcel_Analysis_362.kml</href>
                <refreshMode>onChange</refreshMode>
            </Link>
        </NetworkLink>
        <NetworkLink id="6004">
            <name>Parcel_Analysis_3620</name>
            <Link id="6005">
                <href>https://raw.githubusercontent.com/robmohammedmahid-stack/Horry-County-Data/Parcel_Analysis/KML-Output/Parcel_Analysis/Parcel_Analysis_3620.kml</href>
                <refreshMode>onChange</refreshMode>
            </Link>
        </NetworkLink>
        <NetworkLink id="6006">
            <name>Parcel_Analysis_3621</name>
            <Link id="6007">
                <href>https://raw.githubusercontent.com/robmohammedmahid-stack/Horry-County-Data/Parcel_Analysis/KML-Output/Parcel_Analysis/Parcel_Analysis_3621.kml</href>
                <refreshMode>onChange</refreshMode>
            </Link>
        </NetworkLink>
        <NetworkLink id="6008">
            <name>Parcel_Analysis_3622</name>
            <Link id="6009">
                <href>https://raw.githubusercontent.com/robmohammedmahid-stack/Horry-County-Data/Parcel_Analysis/KML-Output/Parcel_Analysis/Parcel_Analysis_3622.kml</href>
                <refreshMode>onChange</refreshMode>
            </Link>
        </NetworkLink>
        <NetworkLink id="6010">
            <name>Parcel_Analysis_3623</name>
            <Link id="6011">
                <href>https://raw.githubusercontent.com/robmohammedmahid-stack/Horry-County-Data/Parcel_Analysis/KML-Output/Parcel_Analysis/Parcel_Analysis_3623.kml</href>
                <refreshMode>onChange</refreshMode>
            </Link>
        </NetworkLink>
        <NetworkLink id="6012">
            <name>Parcel_Analysis_3624</name>
            <Link id="6013">
                <href>https://raw.githubusercontent.com/robmohammedmahid-stack/Horry-County-Data/Parcel_Analysis/KML-Output/Parcel_Analysis/Parcel_Analysis_3624.kml</href>
                <refreshMode>onChange</refreshMode>
            </Link>
        </NetworkLink>
        <NetworkLink id="6014">
            <name>Parcel_Analysis_3625</name>
            <Link id="6015">
                <href>https://raw.githubusercontent.com/robmohammedmahid-stack/Horry-County-Data/Parcel_Analysis/KML-Output/Parcel_Analysis/Parcel_Analysis_3625.kml</href>
                <refreshMode>onChange</refreshMode>
            </Link>
        </NetworkLink>
        <NetworkLink id="6016">
            <name>Parcel_Analysis_3626</name>
            <Link id="6017">
                <href>https://raw.githubusercontent.com/robmohammedmahid-stack/Horry-County-Data/Parcel_Analysis/KML-Output/Parcel_Analysis/Parcel_Analysis_3626.kml</href>
                <refreshMode>onChange</refreshMode>
            </Link>
        </NetworkLink>
        <NetworkLink id="6018">
            <name>Parcel_Analysis_3627</name>
            <Link id="6019">
                <href>https://raw.githubusercontent.com/robmohammedmahid-stack/Horry-County-Data/Parcel_Analysis/KML-Output/Parcel_Analysis/Parcel_Analysis_3627.kml</href>
                <refreshMode>onChange</refreshMode>
            </Link>
        </NetworkLink>
        <NetworkLink id="6020">
            <name>Parcel_Analysis_3628</name>
            <Link id="6021">
                <href>https://raw.githubusercontent.com/robmohammedmahid-stack/Horry-County-Data/Parcel_Analysis/KML-Output/Parcel_Analysis/Parcel_Analysis_3628.kml</href>
                <refreshMode>onChange</refreshMode>
            </Link>
        </NetworkLink>
        <NetworkLink id="6022">
            <name>Parcel_Analysis_3629</name>
            <Link id="6023">
                <href>https://raw.githubusercontent.com/robmohammedmahid-stack/Horry-County-Data/Parcel_Analysis/KML-Output/Parcel_Analysis/Parcel_Analysis_3629.kml</href>
                <refreshMode>onChange</refreshMode>
            </Link>
        </NetworkLink>
        <NetworkLink id="6024">
            <name>Parcel_Analysis_363</name>
            <Link id="6025">
                <href>https://raw.githubusercontent.com/robmohammedmahid-stack/Horry-County-Data/Parcel_Analysis/KML-Output/Parcel_Analysis/Parcel_Analysis_363.kml</href>
                <refreshMode>onChange</refreshMode>
            </Link>
        </NetworkLink>
        <NetworkLink id="6026">
            <name>Parcel_Analysis_3630</name>
            <Link id="6027">
                <href>https://raw.githubusercontent.com/robmohammedmahid-stack/Horry-County-Data/Parcel_Analysis/KML-Output/Parcel_Analysis/Parcel_Analysis_3630.kml</href>
                <refreshMode>onChange</refreshMode>
            </Link>
        </NetworkLink>
        <NetworkLink id="6028">
            <name>Parcel_Analysis_3631</name>
            <Link id="6029">
                <href>https://raw.githubusercontent.com/robmohammedmahid-stack/Horry-County-Data/Parcel_Analysis/KML-Output/Parcel_Analysis/Parcel_Analysis_3631.kml</href>
                <refreshMode>onChange</refreshMode>
            </Link>
        </NetworkLink>
        <NetworkLink id="6030">
            <name>Parcel_Analysis_3632</name>
            <Link id="6031">
                <href>https://raw.githubusercontent.com/robmohammedmahid-stack/Horry-County-Data/Parcel_Analysis/KML-Output/Parcel_Analysis/Parcel_Analysis_3632.kml</href>
                <refreshMode>onChange</refreshMode>
            </Link>
        </NetworkLink>
        <NetworkLink id="6032">
            <name>Parcel_Analysis_3633</name>
            <Link id="6033">
                <href>https://raw.githubusercontent.com/robmohammedmahid-stack/Horry-County-Data/Parcel_Analysis/KML-Output/Parcel_Analysis/Parcel_Analysis_3633.kml</href>
                <refreshMode>onChange</refreshMode>
            </Link>
        </NetworkLink>
        <NetworkLink id="6034">
            <name>Parcel_Analysis_3634</name>
            <Link id="6035">
                <href>https://raw.githubusercontent.com/robmohammedmahid-stack/Horry-County-Data/Parcel_Analysis/KML-Output/Parcel_Analysis/Parcel_Analysis_3634.kml</href>
                <refreshMode>onChange</refreshMode>
            </Link>
        </NetworkLink>
        <NetworkLink id="6036">
            <name>Parcel_Analysis_3635</name>
            <Link id="6037">
                <href>https://raw.githubusercontent.com/robmohammedmahid-stack/Horry-County-Data/Parcel_Analysis/KML-Output/Parcel_Analysis/Parcel_Analysis_3635.kml</href>
                <refreshMode>onChange</refreshMode>
            </Link>
        </NetworkLink>
        <NetworkLink id="6038">
            <name>Parcel_Analysis_3636</name>
            <Link id="6039">
                <href>https://raw.githubusercontent.com/robmohammedmahid-stack/Horry-County-Data/Parcel_Analysis/KML-Output/Parcel_Analysis/Parcel_Analysis_3636.kml</href>
                <refreshMode>onChange</refreshMode>
            </Link>
        </NetworkLink>
    </Document>
</kml>
