<?xml version="1.0" encoding="UTF-8"?>
<kml xmlns="http://www.opengis.net/kml/2.2" xmlns:gx="http://www.google.com/kml/ext/2.2">
    <Document id="3625">
        <NetworkLink id="3626">
            <name>Parcel_Analysis_2546</name>
            <Link id="3627">
                <href>https://raw.githubusercontent.com/robmohammedmahid-stack/Horry-County-Data/Parcel_Analysis/KML-Output/Parcel_Analysis/Parcel_Analysis_2546.kml</href>
                <refreshMode>onChange</refreshMode>
            </Link>
        </NetworkLink>
        <NetworkLink id="3628">
            <name>Parcel_Analysis_2547</name>
            <Link id="3629">
                <href>https://raw.githubusercontent.com/robmohammedmahid-stack/Horry-County-Data/Parcel_Analysis/KML-Output/Parcel_Analysis/Parcel_Analysis_2547.kml</href>
                <refreshMode>onChange</refreshMode>
            </Link>
        </NetworkLink>
        <NetworkLink id="3630">
            <name>Parcel_Analysis_2548</name>
            <Link id="3631">
                <href>https://raw.githubusercontent.com/robmohammedmahid-stack/Horry-County-Data/Parcel_Analysis/KML-Output/Parcel_Analysis/Parcel_Analysis_2548.kml</href>
                <refreshMode>onChange</refreshMode>
            </Link>
        </NetworkLink>
        <NetworkLink id="3632">
            <name>Parcel_Analysis_2549</name>
            <Link id="3633">
                <href>https://raw.githubusercontent.com/robmohammedmahid-stack/Horry-County-Data/Parcel_Analysis/KML-Output/Parcel_Analysis/Parcel_Analysis_2549.kml</href>
                <refreshMode>onChange</refreshMode>
            </Link>
        </NetworkLink>
        <NetworkLink id="3634">
            <name>Parcel_Analysis_255</name>
            <Link id="3635">
                <href>https://raw.githubusercontent.com/robmohammedmahid-stack/Horry-County-Data/Parcel_Analysis/KML-Output/Parcel_Analysis/Parcel_Analysis_255.kml</href>
                <refreshMode>onChange</refreshMode>
            </Link>
        </NetworkLink>
        <NetworkLink id="3636">
            <name>Parcel_Analysis_2550</name>
            <Link id="3637">
                <href>https://raw.githubusercontent.com/robmohammedmahid-stack/Horry-County-Data/Parcel_Analysis/KML-Output/Parcel_Analysis/Parcel_Analysis_2550.kml</href>
                <refreshMode>onChange</refreshMode>
            </Link>
        </NetworkLink>
        <NetworkLink id="3638">
            <name>Parcel_Analysis_2551</name>
            <Link id="3639">
                <href>https://raw.githubusercontent.com/robmohammedmahid-stack/Horry-County-Data/Parcel_Analysis/KML-Output/Parcel_Analysis/Parcel_Analysis_2551.kml</href>
                <refreshMode>onChange</refreshMode>
            </Link>
        </NetworkLink>
        <NetworkLink id="3640">
            <name>Parcel_Analysis_2552</name>
            <Link id="3641">
                <href>https://raw.githubusercontent.com/robmohammedmahid-stack/Horry-County-Data/Parcel_Analysis/KML-Output/Parcel_Analysis/Parcel_Analysis_2552.kml</href>
                <refreshMode>onChange</refreshMode>
            </Link>
        </NetworkLink>
        <NetworkLink id="3642">
            <name>Parcel_Analysis_2553</name>
            <Link id="3643">
                <href>https://raw.githubusercontent.com/robmohammedmahid-stack/Horry-County-Data/Parcel_Analysis/KML-Output/Parcel_Analysis/Parcel_Analysis_2553.kml</href>
                <refreshMode>onChange</refreshMode>
            </Link>
        </NetworkLink>
        <NetworkLink id="3644">
            <name>Parcel_Analysis_2554</name>
            <Link id="3645">
                <href>https://raw.githubusercontent.com/robmohammedmahid-stack/Horry-County-Data/Parcel_Analysis/KML-Output/Parcel_Analysis/Parcel_Analysis_2554.kml</href>
                <refreshMode>onChange</refreshMode>
            </Link>
        </NetworkLink>
        <NetworkLink id="3646">
            <name>Parcel_Analysis_2555</name>
            <Link id="3647">
                <href>https://raw.githubusercontent.com/robmohammedmahid-stack/Horry-County-Data/Parcel_Analysis/KML-Output/Parcel_Analysis/Parcel_Analysis_2555.kml</href>
                <refreshMode>onChange</refreshMode>
            </Link>
        </NetworkLink>
        <NetworkLink id="3648">
            <name>Parcel_Analysis_2556</name>
            <Link id="3649">
                <href>https://raw.githubusercontent.com/robmohammedmahid-stack/Horry-County-Data/Parcel_Analysis/KML-Output/Parcel_Analysis/Parcel_Analysis_2556.kml</href>
                <refreshMode>onChange</refreshMode>
            </Link>
        </NetworkLink>
        <NetworkLink id="3650">
            <name>Parcel_Analysis_2557</name>
            <Link id="3651">
                <href>https://raw.githubusercontent.com/robmohammedmahid-stack/Horry-County-Data/Parcel_Analysis/KML-Output/Parcel_Analysis/Parcel_Analysis_2557.kml</href>
                <refreshMode>onChange</refreshMode>
            </Link>
        </NetworkLink>
        <NetworkLink id="3652">
            <name>Parcel_Analysis_2558</name>
            <Link id="3653">
                <href>https://raw.githubusercontent.com/robmohammedmahid-stack/Horry-County-Data/Parcel_Analysis/KML-Output/Parcel_Analysis/Parcel_Analysis_2558.kml</href>
                <refreshMode>onChange</refreshMode>
            </Link>
        </NetworkLink>
        <NetworkLink id="3654">
            <name>Parcel_Analysis_2559</name>
            <Link id="3655">
                <href>https://raw.githubusercontent.com/robmohammedmahid-stack/Horry-County-Data/Parcel_Analysis/KML-Output/Parcel_Analysis/Parcel_Analysis_2559.kml</href>
                <refreshMode>onChange</refreshMode>
            </Link>
        </NetworkLink>
        <NetworkLink id="3656">
            <name>Parcel_Analysis_256</name>
            <Link id="3657">
                <href>https://raw.githubusercontent.com/robmohammedmahid-stack/Horry-County-Data/Parcel_Analysis/KML-Output/Parcel_Analysis/Parcel_Analysis_256.kml</href>
                <refreshMode>onChange</refreshMode>
            </Link>
        </NetworkLink>
        <NetworkLink id="3658">
            <name>Parcel_Analysis_2560</name>
            <Link id="3659">
                <href>https://raw.githubusercontent.com/robmohammedmahid-stack/Horry-County-Data/Parcel_Analysis/KML-Output/Parcel_Analysis/Parcel_Analysis_2560.kml</href>
                <refreshMode>onChange</refreshMode>
            </Link>
        </NetworkLink>
        <NetworkLink id="3660">
            <name>Parcel_Analysis_2561</name>
            <Link id="3661">
                <href>https://raw.githubusercontent.com/robmohammedmahid-stack/Horry-County-Data/Parcel_Analysis/KML-Output/Parcel_Analysis/Parcel_Analysis_2561.kml</href>
                <refreshMode>onChange</refreshMode>
            </Link>
        </NetworkLink>
        <NetworkLink id="3662">
            <name>Parcel_Analysis_2562</name>
            <Link id="3663">
                <href>https://raw.githubusercontent.com/robmohammedmahid-stack/Horry-County-Data/Parcel_Analysis/KML-Output/Parcel_Analysis/Parcel_Analysis_2562.kml</href>
                <refreshMode>onChange</refreshMode>
            </Link>
        </NetworkLink>
        <NetworkLink id="3664">
            <name>Parcel_Analysis_2563</name>
            <Link id="3665">
                <href>https://raw.githubusercontent.com/robmohammedmahid-stack/Horry-County-Data/Parcel_Analysis/KML-Output/Parcel_Analysis/Parcel_Analysis_2563.kml</href>
                <refreshMode>onChange</refreshMode>
            </Link>
        </NetworkLink>
        <NetworkLink id="3666">
            <name>Parcel_Analysis_2564</name>
            <Link id="3667">
                <href>https://raw.githubusercontent.com/robmohammedmahid-stack/Horry-County-Data/Parcel_Analysis/KML-Output/Parcel_Analysis/Parcel_Analysis_2564.kml</href>
                <refreshMode>onChange</refreshMode>
            </Link>
        </NetworkLink>
        <NetworkLink id="3668">
            <name>Parcel_Analysis_2565</name>
            <Link id="3669">
                <href>https://raw.githubusercontent.com/robmohammedmahid-stack/Horry-County-Data/Parcel_Analysis/KML-Output/Parcel_Analysis/Parcel_Analysis_2565.kml</href>
                <refreshMode>onChange</refreshMode>
            </Link>
        </NetworkLink>
        <NetworkLink id="3670">
            <name>Parcel_Analysis_2566</name>
            <Link id="3671">
                <href>https://raw.githubusercontent.com/robmohammedmahid-stack/Horry-County-Data/Parcel_Analysis/KML-Output/Parcel_Analysis/Parcel_Analysis_2566.kml</href>
                <refreshMode>onChange</refreshMode>
            </Link>
        </NetworkLink>
        <NetworkLink id="3672">
            <name>Parcel_Analysis_2567</name>
            <Link id="3673">
                <href>https://raw.githubusercontent.com/robmohammedmahid-stack/Horry-County-Data/Parcel_Analysis/KML-Output/Parcel_Analysis/Parcel_Analysis_2567.kml</href>
                <refreshMode>onChange</refreshMode>
            </Link>
        </NetworkLink>
        <NetworkLink id="3674">
            <name>Parcel_Analysis_2568</name>
            <Link id="3675">
                <href>https://raw.githubusercontent.com/robmohammedmahid-stack/Horry-County-Data/Parcel_Analysis/KML-Output/Parcel_Analysis/Parcel_Analysis_2568.kml</href>
                <refreshMode>onChange</refreshMode>
            </Link>
        </NetworkLink>
        <NetworkLink id="3676">
            <name>Parcel_Analysis_2569</name>
            <Link id="3677">
                <href>https://raw.githubusercontent.com/robmohammedmahid-stack/Horry-County-Data/Parcel_Analysis/KML-Output/Parcel_Analysis/Parcel_Analysis_2569.kml</href>
                <refreshMode>onChange</refreshMode>
            </Link>
        </NetworkLink>
        <NetworkLink id="3678">
            <name>Parcel_Analysis_257</name>
            <Link id="3679">
                <href>https://raw.githubusercontent.com/robmohammedmahid-stack/Horry-County-Data/Parcel_Analysis/KML-Output/Parcel_Analysis/Parcel_Analysis_257.kml</href>
                <refreshMode>onChange</refreshMode>
            </Link>
        </NetworkLink>
        <NetworkLink id="3680">
            <name>Parcel_Analysis_2570</name>
            <Link id="3681">
                <href>https://raw.githubusercontent.com/robmohammedmahid-stack/Horry-County-Data/Parcel_Analysis/KML-Output/Parcel_Analysis/Parcel_Analysis_2570.kml</href>
                <refreshMode>onChange</refreshMode>
            </Link>
        </NetworkLink>
        <NetworkLink id="3682">
            <name>Parcel_Analysis_2571</name>
            <Link id="3683">
                <href>https://raw.githubusercontent.com/robmohammedmahid-stack/Horry-County-Data/Parcel_Analysis/KML-Output/Parcel_Analysis/Parcel_Analysis_2571.kml</href>
                <refreshMode>onChange</refreshMode>
            </Link>
        </NetworkLink>
        <NetworkLink id="3684">
            <name>Parcel_Analysis_2572</name>
            <Link id="3685">
                <href>https://raw.githubusercontent.com/robmohammedmahid-stack/Horry-County-Data/Parcel_Analysis/KML-Output/Parcel_Analysis/Parcel_Analysis_2572.kml</href>
                <refreshMode>onChange</refreshMode>
            </Link>
        </NetworkLink>
        <NetworkLink id="3686">
            <name>Parcel_Analysis_2573</name>
            <Link id="3687">
                <href>https://raw.githubusercontent.com/robmohammedmahid-stack/Horry-County-Data/Parcel_Analysis/KML-Output/Parcel_Analysis/Parcel_Analysis_2573.kml</href>
                <refreshMode>onChange</refreshMode>
            </Link>
        </NetworkLink>
        <NetworkLink id="3688">
            <name>Parcel_Analysis_2574</name>
            <Link id="3689">
                <href>https://raw.githubusercontent.com/robmohammedmahid-stack/Horry-County-Data/Parcel_Analysis/KML-Output/Parcel_Analysis/Parcel_Analysis_2574.kml</href>
                <refreshMode>onChange</refreshMode>
            </Link>
        </NetworkLink>
        <NetworkLink id="3690">
            <name>Parcel_Analysis_2575</name>
            <Link id="3691">
                <href>https://raw.githubusercontent.com/robmohammedmahid-stack/Horry-County-Data/Parcel_Analysis/KML-Output/Parcel_Analysis/Parcel_Analysis_2575.kml</href>
                <refreshMode>onChange</refreshMode>
            </Link>
        </NetworkLink>
        <NetworkLink id="3692">
            <name>Parcel_Analysis_2576</name>
            <Link id="3693">
                <href>https://raw.githubusercontent.com/robmohammedmahid-stack/Horry-County-Data/Parcel_Analysis/KML-Output/Parcel_Analysis/Parcel_Analysis_2576.kml</href>
                <refreshMode>onChange</refreshMode>
            </Link>
        </NetworkLink>
        <NetworkLink id="3694">
            <name>Parcel_Analysis_2577</name>
            <Link id="3695">
                <href>https://raw.githubusercontent.com/robmohammedmahid-stack/Horry-County-Data/Parcel_Analysis/KML-Output/Parcel_Analysis/Parcel_Analysis_2577.kml</href>
                <refreshMode>onChange</refreshMode>
            </Link>
        </NetworkLink>
        <NetworkLink id="3696">
            <name>Parcel_Analysis_2578</name>
            <Link id="3697">
                <href>https://raw.githubusercontent.com/robmohammedmahid-stack/Horry-County-Data/Parcel_Analysis/KML-Output/Parcel_Analysis/Parcel_Analysis_2578.kml</href>
                <refreshMode>onChange</refreshMode>
            </Link>
        </NetworkLink>
        <NetworkLink id="3698">
            <name>Parcel_Analysis_2579</name>
            <Link id="3699">
                <href>https://raw.githubusercontent.com/robmohammedmahid-stack/Horry-County-Data/Parcel_Analysis/KML-Output/Parcel_Analysis/Parcel_Analysis_2579.kml</href>
                <refreshMode>onChange</refreshMode>
            </Link>
        </NetworkLink>
        <NetworkLink id="3700">
            <name>Parcel_Analysis_258</name>
            <Link id="3701">
                <href>https://raw.githubusercontent.com/robmohammedmahid-stack/Horry-County-Data/Parcel_Analysis/KML-Output/Parcel_Analysis/Parcel_Analysis_258.kml</href>
                <refreshMode>onChange</refreshMode>
            </Link>
        </NetworkLink>
        <NetworkLink id="3702">
            <name>Parcel_Analysis_2580</name>
            <Link id="3703">
                <href>https://raw.githubusercontent.com/robmohammedmahid-stack/Horry-County-Data/Parcel_Analysis/KML-Output/Parcel_Analysis/Parcel_Analysis_2580.kml</href>
                <refreshMode>onChange</refreshMode>
            </Link>
        </NetworkLink>
        <NetworkLink id="3704">
            <name>Parcel_Analysis_2581</name>
            <Link id="3705">
                <href>https://raw.githubusercontent.com/robmohammedmahid-stack/Horry-County-Data/Parcel_Analysis/KML-Output/Parcel_Analysis/Parcel_Analysis_2581.kml</href>
                <refreshMode>onChange</refreshMode>
            </Link>
        </NetworkLink>
        <NetworkLink id="3706">
            <name>Parcel_Analysis_2582</name>
            <Link id="3707">
                <href>https://raw.githubusercontent.com/robmohammedmahid-stack/Horry-County-Data/Parcel_Analysis/KML-Output/Parcel_Analysis/Parcel_Analysis_2582.kml</href>
                <refreshMode>onChange</refreshMode>
            </Link>
        </NetworkLink>
        <NetworkLink id="3708">
            <name>Parcel_Analysis_2583</name>
            <Link id="3709">
                <href>https://raw.githubusercontent.com/robmohammedmahid-stack/Horry-County-Data/Parcel_Analysis/KML-Output/Parcel_Analysis/Parcel_Analysis_2583.kml</href>
                <refreshMode>onChange</refreshMode>
            </Link>
        </NetworkLink>
        <NetworkLink id="3710">
            <name>Parcel_Analysis_2584</name>
            <Link id="3711">
                <href>https://raw.githubusercontent.com/robmohammedmahid-stack/Horry-County-Data/Parcel_Analysis/KML-Output/Parcel_Analysis/Parcel_Analysis_2584.kml</href>
                <refreshMode>onChange</refreshMode>
            </Link>
        </NetworkLink>
        <NetworkLink id="3712">
            <name>Parcel_Analysis_2585</name>
            <Link id="3713">
                <href>https://raw.githubusercontent.com/robmohammedmahid-stack/Horry-County-Data/Parcel_Analysis/KML-Output/Parcel_Analysis/Parcel_Analysis_2585.kml</href>
                <refreshMode>onChange</refreshMode>
            </Link>
        </NetworkLink>
        <NetworkLink id="3714">
            <name>Parcel_Analysis_2586</name>
            <Link id="3715">
                <href>https://raw.githubusercontent.com/robmohammedmahid-stack/Horry-County-Data/Parcel_Analysis/KML-Output/Parcel_Analysis/Parcel_Analysis_2586.kml</href>
                <refreshMode>onChange</refreshMode>
            </Link>
        </NetworkLink>
        <NetworkLink id="3716">
            <name>Parcel_Analysis_2587</name>
            <Link id="3717">
                <href>https://raw.githubusercontent.com/robmohammedmahid-stack/Horry-County-Data/Parcel_Analysis/KML-Output/Parcel_Analysis/Parcel_Analysis_2587.kml</href>
                <refreshMode>onChange</refreshMode>
            </Link>
        </NetworkLink>
        <NetworkLink id="3718">
            <name>Parcel_Analysis_2588</name>
            <Link id="3719">
                <href>https://raw.githubusercontent.com/robmohammedmahid-stack/Horry-County-Data/Parcel_Analysis/KML-Output/Parcel_Analysis/Parcel_Analysis_2588.kml</href>
                <refreshMode>onChange</refreshMode>
            </Link>
        </NetworkLink>
        <NetworkLink id="3720">
            <name>Parcel_Analysis_2589</name>
            <Link id="3721">
                <href>https://raw.githubusercontent.com/robmohammedmahid-stack/Horry-County-Data/Parcel_Analysis/KML-Output/Parcel_Analysis/Parcel_Analysis_2589.kml</href>
                <refreshMode>onChange</refreshMode>
            </Link>
        </NetworkLink>
        <NetworkLink id="3722">
            <name>Parcel_Analysis_259</name>
            <Link id="3723">
                <href>https://raw.githubusercontent.com/robmohammedmahid-stack/Horry-County-Data/Parcel_Analysis/KML-Output/Parcel_Analysis/Parcel_Analysis_259.kml</href>
                <refreshMode>onChange</refreshMode>
            </Link>
        </NetworkLink>
        <NetworkLink id="3724">
            <name>Parcel_Analysis_2590</name>
            <Link id="3725">
                <href>https://raw.githubusercontent.com/robmohammedmahid-stack/Horry-County-Data/Parcel_Analysis/KML-Output/Parcel_Analysis/Parcel_Analysis_2590.kml</href>
                <refreshMode>onChange</refreshMode>
            </Link>
        </NetworkLink>
        <NetworkLink id="3726">
            <name>Parcel_Analysis_2591</name>
            <Link id="3727">
                <href>https://raw.githubusercontent.com/robmohammedmahid-stack/Horry-County-Data/Parcel_Analysis/KML-Output/Parcel_Analysis/Parcel_Analysis_2591.kml</href>
                <refreshMode>onChange</refreshMode>
            </Link>
        </NetworkLink>
        <NetworkLink id="3728">
            <name>Parcel_Analysis_2592</name>
            <Link id="3729">
                <href>https://raw.githubusercontent.com/robmohammedmahid-stack/Horry-County-Data/Parcel_Analysis/KML-Output/Parcel_Analysis/Parcel_Analysis_2592.kml</href>
                <refreshMode>onChange</refreshMode>
            </Link>
        </NetworkLink>
        <NetworkLink id="3730">
            <name>Parcel_Analysis_2593</name>
            <Link id="3731">
                <href>https://raw.githubusercontent.com/robmohammedmahid-stack/Horry-County-Data/Parcel_Analysis/KML-Output/Parcel_Analysis/Parcel_Analysis_2593.kml</href>
                <refreshMode>onChange</refreshMode>
            </Link>
        </NetworkLink>
        <NetworkLink id="3732">
            <name>Parcel_Analysis_2594</name>
            <Link id="3733">
                <href>https://raw.githubusercontent.com/robmohammedmahid-stack/Horry-County-Data/Parcel_Analysis/KML-Output/Parcel_Analysis/Parcel_Analysis_2594.kml</href>
                <refreshMode>onChange</refreshMode>
            </Link>
        </NetworkLink>
        <NetworkLink id="3734">
            <name>Parcel_Analysis_2595</name>
            <Link id="3735">
                <href>https://raw.githubusercontent.com/robmohammedmahid-stack/Horry-County-Data/Parcel_Analysis/KML-Output/Parcel_Analysis/Parcel_Analysis_2595.kml</href>
                <refreshMode>onChange</refreshMode>
            </Link>
        </NetworkLink>
        <NetworkLink id="3736">
            <name>Parcel_Analysis_2596</name>
            <Link id="3737">
                <href>https://raw.githubusercontent.com/robmohammedmahid-stack/Horry-County-Data/Parcel_Analysis/KML-Output/Parcel_Analysis/Parcel_Analysis_2596.kml</href>
                <refreshMode>onChange</refreshMode>
            </Link>
        </NetworkLink>
        <NetworkLink id="3738">
            <name>Parcel_Analysis_2597</name>
            <Link id="3739">
                <href>https://raw.githubusercontent.com/robmohammedmahid-stack/Horry-County-Data/Parcel_Analysis/KML-Output/Parcel_Analysis/Parcel_Analysis_2597.kml</href>
                <refreshMode>onChange</refreshMode>
            </Link>
        </NetworkLink>
        <NetworkLink id="3740">
            <name>Parcel_Analysis_2598</name>
            <Link id="3741">
                <href>https://raw.githubusercontent.com/robmohammedmahid-stack/Horry-County-Data/Parcel_Analysis/KML-Output/Parcel_Analysis/Parcel_Analysis_2598.kml</href>
                <refreshMode>onChange</refreshMode>
            </Link>
        </NetworkLink>
        <NetworkLink id="3742">
            <name>Parcel_Analysis_2599</name>
            <Link id="3743">
                <href>https://raw.githubusercontent.com/robmohammedmahid-stack/Horry-County-Data/Parcel_Analysis/KML-Output/Parcel_Analysis/Parcel_Analysis_2599.kml</href>
                <refreshMode>onChange</refreshMode>
            </Link>
        </NetworkLink>
        <NetworkLink id="3744">
            <name>Parcel_Analysis_260</name>
            <Link id="3745">
                <href>https://raw.githubusercontent.com/robmohammedmahid-stack/Horry-County-Data/Parcel_Analysis/KML-Output/Parcel_Analysis/Parcel_Analysis_260.kml</href>
                <refreshMode>onChange</refreshMode>
            </Link>
        </NetworkLink>
        <NetworkLink id="3746">
            <name>Parcel_Analysis_2600</name>
            <Link id="3747">
                <href>https://raw.githubusercontent.com/robmohammedmahid-stack/Horry-County-Data/Parcel_Analysis/KML-Output/Parcel_Analysis/Parcel_Analysis_2600.kml</href>
                <refreshMode>onChange</refreshMode>
            </Link>
        </NetworkLink>
        <NetworkLink id="3748">
            <name>Parcel_Analysis_2601</name>
            <Link id="3749">
                <href>https://raw.githubusercontent.com/robmohammedmahid-stack/Horry-County-Data/Parcel_Analysis/KML-Output/Parcel_Analysis/Parcel_Analysis_2601.kml</href>
                <refreshMode>onChange</refreshMode>
            </Link>
        </NetworkLink>
        <NetworkLink id="3750">
            <name>Parcel_Analysis_2602</name>
            <Link id="3751">
                <href>https://raw.githubusercontent.com/robmohammedmahid-stack/Horry-County-Data/Parcel_Analysis/KML-Output/Parcel_Analysis/Parcel_Analysis_2602.kml</href>
                <refreshMode>onChange</refreshMode>
            </Link>
        </NetworkLink>
        <NetworkLink id="3752">
            <name>Parcel_Analysis_2603</name>
            <Link id="3753">
                <href>https://raw.githubusercontent.com/robmohammedmahid-stack/Horry-County-Data/Parcel_Analysis/KML-Output/Parcel_Analysis/Parcel_Analysis_2603.kml</href>
                <refreshMode>onChange</refreshMode>
            </Link>
        </NetworkLink>
        <NetworkLink id="3754">
            <name>Parcel_Analysis_2604</name>
            <Link id="3755">
                <href>https://raw.githubusercontent.com/robmohammedmahid-stack/Horry-County-Data/Parcel_Analysis/KML-Output/Parcel_Analysis/Parcel_Analysis_2604.kml</href>
                <refreshMode>onChange</refreshMode>
            </Link>
        </NetworkLink>
        <NetworkLink id="3756">
            <name>Parcel_Analysis_2605</name>
            <Link id="3757">
                <href>https://raw.githubusercontent.com/robmohammedmahid-stack/Horry-County-Data/Parcel_Analysis/KML-Output/Parcel_Analysis/Parcel_Analysis_2605.kml</href>
                <refreshMode>onChange</refreshMode>
            </Link>
        </NetworkLink>
        <NetworkLink id="3758">
            <name>Parcel_Analysis_2606</name>
            <Link id="3759">
                <href>https://raw.githubusercontent.com/robmohammedmahid-stack/Horry-County-Data/Parcel_Analysis/KML-Output/Parcel_Analysis/Parcel_Analysis_2606.kml</href>
                <refreshMode>onChange</refreshMode>
            </Link>
        </NetworkLink>
        <NetworkLink id="3760">
            <name>Parcel_Analysis_2607</name>
            <Link id="3761">
                <href>https://raw.githubusercontent.com/robmohammedmahid-stack/Horry-County-Data/Parcel_Analysis/KML-Output/Parcel_Analysis/Parcel_Analysis_2607.kml</href>
                <refreshMode>onChange</refreshMode>
            </Link>
        </NetworkLink>
        <NetworkLink id="3762">
            <name>Parcel_Analysis_2608</name>
            <Link id="3763">
                <href>https://raw.githubusercontent.com/robmohammedmahid-stack/Horry-County-Data/Parcel_Analysis/KML-Output/Parcel_Analysis/Parcel_Analysis_2608.kml</href>
                <refreshMode>onChange</refreshMode>
            </Link>
        </NetworkLink>
        <NetworkLink id="3764">
            <name>Parcel_Analysis_2609</name>
            <Link id="3765">
                <href>https://raw.githubusercontent.com/robmohammedmahid-stack/Horry-County-Data/Parcel_Analysis/KML-Output/Parcel_Analysis/Parcel_Analysis_2609.kml</href>
                <refreshMode>onChange</refreshMode>
            </Link>
        </NetworkLink>
        <NetworkLink id="3766">
            <name>Parcel_Analysis_261</name>
            <Link id="3767">
                <href>https://raw.githubusercontent.com/robmohammedmahid-stack/Horry-County-Data/Parcel_Analysis/KML-Output/Parcel_Analysis/Parcel_Analysis_261.kml</href>
                <refreshMode>onChange</refreshMode>
            </Link>
        </NetworkLink>
        <NetworkLink id="3768">
            <name>Parcel_Analysis_2610</name>
            <Link id="3769">
                <href>https://raw.githubusercontent.com/robmohammedmahid-stack/Horry-County-Data/Parcel_Analysis/KML-Output/Parcel_Analysis/Parcel_Analysis_2610.kml</href>
                <refreshMode>onChange</refreshMode>
            </Link>
        </NetworkLink>
        <NetworkLink id="3770">
            <name>Parcel_Analysis_2611</name>
            <Link id="3771">
                <href>https://raw.githubusercontent.com/robmohammedmahid-stack/Horry-County-Data/Parcel_Analysis/KML-Output/Parcel_Analysis/Parcel_Analysis_2611.kml</href>
                <refreshMode>onChange</refreshMode>
            </Link>
        </NetworkLink>
        <NetworkLink id="3772">
            <name>Parcel_Analysis_2612</name>
            <Link id="3773">
                <href>https://raw.githubusercontent.com/robmohammedmahid-stack/Horry-County-Data/Parcel_Analysis/KML-Output/Parcel_Analysis/Parcel_Analysis_2612.kml</href>
                <refreshMode>onChange</refreshMode>
            </Link>
        </NetworkLink>
        <NetworkLink id="3774">
            <name>Parcel_Analysis_2613</name>
            <Link id="3775">
                <href>https://raw.githubusercontent.com/robmohammedmahid-stack/Horry-County-Data/Parcel_Analysis/KML-Output/Parcel_Analysis/Parcel_Analysis_2613.kml</href>
                <refreshMode>onChange</refreshMode>
            </Link>
        </NetworkLink>
        <NetworkLink id="3776">
            <name>Parcel_Analysis_2614</name>
            <Link id="3777">
                <href>https://raw.githubusercontent.com/robmohammedmahid-stack/Horry-County-Data/Parcel_Analysis/KML-Output/Parcel_Analysis/Parcel_Analysis_2614.kml</href>
                <refreshMode>onChange</refreshMode>
            </Link>
        </NetworkLink>
        <NetworkLink id="3778">
            <name>Parcel_Analysis_2615</name>
            <Link id="3779">
                <href>https://raw.githubusercontent.com/robmohammedmahid-stack/Horry-County-Data/Parcel_Analysis/KML-Output/Parcel_Analysis/Parcel_Analysis_2615.kml</href>
                <refreshMode>onChange</refreshMode>
            </Link>
        </NetworkLink>
        <NetworkLink id="3780">
            <name>Parcel_Analysis_2616</name>
            <Link id="3781">
                <href>https://raw.githubusercontent.com/robmohammedmahid-stack/Horry-County-Data/Parcel_Analysis/KML-Output/Parcel_Analysis/Parcel_Analysis_2616.kml</href>
                <refreshMode>onChange</refreshMode>
            </Link>
        </NetworkLink>
        <NetworkLink id="3782">
            <name>Parcel_Analysis_2617</name>
            <Link id="3783">
                <href>https://raw.githubusercontent.com/robmohammedmahid-stack/Horry-County-Data/Parcel_Analysis/KML-Output/Parcel_Analysis/Parcel_Analysis_2617.kml</href>
                <refreshMode>onChange</refreshMode>
            </Link>
        </NetworkLink>
        <NetworkLink id="3784">
            <name>Parcel_Analysis_2618</name>
            <Link id="3785">
                <href>https://raw.githubusercontent.com/robmohammedmahid-stack/Horry-County-Data/Parcel_Analysis/KML-Output/Parcel_Analysis/Parcel_Analysis_2618.kml</href>
                <refreshMode>onChange</refreshMode>
            </Link>
        </NetworkLink>
        <NetworkLink id="3786">
            <name>Parcel_Analysis_2619</name>
            <Link id="3787">
                <href>https://raw.githubusercontent.com/robmohammedmahid-stack/Horry-County-Data/Parcel_Analysis/KML-Output/Parcel_Analysis/Parcel_Analysis_2619.kml</href>
                <refreshMode>onChange</refreshMode>
            </Link>
        </NetworkLink>
        <NetworkLink id="3788">
            <name>Parcel_Analysis_262</name>
            <Link id="3789">
                <href>https://raw.githubusercontent.com/robmohammedmahid-stack/Horry-County-Data/Parcel_Analysis/KML-Output/Parcel_Analysis/Parcel_Analysis_262.kml</href>
                <refreshMode>onChange</refreshMode>
            </Link>
        </NetworkLink>
        <NetworkLink id="3790">
            <name>Parcel_Analysis_2620</name>
            <Link id="3791">
                <href>https://raw.githubusercontent.com/robmohammedmahid-stack/Horry-County-Data/Parcel_Analysis/KML-Output/Parcel_Analysis/Parcel_Analysis_2620.kml</href>
                <refreshMode>onChange</refreshMode>
            </Link>
        </NetworkLink>
        <NetworkLink id="3792">
            <name>Parcel_Analysis_2621</name>
            <Link id="3793">
                <href>https://raw.githubusercontent.com/robmohammedmahid-stack/Horry-County-Data/Parcel_Analysis/KML-Output/Parcel_Analysis/Parcel_Analysis_2621.kml</href>
                <refreshMode>onChange</refreshMode>
            </Link>
        </NetworkLink>
        <NetworkLink id="3794">
            <name>Parcel_Analysis_2622</name>
            <Link id="3795">
                <href>https://raw.githubusercontent.com/robmohammedmahid-stack/Horry-County-Data/Parcel_Analysis/KML-Output/Parcel_Analysis/Parcel_Analysis_2622.kml</href>
                <refreshMode>onChange</refreshMode>
            </Link>
        </NetworkLink>
        <NetworkLink id="3796">
            <name>Parcel_Analysis_2623</name>
            <Link id="3797">
                <href>https://raw.githubusercontent.com/robmohammedmahid-stack/Horry-County-Data/Parcel_Analysis/KML-Output/Parcel_Analysis/Parcel_Analysis_2623.kml</href>
                <refreshMode>onChange</refreshMode>
            </Link>
        </NetworkLink>
        <NetworkLink id="3798">
            <name>Parcel_Analysis_2624</name>
            <Link id="3799">
                <href>https://raw.githubusercontent.com/robmohammedmahid-stack/Horry-County-Data/Parcel_Analysis/KML-Output/Parcel_Analysis/Parcel_Analysis_2624.kml</href>
                <refreshMode>onChange</refreshMode>
            </Link>
        </NetworkLink>
        <NetworkLink id="3800">
            <name>Parcel_Analysis_2625</name>
            <Link id="3801">
                <href>https://raw.githubusercontent.com/robmohammedmahid-stack/Horry-County-Data/Parcel_Analysis/KML-Output/Parcel_Analysis/Parcel_Analysis_2625.kml</href>
                <refreshMode>onChange</refreshMode>
            </Link>
        </NetworkLink>
        <NetworkLink id="3802">
            <name>Parcel_Analysis_2626</name>
            <Link id="3803">
                <href>https://raw.githubusercontent.com/robmohammedmahid-stack/Horry-County-Data/Parcel_Analysis/KML-Output/Parcel_Analysis/Parcel_Analysis_2626.kml</href>
                <refreshMode>onChange</refreshMode>
            </Link>
        </NetworkLink>
        <NetworkLink id="3804">
            <name>Parcel_Analysis_2627</name>
            <Link id="3805">
                <href>https://raw.githubusercontent.com/robmohammedmahid-stack/Horry-County-Data/Parcel_Analysis/KML-Output/Parcel_Analysis/Parcel_Analysis_2627.kml</href>
                <refreshMode>onChange</refreshMode>
            </Link>
        </NetworkLink>
        <NetworkLink id="3806">
            <name>Parcel_Analysis_2628</name>
            <Link id="3807">
                <href>https://raw.githubusercontent.com/robmohammedmahid-stack/Horry-County-Data/Parcel_Analysis/KML-Output/Parcel_Analysis/Parcel_Analysis_2628.kml</href>
                <refreshMode>onChange</refreshMode>
            </Link>
        </NetworkLink>
        <NetworkLink id="3808">
            <name>Parcel_Analysis_2629</name>
            <Link id="3809">
                <href>https://raw.githubusercontent.com/robmohammedmahid-stack/Horry-County-Data/Parcel_Analysis/KML-Output/Parcel_Analysis/Parcel_Analysis_2629.kml</href>
                <refreshMode>onChange</refreshMode>
            </Link>
        </NetworkLink>
        <NetworkLink id="3810">
            <name>Parcel_Analysis_263</name>
            <Link id="3811">
                <href>https://raw.githubusercontent.com/robmohammedmahid-stack/Horry-County-Data/Parcel_Analysis/KML-Output/Parcel_Analysis/Parcel_Analysis_263.kml</href>
                <refreshMode>onChange</refreshMode>
            </Link>
        </NetworkLink>
        <NetworkLink id="3812">
            <name>Parcel_Analysis_2630</name>
            <Link id="3813">
                <href>https://raw.githubusercontent.com/robmohammedmahid-stack/Horry-County-Data/Parcel_Analysis/KML-Output/Parcel_Analysis/Parcel_Analysis_2630.kml</href>
                <refreshMode>onChange</refreshMode>
            </Link>
        </NetworkLink>
        <NetworkLink id="3814">
            <name>Parcel_Analysis_2631</name>
            <Link id="3815">
                <href>https://raw.githubusercontent.com/robmohammedmahid-stack/Horry-County-Data/Parcel_Analysis/KML-Output/Parcel_Analysis/Parcel_Analysis_2631.kml</href>
                <refreshMode>onChange</refreshMode>
            </Link>
        </NetworkLink>
        <NetworkLink id="3816">
            <name>Parcel_Analysis_2632</name>
            <Link id="3817">
                <href>https://raw.githubusercontent.com/robmohammedmahid-stack/Horry-County-Data/Parcel_Analysis/KML-Output/Parcel_Analysis/Parcel_Analysis_2632.kml</href>
                <refreshMode>onChange</refreshMode>
            </Link>
        </NetworkLink>
        <NetworkLink id="3818">
            <name>Parcel_Analysis_2633</name>
            <Link id="3819">
                <href>https://raw.githubusercontent.com/robmohammedmahid-stack/Horry-County-Data/Parcel_Analysis/KML-Output/Parcel_Analysis/Parcel_Analysis_2633.kml</href>
                <refreshMode>onChange</refreshMode>
            </Link>
        </NetworkLink>
        <NetworkLink id="3820">
            <name>Parcel_Analysis_2634</name>
            <Link id="3821">
                <href>https://raw.githubusercontent.com/robmohammedmahid-stack/Horry-County-Data/Parcel_Analysis/KML-Output/Parcel_Analysis/Parcel_Analysis_2634.kml</href>
                <refreshMode>onChange</refreshMode>
            </Link>
        </NetworkLink>
        <NetworkLink id="3822">
            <name>Parcel_Analysis_2635</name>
            <Link id="3823">
                <href>https://raw.githubusercontent.com/robmohammedmahid-stack/Horry-County-Data/Parcel_Analysis/KML-Output/Parcel_Analysis/Parcel_Analysis_2635.kml</href>
                <refreshMode>onChange</refreshMode>
            </Link>
        </NetworkLink>
        <NetworkLink id="3824">
            <name>Parcel_Analysis_2636</name>
            <Link id="3825">
                <href>https://raw.githubusercontent.com/robmohammedmahid-stack/Horry-County-Data/Parcel_Analysis/KML-Output/Parcel_Analysis/Parcel_Analysis_2636.kml</href>
                <refreshMode>onChange</refreshMode>
            </Link>
        </NetworkLink>
        <NetworkLink id="3826">
            <name>Parcel_Analysis_2637</name>
            <Link id="3827">
                <href>https://raw.githubusercontent.com/robmohammedmahid-stack/Horry-County-Data/Parcel_Analysis/KML-Output/Parcel_Analysis/Parcel_Analysis_2637.kml</href>
                <refreshMode>onChange</refreshMode>
            </Link>
        </NetworkLink>
        <NetworkLink id="3828">
            <name>Parcel_Analysis_2638</name>
            <Link id="3829">
                <href>https://raw.githubusercontent.com/robmohammedmahid-stack/Horry-County-Data/Parcel_Analysis/KML-Output/Parcel_Analysis/Parcel_Analysis_2638.kml</href>
                <refreshMode>onChange</refreshMode>
            </Link>
        </NetworkLink>
        <NetworkLink id="3830">
            <name>Parcel_Analysis_2639</name>
            <Link id="3831">
                <href>https://raw.githubusercontent.com/robmohammedmahid-stack/Horry-County-Data/Parcel_Analysis/KML-Output/Parcel_Analysis/Parcel_Analysis_2639.kml</href>
                <refreshMode>onChange</refreshMode>
            </Link>
        </NetworkLink>
        <NetworkLink id="3832">
            <name>Parcel_Analysis_264</name>
            <Link id="3833">
                <href>https://raw.githubusercontent.com/robmohammedmahid-stack/Horry-County-Data/Parcel_Analysis/KML-Output/Parcel_Analysis/Parcel_Analysis_264.kml</href>
                <refreshMode>onChange</refreshMode>
            </Link>
        </NetworkLink>
        <NetworkLink id="3834">
            <name>Parcel_Analysis_2640</name>
            <Link id="3835">
                <href>https://raw.githubusercontent.com/robmohammedmahid-stack/Horry-County-Data/Parcel_Analysis/KML-Output/Parcel_Analysis/Parcel_Analysis_2640.kml</href>
                <refreshMode>onChange</refreshMode>
            </Link>
        </NetworkLink>
        <NetworkLink id="3836">
            <name>Parcel_Analysis_2641</name>
            <Link id="3837">
                <href>https://raw.githubusercontent.com/robmohammedmahid-stack/Horry-County-Data/Parcel_Analysis/KML-Output/Parcel_Analysis/Parcel_Analysis_2641.kml</href>
                <refreshMode>onChange</refreshMode>
            </Link>
        </NetworkLink>
        <NetworkLink id="3838">
            <name>Parcel_Analysis_2642</name>
            <Link id="3839">
                <href>https://raw.githubusercontent.com/robmohammedmahid-stack/Horry-County-Data/Parcel_Analysis/KML-Output/Parcel_Analysis/Parcel_Analysis_2642.kml</href>
                <refreshMode>onChange</refreshMode>
            </Link>
        </NetworkLink>
        <NetworkLink id="3840">
            <name>Parcel_Analysis_2643</name>
            <Link id="3841">
                <href>https://raw.githubusercontent.com/robmohammedmahid-stack/Horry-County-Data/Parcel_Analysis/KML-Output/Parcel_Analysis/Parcel_Analysis_2643.kml</href>
                <refreshMode>onChange</refreshMode>
            </Link>
        </NetworkLink>
        <NetworkLink id="3842">
            <name>Parcel_Analysis_2644</name>
            <Link id="3843">
                <href>https://raw.githubusercontent.com/robmohammedmahid-stack/Horry-County-Data/Parcel_Analysis/KML-Output/Parcel_Analysis/Parcel_Analysis_2644.kml</href>
                <refreshMode>onChange</refreshMode>
            </Link>
        </NetworkLink>
        <NetworkLink id="3844">
            <name>Parcel_Analysis_2645</name>
            <Link id="3845">
                <href>https://raw.githubusercontent.com/robmohammedmahid-stack/Horry-County-Data/Parcel_Analysis/KML-Output/Parcel_Analysis/Parcel_Analysis_2645.kml</href>
                <refreshMode>onChange</refreshMode>
            </Link>
        </NetworkLink>
        <NetworkLink id="3846">
            <name>Parcel_Analysis_2646</name>
            <Link id="3847">
                <href>https://raw.githubusercontent.com/robmohammedmahid-stack/Horry-County-Data/Parcel_Analysis/KML-Output/Parcel_Analysis/Parcel_Analysis_2646.kml</href>
                <refreshMode>onChange</refreshMode>
            </Link>
        </NetworkLink>
        <NetworkLink id="3848">
            <name>Parcel_Analysis_2647</name>
            <Link id="3849">
                <href>https://raw.githubusercontent.com/robmohammedmahid-stack/Horry-County-Data/Parcel_Analysis/KML-Output/Parcel_Analysis/Parcel_Analysis_2647.kml</href>
                <refreshMode>onChange</refreshMode>
            </Link>
        </NetworkLink>
        <NetworkLink id="3850">
            <name>Parcel_Analysis_2648</name>
            <Link id="3851">
                <href>https://raw.githubusercontent.com/robmohammedmahid-stack/Horry-County-Data/Parcel_Analysis/KML-Output/Parcel_Analysis/Parcel_Analysis_2648.kml</href>
                <refreshMode>onChange</refreshMode>
            </Link>
        </NetworkLink>
        <NetworkLink id="3852">
            <name>Parcel_Analysis_2649</name>
            <Link id="3853">
                <href>https://raw.githubusercontent.com/robmohammedmahid-stack/Horry-County-Data/Parcel_Analysis/KML-Output/Parcel_Analysis/Parcel_Analysis_2649.kml</href>
                <refreshMode>onChange</refreshMode>
            </Link>
        </NetworkLink>
        <NetworkLink id="3854">
            <name>Parcel_Analysis_265</name>
            <Link id="3855">
                <href>https://raw.githubusercontent.com/robmohammedmahid-stack/Horry-County-Data/Parcel_Analysis/KML-Output/Parcel_Analysis/Parcel_Analysis_265.kml</href>
                <refreshMode>onChange</refreshMode>
            </Link>
        </NetworkLink>
        <NetworkLink id="3856">
            <name>Parcel_Analysis_2650</name>
            <Link id="3857">
                <href>https://raw.githubusercontent.com/robmohammedmahid-stack/Horry-County-Data/Parcel_Analysis/KML-Output/Parcel_Analysis/Parcel_Analysis_2650.kml</href>
                <refreshMode>onChange</refreshMode>
            </Link>
        </NetworkLink>
        <NetworkLink id="3858">
            <name>Parcel_Analysis_2651</name>
            <Link id="3859">
                <href>https://raw.githubusercontent.com/robmohammedmahid-stack/Horry-County-Data/Parcel_Analysis/KML-Output/Parcel_Analysis/Parcel_Analysis_2651.kml</href>
                <refreshMode>onChange</refreshMode>
            </Link>
        </NetworkLink>
        <NetworkLink id="3860">
            <name>Parcel_Analysis_2652</name>
            <Link id="3861">
                <href>https://raw.githubusercontent.com/robmohammedmahid-stack/Horry-County-Data/Parcel_Analysis/KML-Output/Parcel_Analysis/Parcel_Analysis_2652.kml</href>
                <refreshMode>onChange</refreshMode>
            </Link>
        </NetworkLink>
        <NetworkLink id="3862">
            <name>Parcel_Analysis_2653</name>
            <Link id="3863">
                <href>https://raw.githubusercontent.com/robmohammedmahid-stack/Horry-County-Data/Parcel_Analysis/KML-Output/Parcel_Analysis/Parcel_Analysis_2653.kml</href>
                <refreshMode>onChange</refreshMode>
            </Link>
        </NetworkLink>
        <NetworkLink id="3864">
            <name>Parcel_Analysis_2654</name>
            <Link id="3865">
                <href>https://raw.githubusercontent.com/robmohammedmahid-stack/Horry-County-Data/Parcel_Analysis/KML-Output/Parcel_Analysis/Parcel_Analysis_2654.kml</href>
                <refreshMode>onChange</refreshMode>
            </Link>
        </NetworkLink>
        <NetworkLink id="3866">
            <name>Parcel_Analysis_2655</name>
            <Link id="3867">
                <href>https://raw.githubusercontent.com/robmohammedmahid-stack/Horry-County-Data/Parcel_Analysis/KML-Output/Parcel_Analysis/Parcel_Analysis_2655.kml</href>
                <refreshMode>onChange</refreshMode>
            </Link>
        </NetworkLink>
        <NetworkLink id="3868">
            <name>Parcel_Analysis_2656</name>
            <Link id="3869">
                <href>https://raw.githubusercontent.com/robmohammedmahid-stack/Horry-County-Data/Parcel_Analysis/KML-Output/Parcel_Analysis/Parcel_Analysis_2656.kml</href>
                <refreshMode>onChange</refreshMode>
            </Link>
        </NetworkLink>
        <NetworkLink id="3870">
            <name>Parcel_Analysis_2657</name>
            <Link id="3871">
                <href>https://raw.githubusercontent.com/robmohammedmahid-stack/Horry-County-Data/Parcel_Analysis/KML-Output/Parcel_Analysis/Parcel_Analysis_2657.kml</href>
                <refreshMode>onChange</refreshMode>
            </Link>
        </NetworkLink>
        <NetworkLink id="3872">
            <name>Parcel_Analysis_2658</name>
            <Link id="3873">
                <href>https://raw.githubusercontent.com/robmohammedmahid-stack/Horry-County-Data/Parcel_Analysis/KML-Output/Parcel_Analysis/Parcel_Analysis_2658.kml</href>
                <refreshMode>onChange</refreshMode>
            </Link>
        </NetworkLink>
        <NetworkLink id="3874">
            <name>Parcel_Analysis_2659</name>
            <Link id="3875">
                <href>https://raw.githubusercontent.com/robmohammedmahid-stack/Horry-County-Data/Parcel_Analysis/KML-Output/Parcel_Analysis/Parcel_Analysis_2659.kml</href>
                <refreshMode>onChange</refreshMode>
            </Link>
        </NetworkLink>
        <NetworkLink id="3876">
            <name>Parcel_Analysis_266</name>
            <Link id="3877">
                <href>https://raw.githubusercontent.com/robmohammedmahid-stack/Horry-County-Data/Parcel_Analysis/KML-Output/Parcel_Analysis/Parcel_Analysis_266.kml</href>
                <refreshMode>onChange</refreshMode>
            </Link>
        </NetworkLink>
        <NetworkLink id="3878">
            <name>Parcel_Analysis_2660</name>
            <Link id="3879">
                <href>https://raw.githubusercontent.com/robmohammedmahid-stack/Horry-County-Data/Parcel_Analysis/KML-Output/Parcel_Analysis/Parcel_Analysis_2660.kml</href>
                <refreshMode>onChange</refreshMode>
            </Link>
        </NetworkLink>
        <NetworkLink id="3880">
            <name>Parcel_Analysis_2661</name>
            <Link id="3881">
                <href>https://raw.githubusercontent.com/robmohammedmahid-stack/Horry-County-Data/Parcel_Analysis/KML-Output/Parcel_Analysis/Parcel_Analysis_2661.kml</href>
                <refreshMode>onChange</refreshMode>
            </Link>
        </NetworkLink>
        <NetworkLink id="3882">
            <name>Parcel_Analysis_2662</name>
            <Link id="3883">
                <href>https://raw.githubusercontent.com/robmohammedmahid-stack/Horry-County-Data/Parcel_Analysis/KML-Output/Parcel_Analysis/Parcel_Analysis_2662.kml</href>
                <refreshMode>onChange</refreshMode>
            </Link>
        </NetworkLink>
        <NetworkLink id="3884">
            <name>Parcel_Analysis_2663</name>
            <Link id="3885">
                <href>https://raw.githubusercontent.com/robmohammedmahid-stack/Horry-County-Data/Parcel_Analysis/KML-Output/Parcel_Analysis/Parcel_Analysis_2663.kml</href>
                <refreshMode>onChange</refreshMode>
            </Link>
        </NetworkLink>
        <NetworkLink id="3886">
            <name>Parcel_Analysis_2664</name>
            <Link id="3887">
                <href>https://raw.githubusercontent.com/robmohammedmahid-stack/Horry-County-Data/Parcel_Analysis/KML-Output/Parcel_Analysis/Parcel_Analysis_2664.kml</href>
                <refreshMode>onChange</refreshMode>
            </Link>
        </NetworkLink>
        <NetworkLink id="3888">
            <name>Parcel_Analysis_2665</name>
            <Link id="3889">
                <href>https://raw.githubusercontent.com/robmohammedmahid-stack/Horry-County-Data/Parcel_Analysis/KML-Output/Parcel_Analysis/Parcel_Analysis_2665.kml</href>
                <refreshMode>onChange</refreshMode>
            </Link>
        </NetworkLink>
        <NetworkLink id="3890">
            <name>Parcel_Analysis_2666</name>
            <Link id="3891">
                <href>https://raw.githubusercontent.com/robmohammedmahid-stack/Horry-County-Data/Parcel_Analysis/KML-Output/Parcel_Analysis/Parcel_Analysis_2666.kml</href>
                <refreshMode>onChange</refreshMode>
            </Link>
        </NetworkLink>
        <NetworkLink id="3892">
            <name>Parcel_Analysis_2667</name>
            <Link id="3893">
                <href>https://raw.githubusercontent.com/robmohammedmahid-stack/Horry-County-Data/Parcel_Analysis/KML-Output/Parcel_Analysis/Parcel_Analysis_2667.kml</href>
                <refreshMode>onChange</refreshMode>
            </Link>
        </NetworkLink>
        <NetworkLink id="3894">
            <name>Parcel_Analysis_2668</name>
            <Link id="3895">
                <href>https://raw.githubusercontent.com/robmohammedmahid-stack/Horry-County-Data/Parcel_Analysis/KML-Output/Parcel_Analysis/Parcel_Analysis_2668.kml</href>
                <refreshMode>onChange</refreshMode>
            </Link>
        </NetworkLink>
        <NetworkLink id="3896">
            <name>Parcel_Analysis_2669</name>
            <Link id="3897">
                <href>https://raw.githubusercontent.com/robmohammedmahid-stack/Horry-County-Data/Parcel_Analysis/KML-Output/Parcel_Analysis/Parcel_Analysis_2669.kml</href>
                <refreshMode>onChange</refreshMode>
            </Link>
        </NetworkLink>
        <NetworkLink id="3898">
            <name>Parcel_Analysis_267</name>
            <Link id="3899">
                <href>https://raw.githubusercontent.com/robmohammedmahid-stack/Horry-County-Data/Parcel_Analysis/KML-Output/Parcel_Analysis/Parcel_Analysis_267.kml</href>
                <refreshMode>onChange</refreshMode>
            </Link>
        </NetworkLink>
        <NetworkLink id="3900">
            <name>Parcel_Analysis_2670</name>
            <Link id="3901">
                <href>https://raw.githubusercontent.com/robmohammedmahid-stack/Horry-County-Data/Parcel_Analysis/KML-Output/Parcel_Analysis/Parcel_Analysis_2670.kml</href>
                <refreshMode>onChange</refreshMode>
            </Link>
        </NetworkLink>
        <NetworkLink id="3902">
            <name>Parcel_Analysis_2671</name>
            <Link id="3903">
                <href>https://raw.githubusercontent.com/robmohammedmahid-stack/Horry-County-Data/Parcel_Analysis/KML-Output/Parcel_Analysis/Parcel_Analysis_2671.kml</href>
                <refreshMode>onChange</refreshMode>
            </Link>
        </NetworkLink>
        <NetworkLink id="3904">
            <name>Parcel_Analysis_2672</name>
            <Link id="3905">
                <href>https://raw.githubusercontent.com/robmohammedmahid-stack/Horry-County-Data/Parcel_Analysis/KML-Output/Parcel_Analysis/Parcel_Analysis_2672.kml</href>
                <refreshMode>onChange</refreshMode>
            </Link>
        </NetworkLink>
        <NetworkLink id="3906">
            <name>Parcel_Analysis_2673</name>
            <Link id="3907">
                <href>https://raw.githubusercontent.com/robmohammedmahid-stack/Horry-County-Data/Parcel_Analysis/KML-Output/Parcel_Analysis/Parcel_Analysis_2673.kml</href>
                <refreshMode>onChange</refreshMode>
            </Link>
        </NetworkLink>
        <NetworkLink id="3908">
            <name>Parcel_Analysis_2674</name>
            <Link id="3909">
                <href>https://raw.githubusercontent.com/robmohammedmahid-stack/Horry-County-Data/Parcel_Analysis/KML-Output/Parcel_Analysis/Parcel_Analysis_2674.kml</href>
                <refreshMode>onChange</refreshMode>
            </Link>
        </NetworkLink>
        <NetworkLink id="3910">
            <name>Parcel_Analysis_2675</name>
            <Link id="3911">
                <href>https://raw.githubusercontent.com/robmohammedmahid-stack/Horry-County-Data/Parcel_Analysis/KML-Output/Parcel_Analysis/Parcel_Analysis_2675.kml</href>
                <refreshMode>onChange</refreshMode>
            </Link>
        </NetworkLink>
        <NetworkLink id="3912">
            <name>Parcel_Analysis_2676</name>
            <Link id="3913">
                <href>https://raw.githubusercontent.com/robmohammedmahid-stack/Horry-County-Data/Parcel_Analysis/KML-Output/Parcel_Analysis/Parcel_Analysis_2676.kml</href>
                <refreshMode>onChange</refreshMode>
            </Link>
        </NetworkLink>
        <NetworkLink id="3914">
            <name>Parcel_Analysis_2677</name>
            <Link id="3915">
                <href>https://raw.githubusercontent.com/robmohammedmahid-stack/Horry-County-Data/Parcel_Analysis/KML-Output/Parcel_Analysis/Parcel_Analysis_2677.kml</href>
                <refreshMode>onChange</refreshMode>
            </Link>
        </NetworkLink>
        <NetworkLink id="3916">
            <name>Parcel_Analysis_2678</name>
            <Link id="3917">
                <href>https://raw.githubusercontent.com/robmohammedmahid-stack/Horry-County-Data/Parcel_Analysis/KML-Output/Parcel_Analysis/Parcel_Analysis_2678.kml</href>
                <refreshMode>onChange</refreshMode>
            </Link>
        </NetworkLink>
        <NetworkLink id="3918">
            <name>Parcel_Analysis_2679</name>
            <Link id="3919">
                <href>https://raw.githubusercontent.com/robmohammedmahid-stack/Horry-County-Data/Parcel_Analysis/KML-Output/Parcel_Analysis/Parcel_Analysis_2679.kml</href>
                <refreshMode>onChange</refreshMode>
            </Link>
        </NetworkLink>
        <NetworkLink id="3920">
            <name>Parcel_Analysis_268</name>
            <Link id="3921">
                <href>https://raw.githubusercontent.com/robmohammedmahid-stack/Horry-County-Data/Parcel_Analysis/KML-Output/Parcel_Analysis/Parcel_Analysis_268.kml</href>
                <refreshMode>onChange</refreshMode>
            </Link>
        </NetworkLink>
        <NetworkLink id="3922">
            <name>Parcel_Analysis_2680</name>
            <Link id="3923">
                <href>https://raw.githubusercontent.com/robmohammedmahid-stack/Horry-County-Data/Parcel_Analysis/KML-Output/Parcel_Analysis/Parcel_Analysis_2680.kml</href>
                <refreshMode>onChange</refreshMode>
            </Link>
        </NetworkLink>
        <NetworkLink id="3924">
            <name>Parcel_Analysis_2681</name>
            <Link id="3925">
                <href>https://raw.githubusercontent.com/robmohammedmahid-stack/Horry-County-Data/Parcel_Analysis/KML-Output/Parcel_Analysis/Parcel_Analysis_2681.kml</href>
                <refreshMode>onChange</refreshMode>
            </Link>
        </NetworkLink>
    </Document>
</kml>
