<?xml version="1.0" encoding="UTF-8"?>
<kml xmlns="http://www.opengis.net/kml/2.2" xmlns:gx="http://www.google.com/kml/ext/2.2">
    <Document id="1511">
        <NetworkLink id="1512">
            <name>Parcel_Analysis_1591</name>
            <Link id="1513">
                <href>https://raw.githubusercontent.com/robmohammedmahid-stack/Horry-County-Data/Parcel_Analysis/KML-Output/Parcel_Analysis/Parcel_Analysis_1591.kml</href>
                <refreshMode>onChange</refreshMode>
            </Link>
        </NetworkLink>
        <NetworkLink id="1514">
            <name>Parcel_Analysis_1592</name>
            <Link id="1515">
                <href>https://raw.githubusercontent.com/robmohammedmahid-stack/Horry-County-Data/Parcel_Analysis/KML-Output/Parcel_Analysis/Parcel_Analysis_1592.kml</href>
                <refreshMode>onChange</refreshMode>
            </Link>
        </NetworkLink>
        <NetworkLink id="1516">
            <name>Parcel_Analysis_1593</name>
            <Link id="1517">
                <href>https://raw.githubusercontent.com/robmohammedmahid-stack/Horry-County-Data/Parcel_Analysis/KML-Output/Parcel_Analysis/Parcel_Analysis_1593.kml</href>
                <refreshMode>onChange</refreshMode>
            </Link>
        </NetworkLink>
        <NetworkLink id="1518">
            <name>Parcel_Analysis_1594</name>
            <Link id="1519">
                <href>https://raw.githubusercontent.com/robmohammedmahid-stack/Horry-County-Data/Parcel_Analysis/KML-Output/Parcel_Analysis/Parcel_Analysis_1594.kml</href>
                <refreshMode>onChange</refreshMode>
            </Link>
        </NetworkLink>
        <NetworkLink id="1520">
            <name>Parcel_Analysis_1595</name>
            <Link id="1521">
                <href>https://raw.githubusercontent.com/robmohammedmahid-stack/Horry-County-Data/Parcel_Analysis/KML-Output/Parcel_Analysis/Parcel_Analysis_1595.kml</href>
                <refreshMode>onChange</refreshMode>
            </Link>
        </NetworkLink>
        <NetworkLink id="1522">
            <name>Parcel_Analysis_1596</name>
            <Link id="1523">
                <href>https://raw.githubusercontent.com/robmohammedmahid-stack/Horry-County-Data/Parcel_Analysis/KML-Output/Parcel_Analysis/Parcel_Analysis_1596.kml</href>
                <refreshMode>onChange</refreshMode>
            </Link>
        </NetworkLink>
        <NetworkLink id="1524">
            <name>Parcel_Analysis_1597</name>
            <Link id="1525">
                <href>https://raw.githubusercontent.com/robmohammedmahid-stack/Horry-County-Data/Parcel_Analysis/KML-Output/Parcel_Analysis/Parcel_Analysis_1597.kml</href>
                <refreshMode>onChange</refreshMode>
            </Link>
        </NetworkLink>
        <NetworkLink id="1526">
            <name>Parcel_Analysis_1598</name>
            <Link id="1527">
                <href>https://raw.githubusercontent.com/robmohammedmahid-stack/Horry-County-Data/Parcel_Analysis/KML-Output/Parcel_Analysis/Parcel_Analysis_1598.kml</href>
                <refreshMode>onChange</refreshMode>
            </Link>
        </NetworkLink>
        <NetworkLink id="1528">
            <name>Parcel_Analysis_1599</name>
            <Link id="1529">
                <href>https://raw.githubusercontent.com/robmohammedmahid-stack/Horry-County-Data/Parcel_Analysis/KML-Output/Parcel_Analysis/Parcel_Analysis_1599.kml</href>
                <refreshMode>onChange</refreshMode>
            </Link>
        </NetworkLink>
        <NetworkLink id="1530">
            <name>Parcel_Analysis_160</name>
            <Link id="1531">
                <href>https://raw.githubusercontent.com/robmohammedmahid-stack/Horry-County-Data/Parcel_Analysis/KML-Output/Parcel_Analysis/Parcel_Analysis_160.kml</href>
                <refreshMode>onChange</refreshMode>
            </Link>
        </NetworkLink>
        <NetworkLink id="1532">
            <name>Parcel_Analysis_1600</name>
            <Link id="1533">
                <href>https://raw.githubusercontent.com/robmohammedmahid-stack/Horry-County-Data/Parcel_Analysis/KML-Output/Parcel_Analysis/Parcel_Analysis_1600.kml</href>
                <refreshMode>onChange</refreshMode>
            </Link>
        </NetworkLink>
        <NetworkLink id="1534">
            <name>Parcel_Analysis_1601</name>
            <Link id="1535">
                <href>https://raw.githubusercontent.com/robmohammedmahid-stack/Horry-County-Data/Parcel_Analysis/KML-Output/Parcel_Analysis/Parcel_Analysis_1601.kml</href>
                <refreshMode>onChange</refreshMode>
            </Link>
        </NetworkLink>
        <NetworkLink id="1536">
            <name>Parcel_Analysis_1602</name>
            <Link id="1537">
                <href>https://raw.githubusercontent.com/robmohammedmahid-stack/Horry-County-Data/Parcel_Analysis/KML-Output/Parcel_Analysis/Parcel_Analysis_1602.kml</href>
                <refreshMode>onChange</refreshMode>
            </Link>
        </NetworkLink>
        <NetworkLink id="1538">
            <name>Parcel_Analysis_1603</name>
            <Link id="1539">
                <href>https://raw.githubusercontent.com/robmohammedmahid-stack/Horry-County-Data/Parcel_Analysis/KML-Output/Parcel_Analysis/Parcel_Analysis_1603.kml</href>
                <refreshMode>onChange</refreshMode>
            </Link>
        </NetworkLink>
        <NetworkLink id="1540">
            <name>Parcel_Analysis_1604</name>
            <Link id="1541">
                <href>https://raw.githubusercontent.com/robmohammedmahid-stack/Horry-County-Data/Parcel_Analysis/KML-Output/Parcel_Analysis/Parcel_Analysis_1604.kml</href>
                <refreshMode>onChange</refreshMode>
            </Link>
        </NetworkLink>
        <NetworkLink id="1542">
            <name>Parcel_Analysis_1605</name>
            <Link id="1543">
                <href>https://raw.githubusercontent.com/robmohammedmahid-stack/Horry-County-Data/Parcel_Analysis/KML-Output/Parcel_Analysis/Parcel_Analysis_1605.kml</href>
                <refreshMode>onChange</refreshMode>
            </Link>
        </NetworkLink>
        <NetworkLink id="1544">
            <name>Parcel_Analysis_1606</name>
            <Link id="1545">
                <href>https://raw.githubusercontent.com/robmohammedmahid-stack/Horry-County-Data/Parcel_Analysis/KML-Output/Parcel_Analysis/Parcel_Analysis_1606.kml</href>
                <refreshMode>onChange</refreshMode>
            </Link>
        </NetworkLink>
        <NetworkLink id="1546">
            <name>Parcel_Analysis_1607</name>
            <Link id="1547">
                <href>https://raw.githubusercontent.com/robmohammedmahid-stack/Horry-County-Data/Parcel_Analysis/KML-Output/Parcel_Analysis/Parcel_Analysis_1607.kml</href>
                <refreshMode>onChange</refreshMode>
            </Link>
        </NetworkLink>
        <NetworkLink id="1548">
            <name>Parcel_Analysis_1608</name>
            <Link id="1549">
                <href>https://raw.githubusercontent.com/robmohammedmahid-stack/Horry-County-Data/Parcel_Analysis/KML-Output/Parcel_Analysis/Parcel_Analysis_1608.kml</href>
                <refreshMode>onChange</refreshMode>
            </Link>
        </NetworkLink>
        <NetworkLink id="1550">
            <name>Parcel_Analysis_1609</name>
            <Link id="1551">
                <href>https://raw.githubusercontent.com/robmohammedmahid-stack/Horry-County-Data/Parcel_Analysis/KML-Output/Parcel_Analysis/Parcel_Analysis_1609.kml</href>
                <refreshMode>onChange</refreshMode>
            </Link>
        </NetworkLink>
        <NetworkLink id="1552">
            <name>Parcel_Analysis_161</name>
            <Link id="1553">
                <href>https://raw.githubusercontent.com/robmohammedmahid-stack/Horry-County-Data/Parcel_Analysis/KML-Output/Parcel_Analysis/Parcel_Analysis_161.kml</href>
                <refreshMode>onChange</refreshMode>
            </Link>
        </NetworkLink>
        <NetworkLink id="1554">
            <name>Parcel_Analysis_1610</name>
            <Link id="1555">
                <href>https://raw.githubusercontent.com/robmohammedmahid-stack/Horry-County-Data/Parcel_Analysis/KML-Output/Parcel_Analysis/Parcel_Analysis_1610.kml</href>
                <refreshMode>onChange</refreshMode>
            </Link>
        </NetworkLink>
        <NetworkLink id="1556">
            <name>Parcel_Analysis_1611</name>
            <Link id="1557">
                <href>https://raw.githubusercontent.com/robmohammedmahid-stack/Horry-County-Data/Parcel_Analysis/KML-Output/Parcel_Analysis/Parcel_Analysis_1611.kml</href>
                <refreshMode>onChange</refreshMode>
            </Link>
        </NetworkLink>
        <NetworkLink id="1558">
            <name>Parcel_Analysis_1612</name>
            <Link id="1559">
                <href>https://raw.githubusercontent.com/robmohammedmahid-stack/Horry-County-Data/Parcel_Analysis/KML-Output/Parcel_Analysis/Parcel_Analysis_1612.kml</href>
                <refreshMode>onChange</refreshMode>
            </Link>
        </NetworkLink>
        <NetworkLink id="1560">
            <name>Parcel_Analysis_1613</name>
            <Link id="1561">
                <href>https://raw.githubusercontent.com/robmohammedmahid-stack/Horry-County-Data/Parcel_Analysis/KML-Output/Parcel_Analysis/Parcel_Analysis_1613.kml</href>
                <refreshMode>onChange</refreshMode>
            </Link>
        </NetworkLink>
        <NetworkLink id="1562">
            <name>Parcel_Analysis_1614</name>
            <Link id="1563">
                <href>https://raw.githubusercontent.com/robmohammedmahid-stack/Horry-County-Data/Parcel_Analysis/KML-Output/Parcel_Analysis/Parcel_Analysis_1614.kml</href>
                <refreshMode>onChange</refreshMode>
            </Link>
        </NetworkLink>
        <NetworkLink id="1564">
            <name>Parcel_Analysis_1615</name>
            <Link id="1565">
                <href>https://raw.githubusercontent.com/robmohammedmahid-stack/Horry-County-Data/Parcel_Analysis/KML-Output/Parcel_Analysis/Parcel_Analysis_1615.kml</href>
                <refreshMode>onChange</refreshMode>
            </Link>
        </NetworkLink>
        <NetworkLink id="1566">
            <name>Parcel_Analysis_1616</name>
            <Link id="1567">
                <href>https://raw.githubusercontent.com/robmohammedmahid-stack/Horry-County-Data/Parcel_Analysis/KML-Output/Parcel_Analysis/Parcel_Analysis_1616.kml</href>
                <refreshMode>onChange</refreshMode>
            </Link>
        </NetworkLink>
        <NetworkLink id="1568">
            <name>Parcel_Analysis_1617</name>
            <Link id="1569">
                <href>https://raw.githubusercontent.com/robmohammedmahid-stack/Horry-County-Data/Parcel_Analysis/KML-Output/Parcel_Analysis/Parcel_Analysis_1617.kml</href>
                <refreshMode>onChange</refreshMode>
            </Link>
        </NetworkLink>
        <NetworkLink id="1570">
            <name>Parcel_Analysis_1618</name>
            <Link id="1571">
                <href>https://raw.githubusercontent.com/robmohammedmahid-stack/Horry-County-Data/Parcel_Analysis/KML-Output/Parcel_Analysis/Parcel_Analysis_1618.kml</href>
                <refreshMode>onChange</refreshMode>
            </Link>
        </NetworkLink>
        <NetworkLink id="1572">
            <name>Parcel_Analysis_1619</name>
            <Link id="1573">
                <href>https://raw.githubusercontent.com/robmohammedmahid-stack/Horry-County-Data/Parcel_Analysis/KML-Output/Parcel_Analysis/Parcel_Analysis_1619.kml</href>
                <refreshMode>onChange</refreshMode>
            </Link>
        </NetworkLink>
        <NetworkLink id="1574">
            <name>Parcel_Analysis_162</name>
            <Link id="1575">
                <href>https://raw.githubusercontent.com/robmohammedmahid-stack/Horry-County-Data/Parcel_Analysis/KML-Output/Parcel_Analysis/Parcel_Analysis_162.kml</href>
                <refreshMode>onChange</refreshMode>
            </Link>
        </NetworkLink>
        <NetworkLink id="1576">
            <name>Parcel_Analysis_1620</name>
            <Link id="1577">
                <href>https://raw.githubusercontent.com/robmohammedmahid-stack/Horry-County-Data/Parcel_Analysis/KML-Output/Parcel_Analysis/Parcel_Analysis_1620.kml</href>
                <refreshMode>onChange</refreshMode>
            </Link>
        </NetworkLink>
        <NetworkLink id="1578">
            <name>Parcel_Analysis_1621</name>
            <Link id="1579">
                <href>https://raw.githubusercontent.com/robmohammedmahid-stack/Horry-County-Data/Parcel_Analysis/KML-Output/Parcel_Analysis/Parcel_Analysis_1621.kml</href>
                <refreshMode>onChange</refreshMode>
            </Link>
        </NetworkLink>
        <NetworkLink id="1580">
            <name>Parcel_Analysis_1622</name>
            <Link id="1581">
                <href>https://raw.githubusercontent.com/robmohammedmahid-stack/Horry-County-Data/Parcel_Analysis/KML-Output/Parcel_Analysis/Parcel_Analysis_1622.kml</href>
                <refreshMode>onChange</refreshMode>
            </Link>
        </NetworkLink>
        <NetworkLink id="1582">
            <name>Parcel_Analysis_1623</name>
            <Link id="1583">
                <href>https://raw.githubusercontent.com/robmohammedmahid-stack/Horry-County-Data/Parcel_Analysis/KML-Output/Parcel_Analysis/Parcel_Analysis_1623.kml</href>
                <refreshMode>onChange</refreshMode>
            </Link>
        </NetworkLink>
        <NetworkLink id="1584">
            <name>Parcel_Analysis_1624</name>
            <Link id="1585">
                <href>https://raw.githubusercontent.com/robmohammedmahid-stack/Horry-County-Data/Parcel_Analysis/KML-Output/Parcel_Analysis/Parcel_Analysis_1624.kml</href>
                <refreshMode>onChange</refreshMode>
            </Link>
        </NetworkLink>
        <NetworkLink id="1586">
            <name>Parcel_Analysis_1625</name>
            <Link id="1587">
                <href>https://raw.githubusercontent.com/robmohammedmahid-stack/Horry-County-Data/Parcel_Analysis/KML-Output/Parcel_Analysis/Parcel_Analysis_1625.kml</href>
                <refreshMode>onChange</refreshMode>
            </Link>
        </NetworkLink>
        <NetworkLink id="1588">
            <name>Parcel_Analysis_1626</name>
            <Link id="1589">
                <href>https://raw.githubusercontent.com/robmohammedmahid-stack/Horry-County-Data/Parcel_Analysis/KML-Output/Parcel_Analysis/Parcel_Analysis_1626.kml</href>
                <refreshMode>onChange</refreshMode>
            </Link>
        </NetworkLink>
        <NetworkLink id="1590">
            <name>Parcel_Analysis_1627</name>
            <Link id="1591">
                <href>https://raw.githubusercontent.com/robmohammedmahid-stack/Horry-County-Data/Parcel_Analysis/KML-Output/Parcel_Analysis/Parcel_Analysis_1627.kml</href>
                <refreshMode>onChange</refreshMode>
            </Link>
        </NetworkLink>
        <NetworkLink id="1592">
            <name>Parcel_Analysis_1628</name>
            <Link id="1593">
                <href>https://raw.githubusercontent.com/robmohammedmahid-stack/Horry-County-Data/Parcel_Analysis/KML-Output/Parcel_Analysis/Parcel_Analysis_1628.kml</href>
                <refreshMode>onChange</refreshMode>
            </Link>
        </NetworkLink>
        <NetworkLink id="1594">
            <name>Parcel_Analysis_1629</name>
            <Link id="1595">
                <href>https://raw.githubusercontent.com/robmohammedmahid-stack/Horry-County-Data/Parcel_Analysis/KML-Output/Parcel_Analysis/Parcel_Analysis_1629.kml</href>
                <refreshMode>onChange</refreshMode>
            </Link>
        </NetworkLink>
        <NetworkLink id="1596">
            <name>Parcel_Analysis_163</name>
            <Link id="1597">
                <href>https://raw.githubusercontent.com/robmohammedmahid-stack/Horry-County-Data/Parcel_Analysis/KML-Output/Parcel_Analysis/Parcel_Analysis_163.kml</href>
                <refreshMode>onChange</refreshMode>
            </Link>
        </NetworkLink>
        <NetworkLink id="1598">
            <name>Parcel_Analysis_1630</name>
            <Link id="1599">
                <href>https://raw.githubusercontent.com/robmohammedmahid-stack/Horry-County-Data/Parcel_Analysis/KML-Output/Parcel_Analysis/Parcel_Analysis_1630.kml</href>
                <refreshMode>onChange</refreshMode>
            </Link>
        </NetworkLink>
        <NetworkLink id="1600">
            <name>Parcel_Analysis_1631</name>
            <Link id="1601">
                <href>https://raw.githubusercontent.com/robmohammedmahid-stack/Horry-County-Data/Parcel_Analysis/KML-Output/Parcel_Analysis/Parcel_Analysis_1631.kml</href>
                <refreshMode>onChange</refreshMode>
            </Link>
        </NetworkLink>
        <NetworkLink id="1602">
            <name>Parcel_Analysis_1632</name>
            <Link id="1603">
                <href>https://raw.githubusercontent.com/robmohammedmahid-stack/Horry-County-Data/Parcel_Analysis/KML-Output/Parcel_Analysis/Parcel_Analysis_1632.kml</href>
                <refreshMode>onChange</refreshMode>
            </Link>
        </NetworkLink>
        <NetworkLink id="1604">
            <name>Parcel_Analysis_1633</name>
            <Link id="1605">
                <href>https://raw.githubusercontent.com/robmohammedmahid-stack/Horry-County-Data/Parcel_Analysis/KML-Output/Parcel_Analysis/Parcel_Analysis_1633.kml</href>
                <refreshMode>onChange</refreshMode>
            </Link>
        </NetworkLink>
        <NetworkLink id="1606">
            <name>Parcel_Analysis_1634</name>
            <Link id="1607">
                <href>https://raw.githubusercontent.com/robmohammedmahid-stack/Horry-County-Data/Parcel_Analysis/KML-Output/Parcel_Analysis/Parcel_Analysis_1634.kml</href>
                <refreshMode>onChange</refreshMode>
            </Link>
        </NetworkLink>
        <NetworkLink id="1608">
            <name>Parcel_Analysis_1635</name>
            <Link id="1609">
                <href>https://raw.githubusercontent.com/robmohammedmahid-stack/Horry-County-Data/Parcel_Analysis/KML-Output/Parcel_Analysis/Parcel_Analysis_1635.kml</href>
                <refreshMode>onChange</refreshMode>
            </Link>
        </NetworkLink>
        <NetworkLink id="1610">
            <name>Parcel_Analysis_1636</name>
            <Link id="1611">
                <href>https://raw.githubusercontent.com/robmohammedmahid-stack/Horry-County-Data/Parcel_Analysis/KML-Output/Parcel_Analysis/Parcel_Analysis_1636.kml</href>
                <refreshMode>onChange</refreshMode>
            </Link>
        </NetworkLink>
        <NetworkLink id="1612">
            <name>Parcel_Analysis_1637</name>
            <Link id="1613">
                <href>https://raw.githubusercontent.com/robmohammedmahid-stack/Horry-County-Data/Parcel_Analysis/KML-Output/Parcel_Analysis/Parcel_Analysis_1637.kml</href>
                <refreshMode>onChange</refreshMode>
            </Link>
        </NetworkLink>
        <NetworkLink id="1614">
            <name>Parcel_Analysis_1638</name>
            <Link id="1615">
                <href>https://raw.githubusercontent.com/robmohammedmahid-stack/Horry-County-Data/Parcel_Analysis/KML-Output/Parcel_Analysis/Parcel_Analysis_1638.kml</href>
                <refreshMode>onChange</refreshMode>
            </Link>
        </NetworkLink>
        <NetworkLink id="1616">
            <name>Parcel_Analysis_1639</name>
            <Link id="1617">
                <href>https://raw.githubusercontent.com/robmohammedmahid-stack/Horry-County-Data/Parcel_Analysis/KML-Output/Parcel_Analysis/Parcel_Analysis_1639.kml</href>
                <refreshMode>onChange</refreshMode>
            </Link>
        </NetworkLink>
        <NetworkLink id="1618">
            <name>Parcel_Analysis_164</name>
            <Link id="1619">
                <href>https://raw.githubusercontent.com/robmohammedmahid-stack/Horry-County-Data/Parcel_Analysis/KML-Output/Parcel_Analysis/Parcel_Analysis_164.kml</href>
                <refreshMode>onChange</refreshMode>
            </Link>
        </NetworkLink>
        <NetworkLink id="1620">
            <name>Parcel_Analysis_1640</name>
            <Link id="1621">
                <href>https://raw.githubusercontent.com/robmohammedmahid-stack/Horry-County-Data/Parcel_Analysis/KML-Output/Parcel_Analysis/Parcel_Analysis_1640.kml</href>
                <refreshMode>onChange</refreshMode>
            </Link>
        </NetworkLink>
        <NetworkLink id="1622">
            <name>Parcel_Analysis_1641</name>
            <Link id="1623">
                <href>https://raw.githubusercontent.com/robmohammedmahid-stack/Horry-County-Data/Parcel_Analysis/KML-Output/Parcel_Analysis/Parcel_Analysis_1641.kml</href>
                <refreshMode>onChange</refreshMode>
            </Link>
        </NetworkLink>
        <NetworkLink id="1624">
            <name>Parcel_Analysis_1642</name>
            <Link id="1625">
                <href>https://raw.githubusercontent.com/robmohammedmahid-stack/Horry-County-Data/Parcel_Analysis/KML-Output/Parcel_Analysis/Parcel_Analysis_1642.kml</href>
                <refreshMode>onChange</refreshMode>
            </Link>
        </NetworkLink>
        <NetworkLink id="1626">
            <name>Parcel_Analysis_1643</name>
            <Link id="1627">
                <href>https://raw.githubusercontent.com/robmohammedmahid-stack/Horry-County-Data/Parcel_Analysis/KML-Output/Parcel_Analysis/Parcel_Analysis_1643.kml</href>
                <refreshMode>onChange</refreshMode>
            </Link>
        </NetworkLink>
        <NetworkLink id="1628">
            <name>Parcel_Analysis_1644</name>
            <Link id="1629">
                <href>https://raw.githubusercontent.com/robmohammedmahid-stack/Horry-County-Data/Parcel_Analysis/KML-Output/Parcel_Analysis/Parcel_Analysis_1644.kml</href>
                <refreshMode>onChange</refreshMode>
            </Link>
        </NetworkLink>
        <NetworkLink id="1630">
            <name>Parcel_Analysis_1645</name>
            <Link id="1631">
                <href>https://raw.githubusercontent.com/robmohammedmahid-stack/Horry-County-Data/Parcel_Analysis/KML-Output/Parcel_Analysis/Parcel_Analysis_1645.kml</href>
                <refreshMode>onChange</refreshMode>
            </Link>
        </NetworkLink>
        <NetworkLink id="1632">
            <name>Parcel_Analysis_1646</name>
            <Link id="1633">
                <href>https://raw.githubusercontent.com/robmohammedmahid-stack/Horry-County-Data/Parcel_Analysis/KML-Output/Parcel_Analysis/Parcel_Analysis_1646.kml</href>
                <refreshMode>onChange</refreshMode>
            </Link>
        </NetworkLink>
        <NetworkLink id="1634">
            <name>Parcel_Analysis_1647</name>
            <Link id="1635">
                <href>https://raw.githubusercontent.com/robmohammedmahid-stack/Horry-County-Data/Parcel_Analysis/KML-Output/Parcel_Analysis/Parcel_Analysis_1647.kml</href>
                <refreshMode>onChange</refreshMode>
            </Link>
        </NetworkLink>
        <NetworkLink id="1636">
            <name>Parcel_Analysis_1648</name>
            <Link id="1637">
                <href>https://raw.githubusercontent.com/robmohammedmahid-stack/Horry-County-Data/Parcel_Analysis/KML-Output/Parcel_Analysis/Parcel_Analysis_1648.kml</href>
                <refreshMode>onChange</refreshMode>
            </Link>
        </NetworkLink>
        <NetworkLink id="1638">
            <name>Parcel_Analysis_1649</name>
            <Link id="1639">
                <href>https://raw.githubusercontent.com/robmohammedmahid-stack/Horry-County-Data/Parcel_Analysis/KML-Output/Parcel_Analysis/Parcel_Analysis_1649.kml</href>
                <refreshMode>onChange</refreshMode>
            </Link>
        </NetworkLink>
        <NetworkLink id="1640">
            <name>Parcel_Analysis_165</name>
            <Link id="1641">
                <href>https://raw.githubusercontent.com/robmohammedmahid-stack/Horry-County-Data/Parcel_Analysis/KML-Output/Parcel_Analysis/Parcel_Analysis_165.kml</href>
                <refreshMode>onChange</refreshMode>
            </Link>
        </NetworkLink>
        <NetworkLink id="1642">
            <name>Parcel_Analysis_1650</name>
            <Link id="1643">
                <href>https://raw.githubusercontent.com/robmohammedmahid-stack/Horry-County-Data/Parcel_Analysis/KML-Output/Parcel_Analysis/Parcel_Analysis_1650.kml</href>
                <refreshMode>onChange</refreshMode>
            </Link>
        </NetworkLink>
        <NetworkLink id="1644">
            <name>Parcel_Analysis_1651</name>
            <Link id="1645">
                <href>https://raw.githubusercontent.com/robmohammedmahid-stack/Horry-County-Data/Parcel_Analysis/KML-Output/Parcel_Analysis/Parcel_Analysis_1651.kml</href>
                <refreshMode>onChange</refreshMode>
            </Link>
        </NetworkLink>
        <NetworkLink id="1646">
            <name>Parcel_Analysis_1652</name>
            <Link id="1647">
                <href>https://raw.githubusercontent.com/robmohammedmahid-stack/Horry-County-Data/Parcel_Analysis/KML-Output/Parcel_Analysis/Parcel_Analysis_1652.kml</href>
                <refreshMode>onChange</refreshMode>
            </Link>
        </NetworkLink>
        <NetworkLink id="1648">
            <name>Parcel_Analysis_1653</name>
            <Link id="1649">
                <href>https://raw.githubusercontent.com/robmohammedmahid-stack/Horry-County-Data/Parcel_Analysis/KML-Output/Parcel_Analysis/Parcel_Analysis_1653.kml</href>
                <refreshMode>onChange</refreshMode>
            </Link>
        </NetworkLink>
        <NetworkLink id="1650">
            <name>Parcel_Analysis_1654</name>
            <Link id="1651">
                <href>https://raw.githubusercontent.com/robmohammedmahid-stack/Horry-County-Data/Parcel_Analysis/KML-Output/Parcel_Analysis/Parcel_Analysis_1654.kml</href>
                <refreshMode>onChange</refreshMode>
            </Link>
        </NetworkLink>
        <NetworkLink id="1652">
            <name>Parcel_Analysis_1655</name>
            <Link id="1653">
                <href>https://raw.githubusercontent.com/robmohammedmahid-stack/Horry-County-Data/Parcel_Analysis/KML-Output/Parcel_Analysis/Parcel_Analysis_1655.kml</href>
                <refreshMode>onChange</refreshMode>
            </Link>
        </NetworkLink>
        <NetworkLink id="1654">
            <name>Parcel_Analysis_1656</name>
            <Link id="1655">
                <href>https://raw.githubusercontent.com/robmohammedmahid-stack/Horry-County-Data/Parcel_Analysis/KML-Output/Parcel_Analysis/Parcel_Analysis_1656.kml</href>
                <refreshMode>onChange</refreshMode>
            </Link>
        </NetworkLink>
        <NetworkLink id="1656">
            <name>Parcel_Analysis_1657</name>
            <Link id="1657">
                <href>https://raw.githubusercontent.com/robmohammedmahid-stack/Horry-County-Data/Parcel_Analysis/KML-Output/Parcel_Analysis/Parcel_Analysis_1657.kml</href>
                <refreshMode>onChange</refreshMode>
            </Link>
        </NetworkLink>
        <NetworkLink id="1658">
            <name>Parcel_Analysis_1658</name>
            <Link id="1659">
                <href>https://raw.githubusercontent.com/robmohammedmahid-stack/Horry-County-Data/Parcel_Analysis/KML-Output/Parcel_Analysis/Parcel_Analysis_1658.kml</href>
                <refreshMode>onChange</refreshMode>
            </Link>
        </NetworkLink>
        <NetworkLink id="1660">
            <name>Parcel_Analysis_1659</name>
            <Link id="1661">
                <href>https://raw.githubusercontent.com/robmohammedmahid-stack/Horry-County-Data/Parcel_Analysis/KML-Output/Parcel_Analysis/Parcel_Analysis_1659.kml</href>
                <refreshMode>onChange</refreshMode>
            </Link>
        </NetworkLink>
        <NetworkLink id="1662">
            <name>Parcel_Analysis_166</name>
            <Link id="1663">
                <href>https://raw.githubusercontent.com/robmohammedmahid-stack/Horry-County-Data/Parcel_Analysis/KML-Output/Parcel_Analysis/Parcel_Analysis_166.kml</href>
                <refreshMode>onChange</refreshMode>
            </Link>
        </NetworkLink>
        <NetworkLink id="1664">
            <name>Parcel_Analysis_1660</name>
            <Link id="1665">
                <href>https://raw.githubusercontent.com/robmohammedmahid-stack/Horry-County-Data/Parcel_Analysis/KML-Output/Parcel_Analysis/Parcel_Analysis_1660.kml</href>
                <refreshMode>onChange</refreshMode>
            </Link>
        </NetworkLink>
        <NetworkLink id="1666">
            <name>Parcel_Analysis_1661</name>
            <Link id="1667">
                <href>https://raw.githubusercontent.com/robmohammedmahid-stack/Horry-County-Data/Parcel_Analysis/KML-Output/Parcel_Analysis/Parcel_Analysis_1661.kml</href>
                <refreshMode>onChange</refreshMode>
            </Link>
        </NetworkLink>
        <NetworkLink id="1668">
            <name>Parcel_Analysis_1662</name>
            <Link id="1669">
                <href>https://raw.githubusercontent.com/robmohammedmahid-stack/Horry-County-Data/Parcel_Analysis/KML-Output/Parcel_Analysis/Parcel_Analysis_1662.kml</href>
                <refreshMode>onChange</refreshMode>
            </Link>
        </NetworkLink>
        <NetworkLink id="1670">
            <name>Parcel_Analysis_1663</name>
            <Link id="1671">
                <href>https://raw.githubusercontent.com/robmohammedmahid-stack/Horry-County-Data/Parcel_Analysis/KML-Output/Parcel_Analysis/Parcel_Analysis_1663.kml</href>
                <refreshMode>onChange</refreshMode>
            </Link>
        </NetworkLink>
        <NetworkLink id="1672">
            <name>Parcel_Analysis_1664</name>
            <Link id="1673">
                <href>https://raw.githubusercontent.com/robmohammedmahid-stack/Horry-County-Data/Parcel_Analysis/KML-Output/Parcel_Analysis/Parcel_Analysis_1664.kml</href>
                <refreshMode>onChange</refreshMode>
            </Link>
        </NetworkLink>
        <NetworkLink id="1674">
            <name>Parcel_Analysis_1665</name>
            <Link id="1675">
                <href>https://raw.githubusercontent.com/robmohammedmahid-stack/Horry-County-Data/Parcel_Analysis/KML-Output/Parcel_Analysis/Parcel_Analysis_1665.kml</href>
                <refreshMode>onChange</refreshMode>
            </Link>
        </NetworkLink>
        <NetworkLink id="1676">
            <name>Parcel_Analysis_1666</name>
            <Link id="1677">
                <href>https://raw.githubusercontent.com/robmohammedmahid-stack/Horry-County-Data/Parcel_Analysis/KML-Output/Parcel_Analysis/Parcel_Analysis_1666.kml</href>
                <refreshMode>onChange</refreshMode>
            </Link>
        </NetworkLink>
        <NetworkLink id="1678">
            <name>Parcel_Analysis_1667</name>
            <Link id="1679">
                <href>https://raw.githubusercontent.com/robmohammedmahid-stack/Horry-County-Data/Parcel_Analysis/KML-Output/Parcel_Analysis/Parcel_Analysis_1667.kml</href>
                <refreshMode>onChange</refreshMode>
            </Link>
        </NetworkLink>
        <NetworkLink id="1680">
            <name>Parcel_Analysis_1668</name>
            <Link id="1681">
                <href>https://raw.githubusercontent.com/robmohammedmahid-stack/Horry-County-Data/Parcel_Analysis/KML-Output/Parcel_Analysis/Parcel_Analysis_1668.kml</href>
                <refreshMode>onChange</refreshMode>
            </Link>
        </NetworkLink>
        <NetworkLink id="1682">
            <name>Parcel_Analysis_1669</name>
            <Link id="1683">
                <href>https://raw.githubusercontent.com/robmohammedmahid-stack/Horry-County-Data/Parcel_Analysis/KML-Output/Parcel_Analysis/Parcel_Analysis_1669.kml</href>
                <refreshMode>onChange</refreshMode>
            </Link>
        </NetworkLink>
        <NetworkLink id="1684">
            <name>Parcel_Analysis_167</name>
            <Link id="1685">
                <href>https://raw.githubusercontent.com/robmohammedmahid-stack/Horry-County-Data/Parcel_Analysis/KML-Output/Parcel_Analysis/Parcel_Analysis_167.kml</href>
                <refreshMode>onChange</refreshMode>
            </Link>
        </NetworkLink>
        <NetworkLink id="1686">
            <name>Parcel_Analysis_1670</name>
            <Link id="1687">
                <href>https://raw.githubusercontent.com/robmohammedmahid-stack/Horry-County-Data/Parcel_Analysis/KML-Output/Parcel_Analysis/Parcel_Analysis_1670.kml</href>
                <refreshMode>onChange</refreshMode>
            </Link>
        </NetworkLink>
        <NetworkLink id="1688">
            <name>Parcel_Analysis_1671</name>
            <Link id="1689">
                <href>https://raw.githubusercontent.com/robmohammedmahid-stack/Horry-County-Data/Parcel_Analysis/KML-Output/Parcel_Analysis/Parcel_Analysis_1671.kml</href>
                <refreshMode>onChange</refreshMode>
            </Link>
        </NetworkLink>
        <NetworkLink id="1690">
            <name>Parcel_Analysis_1672</name>
            <Link id="1691">
                <href>https://raw.githubusercontent.com/robmohammedmahid-stack/Horry-County-Data/Parcel_Analysis/KML-Output/Parcel_Analysis/Parcel_Analysis_1672.kml</href>
                <refreshMode>onChange</refreshMode>
            </Link>
        </NetworkLink>
        <NetworkLink id="1692">
            <name>Parcel_Analysis_1673</name>
            <Link id="1693">
                <href>https://raw.githubusercontent.com/robmohammedmahid-stack/Horry-County-Data/Parcel_Analysis/KML-Output/Parcel_Analysis/Parcel_Analysis_1673.kml</href>
                <refreshMode>onChange</refreshMode>
            </Link>
        </NetworkLink>
        <NetworkLink id="1694">
            <name>Parcel_Analysis_1674</name>
            <Link id="1695">
                <href>https://raw.githubusercontent.com/robmohammedmahid-stack/Horry-County-Data/Parcel_Analysis/KML-Output/Parcel_Analysis/Parcel_Analysis_1674.kml</href>
                <refreshMode>onChange</refreshMode>
            </Link>
        </NetworkLink>
        <NetworkLink id="1696">
            <name>Parcel_Analysis_1675</name>
            <Link id="1697">
                <href>https://raw.githubusercontent.com/robmohammedmahid-stack/Horry-County-Data/Parcel_Analysis/KML-Output/Parcel_Analysis/Parcel_Analysis_1675.kml</href>
                <refreshMode>onChange</refreshMode>
            </Link>
        </NetworkLink>
        <NetworkLink id="1698">
            <name>Parcel_Analysis_1676</name>
            <Link id="1699">
                <href>https://raw.githubusercontent.com/robmohammedmahid-stack/Horry-County-Data/Parcel_Analysis/KML-Output/Parcel_Analysis/Parcel_Analysis_1676.kml</href>
                <refreshMode>onChange</refreshMode>
            </Link>
        </NetworkLink>
        <NetworkLink id="1700">
            <name>Parcel_Analysis_1677</name>
            <Link id="1701">
                <href>https://raw.githubusercontent.com/robmohammedmahid-stack/Horry-County-Data/Parcel_Analysis/KML-Output/Parcel_Analysis/Parcel_Analysis_1677.kml</href>
                <refreshMode>onChange</refreshMode>
            </Link>
        </NetworkLink>
        <NetworkLink id="1702">
            <name>Parcel_Analysis_1678</name>
            <Link id="1703">
                <href>https://raw.githubusercontent.com/robmohammedmahid-stack/Horry-County-Data/Parcel_Analysis/KML-Output/Parcel_Analysis/Parcel_Analysis_1678.kml</href>
                <refreshMode>onChange</refreshMode>
            </Link>
        </NetworkLink>
        <NetworkLink id="1704">
            <name>Parcel_Analysis_1679</name>
            <Link id="1705">
                <href>https://raw.githubusercontent.com/robmohammedmahid-stack/Horry-County-Data/Parcel_Analysis/KML-Output/Parcel_Analysis/Parcel_Analysis_1679.kml</href>
                <refreshMode>onChange</refreshMode>
            </Link>
        </NetworkLink>
        <NetworkLink id="1706">
            <name>Parcel_Analysis_168</name>
            <Link id="1707">
                <href>https://raw.githubusercontent.com/robmohammedmahid-stack/Horry-County-Data/Parcel_Analysis/KML-Output/Parcel_Analysis/Parcel_Analysis_168.kml</href>
                <refreshMode>onChange</refreshMode>
            </Link>
        </NetworkLink>
        <NetworkLink id="1708">
            <name>Parcel_Analysis_1680</name>
            <Link id="1709">
                <href>https://raw.githubusercontent.com/robmohammedmahid-stack/Horry-County-Data/Parcel_Analysis/KML-Output/Parcel_Analysis/Parcel_Analysis_1680.kml</href>
                <refreshMode>onChange</refreshMode>
            </Link>
        </NetworkLink>
        <NetworkLink id="1710">
            <name>Parcel_Analysis_1681</name>
            <Link id="1711">
                <href>https://raw.githubusercontent.com/robmohammedmahid-stack/Horry-County-Data/Parcel_Analysis/KML-Output/Parcel_Analysis/Parcel_Analysis_1681.kml</href>
                <refreshMode>onChange</refreshMode>
            </Link>
        </NetworkLink>
        <NetworkLink id="1712">
            <name>Parcel_Analysis_1682</name>
            <Link id="1713">
                <href>https://raw.githubusercontent.com/robmohammedmahid-stack/Horry-County-Data/Parcel_Analysis/KML-Output/Parcel_Analysis/Parcel_Analysis_1682.kml</href>
                <refreshMode>onChange</refreshMode>
            </Link>
        </NetworkLink>
        <NetworkLink id="1714">
            <name>Parcel_Analysis_1683</name>
            <Link id="1715">
                <href>https://raw.githubusercontent.com/robmohammedmahid-stack/Horry-County-Data/Parcel_Analysis/KML-Output/Parcel_Analysis/Parcel_Analysis_1683.kml</href>
                <refreshMode>onChange</refreshMode>
            </Link>
        </NetworkLink>
        <NetworkLink id="1716">
            <name>Parcel_Analysis_1684</name>
            <Link id="1717">
                <href>https://raw.githubusercontent.com/robmohammedmahid-stack/Horry-County-Data/Parcel_Analysis/KML-Output/Parcel_Analysis/Parcel_Analysis_1684.kml</href>
                <refreshMode>onChange</refreshMode>
            </Link>
        </NetworkLink>
        <NetworkLink id="1718">
            <name>Parcel_Analysis_1685</name>
            <Link id="1719">
                <href>https://raw.githubusercontent.com/robmohammedmahid-stack/Horry-County-Data/Parcel_Analysis/KML-Output/Parcel_Analysis/Parcel_Analysis_1685.kml</href>
                <refreshMode>onChange</refreshMode>
            </Link>
        </NetworkLink>
        <NetworkLink id="1720">
            <name>Parcel_Analysis_1686</name>
            <Link id="1721">
                <href>https://raw.githubusercontent.com/robmohammedmahid-stack/Horry-County-Data/Parcel_Analysis/KML-Output/Parcel_Analysis/Parcel_Analysis_1686.kml</href>
                <refreshMode>onChange</refreshMode>
            </Link>
        </NetworkLink>
        <NetworkLink id="1722">
            <name>Parcel_Analysis_1687</name>
            <Link id="1723">
                <href>https://raw.githubusercontent.com/robmohammedmahid-stack/Horry-County-Data/Parcel_Analysis/KML-Output/Parcel_Analysis/Parcel_Analysis_1687.kml</href>
                <refreshMode>onChange</refreshMode>
            </Link>
        </NetworkLink>
        <NetworkLink id="1724">
            <name>Parcel_Analysis_1688</name>
            <Link id="1725">
                <href>https://raw.githubusercontent.com/robmohammedmahid-stack/Horry-County-Data/Parcel_Analysis/KML-Output/Parcel_Analysis/Parcel_Analysis_1688.kml</href>
                <refreshMode>onChange</refreshMode>
            </Link>
        </NetworkLink>
        <NetworkLink id="1726">
            <name>Parcel_Analysis_1689</name>
            <Link id="1727">
                <href>https://raw.githubusercontent.com/robmohammedmahid-stack/Horry-County-Data/Parcel_Analysis/KML-Output/Parcel_Analysis/Parcel_Analysis_1689.kml</href>
                <refreshMode>onChange</refreshMode>
            </Link>
        </NetworkLink>
        <NetworkLink id="1728">
            <name>Parcel_Analysis_169</name>
            <Link id="1729">
                <href>https://raw.githubusercontent.com/robmohammedmahid-stack/Horry-County-Data/Parcel_Analysis/KML-Output/Parcel_Analysis/Parcel_Analysis_169.kml</href>
                <refreshMode>onChange</refreshMode>
            </Link>
        </NetworkLink>
        <NetworkLink id="1730">
            <name>Parcel_Analysis_1690</name>
            <Link id="1731">
                <href>https://raw.githubusercontent.com/robmohammedmahid-stack/Horry-County-Data/Parcel_Analysis/KML-Output/Parcel_Analysis/Parcel_Analysis_1690.kml</href>
                <refreshMode>onChange</refreshMode>
            </Link>
        </NetworkLink>
        <NetworkLink id="1732">
            <name>Parcel_Analysis_1691</name>
            <Link id="1733">
                <href>https://raw.githubusercontent.com/robmohammedmahid-stack/Horry-County-Data/Parcel_Analysis/KML-Output/Parcel_Analysis/Parcel_Analysis_1691.kml</href>
                <refreshMode>onChange</refreshMode>
            </Link>
        </NetworkLink>
        <NetworkLink id="1734">
            <name>Parcel_Analysis_1692</name>
            <Link id="1735">
                <href>https://raw.githubusercontent.com/robmohammedmahid-stack/Horry-County-Data/Parcel_Analysis/KML-Output/Parcel_Analysis/Parcel_Analysis_1692.kml</href>
                <refreshMode>onChange</refreshMode>
            </Link>
        </NetworkLink>
        <NetworkLink id="1736">
            <name>Parcel_Analysis_1693</name>
            <Link id="1737">
                <href>https://raw.githubusercontent.com/robmohammedmahid-stack/Horry-County-Data/Parcel_Analysis/KML-Output/Parcel_Analysis/Parcel_Analysis_1693.kml</href>
                <refreshMode>onChange</refreshMode>
            </Link>
        </NetworkLink>
        <NetworkLink id="1738">
            <name>Parcel_Analysis_1694</name>
            <Link id="1739">
                <href>https://raw.githubusercontent.com/robmohammedmahid-stack/Horry-County-Data/Parcel_Analysis/KML-Output/Parcel_Analysis/Parcel_Analysis_1694.kml</href>
                <refreshMode>onChange</refreshMode>
            </Link>
        </NetworkLink>
        <NetworkLink id="1740">
            <name>Parcel_Analysis_1695</name>
            <Link id="1741">
                <href>https://raw.githubusercontent.com/robmohammedmahid-stack/Horry-County-Data/Parcel_Analysis/KML-Output/Parcel_Analysis/Parcel_Analysis_1695.kml</href>
                <refreshMode>onChange</refreshMode>
            </Link>
        </NetworkLink>
        <NetworkLink id="1742">
            <name>Parcel_Analysis_1696</name>
            <Link id="1743">
                <href>https://raw.githubusercontent.com/robmohammedmahid-stack/Horry-County-Data/Parcel_Analysis/KML-Output/Parcel_Analysis/Parcel_Analysis_1696.kml</href>
                <refreshMode>onChange</refreshMode>
            </Link>
        </NetworkLink>
        <NetworkLink id="1744">
            <name>Parcel_Analysis_1697</name>
            <Link id="1745">
                <href>https://raw.githubusercontent.com/robmohammedmahid-stack/Horry-County-Data/Parcel_Analysis/KML-Output/Parcel_Analysis/Parcel_Analysis_1697.kml</href>
                <refreshMode>onChange</refreshMode>
            </Link>
        </NetworkLink>
        <NetworkLink id="1746">
            <name>Parcel_Analysis_1698</name>
            <Link id="1747">
                <href>https://raw.githubusercontent.com/robmohammedmahid-stack/Horry-County-Data/Parcel_Analysis/KML-Output/Parcel_Analysis/Parcel_Analysis_1698.kml</href>
                <refreshMode>onChange</refreshMode>
            </Link>
        </NetworkLink>
        <NetworkLink id="1748">
            <name>Parcel_Analysis_1699</name>
            <Link id="1749">
                <href>https://raw.githubusercontent.com/robmohammedmahid-stack/Horry-County-Data/Parcel_Analysis/KML-Output/Parcel_Analysis/Parcel_Analysis_1699.kml</href>
                <refreshMode>onChange</refreshMode>
            </Link>
        </NetworkLink>
        <NetworkLink id="1750">
            <name>Parcel_Analysis_170</name>
            <Link id="1751">
                <href>https://raw.githubusercontent.com/robmohammedmahid-stack/Horry-County-Data/Parcel_Analysis/KML-Output/Parcel_Analysis/Parcel_Analysis_170.kml</href>
                <refreshMode>onChange</refreshMode>
            </Link>
        </NetworkLink>
        <NetworkLink id="1752">
            <name>Parcel_Analysis_1700</name>
            <Link id="1753">
                <href>https://raw.githubusercontent.com/robmohammedmahid-stack/Horry-County-Data/Parcel_Analysis/KML-Output/Parcel_Analysis/Parcel_Analysis_1700.kml</href>
                <refreshMode>onChange</refreshMode>
            </Link>
        </NetworkLink>
        <NetworkLink id="1754">
            <name>Parcel_Analysis_1701</name>
            <Link id="1755">
                <href>https://raw.githubusercontent.com/robmohammedmahid-stack/Horry-County-Data/Parcel_Analysis/KML-Output/Parcel_Analysis/Parcel_Analysis_1701.kml</href>
                <refreshMode>onChange</refreshMode>
            </Link>
        </NetworkLink>
        <NetworkLink id="1756">
            <name>Parcel_Analysis_1702</name>
            <Link id="1757">
                <href>https://raw.githubusercontent.com/robmohammedmahid-stack/Horry-County-Data/Parcel_Analysis/KML-Output/Parcel_Analysis/Parcel_Analysis_1702.kml</href>
                <refreshMode>onChange</refreshMode>
            </Link>
        </NetworkLink>
        <NetworkLink id="1758">
            <name>Parcel_Analysis_1703</name>
            <Link id="1759">
                <href>https://raw.githubusercontent.com/robmohammedmahid-stack/Horry-County-Data/Parcel_Analysis/KML-Output/Parcel_Analysis/Parcel_Analysis_1703.kml</href>
                <refreshMode>onChange</refreshMode>
            </Link>
        </NetworkLink>
        <NetworkLink id="1760">
            <name>Parcel_Analysis_1704</name>
            <Link id="1761">
                <href>https://raw.githubusercontent.com/robmohammedmahid-stack/Horry-County-Data/Parcel_Analysis/KML-Output/Parcel_Analysis/Parcel_Analysis_1704.kml</href>
                <refreshMode>onChange</refreshMode>
            </Link>
        </NetworkLink>
        <NetworkLink id="1762">
            <name>Parcel_Analysis_1705</name>
            <Link id="1763">
                <href>https://raw.githubusercontent.com/robmohammedmahid-stack/Horry-County-Data/Parcel_Analysis/KML-Output/Parcel_Analysis/Parcel_Analysis_1705.kml</href>
                <refreshMode>onChange</refreshMode>
            </Link>
        </NetworkLink>
        <NetworkLink id="1764">
            <name>Parcel_Analysis_1706</name>
            <Link id="1765">
                <href>https://raw.githubusercontent.com/robmohammedmahid-stack/Horry-County-Data/Parcel_Analysis/KML-Output/Parcel_Analysis/Parcel_Analysis_1706.kml</href>
                <refreshMode>onChange</refreshMode>
            </Link>
        </NetworkLink>
        <NetworkLink id="1766">
            <name>Parcel_Analysis_1707</name>
            <Link id="1767">
                <href>https://raw.githubusercontent.com/robmohammedmahid-stack/Horry-County-Data/Parcel_Analysis/KML-Output/Parcel_Analysis/Parcel_Analysis_1707.kml</href>
                <refreshMode>onChange</refreshMode>
            </Link>
        </NetworkLink>
        <NetworkLink id="1768">
            <name>Parcel_Analysis_1708</name>
            <Link id="1769">
                <href>https://raw.githubusercontent.com/robmohammedmahid-stack/Horry-County-Data/Parcel_Analysis/KML-Output/Parcel_Analysis/Parcel_Analysis_1708.kml</href>
                <refreshMode>onChange</refreshMode>
            </Link>
        </NetworkLink>
        <NetworkLink id="1770">
            <name>Parcel_Analysis_1709</name>
            <Link id="1771">
                <href>https://raw.githubusercontent.com/robmohammedmahid-stack/Horry-County-Data/Parcel_Analysis/KML-Output/Parcel_Analysis/Parcel_Analysis_1709.kml</href>
                <refreshMode>onChange</refreshMode>
            </Link>
        </NetworkLink>
        <NetworkLink id="1772">
            <name>Parcel_Analysis_171</name>
            <Link id="1773">
                <href>https://raw.githubusercontent.com/robmohammedmahid-stack/Horry-County-Data/Parcel_Analysis/KML-Output/Parcel_Analysis/Parcel_Analysis_171.kml</href>
                <refreshMode>onChange</refreshMode>
            </Link>
        </NetworkLink>
        <NetworkLink id="1774">
            <name>Parcel_Analysis_1710</name>
            <Link id="1775">
                <href>https://raw.githubusercontent.com/robmohammedmahid-stack/Horry-County-Data/Parcel_Analysis/KML-Output/Parcel_Analysis/Parcel_Analysis_1710.kml</href>
                <refreshMode>onChange</refreshMode>
            </Link>
        </NetworkLink>
        <NetworkLink id="1776">
            <name>Parcel_Analysis_1711</name>
            <Link id="1777">
                <href>https://raw.githubusercontent.com/robmohammedmahid-stack/Horry-County-Data/Parcel_Analysis/KML-Output/Parcel_Analysis/Parcel_Analysis_1711.kml</href>
                <refreshMode>onChange</refreshMode>
            </Link>
        </NetworkLink>
        <NetworkLink id="1778">
            <name>Parcel_Analysis_1712</name>
            <Link id="1779">
                <href>https://raw.githubusercontent.com/robmohammedmahid-stack/Horry-County-Data/Parcel_Analysis/KML-Output/Parcel_Analysis/Parcel_Analysis_1712.kml</href>
                <refreshMode>onChange</refreshMode>
            </Link>
        </NetworkLink>
        <NetworkLink id="1780">
            <name>Parcel_Analysis_1713</name>
            <Link id="1781">
                <href>https://raw.githubusercontent.com/robmohammedmahid-stack/Horry-County-Data/Parcel_Analysis/KML-Output/Parcel_Analysis/Parcel_Analysis_1713.kml</href>
                <refreshMode>onChange</refreshMode>
            </Link>
        </NetworkLink>
        <NetworkLink id="1782">
            <name>Parcel_Analysis_1714</name>
            <Link id="1783">
                <href>https://raw.githubusercontent.com/robmohammedmahid-stack/Horry-County-Data/Parcel_Analysis/KML-Output/Parcel_Analysis/Parcel_Analysis_1714.kml</href>
                <refreshMode>onChange</refreshMode>
            </Link>
        </NetworkLink>
        <NetworkLink id="1784">
            <name>Parcel_Analysis_1715</name>
            <Link id="1785">
                <href>https://raw.githubusercontent.com/robmohammedmahid-stack/Horry-County-Data/Parcel_Analysis/KML-Output/Parcel_Analysis/Parcel_Analysis_1715.kml</href>
                <refreshMode>onChange</refreshMode>
            </Link>
        </NetworkLink>
        <NetworkLink id="1786">
            <name>Parcel_Analysis_1716</name>
            <Link id="1787">
                <href>https://raw.githubusercontent.com/robmohammedmahid-stack/Horry-County-Data/Parcel_Analysis/KML-Output/Parcel_Analysis/Parcel_Analysis_1716.kml</href>
                <refreshMode>onChange</refreshMode>
            </Link>
        </NetworkLink>
        <NetworkLink id="1788">
            <name>Parcel_Analysis_1717</name>
            <Link id="1789">
                <href>https://raw.githubusercontent.com/robmohammedmahid-stack/Horry-County-Data/Parcel_Analysis/KML-Output/Parcel_Analysis/Parcel_Analysis_1717.kml</href>
                <refreshMode>onChange</refreshMode>
            </Link>
        </NetworkLink>
        <NetworkLink id="1790">
            <name>Parcel_Analysis_1718</name>
            <Link id="1791">
                <href>https://raw.githubusercontent.com/robmohammedmahid-stack/Horry-County-Data/Parcel_Analysis/KML-Output/Parcel_Analysis/Parcel_Analysis_1718.kml</href>
                <refreshMode>onChange</refreshMode>
            </Link>
        </NetworkLink>
        <NetworkLink id="1792">
            <name>Parcel_Analysis_1719</name>
            <Link id="1793">
                <href>https://raw.githubusercontent.com/robmohammedmahid-stack/Horry-County-Data/Parcel_Analysis/KML-Output/Parcel_Analysis/Parcel_Analysis_1719.kml</href>
                <refreshMode>onChange</refreshMode>
            </Link>
        </NetworkLink>
        <NetworkLink id="1794">
            <name>Parcel_Analysis_172</name>
            <Link id="1795">
                <href>https://raw.githubusercontent.com/robmohammedmahid-stack/Horry-County-Data/Parcel_Analysis/KML-Output/Parcel_Analysis/Parcel_Analysis_172.kml</href>
                <refreshMode>onChange</refreshMode>
            </Link>
        </NetworkLink>
        <NetworkLink id="1796">
            <name>Parcel_Analysis_1720</name>
            <Link id="1797">
                <href>https://raw.githubusercontent.com/robmohammedmahid-stack/Horry-County-Data/Parcel_Analysis/KML-Output/Parcel_Analysis/Parcel_Analysis_1720.kml</href>
                <refreshMode>onChange</refreshMode>
            </Link>
        </NetworkLink>
        <NetworkLink id="1798">
            <name>Parcel_Analysis_1721</name>
            <Link id="1799">
                <href>https://raw.githubusercontent.com/robmohammedmahid-stack/Horry-County-Data/Parcel_Analysis/KML-Output/Parcel_Analysis/Parcel_Analysis_1721.kml</href>
                <refreshMode>onChange</refreshMode>
            </Link>
        </NetworkLink>
        <NetworkLink id="1800">
            <name>Parcel_Analysis_1722</name>
            <Link id="1801">
                <href>https://raw.githubusercontent.com/robmohammedmahid-stack/Horry-County-Data/Parcel_Analysis/KML-Output/Parcel_Analysis/Parcel_Analysis_1722.kml</href>
                <refreshMode>onChange</refreshMode>
            </Link>
        </NetworkLink>
        <NetworkLink id="1802">
            <name>Parcel_Analysis_1723</name>
            <Link id="1803">
                <href>https://raw.githubusercontent.com/robmohammedmahid-stack/Horry-County-Data/Parcel_Analysis/KML-Output/Parcel_Analysis/Parcel_Analysis_1723.kml</href>
                <refreshMode>onChange</refreshMode>
            </Link>
        </NetworkLink>
        <NetworkLink id="1804">
            <name>Parcel_Analysis_1724</name>
            <Link id="1805">
                <href>https://raw.githubusercontent.com/robmohammedmahid-stack/Horry-County-Data/Parcel_Analysis/KML-Output/Parcel_Analysis/Parcel_Analysis_1724.kml</href>
                <refreshMode>onChange</refreshMode>
            </Link>
        </NetworkLink>
        <NetworkLink id="1806">
            <name>Parcel_Analysis_1725</name>
            <Link id="1807">
                <href>https://raw.githubusercontent.com/robmohammedmahid-stack/Horry-County-Data/Parcel_Analysis/KML-Output/Parcel_Analysis/Parcel_Analysis_1725.kml</href>
                <refreshMode>onChange</refreshMode>
            </Link>
        </NetworkLink>
        <NetworkLink id="1808">
            <name>Parcel_Analysis_1726</name>
            <Link id="1809">
                <href>https://raw.githubusercontent.com/robmohammedmahid-stack/Horry-County-Data/Parcel_Analysis/KML-Output/Parcel_Analysis/Parcel_Analysis_1726.kml</href>
                <refreshMode>onChange</refreshMode>
            </Link>
        </NetworkLink>
        <NetworkLink id="1810">
            <name>Parcel_Analysis_1727</name>
            <Link id="1811">
                <href>https://raw.githubusercontent.com/robmohammedmahid-stack/Horry-County-Data/Parcel_Analysis/KML-Output/Parcel_Analysis/Parcel_Analysis_1727.kml</href>
                <refreshMode>onChange</refreshMode>
            </Link>
        </NetworkLink>
    </Document>
</kml>
