<?xml version="1.0" encoding="UTF-8"?>
<kml xmlns="http://www.opengis.net/kml/2.2" xmlns:gx="http://www.google.com/kml/ext/2.2">
    <Document id="2719">
        <NetworkLink id="2720">
            <name>Parcel_Analysis_2137</name>
            <Link id="2721">
                <href>https://raw.githubusercontent.com/robmohammedmahid-stack/Horry-County-Data/Parcel_Analysis/KML-Output/Parcel_Analysis/Parcel_Analysis_2137.kml</href>
                <refreshMode>onChange</refreshMode>
            </Link>
        </NetworkLink>
        <NetworkLink id="2722">
            <name>Parcel_Analysis_2138</name>
            <Link id="2723">
                <href>https://raw.githubusercontent.com/robmohammedmahid-stack/Horry-County-Data/Parcel_Analysis/KML-Output/Parcel_Analysis/Parcel_Analysis_2138.kml</href>
                <refreshMode>onChange</refreshMode>
            </Link>
        </NetworkLink>
        <NetworkLink id="2724">
            <name>Parcel_Analysis_2139</name>
            <Link id="2725">
                <href>https://raw.githubusercontent.com/robmohammedmahid-stack/Horry-County-Data/Parcel_Analysis/KML-Output/Parcel_Analysis/Parcel_Analysis_2139.kml</href>
                <refreshMode>onChange</refreshMode>
            </Link>
        </NetworkLink>
        <NetworkLink id="2726">
            <name>Parcel_Analysis_214</name>
            <Link id="2727">
                <href>https://raw.githubusercontent.com/robmohammedmahid-stack/Horry-County-Data/Parcel_Analysis/KML-Output/Parcel_Analysis/Parcel_Analysis_214.kml</href>
                <refreshMode>onChange</refreshMode>
            </Link>
        </NetworkLink>
        <NetworkLink id="2728">
            <name>Parcel_Analysis_2140</name>
            <Link id="2729">
                <href>https://raw.githubusercontent.com/robmohammedmahid-stack/Horry-County-Data/Parcel_Analysis/KML-Output/Parcel_Analysis/Parcel_Analysis_2140.kml</href>
                <refreshMode>onChange</refreshMode>
            </Link>
        </NetworkLink>
        <NetworkLink id="2730">
            <name>Parcel_Analysis_2141</name>
            <Link id="2731">
                <href>https://raw.githubusercontent.com/robmohammedmahid-stack/Horry-County-Data/Parcel_Analysis/KML-Output/Parcel_Analysis/Parcel_Analysis_2141.kml</href>
                <refreshMode>onChange</refreshMode>
            </Link>
        </NetworkLink>
        <NetworkLink id="2732">
            <name>Parcel_Analysis_2142</name>
            <Link id="2733">
                <href>https://raw.githubusercontent.com/robmohammedmahid-stack/Horry-County-Data/Parcel_Analysis/KML-Output/Parcel_Analysis/Parcel_Analysis_2142.kml</href>
                <refreshMode>onChange</refreshMode>
            </Link>
        </NetworkLink>
        <NetworkLink id="2734">
            <name>Parcel_Analysis_2143</name>
            <Link id="2735">
                <href>https://raw.githubusercontent.com/robmohammedmahid-stack/Horry-County-Data/Parcel_Analysis/KML-Output/Parcel_Analysis/Parcel_Analysis_2143.kml</href>
                <refreshMode>onChange</refreshMode>
            </Link>
        </NetworkLink>
        <NetworkLink id="2736">
            <name>Parcel_Analysis_2144</name>
            <Link id="2737">
                <href>https://raw.githubusercontent.com/robmohammedmahid-stack/Horry-County-Data/Parcel_Analysis/KML-Output/Parcel_Analysis/Parcel_Analysis_2144.kml</href>
                <refreshMode>onChange</refreshMode>
            </Link>
        </NetworkLink>
        <NetworkLink id="2738">
            <name>Parcel_Analysis_2145</name>
            <Link id="2739">
                <href>https://raw.githubusercontent.com/robmohammedmahid-stack/Horry-County-Data/Parcel_Analysis/KML-Output/Parcel_Analysis/Parcel_Analysis_2145.kml</href>
                <refreshMode>onChange</refreshMode>
            </Link>
        </NetworkLink>
        <NetworkLink id="2740">
            <name>Parcel_Analysis_2146</name>
            <Link id="2741">
                <href>https://raw.githubusercontent.com/robmohammedmahid-stack/Horry-County-Data/Parcel_Analysis/KML-Output/Parcel_Analysis/Parcel_Analysis_2146.kml</href>
                <refreshMode>onChange</refreshMode>
            </Link>
        </NetworkLink>
        <NetworkLink id="2742">
            <name>Parcel_Analysis_2147</name>
            <Link id="2743">
                <href>https://raw.githubusercontent.com/robmohammedmahid-stack/Horry-County-Data/Parcel_Analysis/KML-Output/Parcel_Analysis/Parcel_Analysis_2147.kml</href>
                <refreshMode>onChange</refreshMode>
            </Link>
        </NetworkLink>
        <NetworkLink id="2744">
            <name>Parcel_Analysis_2148</name>
            <Link id="2745">
                <href>https://raw.githubusercontent.com/robmohammedmahid-stack/Horry-County-Data/Parcel_Analysis/KML-Output/Parcel_Analysis/Parcel_Analysis_2148.kml</href>
                <refreshMode>onChange</refreshMode>
            </Link>
        </NetworkLink>
        <NetworkLink id="2746">
            <name>Parcel_Analysis_2149</name>
            <Link id="2747">
                <href>https://raw.githubusercontent.com/robmohammedmahid-stack/Horry-County-Data/Parcel_Analysis/KML-Output/Parcel_Analysis/Parcel_Analysis_2149.kml</href>
                <refreshMode>onChange</refreshMode>
            </Link>
        </NetworkLink>
        <NetworkLink id="2748">
            <name>Parcel_Analysis_215</name>
            <Link id="2749">
                <href>https://raw.githubusercontent.com/robmohammedmahid-stack/Horry-County-Data/Parcel_Analysis/KML-Output/Parcel_Analysis/Parcel_Analysis_215.kml</href>
                <refreshMode>onChange</refreshMode>
            </Link>
        </NetworkLink>
        <NetworkLink id="2750">
            <name>Parcel_Analysis_2150</name>
            <Link id="2751">
                <href>https://raw.githubusercontent.com/robmohammedmahid-stack/Horry-County-Data/Parcel_Analysis/KML-Output/Parcel_Analysis/Parcel_Analysis_2150.kml</href>
                <refreshMode>onChange</refreshMode>
            </Link>
        </NetworkLink>
        <NetworkLink id="2752">
            <name>Parcel_Analysis_2151</name>
            <Link id="2753">
                <href>https://raw.githubusercontent.com/robmohammedmahid-stack/Horry-County-Data/Parcel_Analysis/KML-Output/Parcel_Analysis/Parcel_Analysis_2151.kml</href>
                <refreshMode>onChange</refreshMode>
            </Link>
        </NetworkLink>
        <NetworkLink id="2754">
            <name>Parcel_Analysis_2152</name>
            <Link id="2755">
                <href>https://raw.githubusercontent.com/robmohammedmahid-stack/Horry-County-Data/Parcel_Analysis/KML-Output/Parcel_Analysis/Parcel_Analysis_2152.kml</href>
                <refreshMode>onChange</refreshMode>
            </Link>
        </NetworkLink>
        <NetworkLink id="2756">
            <name>Parcel_Analysis_2153</name>
            <Link id="2757">
                <href>https://raw.githubusercontent.com/robmohammedmahid-stack/Horry-County-Data/Parcel_Analysis/KML-Output/Parcel_Analysis/Parcel_Analysis_2153.kml</href>
                <refreshMode>onChange</refreshMode>
            </Link>
        </NetworkLink>
        <NetworkLink id="2758">
            <name>Parcel_Analysis_2154</name>
            <Link id="2759">
                <href>https://raw.githubusercontent.com/robmohammedmahid-stack/Horry-County-Data/Parcel_Analysis/KML-Output/Parcel_Analysis/Parcel_Analysis_2154.kml</href>
                <refreshMode>onChange</refreshMode>
            </Link>
        </NetworkLink>
        <NetworkLink id="2760">
            <name>Parcel_Analysis_2155</name>
            <Link id="2761">
                <href>https://raw.githubusercontent.com/robmohammedmahid-stack/Horry-County-Data/Parcel_Analysis/KML-Output/Parcel_Analysis/Parcel_Analysis_2155.kml</href>
                <refreshMode>onChange</refreshMode>
            </Link>
        </NetworkLink>
        <NetworkLink id="2762">
            <name>Parcel_Analysis_2156</name>
            <Link id="2763">
                <href>https://raw.githubusercontent.com/robmohammedmahid-stack/Horry-County-Data/Parcel_Analysis/KML-Output/Parcel_Analysis/Parcel_Analysis_2156.kml</href>
                <refreshMode>onChange</refreshMode>
            </Link>
        </NetworkLink>
        <NetworkLink id="2764">
            <name>Parcel_Analysis_2157</name>
            <Link id="2765">
                <href>https://raw.githubusercontent.com/robmohammedmahid-stack/Horry-County-Data/Parcel_Analysis/KML-Output/Parcel_Analysis/Parcel_Analysis_2157.kml</href>
                <refreshMode>onChange</refreshMode>
            </Link>
        </NetworkLink>
        <NetworkLink id="2766">
            <name>Parcel_Analysis_2158</name>
            <Link id="2767">
                <href>https://raw.githubusercontent.com/robmohammedmahid-stack/Horry-County-Data/Parcel_Analysis/KML-Output/Parcel_Analysis/Parcel_Analysis_2158.kml</href>
                <refreshMode>onChange</refreshMode>
            </Link>
        </NetworkLink>
        <NetworkLink id="2768">
            <name>Parcel_Analysis_2159</name>
            <Link id="2769">
                <href>https://raw.githubusercontent.com/robmohammedmahid-stack/Horry-County-Data/Parcel_Analysis/KML-Output/Parcel_Analysis/Parcel_Analysis_2159.kml</href>
                <refreshMode>onChange</refreshMode>
            </Link>
        </NetworkLink>
        <NetworkLink id="2770">
            <name>Parcel_Analysis_216</name>
            <Link id="2771">
                <href>https://raw.githubusercontent.com/robmohammedmahid-stack/Horry-County-Data/Parcel_Analysis/KML-Output/Parcel_Analysis/Parcel_Analysis_216.kml</href>
                <refreshMode>onChange</refreshMode>
            </Link>
        </NetworkLink>
        <NetworkLink id="2772">
            <name>Parcel_Analysis_2160</name>
            <Link id="2773">
                <href>https://raw.githubusercontent.com/robmohammedmahid-stack/Horry-County-Data/Parcel_Analysis/KML-Output/Parcel_Analysis/Parcel_Analysis_2160.kml</href>
                <refreshMode>onChange</refreshMode>
            </Link>
        </NetworkLink>
        <NetworkLink id="2774">
            <name>Parcel_Analysis_2161</name>
            <Link id="2775">
                <href>https://raw.githubusercontent.com/robmohammedmahid-stack/Horry-County-Data/Parcel_Analysis/KML-Output/Parcel_Analysis/Parcel_Analysis_2161.kml</href>
                <refreshMode>onChange</refreshMode>
            </Link>
        </NetworkLink>
        <NetworkLink id="2776">
            <name>Parcel_Analysis_2162</name>
            <Link id="2777">
                <href>https://raw.githubusercontent.com/robmohammedmahid-stack/Horry-County-Data/Parcel_Analysis/KML-Output/Parcel_Analysis/Parcel_Analysis_2162.kml</href>
                <refreshMode>onChange</refreshMode>
            </Link>
        </NetworkLink>
        <NetworkLink id="2778">
            <name>Parcel_Analysis_2163</name>
            <Link id="2779">
                <href>https://raw.githubusercontent.com/robmohammedmahid-stack/Horry-County-Data/Parcel_Analysis/KML-Output/Parcel_Analysis/Parcel_Analysis_2163.kml</href>
                <refreshMode>onChange</refreshMode>
            </Link>
        </NetworkLink>
        <NetworkLink id="2780">
            <name>Parcel_Analysis_2164</name>
            <Link id="2781">
                <href>https://raw.githubusercontent.com/robmohammedmahid-stack/Horry-County-Data/Parcel_Analysis/KML-Output/Parcel_Analysis/Parcel_Analysis_2164.kml</href>
                <refreshMode>onChange</refreshMode>
            </Link>
        </NetworkLink>
        <NetworkLink id="2782">
            <name>Parcel_Analysis_2165</name>
            <Link id="2783">
                <href>https://raw.githubusercontent.com/robmohammedmahid-stack/Horry-County-Data/Parcel_Analysis/KML-Output/Parcel_Analysis/Parcel_Analysis_2165.kml</href>
                <refreshMode>onChange</refreshMode>
            </Link>
        </NetworkLink>
        <NetworkLink id="2784">
            <name>Parcel_Analysis_2166</name>
            <Link id="2785">
                <href>https://raw.githubusercontent.com/robmohammedmahid-stack/Horry-County-Data/Parcel_Analysis/KML-Output/Parcel_Analysis/Parcel_Analysis_2166.kml</href>
                <refreshMode>onChange</refreshMode>
            </Link>
        </NetworkLink>
        <NetworkLink id="2786">
            <name>Parcel_Analysis_2167</name>
            <Link id="2787">
                <href>https://raw.githubusercontent.com/robmohammedmahid-stack/Horry-County-Data/Parcel_Analysis/KML-Output/Parcel_Analysis/Parcel_Analysis_2167.kml</href>
                <refreshMode>onChange</refreshMode>
            </Link>
        </NetworkLink>
        <NetworkLink id="2788">
            <name>Parcel_Analysis_2168</name>
            <Link id="2789">
                <href>https://raw.githubusercontent.com/robmohammedmahid-stack/Horry-County-Data/Parcel_Analysis/KML-Output/Parcel_Analysis/Parcel_Analysis_2168.kml</href>
                <refreshMode>onChange</refreshMode>
            </Link>
        </NetworkLink>
        <NetworkLink id="2790">
            <name>Parcel_Analysis_2169</name>
            <Link id="2791">
                <href>https://raw.githubusercontent.com/robmohammedmahid-stack/Horry-County-Data/Parcel_Analysis/KML-Output/Parcel_Analysis/Parcel_Analysis_2169.kml</href>
                <refreshMode>onChange</refreshMode>
            </Link>
        </NetworkLink>
        <NetworkLink id="2792">
            <name>Parcel_Analysis_217</name>
            <Link id="2793">
                <href>https://raw.githubusercontent.com/robmohammedmahid-stack/Horry-County-Data/Parcel_Analysis/KML-Output/Parcel_Analysis/Parcel_Analysis_217.kml</href>
                <refreshMode>onChange</refreshMode>
            </Link>
        </NetworkLink>
        <NetworkLink id="2794">
            <name>Parcel_Analysis_2170</name>
            <Link id="2795">
                <href>https://raw.githubusercontent.com/robmohammedmahid-stack/Horry-County-Data/Parcel_Analysis/KML-Output/Parcel_Analysis/Parcel_Analysis_2170.kml</href>
                <refreshMode>onChange</refreshMode>
            </Link>
        </NetworkLink>
        <NetworkLink id="2796">
            <name>Parcel_Analysis_2171</name>
            <Link id="2797">
                <href>https://raw.githubusercontent.com/robmohammedmahid-stack/Horry-County-Data/Parcel_Analysis/KML-Output/Parcel_Analysis/Parcel_Analysis_2171.kml</href>
                <refreshMode>onChange</refreshMode>
            </Link>
        </NetworkLink>
        <NetworkLink id="2798">
            <name>Parcel_Analysis_2172</name>
            <Link id="2799">
                <href>https://raw.githubusercontent.com/robmohammedmahid-stack/Horry-County-Data/Parcel_Analysis/KML-Output/Parcel_Analysis/Parcel_Analysis_2172.kml</href>
                <refreshMode>onChange</refreshMode>
            </Link>
        </NetworkLink>
        <NetworkLink id="2800">
            <name>Parcel_Analysis_2173</name>
            <Link id="2801">
                <href>https://raw.githubusercontent.com/robmohammedmahid-stack/Horry-County-Data/Parcel_Analysis/KML-Output/Parcel_Analysis/Parcel_Analysis_2173.kml</href>
                <refreshMode>onChange</refreshMode>
            </Link>
        </NetworkLink>
        <NetworkLink id="2802">
            <name>Parcel_Analysis_2174</name>
            <Link id="2803">
                <href>https://raw.githubusercontent.com/robmohammedmahid-stack/Horry-County-Data/Parcel_Analysis/KML-Output/Parcel_Analysis/Parcel_Analysis_2174.kml</href>
                <refreshMode>onChange</refreshMode>
            </Link>
        </NetworkLink>
        <NetworkLink id="2804">
            <name>Parcel_Analysis_2175</name>
            <Link id="2805">
                <href>https://raw.githubusercontent.com/robmohammedmahid-stack/Horry-County-Data/Parcel_Analysis/KML-Output/Parcel_Analysis/Parcel_Analysis_2175.kml</href>
                <refreshMode>onChange</refreshMode>
            </Link>
        </NetworkLink>
        <NetworkLink id="2806">
            <name>Parcel_Analysis_2176</name>
            <Link id="2807">
                <href>https://raw.githubusercontent.com/robmohammedmahid-stack/Horry-County-Data/Parcel_Analysis/KML-Output/Parcel_Analysis/Parcel_Analysis_2176.kml</href>
                <refreshMode>onChange</refreshMode>
            </Link>
        </NetworkLink>
        <NetworkLink id="2808">
            <name>Parcel_Analysis_2177</name>
            <Link id="2809">
                <href>https://raw.githubusercontent.com/robmohammedmahid-stack/Horry-County-Data/Parcel_Analysis/KML-Output/Parcel_Analysis/Parcel_Analysis_2177.kml</href>
                <refreshMode>onChange</refreshMode>
            </Link>
        </NetworkLink>
        <NetworkLink id="2810">
            <name>Parcel_Analysis_2178</name>
            <Link id="2811">
                <href>https://raw.githubusercontent.com/robmohammedmahid-stack/Horry-County-Data/Parcel_Analysis/KML-Output/Parcel_Analysis/Parcel_Analysis_2178.kml</href>
                <refreshMode>onChange</refreshMode>
            </Link>
        </NetworkLink>
        <NetworkLink id="2812">
            <name>Parcel_Analysis_2179</name>
            <Link id="2813">
                <href>https://raw.githubusercontent.com/robmohammedmahid-stack/Horry-County-Data/Parcel_Analysis/KML-Output/Parcel_Analysis/Parcel_Analysis_2179.kml</href>
                <refreshMode>onChange</refreshMode>
            </Link>
        </NetworkLink>
        <NetworkLink id="2814">
            <name>Parcel_Analysis_218</name>
            <Link id="2815">
                <href>https://raw.githubusercontent.com/robmohammedmahid-stack/Horry-County-Data/Parcel_Analysis/KML-Output/Parcel_Analysis/Parcel_Analysis_218.kml</href>
                <refreshMode>onChange</refreshMode>
            </Link>
        </NetworkLink>
        <NetworkLink id="2816">
            <name>Parcel_Analysis_2180</name>
            <Link id="2817">
                <href>https://raw.githubusercontent.com/robmohammedmahid-stack/Horry-County-Data/Parcel_Analysis/KML-Output/Parcel_Analysis/Parcel_Analysis_2180.kml</href>
                <refreshMode>onChange</refreshMode>
            </Link>
        </NetworkLink>
        <NetworkLink id="2818">
            <name>Parcel_Analysis_2181</name>
            <Link id="2819">
                <href>https://raw.githubusercontent.com/robmohammedmahid-stack/Horry-County-Data/Parcel_Analysis/KML-Output/Parcel_Analysis/Parcel_Analysis_2181.kml</href>
                <refreshMode>onChange</refreshMode>
            </Link>
        </NetworkLink>
        <NetworkLink id="2820">
            <name>Parcel_Analysis_2182</name>
            <Link id="2821">
                <href>https://raw.githubusercontent.com/robmohammedmahid-stack/Horry-County-Data/Parcel_Analysis/KML-Output/Parcel_Analysis/Parcel_Analysis_2182.kml</href>
                <refreshMode>onChange</refreshMode>
            </Link>
        </NetworkLink>
        <NetworkLink id="2822">
            <name>Parcel_Analysis_2183</name>
            <Link id="2823">
                <href>https://raw.githubusercontent.com/robmohammedmahid-stack/Horry-County-Data/Parcel_Analysis/KML-Output/Parcel_Analysis/Parcel_Analysis_2183.kml</href>
                <refreshMode>onChange</refreshMode>
            </Link>
        </NetworkLink>
        <NetworkLink id="2824">
            <name>Parcel_Analysis_2184</name>
            <Link id="2825">
                <href>https://raw.githubusercontent.com/robmohammedmahid-stack/Horry-County-Data/Parcel_Analysis/KML-Output/Parcel_Analysis/Parcel_Analysis_2184.kml</href>
                <refreshMode>onChange</refreshMode>
            </Link>
        </NetworkLink>
        <NetworkLink id="2826">
            <name>Parcel_Analysis_2185</name>
            <Link id="2827">
                <href>https://raw.githubusercontent.com/robmohammedmahid-stack/Horry-County-Data/Parcel_Analysis/KML-Output/Parcel_Analysis/Parcel_Analysis_2185.kml</href>
                <refreshMode>onChange</refreshMode>
            </Link>
        </NetworkLink>
        <NetworkLink id="2828">
            <name>Parcel_Analysis_2186</name>
            <Link id="2829">
                <href>https://raw.githubusercontent.com/robmohammedmahid-stack/Horry-County-Data/Parcel_Analysis/KML-Output/Parcel_Analysis/Parcel_Analysis_2186.kml</href>
                <refreshMode>onChange</refreshMode>
            </Link>
        </NetworkLink>
        <NetworkLink id="2830">
            <name>Parcel_Analysis_2187</name>
            <Link id="2831">
                <href>https://raw.githubusercontent.com/robmohammedmahid-stack/Horry-County-Data/Parcel_Analysis/KML-Output/Parcel_Analysis/Parcel_Analysis_2187.kml</href>
                <refreshMode>onChange</refreshMode>
            </Link>
        </NetworkLink>
        <NetworkLink id="2832">
            <name>Parcel_Analysis_2188</name>
            <Link id="2833">
                <href>https://raw.githubusercontent.com/robmohammedmahid-stack/Horry-County-Data/Parcel_Analysis/KML-Output/Parcel_Analysis/Parcel_Analysis_2188.kml</href>
                <refreshMode>onChange</refreshMode>
            </Link>
        </NetworkLink>
        <NetworkLink id="2834">
            <name>Parcel_Analysis_2189</name>
            <Link id="2835">
                <href>https://raw.githubusercontent.com/robmohammedmahid-stack/Horry-County-Data/Parcel_Analysis/KML-Output/Parcel_Analysis/Parcel_Analysis_2189.kml</href>
                <refreshMode>onChange</refreshMode>
            </Link>
        </NetworkLink>
        <NetworkLink id="2836">
            <name>Parcel_Analysis_219</name>
            <Link id="2837">
                <href>https://raw.githubusercontent.com/robmohammedmahid-stack/Horry-County-Data/Parcel_Analysis/KML-Output/Parcel_Analysis/Parcel_Analysis_219.kml</href>
                <refreshMode>onChange</refreshMode>
            </Link>
        </NetworkLink>
        <NetworkLink id="2838">
            <name>Parcel_Analysis_2190</name>
            <Link id="2839">
                <href>https://raw.githubusercontent.com/robmohammedmahid-stack/Horry-County-Data/Parcel_Analysis/KML-Output/Parcel_Analysis/Parcel_Analysis_2190.kml</href>
                <refreshMode>onChange</refreshMode>
            </Link>
        </NetworkLink>
        <NetworkLink id="2840">
            <name>Parcel_Analysis_2191</name>
            <Link id="2841">
                <href>https://raw.githubusercontent.com/robmohammedmahid-stack/Horry-County-Data/Parcel_Analysis/KML-Output/Parcel_Analysis/Parcel_Analysis_2191.kml</href>
                <refreshMode>onChange</refreshMode>
            </Link>
        </NetworkLink>
        <NetworkLink id="2842">
            <name>Parcel_Analysis_2192</name>
            <Link id="2843">
                <href>https://raw.githubusercontent.com/robmohammedmahid-stack/Horry-County-Data/Parcel_Analysis/KML-Output/Parcel_Analysis/Parcel_Analysis_2192.kml</href>
                <refreshMode>onChange</refreshMode>
            </Link>
        </NetworkLink>
        <NetworkLink id="2844">
            <name>Parcel_Analysis_2193</name>
            <Link id="2845">
                <href>https://raw.githubusercontent.com/robmohammedmahid-stack/Horry-County-Data/Parcel_Analysis/KML-Output/Parcel_Analysis/Parcel_Analysis_2193.kml</href>
                <refreshMode>onChange</refreshMode>
            </Link>
        </NetworkLink>
        <NetworkLink id="2846">
            <name>Parcel_Analysis_2194</name>
            <Link id="2847">
                <href>https://raw.githubusercontent.com/robmohammedmahid-stack/Horry-County-Data/Parcel_Analysis/KML-Output/Parcel_Analysis/Parcel_Analysis_2194.kml</href>
                <refreshMode>onChange</refreshMode>
            </Link>
        </NetworkLink>
        <NetworkLink id="2848">
            <name>Parcel_Analysis_2195</name>
            <Link id="2849">
                <href>https://raw.githubusercontent.com/robmohammedmahid-stack/Horry-County-Data/Parcel_Analysis/KML-Output/Parcel_Analysis/Parcel_Analysis_2195.kml</href>
                <refreshMode>onChange</refreshMode>
            </Link>
        </NetworkLink>
        <NetworkLink id="2850">
            <name>Parcel_Analysis_2196</name>
            <Link id="2851">
                <href>https://raw.githubusercontent.com/robmohammedmahid-stack/Horry-County-Data/Parcel_Analysis/KML-Output/Parcel_Analysis/Parcel_Analysis_2196.kml</href>
                <refreshMode>onChange</refreshMode>
            </Link>
        </NetworkLink>
        <NetworkLink id="2852">
            <name>Parcel_Analysis_2197</name>
            <Link id="2853">
                <href>https://raw.githubusercontent.com/robmohammedmahid-stack/Horry-County-Data/Parcel_Analysis/KML-Output/Parcel_Analysis/Parcel_Analysis_2197.kml</href>
                <refreshMode>onChange</refreshMode>
            </Link>
        </NetworkLink>
        <NetworkLink id="2854">
            <name>Parcel_Analysis_2198</name>
            <Link id="2855">
                <href>https://raw.githubusercontent.com/robmohammedmahid-stack/Horry-County-Data/Parcel_Analysis/KML-Output/Parcel_Analysis/Parcel_Analysis_2198.kml</href>
                <refreshMode>onChange</refreshMode>
            </Link>
        </NetworkLink>
        <NetworkLink id="2856">
            <name>Parcel_Analysis_2199</name>
            <Link id="2857">
                <href>https://raw.githubusercontent.com/robmohammedmahid-stack/Horry-County-Data/Parcel_Analysis/KML-Output/Parcel_Analysis/Parcel_Analysis_2199.kml</href>
                <refreshMode>onChange</refreshMode>
            </Link>
        </NetworkLink>
        <NetworkLink id="2858">
            <name>Parcel_Analysis_220</name>
            <Link id="2859">
                <href>https://raw.githubusercontent.com/robmohammedmahid-stack/Horry-County-Data/Parcel_Analysis/KML-Output/Parcel_Analysis/Parcel_Analysis_220.kml</href>
                <refreshMode>onChange</refreshMode>
            </Link>
        </NetworkLink>
        <NetworkLink id="2860">
            <name>Parcel_Analysis_2200</name>
            <Link id="2861">
                <href>https://raw.githubusercontent.com/robmohammedmahid-stack/Horry-County-Data/Parcel_Analysis/KML-Output/Parcel_Analysis/Parcel_Analysis_2200.kml</href>
                <refreshMode>onChange</refreshMode>
            </Link>
        </NetworkLink>
        <NetworkLink id="2862">
            <name>Parcel_Analysis_2201</name>
            <Link id="2863">
                <href>https://raw.githubusercontent.com/robmohammedmahid-stack/Horry-County-Data/Parcel_Analysis/KML-Output/Parcel_Analysis/Parcel_Analysis_2201.kml</href>
                <refreshMode>onChange</refreshMode>
            </Link>
        </NetworkLink>
        <NetworkLink id="2864">
            <name>Parcel_Analysis_2202</name>
            <Link id="2865">
                <href>https://raw.githubusercontent.com/robmohammedmahid-stack/Horry-County-Data/Parcel_Analysis/KML-Output/Parcel_Analysis/Parcel_Analysis_2202.kml</href>
                <refreshMode>onChange</refreshMode>
            </Link>
        </NetworkLink>
        <NetworkLink id="2866">
            <name>Parcel_Analysis_2203</name>
            <Link id="2867">
                <href>https://raw.githubusercontent.com/robmohammedmahid-stack/Horry-County-Data/Parcel_Analysis/KML-Output/Parcel_Analysis/Parcel_Analysis_2203.kml</href>
                <refreshMode>onChange</refreshMode>
            </Link>
        </NetworkLink>
        <NetworkLink id="2868">
            <name>Parcel_Analysis_2204</name>
            <Link id="2869">
                <href>https://raw.githubusercontent.com/robmohammedmahid-stack/Horry-County-Data/Parcel_Analysis/KML-Output/Parcel_Analysis/Parcel_Analysis_2204.kml</href>
                <refreshMode>onChange</refreshMode>
            </Link>
        </NetworkLink>
        <NetworkLink id="2870">
            <name>Parcel_Analysis_2205</name>
            <Link id="2871">
                <href>https://raw.githubusercontent.com/robmohammedmahid-stack/Horry-County-Data/Parcel_Analysis/KML-Output/Parcel_Analysis/Parcel_Analysis_2205.kml</href>
                <refreshMode>onChange</refreshMode>
            </Link>
        </NetworkLink>
        <NetworkLink id="2872">
            <name>Parcel_Analysis_2206</name>
            <Link id="2873">
                <href>https://raw.githubusercontent.com/robmohammedmahid-stack/Horry-County-Data/Parcel_Analysis/KML-Output/Parcel_Analysis/Parcel_Analysis_2206.kml</href>
                <refreshMode>onChange</refreshMode>
            </Link>
        </NetworkLink>
        <NetworkLink id="2874">
            <name>Parcel_Analysis_2207</name>
            <Link id="2875">
                <href>https://raw.githubusercontent.com/robmohammedmahid-stack/Horry-County-Data/Parcel_Analysis/KML-Output/Parcel_Analysis/Parcel_Analysis_2207.kml</href>
                <refreshMode>onChange</refreshMode>
            </Link>
        </NetworkLink>
        <NetworkLink id="2876">
            <name>Parcel_Analysis_2208</name>
            <Link id="2877">
                <href>https://raw.githubusercontent.com/robmohammedmahid-stack/Horry-County-Data/Parcel_Analysis/KML-Output/Parcel_Analysis/Parcel_Analysis_2208.kml</href>
                <refreshMode>onChange</refreshMode>
            </Link>
        </NetworkLink>
        <NetworkLink id="2878">
            <name>Parcel_Analysis_2209</name>
            <Link id="2879">
                <href>https://raw.githubusercontent.com/robmohammedmahid-stack/Horry-County-Data/Parcel_Analysis/KML-Output/Parcel_Analysis/Parcel_Analysis_2209.kml</href>
                <refreshMode>onChange</refreshMode>
            </Link>
        </NetworkLink>
        <NetworkLink id="2880">
            <name>Parcel_Analysis_221</name>
            <Link id="2881">
                <href>https://raw.githubusercontent.com/robmohammedmahid-stack/Horry-County-Data/Parcel_Analysis/KML-Output/Parcel_Analysis/Parcel_Analysis_221.kml</href>
                <refreshMode>onChange</refreshMode>
            </Link>
        </NetworkLink>
        <NetworkLink id="2882">
            <name>Parcel_Analysis_2210</name>
            <Link id="2883">
                <href>https://raw.githubusercontent.com/robmohammedmahid-stack/Horry-County-Data/Parcel_Analysis/KML-Output/Parcel_Analysis/Parcel_Analysis_2210.kml</href>
                <refreshMode>onChange</refreshMode>
            </Link>
        </NetworkLink>
        <NetworkLink id="2884">
            <name>Parcel_Analysis_2211</name>
            <Link id="2885">
                <href>https://raw.githubusercontent.com/robmohammedmahid-stack/Horry-County-Data/Parcel_Analysis/KML-Output/Parcel_Analysis/Parcel_Analysis_2211.kml</href>
                <refreshMode>onChange</refreshMode>
            </Link>
        </NetworkLink>
        <NetworkLink id="2886">
            <name>Parcel_Analysis_2212</name>
            <Link id="2887">
                <href>https://raw.githubusercontent.com/robmohammedmahid-stack/Horry-County-Data/Parcel_Analysis/KML-Output/Parcel_Analysis/Parcel_Analysis_2212.kml</href>
                <refreshMode>onChange</refreshMode>
            </Link>
        </NetworkLink>
        <NetworkLink id="2888">
            <name>Parcel_Analysis_2213</name>
            <Link id="2889">
                <href>https://raw.githubusercontent.com/robmohammedmahid-stack/Horry-County-Data/Parcel_Analysis/KML-Output/Parcel_Analysis/Parcel_Analysis_2213.kml</href>
                <refreshMode>onChange</refreshMode>
            </Link>
        </NetworkLink>
        <NetworkLink id="2890">
            <name>Parcel_Analysis_2214</name>
            <Link id="2891">
                <href>https://raw.githubusercontent.com/robmohammedmahid-stack/Horry-County-Data/Parcel_Analysis/KML-Output/Parcel_Analysis/Parcel_Analysis_2214.kml</href>
                <refreshMode>onChange</refreshMode>
            </Link>
        </NetworkLink>
        <NetworkLink id="2892">
            <name>Parcel_Analysis_2215</name>
            <Link id="2893">
                <href>https://raw.githubusercontent.com/robmohammedmahid-stack/Horry-County-Data/Parcel_Analysis/KML-Output/Parcel_Analysis/Parcel_Analysis_2215.kml</href>
                <refreshMode>onChange</refreshMode>
            </Link>
        </NetworkLink>
        <NetworkLink id="2894">
            <name>Parcel_Analysis_2216</name>
            <Link id="2895">
                <href>https://raw.githubusercontent.com/robmohammedmahid-stack/Horry-County-Data/Parcel_Analysis/KML-Output/Parcel_Analysis/Parcel_Analysis_2216.kml</href>
                <refreshMode>onChange</refreshMode>
            </Link>
        </NetworkLink>
        <NetworkLink id="2896">
            <name>Parcel_Analysis_2217</name>
            <Link id="2897">
                <href>https://raw.githubusercontent.com/robmohammedmahid-stack/Horry-County-Data/Parcel_Analysis/KML-Output/Parcel_Analysis/Parcel_Analysis_2217.kml</href>
                <refreshMode>onChange</refreshMode>
            </Link>
        </NetworkLink>
        <NetworkLink id="2898">
            <name>Parcel_Analysis_2218</name>
            <Link id="2899">
                <href>https://raw.githubusercontent.com/robmohammedmahid-stack/Horry-County-Data/Parcel_Analysis/KML-Output/Parcel_Analysis/Parcel_Analysis_2218.kml</href>
                <refreshMode>onChange</refreshMode>
            </Link>
        </NetworkLink>
        <NetworkLink id="2900">
            <name>Parcel_Analysis_2219</name>
            <Link id="2901">
                <href>https://raw.githubusercontent.com/robmohammedmahid-stack/Horry-County-Data/Parcel_Analysis/KML-Output/Parcel_Analysis/Parcel_Analysis_2219.kml</href>
                <refreshMode>onChange</refreshMode>
            </Link>
        </NetworkLink>
        <NetworkLink id="2902">
            <name>Parcel_Analysis_222</name>
            <Link id="2903">
                <href>https://raw.githubusercontent.com/robmohammedmahid-stack/Horry-County-Data/Parcel_Analysis/KML-Output/Parcel_Analysis/Parcel_Analysis_222.kml</href>
                <refreshMode>onChange</refreshMode>
            </Link>
        </NetworkLink>
        <NetworkLink id="2904">
            <name>Parcel_Analysis_2220</name>
            <Link id="2905">
                <href>https://raw.githubusercontent.com/robmohammedmahid-stack/Horry-County-Data/Parcel_Analysis/KML-Output/Parcel_Analysis/Parcel_Analysis_2220.kml</href>
                <refreshMode>onChange</refreshMode>
            </Link>
        </NetworkLink>
        <NetworkLink id="2906">
            <name>Parcel_Analysis_2221</name>
            <Link id="2907">
                <href>https://raw.githubusercontent.com/robmohammedmahid-stack/Horry-County-Data/Parcel_Analysis/KML-Output/Parcel_Analysis/Parcel_Analysis_2221.kml</href>
                <refreshMode>onChange</refreshMode>
            </Link>
        </NetworkLink>
        <NetworkLink id="2908">
            <name>Parcel_Analysis_2222</name>
            <Link id="2909">
                <href>https://raw.githubusercontent.com/robmohammedmahid-stack/Horry-County-Data/Parcel_Analysis/KML-Output/Parcel_Analysis/Parcel_Analysis_2222.kml</href>
                <refreshMode>onChange</refreshMode>
            </Link>
        </NetworkLink>
        <NetworkLink id="2910">
            <name>Parcel_Analysis_2223</name>
            <Link id="2911">
                <href>https://raw.githubusercontent.com/robmohammedmahid-stack/Horry-County-Data/Parcel_Analysis/KML-Output/Parcel_Analysis/Parcel_Analysis_2223.kml</href>
                <refreshMode>onChange</refreshMode>
            </Link>
        </NetworkLink>
        <NetworkLink id="2912">
            <name>Parcel_Analysis_2224</name>
            <Link id="2913">
                <href>https://raw.githubusercontent.com/robmohammedmahid-stack/Horry-County-Data/Parcel_Analysis/KML-Output/Parcel_Analysis/Parcel_Analysis_2224.kml</href>
                <refreshMode>onChange</refreshMode>
            </Link>
        </NetworkLink>
        <NetworkLink id="2914">
            <name>Parcel_Analysis_2225</name>
            <Link id="2915">
                <href>https://raw.githubusercontent.com/robmohammedmahid-stack/Horry-County-Data/Parcel_Analysis/KML-Output/Parcel_Analysis/Parcel_Analysis_2225.kml</href>
                <refreshMode>onChange</refreshMode>
            </Link>
        </NetworkLink>
        <NetworkLink id="2916">
            <name>Parcel_Analysis_2226</name>
            <Link id="2917">
                <href>https://raw.githubusercontent.com/robmohammedmahid-stack/Horry-County-Data/Parcel_Analysis/KML-Output/Parcel_Analysis/Parcel_Analysis_2226.kml</href>
                <refreshMode>onChange</refreshMode>
            </Link>
        </NetworkLink>
        <NetworkLink id="2918">
            <name>Parcel_Analysis_2227</name>
            <Link id="2919">
                <href>https://raw.githubusercontent.com/robmohammedmahid-stack/Horry-County-Data/Parcel_Analysis/KML-Output/Parcel_Analysis/Parcel_Analysis_2227.kml</href>
                <refreshMode>onChange</refreshMode>
            </Link>
        </NetworkLink>
        <NetworkLink id="2920">
            <name>Parcel_Analysis_2228</name>
            <Link id="2921">
                <href>https://raw.githubusercontent.com/robmohammedmahid-stack/Horry-County-Data/Parcel_Analysis/KML-Output/Parcel_Analysis/Parcel_Analysis_2228.kml</href>
                <refreshMode>onChange</refreshMode>
            </Link>
        </NetworkLink>
        <NetworkLink id="2922">
            <name>Parcel_Analysis_2229</name>
            <Link id="2923">
                <href>https://raw.githubusercontent.com/robmohammedmahid-stack/Horry-County-Data/Parcel_Analysis/KML-Output/Parcel_Analysis/Parcel_Analysis_2229.kml</href>
                <refreshMode>onChange</refreshMode>
            </Link>
        </NetworkLink>
        <NetworkLink id="2924">
            <name>Parcel_Analysis_223</name>
            <Link id="2925">
                <href>https://raw.githubusercontent.com/robmohammedmahid-stack/Horry-County-Data/Parcel_Analysis/KML-Output/Parcel_Analysis/Parcel_Analysis_223.kml</href>
                <refreshMode>onChange</refreshMode>
            </Link>
        </NetworkLink>
        <NetworkLink id="2926">
            <name>Parcel_Analysis_2230</name>
            <Link id="2927">
                <href>https://raw.githubusercontent.com/robmohammedmahid-stack/Horry-County-Data/Parcel_Analysis/KML-Output/Parcel_Analysis/Parcel_Analysis_2230.kml</href>
                <refreshMode>onChange</refreshMode>
            </Link>
        </NetworkLink>
        <NetworkLink id="2928">
            <name>Parcel_Analysis_2231</name>
            <Link id="2929">
                <href>https://raw.githubusercontent.com/robmohammedmahid-stack/Horry-County-Data/Parcel_Analysis/KML-Output/Parcel_Analysis/Parcel_Analysis_2231.kml</href>
                <refreshMode>onChange</refreshMode>
            </Link>
        </NetworkLink>
        <NetworkLink id="2930">
            <name>Parcel_Analysis_2232</name>
            <Link id="2931">
                <href>https://raw.githubusercontent.com/robmohammedmahid-stack/Horry-County-Data/Parcel_Analysis/KML-Output/Parcel_Analysis/Parcel_Analysis_2232.kml</href>
                <refreshMode>onChange</refreshMode>
            </Link>
        </NetworkLink>
        <NetworkLink id="2932">
            <name>Parcel_Analysis_2233</name>
            <Link id="2933">
                <href>https://raw.githubusercontent.com/robmohammedmahid-stack/Horry-County-Data/Parcel_Analysis/KML-Output/Parcel_Analysis/Parcel_Analysis_2233.kml</href>
                <refreshMode>onChange</refreshMode>
            </Link>
        </NetworkLink>
        <NetworkLink id="2934">
            <name>Parcel_Analysis_2234</name>
            <Link id="2935">
                <href>https://raw.githubusercontent.com/robmohammedmahid-stack/Horry-County-Data/Parcel_Analysis/KML-Output/Parcel_Analysis/Parcel_Analysis_2234.kml</href>
                <refreshMode>onChange</refreshMode>
            </Link>
        </NetworkLink>
        <NetworkLink id="2936">
            <name>Parcel_Analysis_2235</name>
            <Link id="2937">
                <href>https://raw.githubusercontent.com/robmohammedmahid-stack/Horry-County-Data/Parcel_Analysis/KML-Output/Parcel_Analysis/Parcel_Analysis_2235.kml</href>
                <refreshMode>onChange</refreshMode>
            </Link>
        </NetworkLink>
        <NetworkLink id="2938">
            <name>Parcel_Analysis_2236</name>
            <Link id="2939">
                <href>https://raw.githubusercontent.com/robmohammedmahid-stack/Horry-County-Data/Parcel_Analysis/KML-Output/Parcel_Analysis/Parcel_Analysis_2236.kml</href>
                <refreshMode>onChange</refreshMode>
            </Link>
        </NetworkLink>
        <NetworkLink id="2940">
            <name>Parcel_Analysis_2237</name>
            <Link id="2941">
                <href>https://raw.githubusercontent.com/robmohammedmahid-stack/Horry-County-Data/Parcel_Analysis/KML-Output/Parcel_Analysis/Parcel_Analysis_2237.kml</href>
                <refreshMode>onChange</refreshMode>
            </Link>
        </NetworkLink>
        <NetworkLink id="2942">
            <name>Parcel_Analysis_2238</name>
            <Link id="2943">
                <href>https://raw.githubusercontent.com/robmohammedmahid-stack/Horry-County-Data/Parcel_Analysis/KML-Output/Parcel_Analysis/Parcel_Analysis_2238.kml</href>
                <refreshMode>onChange</refreshMode>
            </Link>
        </NetworkLink>
        <NetworkLink id="2944">
            <name>Parcel_Analysis_2239</name>
            <Link id="2945">
                <href>https://raw.githubusercontent.com/robmohammedmahid-stack/Horry-County-Data/Parcel_Analysis/KML-Output/Parcel_Analysis/Parcel_Analysis_2239.kml</href>
                <refreshMode>onChange</refreshMode>
            </Link>
        </NetworkLink>
        <NetworkLink id="2946">
            <name>Parcel_Analysis_224</name>
            <Link id="2947">
                <href>https://raw.githubusercontent.com/robmohammedmahid-stack/Horry-County-Data/Parcel_Analysis/KML-Output/Parcel_Analysis/Parcel_Analysis_224.kml</href>
                <refreshMode>onChange</refreshMode>
            </Link>
        </NetworkLink>
        <NetworkLink id="2948">
            <name>Parcel_Analysis_2240</name>
            <Link id="2949">
                <href>https://raw.githubusercontent.com/robmohammedmahid-stack/Horry-County-Data/Parcel_Analysis/KML-Output/Parcel_Analysis/Parcel_Analysis_2240.kml</href>
                <refreshMode>onChange</refreshMode>
            </Link>
        </NetworkLink>
        <NetworkLink id="2950">
            <name>Parcel_Analysis_2241</name>
            <Link id="2951">
                <href>https://raw.githubusercontent.com/robmohammedmahid-stack/Horry-County-Data/Parcel_Analysis/KML-Output/Parcel_Analysis/Parcel_Analysis_2241.kml</href>
                <refreshMode>onChange</refreshMode>
            </Link>
        </NetworkLink>
        <NetworkLink id="2952">
            <name>Parcel_Analysis_2242</name>
            <Link id="2953">
                <href>https://raw.githubusercontent.com/robmohammedmahid-stack/Horry-County-Data/Parcel_Analysis/KML-Output/Parcel_Analysis/Parcel_Analysis_2242.kml</href>
                <refreshMode>onChange</refreshMode>
            </Link>
        </NetworkLink>
        <NetworkLink id="2954">
            <name>Parcel_Analysis_2243</name>
            <Link id="2955">
                <href>https://raw.githubusercontent.com/robmohammedmahid-stack/Horry-County-Data/Parcel_Analysis/KML-Output/Parcel_Analysis/Parcel_Analysis_2243.kml</href>
                <refreshMode>onChange</refreshMode>
            </Link>
        </NetworkLink>
        <NetworkLink id="2956">
            <name>Parcel_Analysis_2244</name>
            <Link id="2957">
                <href>https://raw.githubusercontent.com/robmohammedmahid-stack/Horry-County-Data/Parcel_Analysis/KML-Output/Parcel_Analysis/Parcel_Analysis_2244.kml</href>
                <refreshMode>onChange</refreshMode>
            </Link>
        </NetworkLink>
        <NetworkLink id="2958">
            <name>Parcel_Analysis_2245</name>
            <Link id="2959">
                <href>https://raw.githubusercontent.com/robmohammedmahid-stack/Horry-County-Data/Parcel_Analysis/KML-Output/Parcel_Analysis/Parcel_Analysis_2245.kml</href>
                <refreshMode>onChange</refreshMode>
            </Link>
        </NetworkLink>
        <NetworkLink id="2960">
            <name>Parcel_Analysis_2246</name>
            <Link id="2961">
                <href>https://raw.githubusercontent.com/robmohammedmahid-stack/Horry-County-Data/Parcel_Analysis/KML-Output/Parcel_Analysis/Parcel_Analysis_2246.kml</href>
                <refreshMode>onChange</refreshMode>
            </Link>
        </NetworkLink>
        <NetworkLink id="2962">
            <name>Parcel_Analysis_2247</name>
            <Link id="2963">
                <href>https://raw.githubusercontent.com/robmohammedmahid-stack/Horry-County-Data/Parcel_Analysis/KML-Output/Parcel_Analysis/Parcel_Analysis_2247.kml</href>
                <refreshMode>onChange</refreshMode>
            </Link>
        </NetworkLink>
        <NetworkLink id="2964">
            <name>Parcel_Analysis_2248</name>
            <Link id="2965">
                <href>https://raw.githubusercontent.com/robmohammedmahid-stack/Horry-County-Data/Parcel_Analysis/KML-Output/Parcel_Analysis/Parcel_Analysis_2248.kml</href>
                <refreshMode>onChange</refreshMode>
            </Link>
        </NetworkLink>
        <NetworkLink id="2966">
            <name>Parcel_Analysis_2249</name>
            <Link id="2967">
                <href>https://raw.githubusercontent.com/robmohammedmahid-stack/Horry-County-Data/Parcel_Analysis/KML-Output/Parcel_Analysis/Parcel_Analysis_2249.kml</href>
                <refreshMode>onChange</refreshMode>
            </Link>
        </NetworkLink>
        <NetworkLink id="2968">
            <name>Parcel_Analysis_225</name>
            <Link id="2969">
                <href>https://raw.githubusercontent.com/robmohammedmahid-stack/Horry-County-Data/Parcel_Analysis/KML-Output/Parcel_Analysis/Parcel_Analysis_225.kml</href>
                <refreshMode>onChange</refreshMode>
            </Link>
        </NetworkLink>
        <NetworkLink id="2970">
            <name>Parcel_Analysis_2250</name>
            <Link id="2971">
                <href>https://raw.githubusercontent.com/robmohammedmahid-stack/Horry-County-Data/Parcel_Analysis/KML-Output/Parcel_Analysis/Parcel_Analysis_2250.kml</href>
                <refreshMode>onChange</refreshMode>
            </Link>
        </NetworkLink>
        <NetworkLink id="2972">
            <name>Parcel_Analysis_2251</name>
            <Link id="2973">
                <href>https://raw.githubusercontent.com/robmohammedmahid-stack/Horry-County-Data/Parcel_Analysis/KML-Output/Parcel_Analysis/Parcel_Analysis_2251.kml</href>
                <refreshMode>onChange</refreshMode>
            </Link>
        </NetworkLink>
        <NetworkLink id="2974">
            <name>Parcel_Analysis_2252</name>
            <Link id="2975">
                <href>https://raw.githubusercontent.com/robmohammedmahid-stack/Horry-County-Data/Parcel_Analysis/KML-Output/Parcel_Analysis/Parcel_Analysis_2252.kml</href>
                <refreshMode>onChange</refreshMode>
            </Link>
        </NetworkLink>
        <NetworkLink id="2976">
            <name>Parcel_Analysis_2253</name>
            <Link id="2977">
                <href>https://raw.githubusercontent.com/robmohammedmahid-stack/Horry-County-Data/Parcel_Analysis/KML-Output/Parcel_Analysis/Parcel_Analysis_2253.kml</href>
                <refreshMode>onChange</refreshMode>
            </Link>
        </NetworkLink>
        <NetworkLink id="2978">
            <name>Parcel_Analysis_2254</name>
            <Link id="2979">
                <href>https://raw.githubusercontent.com/robmohammedmahid-stack/Horry-County-Data/Parcel_Analysis/KML-Output/Parcel_Analysis/Parcel_Analysis_2254.kml</href>
                <refreshMode>onChange</refreshMode>
            </Link>
        </NetworkLink>
        <NetworkLink id="2980">
            <name>Parcel_Analysis_2255</name>
            <Link id="2981">
                <href>https://raw.githubusercontent.com/robmohammedmahid-stack/Horry-County-Data/Parcel_Analysis/KML-Output/Parcel_Analysis/Parcel_Analysis_2255.kml</href>
                <refreshMode>onChange</refreshMode>
            </Link>
        </NetworkLink>
        <NetworkLink id="2982">
            <name>Parcel_Analysis_2256</name>
            <Link id="2983">
                <href>https://raw.githubusercontent.com/robmohammedmahid-stack/Horry-County-Data/Parcel_Analysis/KML-Output/Parcel_Analysis/Parcel_Analysis_2256.kml</href>
                <refreshMode>onChange</refreshMode>
            </Link>
        </NetworkLink>
        <NetworkLink id="2984">
            <name>Parcel_Analysis_2257</name>
            <Link id="2985">
                <href>https://raw.githubusercontent.com/robmohammedmahid-stack/Horry-County-Data/Parcel_Analysis/KML-Output/Parcel_Analysis/Parcel_Analysis_2257.kml</href>
                <refreshMode>onChange</refreshMode>
            </Link>
        </NetworkLink>
        <NetworkLink id="2986">
            <name>Parcel_Analysis_2258</name>
            <Link id="2987">
                <href>https://raw.githubusercontent.com/robmohammedmahid-stack/Horry-County-Data/Parcel_Analysis/KML-Output/Parcel_Analysis/Parcel_Analysis_2258.kml</href>
                <refreshMode>onChange</refreshMode>
            </Link>
        </NetworkLink>
        <NetworkLink id="2988">
            <name>Parcel_Analysis_2259</name>
            <Link id="2989">
                <href>https://raw.githubusercontent.com/robmohammedmahid-stack/Horry-County-Data/Parcel_Analysis/KML-Output/Parcel_Analysis/Parcel_Analysis_2259.kml</href>
                <refreshMode>onChange</refreshMode>
            </Link>
        </NetworkLink>
        <NetworkLink id="2990">
            <name>Parcel_Analysis_226</name>
            <Link id="2991">
                <href>https://raw.githubusercontent.com/robmohammedmahid-stack/Horry-County-Data/Parcel_Analysis/KML-Output/Parcel_Analysis/Parcel_Analysis_226.kml</href>
                <refreshMode>onChange</refreshMode>
            </Link>
        </NetworkLink>
        <NetworkLink id="2992">
            <name>Parcel_Analysis_2260</name>
            <Link id="2993">
                <href>https://raw.githubusercontent.com/robmohammedmahid-stack/Horry-County-Data/Parcel_Analysis/KML-Output/Parcel_Analysis/Parcel_Analysis_2260.kml</href>
                <refreshMode>onChange</refreshMode>
            </Link>
        </NetworkLink>
        <NetworkLink id="2994">
            <name>Parcel_Analysis_2261</name>
            <Link id="2995">
                <href>https://raw.githubusercontent.com/robmohammedmahid-stack/Horry-County-Data/Parcel_Analysis/KML-Output/Parcel_Analysis/Parcel_Analysis_2261.kml</href>
                <refreshMode>onChange</refreshMode>
            </Link>
        </NetworkLink>
        <NetworkLink id="2996">
            <name>Parcel_Analysis_2262</name>
            <Link id="2997">
                <href>https://raw.githubusercontent.com/robmohammedmahid-stack/Horry-County-Data/Parcel_Analysis/KML-Output/Parcel_Analysis/Parcel_Analysis_2262.kml</href>
                <refreshMode>onChange</refreshMode>
            </Link>
        </NetworkLink>
        <NetworkLink id="2998">
            <name>Parcel_Analysis_2263</name>
            <Link id="2999">
                <href>https://raw.githubusercontent.com/robmohammedmahid-stack/Horry-County-Data/Parcel_Analysis/KML-Output/Parcel_Analysis/Parcel_Analysis_2263.kml</href>
                <refreshMode>onChange</refreshMode>
            </Link>
        </NetworkLink>
        <NetworkLink id="3000">
            <name>Parcel_Analysis_2264</name>
            <Link id="3001">
                <href>https://raw.githubusercontent.com/robmohammedmahid-stack/Horry-County-Data/Parcel_Analysis/KML-Output/Parcel_Analysis/Parcel_Analysis_2264.kml</href>
                <refreshMode>onChange</refreshMode>
            </Link>
        </NetworkLink>
        <NetworkLink id="3002">
            <name>Parcel_Analysis_2265</name>
            <Link id="3003">
                <href>https://raw.githubusercontent.com/robmohammedmahid-stack/Horry-County-Data/Parcel_Analysis/KML-Output/Parcel_Analysis/Parcel_Analysis_2265.kml</href>
                <refreshMode>onChange</refreshMode>
            </Link>
        </NetworkLink>
        <NetworkLink id="3004">
            <name>Parcel_Analysis_2266</name>
            <Link id="3005">
                <href>https://raw.githubusercontent.com/robmohammedmahid-stack/Horry-County-Data/Parcel_Analysis/KML-Output/Parcel_Analysis/Parcel_Analysis_2266.kml</href>
                <refreshMode>onChange</refreshMode>
            </Link>
        </NetworkLink>
        <NetworkLink id="3006">
            <name>Parcel_Analysis_2267</name>
            <Link id="3007">
                <href>https://raw.githubusercontent.com/robmohammedmahid-stack/Horry-County-Data/Parcel_Analysis/KML-Output/Parcel_Analysis/Parcel_Analysis_2267.kml</href>
                <refreshMode>onChange</refreshMode>
            </Link>
        </NetworkLink>
        <NetworkLink id="3008">
            <name>Parcel_Analysis_2268</name>
            <Link id="3009">
                <href>https://raw.githubusercontent.com/robmohammedmahid-stack/Horry-County-Data/Parcel_Analysis/KML-Output/Parcel_Analysis/Parcel_Analysis_2268.kml</href>
                <refreshMode>onChange</refreshMode>
            </Link>
        </NetworkLink>
        <NetworkLink id="3010">
            <name>Parcel_Analysis_2269</name>
            <Link id="3011">
                <href>https://raw.githubusercontent.com/robmohammedmahid-stack/Horry-County-Data/Parcel_Analysis/KML-Output/Parcel_Analysis/Parcel_Analysis_2269.kml</href>
                <refreshMode>onChange</refreshMode>
            </Link>
        </NetworkLink>
        <NetworkLink id="3012">
            <name>Parcel_Analysis_227</name>
            <Link id="3013">
                <href>https://raw.githubusercontent.com/robmohammedmahid-stack/Horry-County-Data/Parcel_Analysis/KML-Output/Parcel_Analysis/Parcel_Analysis_227.kml</href>
                <refreshMode>onChange</refreshMode>
            </Link>
        </NetworkLink>
        <NetworkLink id="3014">
            <name>Parcel_Analysis_2270</name>
            <Link id="3015">
                <href>https://raw.githubusercontent.com/robmohammedmahid-stack/Horry-County-Data/Parcel_Analysis/KML-Output/Parcel_Analysis/Parcel_Analysis_2270.kml</href>
                <refreshMode>onChange</refreshMode>
            </Link>
        </NetworkLink>
        <NetworkLink id="3016">
            <name>Parcel_Analysis_2271</name>
            <Link id="3017">
                <href>https://raw.githubusercontent.com/robmohammedmahid-stack/Horry-County-Data/Parcel_Analysis/KML-Output/Parcel_Analysis/Parcel_Analysis_2271.kml</href>
                <refreshMode>onChange</refreshMode>
            </Link>
        </NetworkLink>
        <NetworkLink id="3018">
            <name>Parcel_Analysis_2272</name>
            <Link id="3019">
                <href>https://raw.githubusercontent.com/robmohammedmahid-stack/Horry-County-Data/Parcel_Analysis/KML-Output/Parcel_Analysis/Parcel_Analysis_2272.kml</href>
                <refreshMode>onChange</refreshMode>
            </Link>
        </NetworkLink>
    </Document>
</kml>
